{
  "type": "FeatureCollection",
  "bbox": [
    -0.2128671,
    41.074312,
    -0.1939828,
    41.0843755
  ],
  "metadata": {
    "schemaVersion": 1,
    "trackId": "es-motorland-aragon-230256659",
    "layoutId": "motorland-aragongp",
    "license": "ODbL-1.0",
    "attribution": "© OpenStreetMap contributors",
    "closed": true,
    "geometryStatus": "draft",
    "timingStatus": "missing",
    "timingMode": "shared",
    "lengthM": 5112.7,
    "reviewedAt": null,
    "notes": [
      "Draft configuration: Western return chicane and rounded eastern closing corner; excludes the small extra kink on the long straight. Branch identity was checked against catalogue layout facts and circuit identification references. Independent source distance 5112.7 m; no coordinates are changed to match a diagram or distance. Travel direction and historical alignment remain provisional."
    ]
  },
  "features": [
    {
      "type": "Feature",
      "id": "trace",
      "properties": {
        "role": "trace",
        "sourceIds": [
          "osm-selection-230256659"
        ]
      },
      "geometry": {
        "type": "LineString",
        "coordinates": [
          [
            -0.2049958,
            41.0796736
          ],
          [
            -0.2053792,
            41.081524
          ],
          [
            -0.2054016,
            41.0815993
          ],
          [
            -0.2054247,
            41.0816636
          ],
          [
            -0.2054509,
            41.0817208
          ],
          [
            -0.2054859,
            41.0817862
          ],
          [
            -0.2055226,
            41.0818404
          ],
          [
            -0.2055623,
            41.0818847
          ],
          [
            -0.205599,
            41.081919
          ],
          [
            -0.2056525,
            41.0819638
          ],
          [
            -0.2057284,
            41.0820137
          ],
          [
            -0.2058161,
            41.0820632
          ],
          [
            -0.2065952,
            41.0824827
          ],
          [
            -0.2066398,
            41.0825036
          ],
          [
            -0.2066858,
            41.0825196
          ],
          [
            -0.2067267,
            41.0825284
          ],
          [
            -0.2067749,
            41.0825357
          ],
          [
            -0.2068203,
            41.0825387
          ],
          [
            -0.2068551,
            41.0825378
          ],
          [
            -0.2068834,
            41.0825357
          ],
          [
            -0.2069177,
            41.0825316
          ],
          [
            -0.2069489,
            41.0825269
          ],
          [
            -0.2069752,
            41.0825218
          ],
          [
            -0.2070003,
            41.0825153
          ],
          [
            -0.2070255,
            41.0825076
          ],
          [
            -0.207048,
            41.0824997
          ],
          [
            -0.2070711,
            41.0824905
          ],
          [
            -0.2070911,
            41.0824819
          ],
          [
            -0.207113,
            41.0824699
          ],
          [
            -0.2071312,
            41.0824576
          ],
          [
            -0.207152,
            41.0824408
          ],
          [
            -0.2071703,
            41.0824231
          ],
          [
            -0.2071884,
            41.082404
          ],
          [
            -0.2072053,
            41.0823815
          ],
          [
            -0.2072209,
            41.08236
          ],
          [
            -0.2072372,
            41.0823351
          ],
          [
            -0.2072521,
            41.0823091
          ],
          [
            -0.2072653,
            41.0822818
          ],
          [
            -0.2072782,
            41.0822449
          ],
          [
            -0.207542,
            41.0813526
          ],
          [
            -0.2075859,
            41.081236
          ],
          [
            -0.2076058,
            41.0811909
          ],
          [
            -0.2076259,
            41.0811561
          ],
          [
            -0.2076497,
            41.0811234
          ],
          [
            -0.2076909,
            41.0810764
          ],
          [
            -0.2077862,
            41.0809803
          ],
          [
            -0.2078916,
            41.0808833
          ],
          [
            -0.208,
            41.0807882
          ],
          [
            -0.2080884,
            41.0807147
          ],
          [
            -0.2081955,
            41.080634
          ],
          [
            -0.2082708,
            41.0805786
          ],
          [
            -0.2083623,
            41.0805206
          ],
          [
            -0.2084731,
            41.0804553
          ],
          [
            -0.2086304,
            41.0803668
          ],
          [
            -0.208782,
            41.0802957
          ],
          [
            -0.2089646,
            41.0802132
          ],
          [
            -0.2091238,
            41.0801497
          ],
          [
            -0.2093203,
            41.0800795
          ],
          [
            -0.2094828,
            41.0800272
          ],
          [
            -0.2096031,
            41.0799926
          ],
          [
            -0.2096376,
            41.079984
          ],
          [
            -0.2096686,
            41.0799789
          ],
          [
            -0.2096984,
            41.079976
          ],
          [
            -0.2097265,
            41.0799752
          ],
          [
            -0.2097533,
            41.0799756
          ],
          [
            -0.2097797,
            41.0799777
          ],
          [
            -0.2098022,
            41.07998
          ],
          [
            -0.2098296,
            41.0799844
          ],
          [
            -0.2098566,
            41.0799905
          ],
          [
            -0.2098819,
            41.0799975
          ],
          [
            -0.2099045,
            41.0800052
          ],
          [
            -0.2099274,
            41.0800153
          ],
          [
            -0.2099494,
            41.0800256
          ],
          [
            -0.2099692,
            41.0800357
          ],
          [
            -0.2099887,
            41.0800474
          ],
          [
            -0.2100088,
            41.0800612
          ],
          [
            -0.2100268,
            41.080077
          ],
          [
            -0.2100433,
            41.0800951
          ],
          [
            -0.2100602,
            41.0801155
          ],
          [
            -0.2100777,
            41.0801416
          ],
          [
            -0.2100926,
            41.0801693
          ],
          [
            -0.210111,
            41.0802093
          ],
          [
            -0.2101227,
            41.0802396
          ],
          [
            -0.2101334,
            41.0802726
          ],
          [
            -0.2101409,
            41.0803026
          ],
          [
            -0.2106869,
            41.0828674
          ],
          [
            -0.2106951,
            41.0829133
          ],
          [
            -0.2106978,
            41.0829426
          ],
          [
            -0.2106988,
            41.0829742
          ],
          [
            -0.2106971,
            41.0829937
          ],
          [
            -0.2106931,
            41.0830143
          ],
          [
            -0.2106877,
            41.0830367
          ],
          [
            -0.2106823,
            41.0830538
          ],
          [
            -0.2106756,
            41.0830715
          ],
          [
            -0.2106688,
            41.0830863
          ],
          [
            -0.2106581,
            41.0831039
          ],
          [
            -0.2106441,
            41.0831247
          ],
          [
            -0.2106299,
            41.0831428
          ],
          [
            -0.2106133,
            41.0831611
          ],
          [
            -0.2105932,
            41.0831812
          ],
          [
            -0.2105797,
            41.0831922
          ],
          [
            -0.2105611,
            41.0832053
          ],
          [
            -0.2105405,
            41.0832188
          ],
          [
            -0.2105131,
            41.0832339
          ],
          [
            -0.2104833,
            41.0832487
          ],
          [
            -0.2104434,
            41.0832653
          ],
          [
            -0.2104041,
            41.0832803
          ],
          [
            -0.210355,
            41.0832972
          ],
          [
            -0.2103012,
            41.0833132
          ],
          [
            -0.209995,
            41.0833915
          ],
          [
            -0.209971,
            41.0833998
          ],
          [
            -0.2099496,
            41.0834098
          ],
          [
            -0.209836,
            41.0834129
          ],
          [
            -0.2097646,
            41.0834289
          ],
          [
            -0.2096876,
            41.0834776
          ],
          [
            -0.2096441,
            41.0835222
          ],
          [
            -0.2096218,
            41.0836071
          ],
          [
            -0.209624,
            41.0836735
          ],
          [
            -0.2096408,
            41.0837332
          ],
          [
            -0.2096765,
            41.0837836
          ],
          [
            -0.2097356,
            41.0838383
          ],
          [
            -0.2099124,
            41.0839653
          ],
          [
            -0.2100369,
            41.0840429
          ],
          [
            -0.2101817,
            41.0841149
          ],
          [
            -0.2103613,
            41.0841897
          ],
          [
            -0.2105431,
            41.0842536
          ],
          [
            -0.210716,
            41.0843015
          ],
          [
            -0.2108732,
            41.0843292
          ],
          [
            -0.2110539,
            41.084357
          ],
          [
            -0.2112357,
            41.0843713
          ],
          [
            -0.2114231,
            41.0843755
          ],
          [
            -0.2115904,
            41.0843595
          ],
          [
            -0.211712,
            41.0843276
          ],
          [
            -0.211877,
            41.0842662
          ],
          [
            -0.2120371,
            41.0841657
          ],
          [
            -0.212123,
            41.0841393
          ],
          [
            -0.2122117,
            41.0841043
          ],
          [
            -0.2122994,
            41.0840618
          ],
          [
            -0.2123709,
            41.0840184
          ],
          [
            -0.2124484,
            41.0839674
          ],
          [
            -0.2125152,
            41.0839133
          ],
          [
            -0.2125749,
            41.0838598
          ],
          [
            -0.2126308,
            41.0838042
          ],
          [
            -0.2126821,
            41.0837458
          ],
          [
            -0.2127319,
            41.0836803
          ],
          [
            -0.2127633,
            41.0836303
          ],
          [
            -0.2128001,
            41.083565
          ],
          [
            -0.2128294,
            41.0834926
          ],
          [
            -0.2128504,
            41.0834207
          ],
          [
            -0.2128627,
            41.0833429
          ],
          [
            -0.2128671,
            41.0832643
          ],
          [
            -0.2128628,
            41.0831864
          ],
          [
            -0.2128451,
            41.0830163
          ],
          [
            -0.2127163,
            41.0821082
          ],
          [
            -0.2126937,
            41.0819833
          ],
          [
            -0.2126596,
            41.0818259
          ],
          [
            -0.2126176,
            41.0816552
          ],
          [
            -0.2125691,
            41.0814814
          ],
          [
            -0.2125023,
            41.081284
          ],
          [
            -0.212432,
            41.0811138
          ],
          [
            -0.2123621,
            41.0809563
          ],
          [
            -0.2122878,
            41.0808061
          ],
          [
            -0.2122134,
            41.0806618
          ],
          [
            -0.2121493,
            41.0805464
          ],
          [
            -0.2120798,
            41.0804401
          ],
          [
            -0.2119853,
            41.0802926
          ],
          [
            -0.2118683,
            41.0801281
          ],
          [
            -0.2117526,
            41.0799745
          ],
          [
            -0.2116275,
            41.0798168
          ],
          [
            -0.2114877,
            41.0796582
          ],
          [
            -0.2113485,
            41.0795149
          ],
          [
            -0.2111993,
            41.0793697
          ],
          [
            -0.2110234,
            41.079205
          ],
          [
            -0.2108738,
            41.0790757
          ],
          [
            -0.2107285,
            41.0789574
          ],
          [
            -0.2106792,
            41.0789224
          ],
          [
            -0.2106647,
            41.0789134
          ],
          [
            -0.2106489,
            41.078905
          ],
          [
            -0.210633,
            41.0788984
          ],
          [
            -0.2106175,
            41.0788931
          ],
          [
            -0.2106033,
            41.0788888
          ],
          [
            -0.210589,
            41.0788857
          ],
          [
            -0.2105727,
            41.0788831
          ],
          [
            -0.2105527,
            41.0788812
          ],
          [
            -0.2105362,
            41.0788809
          ],
          [
            -0.2105189,
            41.0788817
          ],
          [
            -0.2105021,
            41.0788828
          ],
          [
            -0.2104839,
            41.0788848
          ],
          [
            -0.2104668,
            41.0788871
          ],
          [
            -0.2104507,
            41.0788898
          ],
          [
            -0.2104298,
            41.078894
          ],
          [
            -0.2104077,
            41.0789001
          ],
          [
            -0.2103853,
            41.0789065
          ],
          [
            -0.2103573,
            41.078915
          ],
          [
            -0.21033,
            41.0789241
          ],
          [
            -0.2092556,
            41.0793389
          ],
          [
            -0.2091704,
            41.0793677
          ],
          [
            -0.209101,
            41.0793873
          ],
          [
            -0.2090115,
            41.079408
          ],
          [
            -0.2089455,
            41.0794199
          ],
          [
            -0.2088817,
            41.0794276
          ],
          [
            -0.2087956,
            41.0794328
          ],
          [
            -0.2087153,
            41.0794338
          ],
          [
            -0.2086209,
            41.07943
          ],
          [
            -0.2085419,
            41.079421
          ],
          [
            -0.2084711,
            41.0794088
          ],
          [
            -0.208404,
            41.0793929
          ],
          [
            -0.208345,
            41.0793733
          ],
          [
            -0.2082791,
            41.0793478
          ],
          [
            -0.2081961,
            41.0793107
          ],
          [
            -0.2081406,
            41.0792835
          ],
          [
            -0.2080714,
            41.0792454
          ],
          [
            -0.2071841,
            41.0787098
          ],
          [
            -0.2065939,
            41.0783651
          ],
          [
            -0.2065557,
            41.078338
          ],
          [
            -0.2065228,
            41.0783134
          ],
          [
            -0.2064963,
            41.0782892
          ],
          [
            -0.206479,
            41.0782659
          ],
          [
            -0.2064632,
            41.0782363
          ],
          [
            -0.2064554,
            41.078208
          ],
          [
            -0.2064541,
            41.0781793
          ],
          [
            -0.2064561,
            41.0781543
          ],
          [
            -0.2064605,
            41.0781295
          ],
          [
            -0.2064675,
            41.0781068
          ],
          [
            -0.2064782,
            41.0780832
          ],
          [
            -0.206489,
            41.0780623
          ],
          [
            -0.206713,
            41.077643
          ],
          [
            -0.2067767,
            41.0775238
          ],
          [
            -0.2067888,
            41.0774879
          ],
          [
            -0.2067954,
            41.0774599
          ],
          [
            -0.206798,
            41.0774398
          ],
          [
            -0.2067987,
            41.0774206
          ],
          [
            -0.206797,
            41.077402
          ],
          [
            -0.2067933,
            41.0773857
          ],
          [
            -0.2067843,
            41.0773633
          ],
          [
            -0.206773,
            41.0773443
          ],
          [
            -0.2067596,
            41.0773283
          ],
          [
            -0.2067502,
            41.0773198
          ],
          [
            -0.2067398,
            41.0773123
          ],
          [
            -0.2067189,
            41.0773008
          ],
          [
            -0.2066892,
            41.0772887
          ],
          [
            -0.2066516,
            41.0772776
          ],
          [
            -0.2066045,
            41.0772647
          ],
          [
            -0.2024663,
            41.0761518
          ],
          [
            -0.2007088,
            41.0756787
          ],
          [
            -0.1977727,
            41.0748896
          ],
          [
            -0.1958886,
            41.0743822
          ],
          [
            -0.1956706,
            41.0743236
          ],
          [
            -0.1953336,
            41.074312
          ],
          [
            -0.1951566,
            41.0743198
          ],
          [
            -0.1950364,
            41.0743352
          ],
          [
            -0.1949082,
            41.0743674
          ],
          [
            -0.1947778,
            41.0744055
          ],
          [
            -0.1946704,
            41.0744472
          ],
          [
            -0.1945719,
            41.0744952
          ],
          [
            -0.194483,
            41.0745469
          ],
          [
            -0.1943948,
            41.0746121
          ],
          [
            -0.1943152,
            41.0746771
          ],
          [
            -0.1942384,
            41.0747551
          ],
          [
            -0.1941758,
            41.0748282
          ],
          [
            -0.1941225,
            41.0749105
          ],
          [
            -0.1940755,
            41.0749969
          ],
          [
            -0.1940432,
            41.0750777
          ],
          [
            -0.1940168,
            41.0751756
          ],
          [
            -0.194,
            41.0752635
          ],
          [
            -0.1939828,
            41.0753361
          ],
          [
            -0.1939995,
            41.0754271
          ],
          [
            -0.1940649,
            41.0757702
          ],
          [
            -0.1940813,
            41.0758289
          ],
          [
            -0.1941007,
            41.0758812
          ],
          [
            -0.194119,
            41.0759173
          ],
          [
            -0.1941434,
            41.0759522
          ],
          [
            -0.1941666,
            41.0759815
          ],
          [
            -0.1942092,
            41.0760254
          ],
          [
            -0.1942717,
            41.0760811
          ],
          [
            -0.1943213,
            41.0761221
          ],
          [
            -0.1944482,
            41.0762057
          ],
          [
            -0.1953757,
            41.0767861
          ],
          [
            -0.1978147,
            41.0782894
          ],
          [
            -0.2000849,
            41.0796945
          ],
          [
            -0.2001386,
            41.0797212
          ],
          [
            -0.2001699,
            41.0797336
          ],
          [
            -0.2002108,
            41.0797417
          ],
          [
            -0.2002536,
            41.0797436
          ],
          [
            -0.2002992,
            41.0797404
          ],
          [
            -0.2003377,
            41.0797337
          ],
          [
            -0.2003717,
            41.0797246
          ],
          [
            -0.2004039,
            41.0797112
          ],
          [
            -0.2004366,
            41.0796923
          ],
          [
            -0.2004659,
            41.0796698
          ],
          [
            -0.2010345,
            41.0791571
          ],
          [
            -0.2011881,
            41.0790215
          ],
          [
            -0.2013054,
            41.0789208
          ],
          [
            -0.201397,
            41.0788522
          ],
          [
            -0.2014815,
            41.0787966
          ],
          [
            -0.2015809,
            41.0787461
          ],
          [
            -0.2017049,
            41.0787008
          ],
          [
            -0.2018404,
            41.0786676
          ],
          [
            -0.2019594,
            41.0786414
          ],
          [
            -0.2020847,
            41.0786225
          ],
          [
            -0.2022141,
            41.0786111
          ],
          [
            -0.2023723,
            41.0786113
          ],
          [
            -0.202496,
            41.0786233
          ],
          [
            -0.2025974,
            41.0786355
          ],
          [
            -0.2027202,
            41.0786546
          ],
          [
            -0.2028385,
            41.0786818
          ],
          [
            -0.203557,
            41.0788689
          ],
          [
            -0.2043168,
            41.0790713
          ],
          [
            -0.2044423,
            41.0791092
          ],
          [
            -0.204521,
            41.0791394
          ],
          [
            -0.2046039,
            41.0791806
          ],
          [
            -0.2046797,
            41.0792285
          ],
          [
            -0.2047513,
            41.0792878
          ],
          [
            -0.2048184,
            41.079355
          ],
          [
            -0.2048782,
            41.0794271
          ],
          [
            -0.2049213,
            41.0794914
          ],
          [
            -0.2049474,
            41.0795464
          ],
          [
            -0.2049958,
            41.0796736
          ]
        ]
      }
    }
  ]
}
