{
  "type": "FeatureCollection",
  "bbox": [
    118.3134223,
    24.6519154,
    118.3170223,
    24.65526
  ],
  "metadata": {
    "schemaVersion": 1,
    "trackId": "cn-xiamen-9d5cdb21",
    "layoutId": "xiamen-international-circuit",
    "license": "ODbL-1.0",
    "attribution": "Contains modified Copernicus Sentinel data (2026).",
    "closed": true,
    "geometryStatus": "draft",
    "timingStatus": "missing",
    "timingMode": "shared",
    "lengthM": 1723.3,
    "reviewedAt": null,
    "notes": [
      "The full underlying course retains the long northwest main straight, northeast return, complete southern notched branch and central hairpin, excluding the pit apron and parking maneuvering. Spatial inspection of 4,246 anonymous public GPS samples corroborates those course branches in the registered September 19, 2026 Copernicus raster; unordered points are not treated as a recorded trip or copied into the geometry. Every vertex is manually inspected on the licensed public raster pavement. The independently measured 1,723.3 m draft retains its 4.3 m difference from the supplied scalar and 96.7 m difference from the November 2022 organizer's published 1,820 m. The organizer describes 11 corners, while later circuit descriptions count 13; corner counting is not treated as route proof. Native 10 m imagery leaves fine S bends, corner radii, travel direction and historical-year correspondence provisional. No course position is taken from a supplied diagram, fitted to a distance or digitized from a GPS overlay. Independently digitized aerial centerline: 1723.3 m. Direction, historical configuration and fine corner alignment remain draft; no course coordinates come from the comparison catalogue."
    ]
  },
  "features": [
    {
      "type": "Feature",
      "id": "trace",
      "properties": {
        "role": "trace",
        "sourceIds": [
          "xiamen-sentinel-2026-course"
        ]
      },
      "geometry": {
        "type": "LineString",
        "coordinates": [
          [
            118.3150623,
            24.6543511
          ],
          [
            118.3156223,
            24.654751
          ],
          [
            118.3161023,
            24.6550418
          ],
          [
            118.3165823,
            24.6552236
          ],
          [
            118.3169023,
            24.65526
          ],
          [
            118.3170223,
            24.6551509
          ],
          [
            118.3169823,
            24.6548237
          ],
          [
            118.3168623,
            24.6544602
          ],
          [
            118.3168623,
            24.6540239
          ],
          [
            118.3167823,
            24.6535513
          ],
          [
            118.3166223,
            24.6532969
          ],
          [
            118.3162623,
            24.6531151
          ],
          [
            118.3158623,
            24.6529333
          ],
          [
            118.3157423,
            24.6527879
          ],
          [
            118.3157823,
            24.6525698
          ],
          [
            118.3156623,
            24.652388
          ],
          [
            118.3153423,
            24.6522426
          ],
          [
            118.3149023,
            24.6520972
          ],
          [
            118.3144623,
            24.6519518
          ],
          [
            118.3142623,
            24.6519154
          ],
          [
            118.3141823,
            24.6519881
          ],
          [
            118.3142223,
            24.6521335
          ],
          [
            118.3144623,
            24.652279
          ],
          [
            118.3147023,
            24.6524971
          ],
          [
            118.3149023,
            24.6527152
          ],
          [
            118.3150623,
            24.6529333
          ],
          [
            118.3153423,
            24.6531878
          ],
          [
            118.3156623,
            24.6532969
          ],
          [
            118.3159823,
            24.6534423
          ],
          [
            118.3161023,
            24.6535877
          ],
          [
            118.3161823,
            24.6537331
          ],
          [
            118.3161823,
            24.6539149
          ],
          [
            118.3161023,
            24.6540966
          ],
          [
            118.3159823,
            24.6542784
          ],
          [
            118.3157823,
            24.6544238
          ],
          [
            118.3157023,
            24.6543875
          ],
          [
            118.3154623,
            24.6541694
          ],
          [
            118.3152223,
            24.6539149
          ],
          [
            118.3149423,
            24.653624
          ],
          [
            118.3146223,
            24.6532969
          ],
          [
            118.3143423,
            24.6529697
          ],
          [
            118.3141423,
            24.6527516
          ],
          [
            118.3140223,
            24.6526061
          ],
          [
            118.3139023,
            24.6526425
          ],
          [
            118.3137023,
            24.6528243
          ],
          [
            118.3135423,
            24.6529697
          ],
          [
            118.3134223,
            24.6531514
          ],
          [
            118.3134223,
            24.6532969
          ],
          [
            118.3135023,
            24.6534059
          ],
          [
            118.3137823,
            24.6535513
          ],
          [
            118.3141023,
            24.6537331
          ],
          [
            118.3144223,
            24.6539512
          ],
          [
            118.3147423,
            24.654133
          ],
          [
            118.3150623,
            24.6543511
          ]
        ]
      }
    }
  ]
}
