{
  "type": "FeatureCollection",
  "bbox": [
    12.2379701,
    43.1268135,
    12.2414044,
    43.1341931
  ],
  "metadata": {
    "schemaVersion": 1,
    "trackId": "it-autodromo-dell-umbria-203e1bd3",
    "layoutId": "autodromo-dell-umbria",
    "license": "ODbL-1.0",
    "attribution": "© OpenStreetMap contributors",
    "closed": true,
    "geometryStatus": "draft",
    "timingStatus": "missing",
    "timingMode": "shared",
    "lengthM": 2475.2,
    "reviewedAt": null,
    "notes": [
      "Draft route hypothesis: the source cycle is the unique closest nominal-distance match within conservative timing and distance checks. Approximate OSM trace length 2475.2 m. Difference from the supplied layout distance 17.2 m. Course configuration still requires visual review."
    ]
  },
  "features": [
    {
      "type": "Feature",
      "id": "trace",
      "properties": {
        "role": "trace",
        "sourceIds": [
          "osm-network-77501826"
        ]
      },
      "geometry": {
        "type": "LineString",
        "coordinates": [
          [
            12.2392107,
            43.1341551
          ],
          [
            12.239238,
            43.1341679
          ],
          [
            12.2392672,
            43.1341782
          ],
          [
            12.2392979,
            43.1341859
          ],
          [
            12.2393297,
            43.1341909
          ],
          [
            12.239362,
            43.1341931
          ],
          [
            12.2393945,
            43.1341925
          ],
          [
            12.2394266,
            43.1341891
          ],
          [
            12.2394579,
            43.134183
          ],
          [
            12.2394881,
            43.1341742
          ],
          [
            12.2395166,
            43.1341628
          ],
          [
            12.239543,
            43.1341491
          ],
          [
            12.239567,
            43.1341331
          ],
          [
            12.2395883,
            43.1341152
          ],
          [
            12.2396065,
            43.1340956
          ],
          [
            12.2396214,
            43.1340746
          ],
          [
            12.2396328,
            43.1340524
          ],
          [
            12.2396405,
            43.1340294
          ],
          [
            12.2396486,
            43.134008
          ],
          [
            12.2396886,
            43.1338576
          ],
          [
            12.2398436,
            43.1332743
          ],
          [
            12.2403338,
            43.1314304
          ],
          [
            12.2406137,
            43.1303776
          ],
          [
            12.2413852,
            43.1274755
          ],
          [
            12.2414039,
            43.1273562
          ],
          [
            12.2414044,
            43.127316
          ],
          [
            12.2413989,
            43.127276
          ],
          [
            12.2413874,
            43.1272366
          ],
          [
            12.2413701,
            43.1271984
          ],
          [
            12.2413472,
            43.1271618
          ],
          [
            12.2413189,
            43.1271273
          ],
          [
            12.2412857,
            43.1270952
          ],
          [
            12.2412478,
            43.1270659
          ],
          [
            12.2412058,
            43.1270399
          ],
          [
            12.2411602,
            43.1270173
          ],
          [
            12.2411114,
            43.1269986
          ],
          [
            12.2410601,
            43.1269838
          ],
          [
            12.2404613,
            43.1268398
          ],
          [
            12.2404055,
            43.1268261
          ],
          [
            12.2403478,
            43.1268173
          ],
          [
            12.2402892,
            43.1268135
          ],
          [
            12.2402303,
            43.1268147
          ],
          [
            12.240172,
            43.126821
          ],
          [
            12.2401152,
            43.1268321
          ],
          [
            12.2400605,
            43.1268481
          ],
          [
            12.2400087,
            43.1268685
          ],
          [
            12.2399605,
            43.1268933
          ],
          [
            12.2399167,
            43.126922
          ],
          [
            12.2391745,
            43.1274707
          ],
          [
            12.2391267,
            43.127512
          ],
          [
            12.2391051,
            43.1275384
          ],
          [
            12.2390879,
            43.1275664
          ],
          [
            12.2390754,
            43.1275957
          ],
          [
            12.2390676,
            43.1276259
          ],
          [
            12.2390647,
            43.1276565
          ],
          [
            12.2390667,
            43.1276872
          ],
          [
            12.2390736,
            43.1277175
          ],
          [
            12.2390854,
            43.127747
          ],
          [
            12.2391017,
            43.1277752
          ],
          [
            12.2391225,
            43.1278019
          ],
          [
            12.2391475,
            43.1278267
          ],
          [
            12.2391762,
            43.1278491
          ],
          [
            12.2392083,
            43.1278689
          ],
          [
            12.2392434,
            43.1278859
          ],
          [
            12.2400211,
            43.1282575
          ],
          [
            12.2400484,
            43.1282777
          ],
          [
            12.2400716,
            43.1283003
          ],
          [
            12.2400903,
            43.1283251
          ],
          [
            12.2401042,
            43.1283516
          ],
          [
            12.240113,
            43.1283792
          ],
          [
            12.2401165,
            43.1284074
          ],
          [
            12.2401146,
            43.1284357
          ],
          [
            12.2401074,
            43.1284635
          ],
          [
            12.2400951,
            43.1284903
          ],
          [
            12.2400778,
            43.1285157
          ],
          [
            12.2398669,
            43.1288031
          ],
          [
            12.2398527,
            43.1288227
          ],
          [
            12.2398418,
            43.1288433
          ],
          [
            12.2398343,
            43.1288648
          ],
          [
            12.2398302,
            43.1288867
          ],
          [
            12.2398297,
            43.1289089
          ],
          [
            12.2398327,
            43.1289309
          ],
          [
            12.2398392,
            43.1289526
          ],
          [
            12.2398492,
            43.1289735
          ],
          [
            12.2398624,
            43.1289934
          ],
          [
            12.2398787,
            43.1290121
          ],
          [
            12.2398979,
            43.1290293
          ],
          [
            12.2399197,
            43.1290447
          ],
          [
            12.2399438,
            43.1290581
          ],
          [
            12.2403005,
            43.1292305
          ],
          [
            12.2403293,
            43.129251
          ],
          [
            12.2403551,
            43.1292736
          ],
          [
            12.2403777,
            43.1292979
          ],
          [
            12.2403968,
            43.1293238
          ],
          [
            12.2404122,
            43.129351
          ],
          [
            12.2404238,
            43.1293791
          ],
          [
            12.2404314,
            43.129408
          ],
          [
            12.2404351,
            43.1294372
          ],
          [
            12.2404346,
            43.1294666
          ],
          [
            12.2404301,
            43.1294958
          ],
          [
            12.2404216,
            43.1295246
          ],
          [
            12.2404092,
            43.1295525
          ],
          [
            12.240393,
            43.1295794
          ],
          [
            12.2403711,
            43.1296042
          ],
          [
            12.239947,
            43.1301832
          ],
          [
            12.2394609,
            43.1308468
          ],
          [
            12.2391338,
            43.1312954
          ],
          [
            12.2386186,
            43.1320061
          ],
          [
            12.2385177,
            43.1321454
          ],
          [
            12.2380534,
            43.132786
          ],
          [
            12.2380245,
            43.1328326
          ],
          [
            12.2380029,
            43.1328685
          ],
          [
            12.2379851,
            43.1329063
          ],
          [
            12.2379741,
            43.1329456
          ],
          [
            12.2379701,
            43.1329855
          ],
          [
            12.2379731,
            43.1330255
          ],
          [
            12.237983,
            43.1330648
          ],
          [
            12.2379998,
            43.1331029
          ],
          [
            12.2380231,
            43.1331392
          ],
          [
            12.2380526,
            43.1331729
          ],
          [
            12.2380877,
            43.1332037
          ],
          [
            12.238128,
            43.1332309
          ],
          [
            12.2381727,
            43.1332541
          ],
          [
            12.2382211,
            43.133273
          ],
          [
            12.2382724,
            43.1332872
          ],
          [
            12.2383257,
            43.1332964
          ],
          [
            12.2383803,
            43.1333007
          ],
          [
            12.2384351,
            43.1332998
          ],
          [
            12.2384893,
            43.1332938
          ],
          [
            12.2385421,
            43.1332828
          ],
          [
            12.2385925,
            43.1332669
          ],
          [
            12.2386396,
            43.1332465
          ],
          [
            12.2386829,
            43.1332218
          ],
          [
            12.2387214,
            43.1331933
          ],
          [
            12.2387546,
            43.1331615
          ],
          [
            12.238782,
            43.1331268
          ],
          [
            12.2388031,
            43.1330898
          ],
          [
            12.2388175,
            43.1330512
          ],
          [
            12.2391336,
            43.1322511
          ],
          [
            12.2393731,
            43.1316188
          ],
          [
            12.239381,
            43.1316009
          ],
          [
            12.2393909,
            43.1315836
          ],
          [
            12.2394029,
            43.131567
          ],
          [
            12.2394167,
            43.1315511
          ],
          [
            12.2394323,
            43.1315362
          ],
          [
            12.2394496,
            43.1315223
          ],
          [
            12.2394685,
            43.1315095
          ],
          [
            12.2394887,
            43.1314979
          ],
          [
            12.2395103,
            43.1314877
          ],
          [
            12.239533,
            43.1314788
          ],
          [
            12.2395566,
            43.1314713
          ],
          [
            12.239581,
            43.1314653
          ],
          [
            12.239606,
            43.1314609
          ],
          [
            12.2396314,
            43.131458
          ],
          [
            12.2396571,
            43.1314568
          ],
          [
            12.2396828,
            43.1314571
          ],
          [
            12.2397084,
            43.131459
          ],
          [
            12.2397337,
            43.1314625
          ],
          [
            12.2397585,
            43.1314675
          ],
          [
            12.2397826,
            43.1314741
          ],
          [
            12.2398059,
            43.1314822
          ],
          [
            12.2398281,
            43.1314916
          ],
          [
            12.2398492,
            43.1315024
          ],
          [
            12.2398689,
            43.1315145
          ],
          [
            12.2398871,
            43.1315277
          ],
          [
            12.2399038,
            43.1315421
          ],
          [
            12.2399187,
            43.1315574
          ],
          [
            12.2399318,
            43.1315735
          ],
          [
            12.2399429,
            43.1315905
          ],
          [
            12.239952,
            43.131608
          ],
          [
            12.2399591,
            43.1316261
          ],
          [
            12.239964,
            43.1316445
          ],
          [
            12.2399668,
            43.1316632
          ],
          [
            12.2399673,
            43.131682
          ],
          [
            12.2399657,
            43.1317007
          ],
          [
            12.2399619,
            43.1317193
          ],
          [
            12.239956,
            43.1317376
          ],
          [
            12.239948,
            43.1317554
          ],
          [
            12.2394594,
            43.1334091
          ],
          [
            12.2394422,
            43.1334464
          ],
          [
            12.2394169,
            43.1334812
          ],
          [
            12.2393843,
            43.1335125
          ],
          [
            12.2393452,
            43.1335396
          ],
          [
            12.2393007,
            43.1335618
          ],
          [
            12.2392518,
            43.1335784
          ],
          [
            12.2391999,
            43.1335891
          ],
          [
            12.2391463,
            43.1335935
          ],
          [
            12.2390924,
            43.1335915
          ],
          [
            12.2387972,
            43.1335726
          ],
          [
            12.2387606,
            43.133574
          ],
          [
            12.2387234,
            43.1335745
          ],
          [
            12.2386871,
            43.13358
          ],
          [
            12.2386527,
            43.1335903
          ],
          [
            12.2386216,
            43.133605
          ],
          [
            12.2385947,
            43.1336237
          ],
          [
            12.2385731,
            43.1336457
          ],
          [
            12.2385573,
            43.1336703
          ],
          [
            12.2385481,
            43.1336965
          ],
          [
            12.2385456,
            43.1337235
          ],
          [
            12.2385501,
            43.1337504
          ],
          [
            12.2385612,
            43.1337763
          ],
          [
            12.2385788,
            43.1338002
          ],
          [
            12.238602,
            43.1338213
          ],
          [
            12.2386302,
            43.1338389
          ],
          [
            12.2392107,
            43.1341551
          ]
        ]
      }
    }
  ]
}
