{
  "type": "FeatureCollection",
  "bbox": [
    -1.9016649,
    47.8613329,
    -1.8953692,
    47.866116
  ],
  "metadata": {
    "schemaVersion": 1,
    "trackId": "fr-circuit-du-manoir-de-l-automobile-203158898",
    "layoutId": "loheac",
    "license": "ODbL-1.0",
    "attribution": "© OpenStreetMap contributors",
    "closed": true,
    "geometryStatus": "draft",
    "timingStatus": "missing",
    "timingMode": "shared",
    "lengthM": 2014.1,
    "reviewedAt": null,
    "notes": [
      "Draft configuration: Full paved road circuit uses the northern triangle, internal hairpin and rounded southern outer curve; service and shortened branches excluded. Branch identity was checked against catalogue layout facts and circuit identification references. Independent source distance 2014.1 m; no coordinates are changed to match a diagram or distance. Travel direction and historical alignment remain provisional."
    ]
  },
  "features": [
    {
      "type": "Feature",
      "id": "trace",
      "properties": {
        "role": "trace",
        "sourceIds": [
          "osm-selection-203158898"
        ]
      },
      "geometry": {
        "type": "LineString",
        "coordinates": [
          [
            -1.900392,
            47.8614752
          ],
          [
            -1.90035,
            47.861451
          ],
          [
            -1.9003091,
            47.8614312
          ],
          [
            -1.9002532,
            47.8614108
          ],
          [
            -1.9001808,
            47.8613917
          ],
          [
            -1.9000775,
            47.8613697
          ],
          [
            -1.8999502,
            47.8613489
          ],
          [
            -1.8998473,
            47.8613377
          ],
          [
            -1.8997408,
            47.8613329
          ],
          [
            -1.8996207,
            47.8613374
          ],
          [
            -1.8995109,
            47.8613489
          ],
          [
            -1.8994016,
            47.8613713
          ],
          [
            -1.8992973,
            47.8614045
          ],
          [
            -1.8987603,
            47.8615996
          ],
          [
            -1.8986932,
            47.8616186
          ],
          [
            -1.8986214,
            47.861631
          ],
          [
            -1.8985317,
            47.8616414
          ],
          [
            -1.8983602,
            47.8616526
          ],
          [
            -1.8982797,
            47.8616626
          ],
          [
            -1.8982186,
            47.8616781
          ],
          [
            -1.8981643,
            47.8616958
          ],
          [
            -1.8981057,
            47.8617184
          ],
          [
            -1.8980586,
            47.8617434
          ],
          [
            -1.8980129,
            47.8617697
          ],
          [
            -1.8979751,
            47.8617974
          ],
          [
            -1.8979367,
            47.8618344
          ],
          [
            -1.8979091,
            47.8618713
          ],
          [
            -1.8978841,
            47.8619173
          ],
          [
            -1.89787,
            47.8619562
          ],
          [
            -1.8977414,
            47.8625967
          ],
          [
            -1.8977415,
            47.8626296
          ],
          [
            -1.8977502,
            47.8626594
          ],
          [
            -1.8977647,
            47.8626842
          ],
          [
            -1.8977853,
            47.8627052
          ],
          [
            -1.8978196,
            47.8627297
          ],
          [
            -1.8978528,
            47.8627444
          ],
          [
            -1.8978896,
            47.8627548
          ],
          [
            -1.8979292,
            47.8627612
          ],
          [
            -1.8979632,
            47.8627635
          ],
          [
            -1.8980012,
            47.862762
          ],
          [
            -1.8980451,
            47.8627554
          ],
          [
            -1.8993682,
            47.8623892
          ],
          [
            -1.8994832,
            47.8623727
          ],
          [
            -1.8995899,
            47.8623655
          ],
          [
            -1.8996961,
            47.8623684
          ],
          [
            -1.8998223,
            47.862379
          ],
          [
            -1.8999273,
            47.8623998
          ],
          [
            -1.9000476,
            47.862438
          ],
          [
            -1.900145,
            47.86248
          ],
          [
            -1.9002165,
            47.8625157
          ],
          [
            -1.9003062,
            47.8625719
          ],
          [
            -1.9003653,
            47.8626217
          ],
          [
            -1.9004155,
            47.8626753
          ],
          [
            -1.9004532,
            47.8627306
          ],
          [
            -1.9004804,
            47.8627864
          ],
          [
            -1.9005001,
            47.8628412
          ],
          [
            -1.9005119,
            47.8629049
          ],
          [
            -1.9005172,
            47.8629635
          ],
          [
            -1.9005149,
            47.86302
          ],
          [
            -1.9005018,
            47.8630801
          ],
          [
            -1.9004764,
            47.8631465
          ],
          [
            -1.9004431,
            47.8632061
          ],
          [
            -1.9003916,
            47.8632744
          ],
          [
            -1.9003214,
            47.8633419
          ],
          [
            -1.9002587,
            47.8633924
          ],
          [
            -1.9001813,
            47.863439
          ],
          [
            -1.9001073,
            47.8634729
          ],
          [
            -1.9000188,
            47.8635026
          ],
          [
            -1.8999306,
            47.8635268
          ],
          [
            -1.8998337,
            47.8635453
          ],
          [
            -1.8997157,
            47.8635579
          ],
          [
            -1.899619,
            47.8635612
          ],
          [
            -1.8995095,
            47.863554
          ],
          [
            -1.8994204,
            47.8635401
          ],
          [
            -1.8992914,
            47.8635118
          ],
          [
            -1.8991865,
            47.863484
          ],
          [
            -1.8991188,
            47.8634693
          ],
          [
            -1.8990552,
            47.863463
          ],
          [
            -1.8989908,
            47.863464
          ],
          [
            -1.8989226,
            47.8634724
          ],
          [
            -1.8988463,
            47.8634924
          ],
          [
            -1.8987907,
            47.8635186
          ],
          [
            -1.8987341,
            47.8635538
          ],
          [
            -1.8986937,
            47.8635944
          ],
          [
            -1.8986162,
            47.8636991
          ],
          [
            -1.8985761,
            47.8637404
          ],
          [
            -1.8985314,
            47.8637716
          ],
          [
            -1.8984685,
            47.8637976
          ],
          [
            -1.898383,
            47.8638203
          ],
          [
            -1.8977687,
            47.8639619
          ],
          [
            -1.8977062,
            47.8639819
          ],
          [
            -1.8976611,
            47.8640107
          ],
          [
            -1.8976277,
            47.8640426
          ],
          [
            -1.8976118,
            47.8640789
          ],
          [
            -1.897605,
            47.8641142
          ],
          [
            -1.8976072,
            47.8641512
          ],
          [
            -1.897619,
            47.8641818
          ],
          [
            -1.8976477,
            47.8642165
          ],
          [
            -1.8976798,
            47.8642429
          ],
          [
            -1.8977161,
            47.864264
          ],
          [
            -1.897759,
            47.8642793
          ],
          [
            -1.897808,
            47.8642885
          ],
          [
            -1.8978449,
            47.8642909
          ],
          [
            -1.8978879,
            47.8642896
          ],
          [
            -1.8979245,
            47.8642851
          ],
          [
            -1.897958,
            47.8642793
          ],
          [
            -1.8979861,
            47.8642777
          ],
          [
            -1.8980101,
            47.8642774
          ],
          [
            -1.8980351,
            47.8642804
          ],
          [
            -1.8980605,
            47.8642858
          ],
          [
            -1.8980867,
            47.8642949
          ],
          [
            -1.8981132,
            47.8643079
          ],
          [
            -1.898134,
            47.8643229
          ],
          [
            -1.89815,
            47.864342
          ],
          [
            -1.8981597,
            47.8643619
          ],
          [
            -1.8981643,
            47.8643844
          ],
          [
            -1.8981622,
            47.8644034
          ],
          [
            -1.8981541,
            47.8644237
          ],
          [
            -1.8981372,
            47.8644446
          ],
          [
            -1.8981141,
            47.8644623
          ],
          [
            -1.8980835,
            47.8644791
          ],
          [
            -1.898043,
            47.8644937
          ],
          [
            -1.8975168,
            47.8646123
          ],
          [
            -1.8956502,
            47.8650466
          ],
          [
            -1.895602,
            47.8650595
          ],
          [
            -1.8955623,
            47.8650737
          ],
          [
            -1.8955193,
            47.8650963
          ],
          [
            -1.8954836,
            47.8651178
          ],
          [
            -1.8954408,
            47.8651547
          ],
          [
            -1.8954093,
            47.8651927
          ],
          [
            -1.8953855,
            47.8652327
          ],
          [
            -1.8953738,
            47.865265
          ],
          [
            -1.8953692,
            47.8652948
          ],
          [
            -1.8953706,
            47.8653291
          ],
          [
            -1.8954333,
            47.8657831
          ],
          [
            -1.8954671,
            47.8659897
          ],
          [
            -1.8954738,
            47.866011
          ],
          [
            -1.8954826,
            47.8660296
          ],
          [
            -1.8954962,
            47.8660482
          ],
          [
            -1.8955137,
            47.8660655
          ],
          [
            -1.8955381,
            47.8660823
          ],
          [
            -1.8955726,
            47.8660973
          ],
          [
            -1.8956112,
            47.8661077
          ],
          [
            -1.8956511,
            47.8661141
          ],
          [
            -1.8956908,
            47.866116
          ],
          [
            -1.8957249,
            47.8661145
          ],
          [
            -1.895756,
            47.8661097
          ],
          [
            -1.8957866,
            47.8661011
          ],
          [
            -1.8958121,
            47.8660903
          ],
          [
            -1.8966248,
            47.8656953
          ],
          [
            -1.897901,
            47.8650745
          ],
          [
            -1.9009239,
            47.8636011
          ],
          [
            -1.9010766,
            47.8635302
          ],
          [
            -1.9011816,
            47.8634728
          ],
          [
            -1.9012922,
            47.8634002
          ],
          [
            -1.9013739,
            47.8633351
          ],
          [
            -1.9014562,
            47.8632594
          ],
          [
            -1.9015189,
            47.8631872
          ],
          [
            -1.9015676,
            47.8631191
          ],
          [
            -1.901598,
            47.8630612
          ],
          [
            -1.9016289,
            47.8629862
          ],
          [
            -1.9016469,
            47.8629205
          ],
          [
            -1.901658,
            47.8628574
          ],
          [
            -1.9016649,
            47.8627943
          ],
          [
            -1.9016622,
            47.862732
          ],
          [
            -1.9016488,
            47.8626563
          ],
          [
            -1.9016254,
            47.8625716
          ],
          [
            -1.9015898,
            47.8624899
          ],
          [
            -1.9015461,
            47.8624129
          ],
          [
            -1.9014906,
            47.8623383
          ],
          [
            -1.9014212,
            47.8622637
          ],
          [
            -1.901348,
            47.8622006
          ],
          [
            -1.900392,
            47.8614752
          ]
        ]
      }
    }
  ]
}
