{
  "type": "FeatureCollection",
  "bbox": [
    -80.3513058,
    40.8425329,
    -80.3436586,
    40.8476258
  ],
  "metadata": {
    "schemaVersion": 1,
    "trackId": "us-pittsburgh-international-race-complex-225264359",
    "layoutId": "pittsburgh-int-race-complex-south",
    "license": "ODbL-1.0",
    "attribution": "© OpenStreetMap contributors",
    "closed": true,
    "geometryStatus": "draft",
    "timingStatus": "missing",
    "timingMode": "shared",
    "lengthM": 1872.4,
    "reviewedAt": null,
    "notes": [
      "Draft route hypothesis: the source cycle is the unique closest nominal-distance match within conservative timing and distance checks. Approximate OSM trace length 1872.4 m. Difference from the supplied layout distance 12.6 m. Course configuration still requires visual review."
    ]
  },
  "features": [
    {
      "type": "Feature",
      "id": "trace",
      "properties": {
        "role": "trace",
        "sourceIds": [
          "osm-network-225264359"
        ]
      },
      "geometry": {
        "type": "LineString",
        "coordinates": [
          [
            -80.3469041,
            40.8447568
          ],
          [
            -80.3469953,
            40.8448258
          ],
          [
            -80.3499564,
            40.8472927
          ],
          [
            -80.3501812,
            40.8474351
          ],
          [
            -80.3502777,
            40.8474959
          ],
          [
            -80.3503743,
            40.8475487
          ],
          [
            -80.3504869,
            40.8475933
          ],
          [
            -80.3506103,
            40.8476177
          ],
          [
            -80.3507391,
            40.8476258
          ],
          [
            -80.3508464,
            40.8476136
          ],
          [
            -80.3509644,
            40.8475852
          ],
          [
            -80.3510717,
            40.8475284
          ],
          [
            -80.3511629,
            40.8474716
          ],
          [
            -80.3512433,
            40.8473701
          ],
          [
            -80.3512809,
            40.8473052
          ],
          [
            -80.3513058,
            40.8472073
          ],
          [
            -80.3511312,
            40.8465545
          ],
          [
            -80.3510776,
            40.846449
          ],
          [
            -80.3509596,
            40.8463354
          ],
          [
            -80.3508523,
            40.8462786
          ],
          [
            -80.350745,
            40.846238
          ],
          [
            -80.3497472,
            40.8460676
          ],
          [
            -80.3496077,
            40.8460351
          ],
          [
            -80.3495005,
            40.8460026
          ],
          [
            -80.3494039,
            40.8459539
          ],
          [
            -80.3493073,
            40.845889
          ],
          [
            -80.3492215,
            40.845816
          ],
          [
            -80.3491893,
            40.8457348
          ],
          [
            -80.3491679,
            40.8456455
          ],
          [
            -80.3491571,
            40.8455644
          ],
          [
            -80.3491786,
            40.8454832
          ],
          [
            -80.3492,
            40.845402
          ],
          [
            -80.3492644,
            40.8451504
          ],
          [
            -80.3493181,
            40.8450449
          ],
          [
            -80.3493181,
            40.8449435
          ],
          [
            -80.3493073,
            40.844838
          ],
          [
            -80.3492591,
            40.8447446
          ],
          [
            -80.3492108,
            40.8446675
          ],
          [
            -80.3491357,
            40.8445904
          ],
          [
            -80.3490337,
            40.8445296
          ],
          [
            -80.3453967,
            40.842744
          ],
          [
            -80.3452518,
            40.842675
          ],
          [
            -80.3451177,
            40.8426141
          ],
          [
            -80.344989,
            40.8425776
          ],
          [
            -80.3448388,
            40.8425532
          ],
          [
            -80.3446778,
            40.8425329
          ],
          [
            -80.3445384,
            40.8425329
          ],
          [
            -80.3443935,
            40.8425532
          ],
          [
            -80.3442648,
            40.8425857
          ],
          [
            -80.3441414,
            40.8426263
          ],
          [
            -80.3438839,
            40.8427196
          ],
          [
            -80.3437927,
            40.8427683
          ],
          [
            -80.343723,
            40.8428414
          ],
          [
            -80.3436747,
            40.8429306
          ],
          [
            -80.3436586,
            40.843028
          ],
          [
            -80.3436693,
            40.8431376
          ],
          [
            -80.3437552,
            40.843235
          ],
          [
            -80.3438624,
            40.8433121
          ],
          [
            -80.3439805,
            40.8433486
          ],
          [
            -80.3440985,
            40.8433973
          ],
          [
            -80.3442058,
            40.8434501
          ],
          [
            -80.3443238,
            40.8435069
          ],
          [
            -80.3444579,
            40.843584
          ],
          [
            -80.3446081,
            40.8436895
          ],
          [
            -80.3447476,
            40.8438032
          ],
          [
            -80.3448656,
            40.8439249
          ],
          [
            -80.3449836,
            40.8440548
          ],
          [
            -80.3450909,
            40.8441846
          ],
          [
            -80.3451982,
            40.8443267
          ],
          [
            -80.3453055,
            40.8444646
          ],
          [
            -80.345402,
            40.8446026
          ],
          [
            -80.3454771,
            40.8447162
          ],
          [
            -80.3455522,
            40.8447893
          ],
          [
            -80.3456488,
            40.8448339
          ],
          [
            -80.3457615,
            40.8448623
          ],
          [
            -80.3458795,
            40.8448704
          ],
          [
            -80.3459814,
            40.8448542
          ],
          [
            -80.3463408,
            40.8447325
          ],
          [
            -80.3464535,
            40.8446959
          ],
          [
            -80.3465715,
            40.8446756
          ],
          [
            -80.3466895,
            40.8446838
          ],
          [
            -80.3467968,
            40.8447081
          ],
          [
            -80.3469041,
            40.8447568
          ]
        ]
      }
    }
  ]
}
