{
  "type": "FeatureCollection",
  "bbox": [
    -34.9282167,
    -7.256339,
    -34.9256391,
    -7.2542291
  ],
  "metadata": {
    "schemaVersion": 1,
    "trackId": "br-circuito-paladino-555004344",
    "layoutId": "main",
    "license": "ODbL-1.0",
    "attribution": "© OpenStreetMap contributors",
    "closed": true,
    "geometryStatus": "draft",
    "timingStatus": "missing",
    "timingMode": "shared",
    "lengthM": 1237,
    "reviewedAt": null,
    "notes": [
      "Connected OSM course candidate. The selected loop is the longest simple source-node cycle after explicit exclusions; its association with a named circuit configuration requires review.",
      "Source way order and shared node IDs are retained. No nearby endpoints are joined and no Racelogic boundaries are read.",
      "Some source ways lack one-way direction tags. Travel direction is provisional."
    ]
  },
  "features": [
    {
      "type": "Feature",
      "id": "trace",
      "properties": {
        "role": "trace",
        "sourceIds": [
          "osm-snapshot"
        ]
      },
      "geometry": {
        "type": "LineString",
        "coordinates": [
          [
            -34.9275191,
            -7.2543836
          ],
          [
            -34.927935,
            -7.254237
          ],
          [
            -34.9280048,
            -7.2542291
          ],
          [
            -34.9280906,
            -7.2542477
          ],
          [
            -34.9281469,
            -7.2542876
          ],
          [
            -34.9282006,
            -7.2543515
          ],
          [
            -34.9282167,
            -7.254418
          ],
          [
            -34.9282033,
            -7.2546228
          ],
          [
            -34.928155,
            -7.2546894
          ],
          [
            -34.9280826,
            -7.2547107
          ],
          [
            -34.9279865,
            -7.2546997
          ],
          [
            -34.9278492,
            -7.254684
          ],
          [
            -34.9277848,
            -7.254692
          ],
          [
            -34.9277678,
            -7.2547071
          ],
          [
            -34.9277378,
            -7.2547338
          ],
          [
            -34.9277339,
            -7.2547373
          ],
          [
            -34.9277285,
            -7.2548144
          ],
          [
            -34.9277714,
            -7.2549714
          ],
          [
            -34.9277822,
            -7.2550379
          ],
          [
            -34.927758,
            -7.2550991
          ],
          [
            -34.9277017,
            -7.2551337
          ],
          [
            -34.9276266,
            -7.2551444
          ],
          [
            -34.9275961,
            -7.2551379
          ],
          [
            -34.9275381,
            -7.2551257
          ],
          [
            -34.9271974,
            -7.2550113
          ],
          [
            -34.9271062,
            -7.2550007
          ],
          [
            -34.9270097,
            -7.255014
          ],
          [
            -34.9269676,
            -7.255038
          ],
          [
            -34.9269212,
            -7.2550645
          ],
          [
            -34.9268782,
            -7.2551337
          ],
          [
            -34.9268702,
            -7.2551976
          ],
          [
            -34.92688,
            -7.2552235
          ],
          [
            -34.9268943,
            -7.2552614
          ],
          [
            -34.926948,
            -7.255304
          ],
          [
            -34.9270258,
            -7.2553253
          ],
          [
            -34.9272564,
            -7.2553705
          ],
          [
            -34.9273128,
            -7.2554051
          ],
          [
            -34.9273476,
            -7.2554583
          ],
          [
            -34.9273516,
            -7.2554788
          ],
          [
            -34.9273584,
            -7.2555142
          ],
          [
            -34.927353,
            -7.2555701
          ],
          [
            -34.9273074,
            -7.2556233
          ],
          [
            -34.9268911,
            -7.2559785
          ],
          [
            -34.9268114,
            -7.2560464
          ],
          [
            -34.9265027,
            -7.2563098
          ],
          [
            -34.9264464,
            -7.256339
          ],
          [
            -34.9263847,
            -7.256339
          ],
          [
            -34.9263203,
            -7.2563204
          ],
          [
            -34.9262667,
            -7.2562858
          ],
          [
            -34.9262318,
            -7.2562326
          ],
          [
            -34.9262131,
            -7.2561714
          ],
          [
            -34.926205,
            -7.2560942
          ],
          [
            -34.9261916,
            -7.2558973
          ],
          [
            -34.9261817,
            -7.2558582
          ],
          [
            -34.9261728,
            -7.2558228
          ],
          [
            -34.9261138,
            -7.2557457
          ],
          [
            -34.9260575,
            -7.2556871
          ],
          [
            -34.9258912,
            -7.2555381
          ],
          [
            -34.9258268,
            -7.2554424
          ],
          [
            -34.9257812,
            -7.2553519
          ],
          [
            -34.9256444,
            -7.2549687
          ],
          [
            -34.9256391,
            -7.254857
          ],
          [
            -34.9256629,
            -7.2547824
          ],
          [
            -34.9256739,
            -7.2547479
          ],
          [
            -34.9257249,
            -7.2546761
          ],
          [
            -34.9259395,
            -7.2545643
          ],
          [
            -34.9260307,
            -7.2545537
          ],
          [
            -34.9261111,
            -7.2545776
          ],
          [
            -34.9261567,
            -7.2546282
          ],
          [
            -34.9261809,
            -7.2546947
          ],
          [
            -34.9261943,
            -7.2547745
          ],
          [
            -34.9261809,
            -7.2548543
          ],
          [
            -34.9261594,
            -7.2549475
          ],
          [
            -34.9261487,
            -7.2550752
          ],
          [
            -34.9261567,
            -7.2551763
          ],
          [
            -34.9261829,
            -7.255274
          ],
          [
            -34.9262479,
            -7.2555169
          ],
          [
            -34.926315,
            -7.2556326
          ],
          [
            -34.9263465,
            -7.255666
          ],
          [
            -34.9263928,
            -7.2557151
          ],
          [
            -34.9264786,
            -7.2557577
          ],
          [
            -34.9265617,
            -7.2557736
          ],
          [
            -34.9266154,
            -7.2557683
          ],
          [
            -34.926661,
            -7.255755
          ],
          [
            -34.9266905,
            -7.255731
          ],
          [
            -34.9267227,
            -7.2556911
          ],
          [
            -34.9267522,
            -7.2556406
          ],
          [
            -34.9267629,
            -7.2555847
          ],
          [
            -34.9267549,
            -7.2555315
          ],
          [
            -34.9267361,
            -7.2554942
          ],
          [
            -34.9267093,
            -7.255465
          ],
          [
            -34.9266744,
            -7.255441
          ],
          [
            -34.9264223,
            -7.255284
          ],
          [
            -34.9263713,
            -7.2552255
          ],
          [
            -34.9263311,
            -7.255151
          ],
          [
            -34.926315,
            -7.2550792
          ],
          [
            -34.926315,
            -7.2550047
          ],
          [
            -34.9263338,
            -7.2549408
          ],
          [
            -34.9263659,
            -7.2548716
          ],
          [
            -34.926425,
            -7.2548131
          ],
          [
            -34.9265001,
            -7.2547625
          ],
          [
            -34.926602,
            -7.2547067
          ],
          [
            -34.9268048,
            -7.2546352
          ],
          [
            -34.9270833,
            -7.2545371
          ],
          [
            -34.9275191,
            -7.2543836
          ]
        ]
      }
    }
  ]
}
