{
  "type": "FeatureCollection",
  "bbox": [
    -67.5516775,
    -45.9088352,
    -67.5333888,
    -45.9023278
  ],
  "metadata": {
    "schemaVersion": 1,
    "trackId": "ar-autodromo-general-san-martin-218188079",
    "layoutId": "main",
    "license": "ODbL-1.0",
    "attribution": "© OpenStreetMap contributors",
    "closed": true,
    "geometryStatus": "draft",
    "timingStatus": "missing",
    "timingMode": "shared",
    "lengthM": 4092.2,
    "reviewedAt": null,
    "notes": [
      "Connected OSM course candidate. The selected loop is the longest simple source-node cycle after explicit exclusions; its association with a named circuit configuration requires review.",
      "Source way order and shared node IDs are retained. No nearby endpoints are joined and no Racelogic boundaries are read."
    ]
  },
  "features": [
    {
      "type": "Feature",
      "id": "trace",
      "properties": {
        "role": "trace",
        "sourceIds": [
          "osm-snapshot"
        ]
      },
      "geometry": {
        "type": "LineString",
        "coordinates": [
          [
            -67.5469895,
            -45.9069442
          ],
          [
            -67.5473823,
            -45.9070469
          ],
          [
            -67.5477957,
            -45.9071134
          ],
          [
            -67.5482375,
            -45.9071208
          ],
          [
            -67.5499684,
            -45.9069592
          ],
          [
            -67.5506859,
            -45.9068853
          ],
          [
            -67.5507783,
            -45.9068467
          ],
          [
            -67.5508584,
            -45.9067781
          ],
          [
            -67.5509624,
            -45.9062647
          ],
          [
            -67.5510671,
            -45.9058451
          ],
          [
            -67.5512036,
            -45.9056033
          ],
          [
            -67.5514246,
            -45.9053713
          ],
          [
            -67.5515905,
            -45.9051721
          ],
          [
            -67.5516564,
            -45.9050075
          ],
          [
            -67.5516775,
            -45.9048275
          ],
          [
            -67.5516314,
            -45.9046308
          ],
          [
            -67.5515025,
            -45.9044008
          ],
          [
            -67.5506392,
            -45.9032688
          ],
          [
            -67.55033,
            -45.9028633
          ],
          [
            -67.5501083,
            -45.9026217
          ],
          [
            -67.5499576,
            -45.9025073
          ],
          [
            -67.5497619,
            -45.9024078
          ],
          [
            -67.5495703,
            -45.902357
          ],
          [
            -67.5493319,
            -45.9023278
          ],
          [
            -67.5488813,
            -45.9023278
          ],
          [
            -67.5431257,
            -45.9028076
          ],
          [
            -67.5418056,
            -45.9029176
          ],
          [
            -67.5416363,
            -45.9029395
          ],
          [
            -67.5414402,
            -45.9029915
          ],
          [
            -67.5412906,
            -45.9030371
          ],
          [
            -67.541174,
            -45.9030955
          ],
          [
            -67.5410643,
            -45.9031573
          ],
          [
            -67.5409825,
            -45.9032174
          ],
          [
            -67.5409055,
            -45.9032775
          ],
          [
            -67.54077,
            -45.9034042
          ],
          [
            -67.5406953,
            -45.9035017
          ],
          [
            -67.5406469,
            -45.9035895
          ],
          [
            -67.5401345,
            -45.9046195
          ],
          [
            -67.5398525,
            -45.9051452
          ],
          [
            -67.5396305,
            -45.9053797
          ],
          [
            -67.5393636,
            -45.9055738
          ],
          [
            -67.5390289,
            -45.9057361
          ],
          [
            -67.5386942,
            -45.9058442
          ],
          [
            -67.5341452,
            -45.9069939
          ],
          [
            -67.5338229,
            -45.9071387
          ],
          [
            -67.5335735,
            -45.9073497
          ],
          [
            -67.5334161,
            -45.9076148
          ],
          [
            -67.5333888,
            -45.9078654
          ],
          [
            -67.5334696,
            -45.9081498
          ],
          [
            -67.5336207,
            -45.9083938
          ],
          [
            -67.5338531,
            -45.9086008
          ],
          [
            -67.534204,
            -45.9087609
          ],
          [
            -67.5345666,
            -45.908833
          ],
          [
            -67.5349862,
            -45.9088352
          ],
          [
            -67.5354059,
            -45.908793
          ],
          [
            -67.5358527,
            -45.9087077
          ],
          [
            -67.5363836,
            -45.9085735
          ],
          [
            -67.5368544,
            -45.9083851
          ],
          [
            -67.5372028,
            -45.9082058
          ],
          [
            -67.5375087,
            -45.9080018
          ],
          [
            -67.5390375,
            -45.9068828
          ],
          [
            -67.5393653,
            -45.9066801
          ],
          [
            -67.5397531,
            -45.906505
          ],
          [
            -67.5401126,
            -45.9063841
          ],
          [
            -67.5438501,
            -45.9052592
          ],
          [
            -67.5443479,
            -45.9051094
          ],
          [
            -67.545042,
            -45.9049004
          ],
          [
            -67.5452718,
            -45.9048476
          ],
          [
            -67.5454856,
            -45.9048195
          ],
          [
            -67.5457753,
            -45.9048213
          ],
          [
            -67.5479157,
            -45.9049558
          ],
          [
            -67.5481882,
            -45.9050209
          ],
          [
            -67.5483694,
            -45.9051451
          ],
          [
            -67.548455,
            -45.9053358
          ],
          [
            -67.5484297,
            -45.9055088
          ],
          [
            -67.5483147,
            -45.9057036
          ],
          [
            -67.5481785,
            -45.9058442
          ],
          [
            -67.5479416,
            -45.9059546
          ],
          [
            -67.5476834,
            -45.9060108
          ],
          [
            -67.5473684,
            -45.9060213
          ],
          [
            -67.5469398,
            -45.905934
          ],
          [
            -67.5467311,
            -45.9059252
          ],
          [
            -67.5465603,
            -45.9059984
          ],
          [
            -67.5464402,
            -45.9061359
          ],
          [
            -67.546452,
            -45.9063791
          ],
          [
            -67.5465345,
            -45.9065754
          ],
          [
            -67.5465845,
            -45.9066641
          ],
          [
            -67.5466813,
            -45.9067528
          ],
          [
            -67.5469895,
            -45.9069442
          ]
        ]
      }
    }
  ]
}
