{
  "type": "FeatureCollection",
  "bbox": [
    0.9387569,
    52.4637671,
    0.9467447,
    52.4659675
  ],
  "metadata": {
    "schemaVersion": 1,
    "trackId": "gb-snetterton-motor-racing-circuit-145755937",
    "layoutId": "snetterton100",
    "license": "ODbL-1.0",
    "attribution": "© OpenStreetMap contributors",
    "closed": true,
    "geometryStatus": "draft",
    "timingStatus": "missing",
    "timingMode": "shared",
    "lengthM": 1562,
    "reviewedAt": null,
    "notes": [
      "Draft configuration: Compact inner triangular 100 circuit uses the short northwestern hairpin. The closing connector runs opposite its source one-way tag in this configuration; source tags and coordinates remain unchanged, and race-day direction is provisional. Branch identity was checked against catalogue layout facts and circuit identification references. Independent source distance 1562.0 m; no coordinates are changed to match a diagram or distance. Travel direction and historical alignment remain provisional."
    ]
  },
  "features": [
    {
      "type": "Feature",
      "id": "trace",
      "properties": {
        "role": "trace",
        "sourceIds": [
          "osm-selection-145755937"
        ]
      },
      "geometry": {
        "type": "LineString",
        "coordinates": [
          [
            0.9464765,
            52.4657107
          ],
          [
            0.9466147,
            52.465664
          ],
          [
            0.9466851,
            52.4655948
          ],
          [
            0.9467395,
            52.4655043
          ],
          [
            0.9467447,
            52.46541
          ],
          [
            0.946704,
            52.4653338
          ],
          [
            0.9466329,
            52.4652634
          ],
          [
            0.9465439,
            52.4652214
          ],
          [
            0.946427,
            52.4651908
          ],
          [
            0.9452641,
            52.4649916
          ],
          [
            0.944315,
            52.4648073
          ],
          [
            0.9432674,
            52.4645742
          ],
          [
            0.9422618,
            52.4643212
          ],
          [
            0.9412193,
            52.4640438
          ],
          [
            0.9405929,
            52.4638478
          ],
          [
            0.9402538,
            52.4637771
          ],
          [
            0.9400827,
            52.4637671
          ],
          [
            0.9398684,
            52.463776
          ],
          [
            0.9396316,
            52.4638181
          ],
          [
            0.9394055,
            52.4639013
          ],
          [
            0.9392667,
            52.4639793
          ],
          [
            0.9390971,
            52.4641098
          ],
          [
            0.9389876,
            52.4642305
          ],
          [
            0.9389378,
            52.4643285
          ],
          [
            0.9389028,
            52.4644549
          ],
          [
            0.9388638,
            52.4648512
          ],
          [
            0.9387991,
            52.4655418
          ],
          [
            0.9387569,
            52.4658152
          ],
          [
            0.9388161,
            52.4658806
          ],
          [
            0.9388779,
            52.4659046
          ],
          [
            0.9389459,
            52.4659136
          ],
          [
            0.9390365,
            52.4658982
          ],
          [
            0.9391025,
            52.465879
          ],
          [
            0.9392105,
            52.465819
          ],
          [
            0.9392131,
            52.4657237
          ],
          [
            0.9394785,
            52.4647444
          ],
          [
            0.939527,
            52.4646472
          ],
          [
            0.9396047,
            52.4645691
          ],
          [
            0.9397564,
            52.4644684
          ],
          [
            0.9401044,
            52.4642971
          ],
          [
            0.9402591,
            52.4642756
          ],
          [
            0.9404536,
            52.4642976
          ],
          [
            0.940537,
            52.4643571
          ],
          [
            0.9406239,
            52.464439
          ],
          [
            0.9420806,
            52.4657312
          ],
          [
            0.9422506,
            52.4658507
          ],
          [
            0.9423894,
            52.4659141
          ],
          [
            0.942559,
            52.465954
          ],
          [
            0.9427393,
            52.4659664
          ],
          [
            0.9429011,
            52.4659675
          ],
          [
            0.9461128,
            52.4657593
          ],
          [
            0.9462774,
            52.4657546
          ],
          [
            0.9464765,
            52.4657107
          ]
        ]
      }
    }
  ]
}
