{
  "type": "FeatureCollection",
  "bbox": [
    -112.3919529,
    33.5123927,
    -112.3885821,
    33.5219149
  ],
  "metadata": {
    "schemaVersion": 1,
    "trackId": "us-arizona-motorsports-park-9f848c55",
    "layoutId": "arizona-motorsports-park",
    "license": "ODbL-1.0",
    "attribution": "© OpenStreetMap contributors",
    "closed": true,
    "geometryStatus": "draft",
    "timingStatus": "missing",
    "timingMode": "shared",
    "lengthM": 3595.4,
    "reviewedAt": null,
    "notes": [
      "Draft configuration: Full course with the parallel northern infield hairpin and southern outer loop. Branch identity was checked against catalogue layout facts and circuit identification references. Independent source distance 3595.4 m; no coordinates are changed to match a diagram or distance. Travel direction and historical alignment remain provisional."
    ]
  },
  "features": [
    {
      "type": "Feature",
      "id": "trace",
      "properties": {
        "role": "trace",
        "sourceIds": [
          "osm-selection-194544631"
        ]
      },
      "geometry": {
        "type": "LineString",
        "coordinates": [
          [
            -112.390468,
            33.5146161
          ],
          [
            -112.390468,
            33.5126777
          ],
          [
            -112.3905114,
            33.5125331
          ],
          [
            -112.390589,
            33.5124428
          ],
          [
            -112.3907065,
            33.5123931
          ],
          [
            -112.3908696,
            33.5123927
          ],
          [
            -112.391721,
            33.512742
          ],
          [
            -112.3918707,
            33.5128748
          ],
          [
            -112.3918933,
            33.5130573
          ],
          [
            -112.3918612,
            33.5132033
          ],
          [
            -112.3917504,
            33.5133214
          ],
          [
            -112.3915573,
            33.5134459
          ],
          [
            -112.3914164,
            33.513604
          ],
          [
            -112.3914001,
            33.5138209
          ],
          [
            -112.3915248,
            33.5140423
          ],
          [
            -112.3918665,
            33.5144854
          ],
          [
            -112.3919529,
            33.5147878
          ],
          [
            -112.3916169,
            33.5192292
          ],
          [
            -112.3914923,
            33.5193829
          ],
          [
            -112.3912213,
            33.5194823
          ],
          [
            -112.3908149,
            33.519532
          ],
          [
            -112.3905818,
            33.5194326
          ],
          [
            -112.390403,
            33.5192473
          ],
          [
            -112.3902675,
            33.5189943
          ],
          [
            -112.3902783,
            33.518791
          ],
          [
            -112.3913514,
            33.5155469
          ],
          [
            -112.3913622,
            33.5153436
          ],
          [
            -112.391205,
            33.5152306
          ],
          [
            -112.3910208,
            33.5151854
          ],
          [
            -112.390842,
            33.5152487
          ],
          [
            -112.3906577,
            33.5153797
          ],
          [
            -112.390468,
            33.5156056
          ],
          [
            -112.3903217,
            33.5159219
          ],
          [
            -112.3893625,
            33.5189988
          ],
          [
            -112.3893771,
            33.5191954
          ],
          [
            -112.3894279,
            33.5193925
          ],
          [
            -112.3895955,
            33.51955
          ],
          [
            -112.3903054,
            33.5201645
          ],
          [
            -112.3904084,
            33.5203949
          ],
          [
            -112.390403,
            33.5206705
          ],
          [
            -112.389731,
            33.5215741
          ],
          [
            -112.3895305,
            33.5217368
          ],
          [
            -112.3891349,
            33.5219039
          ],
          [
            -112.3890098,
            33.5219149
          ],
          [
            -112.3889127,
            33.5218678
          ],
          [
            -112.3888043,
            33.5217096
          ],
          [
            -112.3886851,
            33.5214973
          ],
          [
            -112.3886254,
            33.5171057
          ],
          [
            -112.3886688,
            33.5169295
          ],
          [
            -112.3890536,
            33.5164957
          ],
          [
            -112.3891132,
            33.5163286
          ],
          [
            -112.3890807,
            33.5160801
          ],
          [
            -112.3886363,
            33.5155559
          ],
          [
            -112.3885821,
            33.5153888
          ],
          [
            -112.3886851,
            33.5152216
          ],
          [
            -112.3888476,
            33.5151041
          ],
          [
            -112.3895955,
            33.5150024
          ],
          [
            -112.3898448,
            33.5149821
          ],
          [
            -112.3900638,
            33.5149628
          ],
          [
            -112.3902567,
            33.5148827
          ],
          [
            -112.390309,
            33.514843
          ],
          [
            -112.3903759,
            33.5147923
          ],
          [
            -112.390468,
            33.5146161
          ]
        ]
      }
    }
  ]
}
