{
  "type": "FeatureCollection",
  "bbox": [
    -88.1290405,
    41.4553873,
    -88.1204231,
    41.4611701
  ],
  "metadata": {
    "schemaVersion": 1,
    "trackId": "us-autobahn-country-club-42852101",
    "layoutId": "autobahn-country-club-north",
    "license": "ODbL-1.0",
    "attribution": "© OpenStreetMap contributors",
    "closed": true,
    "geometryStatus": "draft",
    "timingStatus": "missing",
    "timingMode": "shared",
    "lengthM": 2406.8,
    "reviewedAt": null,
    "notes": [
      "Draft route hypothesis: the source cycle is the unique closest nominal-distance match within conservative timing and distance checks. Approximate OSM trace length 2406.8 m. Difference from the supplied layout distance 10.2 m. Course configuration still requires visual review."
    ]
  },
  "features": [
    {
      "type": "Feature",
      "id": "trace",
      "properties": {
        "role": "trace",
        "sourceIds": [
          "osm-network-42852101"
        ]
      },
      "geometry": {
        "type": "LineString",
        "coordinates": [
          [
            -88.1276587,
            41.4571369
          ],
          [
            -88.1287315,
            41.4570212
          ],
          [
            -88.1288431,
            41.4570469
          ],
          [
            -88.1289719,
            41.4571241
          ],
          [
            -88.1290405,
            41.457227
          ],
          [
            -88.1290234,
            41.4573042
          ],
          [
            -88.1289633,
            41.45742
          ],
          [
            -88.1276329,
            41.4587322
          ],
          [
            -88.1274956,
            41.4588287
          ],
          [
            -88.1273325,
            41.458893
          ],
          [
            -88.1271265,
            41.4589187
          ],
          [
            -88.1268948,
            41.4588995
          ],
          [
            -88.1259506,
            41.4587708
          ],
          [
            -88.1257275,
            41.4587708
          ],
          [
            -88.1255301,
            41.4588094
          ],
          [
            -88.1253498,
            41.458893
          ],
          [
            -88.1251867,
            41.4590152
          ],
          [
            -88.1250837,
            41.4591503
          ],
          [
            -88.1250151,
            41.4593111
          ],
          [
            -88.1249292,
            41.4599801
          ],
          [
            -88.1248778,
            41.460321
          ],
          [
            -88.1248091,
            41.4604689
          ],
          [
            -88.1246889,
            41.460604
          ],
          [
            -88.1245173,
            41.4607455
          ],
          [
            -88.1243113,
            41.4608356
          ],
          [
            -88.1240366,
            41.4608999
          ],
          [
            -88.1210154,
            41.4611701
          ],
          [
            -88.1208437,
            41.4611572
          ],
          [
            -88.1206635,
            41.4610864
          ],
          [
            -88.1205004,
            41.4609964
          ],
          [
            -88.1204403,
            41.4609128
          ],
          [
            -88.1204231,
            41.4607906
          ],
          [
            -88.1206806,
            41.4601023
          ],
          [
            -88.1208866,
            41.4597421
          ],
          [
            -88.1225002,
            41.457227
          ],
          [
            -88.1225346,
            41.4571176
          ],
          [
            -88.1225346,
            41.4570147
          ],
          [
            -88.1224917,
            41.4568925
          ],
          [
            -88.1224144,
            41.4567703
          ],
          [
            -88.1222942,
            41.4566931
          ],
          [
            -88.1221226,
            41.4566223
          ],
          [
            -88.1212729,
            41.4563457
          ],
          [
            -88.121084,
            41.4562557
          ],
          [
            -88.1209982,
            41.456172
          ],
          [
            -88.1209639,
            41.4560498
          ],
          [
            -88.1210154,
            41.4559212
          ],
          [
            -88.1213329,
            41.4555288
          ],
          [
            -88.1214617,
            41.455458
          ],
          [
            -88.1216419,
            41.4554001
          ],
          [
            -88.1219767,
            41.4553873
          ],
          [
            -88.1223286,
            41.4553937
          ],
          [
            -88.1226977,
            41.4554259
          ],
          [
            -88.1230839,
            41.4555223
          ],
          [
            -88.1270493,
            41.4569954
          ],
          [
            -88.127281,
            41.4570919
          ],
          [
            -88.1274698,
            41.4571434
          ],
          [
            -88.1276587,
            41.4571369
          ]
        ]
      }
    }
  ]
}
