{
  "type": "FeatureCollection",
  "bbox": [
    -88.1335466,
    41.4479377,
    -88.1248606,
    41.4565258
  ],
  "metadata": {
    "schemaVersion": 1,
    "trackId": "us-autobahn-country-club-42852101",
    "layoutId": "autobahn-country-club-south",
    "license": "ODbL-1.0",
    "attribution": "© OpenStreetMap contributors",
    "closed": true,
    "geometryStatus": "draft",
    "timingStatus": "missing",
    "timingMode": "shared",
    "lengthM": 3312.8,
    "reviewedAt": null,
    "notes": [
      "Draft configuration: South course with its short northern connector, eastern turnaround and long western straight. Branch identity was checked against catalogue layout facts and circuit identification references. Independent source distance 3312.8 m; no coordinates are changed to match a diagram or distance. Travel direction and historical alignment remain provisional."
    ]
  },
  "features": [
    {
      "type": "Feature",
      "id": "trace",
      "properties": {
        "role": "trace",
        "sourceIds": [
          "osm-selection-42852101"
        ]
      },
      "geometry": {
        "type": "LineString",
        "coordinates": [
          [
            -88.1295984,
            41.4565258
          ],
          [
            -88.1297701,
            41.4565001
          ],
          [
            -88.129916,
            41.4564615
          ],
          [
            -88.1313494,
            41.4550335
          ],
          [
            -88.131461,
            41.4549434
          ],
          [
            -88.1315811,
            41.4549112
          ],
          [
            -88.1321734,
            41.4549112
          ],
          [
            -88.1322935,
            41.4548855
          ],
          [
            -88.132345,
            41.4548276
          ],
          [
            -88.1323536,
            41.4547568
          ],
          [
            -88.1320017,
            41.449694
          ],
          [
            -88.1320189,
            41.4495525
          ],
          [
            -88.132139,
            41.4494495
          ],
          [
            -88.1323021,
            41.4493788
          ],
          [
            -88.1324823,
            41.449353
          ],
          [
            -88.1328772,
            41.4493723
          ],
          [
            -88.133169,
            41.4494045
          ],
          [
            -88.1333407,
            41.4493852
          ],
          [
            -88.1334866,
            41.4493144
          ],
          [
            -88.1335466,
            41.4491922
          ],
          [
            -88.1335381,
            41.4490571
          ],
          [
            -88.1332548,
            41.4481307
          ],
          [
            -88.133169,
            41.4480278
          ],
          [
            -88.1330317,
            41.4479634
          ],
          [
            -88.13286,
            41.4479377
          ],
          [
            -88.1326798,
            41.4479634
          ],
          [
            -88.1304197,
            41.4486652
          ],
          [
            -88.1302765,
            41.4487097
          ],
          [
            -88.1300533,
            41.4487998
          ],
          [
            -88.1298988,
            41.4488898
          ],
          [
            -88.1297615,
            41.4489928
          ],
          [
            -88.1286114,
            41.4504789
          ],
          [
            -88.1285942,
            41.4505496
          ],
          [
            -88.12862,
            41.4506333
          ],
          [
            -88.1288517,
            41.4510193
          ],
          [
            -88.1289633,
            41.4511029
          ],
          [
            -88.1291006,
            41.4511672
          ],
          [
            -88.1306885,
            41.4517205
          ],
          [
            -88.130946,
            41.4518234
          ],
          [
            -88.1310833,
            41.4519263
          ],
          [
            -88.131152,
            41.4520357
          ],
          [
            -88.1311863,
            41.4521451
          ],
          [
            -88.1312721,
            41.4537018
          ],
          [
            -88.1312636,
            41.4539077
          ],
          [
            -88.1311863,
            41.4540878
          ],
          [
            -88.131049,
            41.4542615
          ],
          [
            -88.1308087,
            41.4544288
          ],
          [
            -88.1305769,
            41.4545317
          ],
          [
            -88.1303108,
            41.4545832
          ],
          [
            -88.1299332,
            41.4545832
          ],
          [
            -88.1272295,
            41.4545896
          ],
          [
            -88.1270321,
            41.4545639
          ],
          [
            -88.1268519,
            41.454506
          ],
          [
            -88.1267145,
            41.4544095
          ],
          [
            -88.1263369,
            41.4539592
          ],
          [
            -88.126191,
            41.4538498
          ],
          [
            -88.1260279,
            41.453779
          ],
          [
            -88.1258391,
            41.4537404
          ],
          [
            -88.1255987,
            41.453734
          ],
          [
            -88.1252726,
            41.4537919
          ],
          [
            -88.1251352,
            41.4538434
          ],
          [
            -88.1249979,
            41.4539141
          ],
          [
            -88.1249035,
            41.4540171
          ],
          [
            -88.1248606,
            41.4541264
          ],
          [
            -88.1248949,
            41.4542358
          ],
          [
            -88.1249722,
            41.4543323
          ],
          [
            -88.1251352,
            41.4544288
          ],
          [
            -88.1275728,
            41.4555223
          ],
          [
            -88.1279076,
            41.4556767
          ],
          [
            -88.1280363,
            41.4557797
          ],
          [
            -88.1287401,
            41.4563522
          ],
          [
            -88.1288689,
            41.4564294
          ],
          [
            -88.1289976,
            41.4564744
          ],
          [
            -88.1295984,
            41.4565258
          ]
        ]
      }
    }
  ]
}
