{
  "type": "FeatureCollection",
  "bbox": [
    -88.1335466,
    41.4479377,
    -88.1204231,
    41.4611701
  ],
  "metadata": {
    "schemaVersion": 1,
    "trackId": "us-autobahn-country-club-42852101",
    "layoutId": "main",
    "license": "ODbL-1.0",
    "attribution": "© OpenStreetMap contributors",
    "closed": true,
    "geometryStatus": "draft",
    "timingStatus": "missing",
    "timingMode": "shared",
    "lengthM": 6014.9,
    "reviewedAt": null,
    "notes": [
      "Connected OSM course candidate. The selected loop is the longest simple source-node cycle after explicit exclusions; its association with a named circuit configuration requires review.",
      "Source way order and shared node IDs are retained. No nearby endpoints are joined and no Racelogic boundaries are read.",
      "Some source ways lack one-way direction tags. Travel direction is provisional."
    ]
  },
  "features": [
    {
      "type": "Feature",
      "id": "trace",
      "properties": {
        "role": "trace",
        "sourceIds": [
          "osm-snapshot"
        ]
      },
      "geometry": {
        "type": "LineString",
        "coordinates": [
          [
            -88.1295984,
            41.4565258
          ],
          [
            -88.1289976,
            41.4564744
          ],
          [
            -88.1288689,
            41.4564294
          ],
          [
            -88.1287401,
            41.4563522
          ],
          [
            -88.1280363,
            41.4557797
          ],
          [
            -88.1279076,
            41.4556767
          ],
          [
            -88.1275728,
            41.4555223
          ],
          [
            -88.1251352,
            41.4544288
          ],
          [
            -88.1249722,
            41.4543323
          ],
          [
            -88.1248949,
            41.4542358
          ],
          [
            -88.1248606,
            41.4541264
          ],
          [
            -88.1249035,
            41.4540171
          ],
          [
            -88.1249979,
            41.4539141
          ],
          [
            -88.1251352,
            41.4538434
          ],
          [
            -88.1252726,
            41.4537919
          ],
          [
            -88.1255987,
            41.453734
          ],
          [
            -88.1258391,
            41.4537404
          ],
          [
            -88.1260279,
            41.453779
          ],
          [
            -88.126191,
            41.4538498
          ],
          [
            -88.1263369,
            41.4539592
          ],
          [
            -88.1267145,
            41.4544095
          ],
          [
            -88.1268519,
            41.454506
          ],
          [
            -88.1270321,
            41.4545639
          ],
          [
            -88.1272295,
            41.4545896
          ],
          [
            -88.1299332,
            41.4545832
          ],
          [
            -88.1303108,
            41.4545832
          ],
          [
            -88.1305769,
            41.4545317
          ],
          [
            -88.1308087,
            41.4544288
          ],
          [
            -88.131049,
            41.4542615
          ],
          [
            -88.1311863,
            41.4540878
          ],
          [
            -88.1312636,
            41.4539077
          ],
          [
            -88.1312721,
            41.4537018
          ],
          [
            -88.1311863,
            41.4521451
          ],
          [
            -88.131152,
            41.4520357
          ],
          [
            -88.1310833,
            41.4519263
          ],
          [
            -88.130946,
            41.4518234
          ],
          [
            -88.1306885,
            41.4517205
          ],
          [
            -88.1291006,
            41.4511672
          ],
          [
            -88.1289633,
            41.4511029
          ],
          [
            -88.1288517,
            41.4510193
          ],
          [
            -88.12862,
            41.4506333
          ],
          [
            -88.1285942,
            41.4505496
          ],
          [
            -88.1286114,
            41.4504789
          ],
          [
            -88.1297615,
            41.4489928
          ],
          [
            -88.1298988,
            41.4488898
          ],
          [
            -88.1300533,
            41.4487998
          ],
          [
            -88.1302765,
            41.4487097
          ],
          [
            -88.1304197,
            41.4486652
          ],
          [
            -88.1326798,
            41.4479634
          ],
          [
            -88.13286,
            41.4479377
          ],
          [
            -88.1330317,
            41.4479634
          ],
          [
            -88.133169,
            41.4480278
          ],
          [
            -88.1332548,
            41.4481307
          ],
          [
            -88.1335381,
            41.4490571
          ],
          [
            -88.1335466,
            41.4491922
          ],
          [
            -88.1334866,
            41.4493144
          ],
          [
            -88.1333407,
            41.4493852
          ],
          [
            -88.133169,
            41.4494045
          ],
          [
            -88.1328772,
            41.4493723
          ],
          [
            -88.1324823,
            41.449353
          ],
          [
            -88.1323021,
            41.4493788
          ],
          [
            -88.132139,
            41.4494495
          ],
          [
            -88.1320189,
            41.4495525
          ],
          [
            -88.1320017,
            41.449694
          ],
          [
            -88.1323536,
            41.4547568
          ],
          [
            -88.132345,
            41.4548276
          ],
          [
            -88.1322935,
            41.4548855
          ],
          [
            -88.1321734,
            41.4549112
          ],
          [
            -88.1315811,
            41.4549112
          ],
          [
            -88.131461,
            41.4549434
          ],
          [
            -88.1313494,
            41.4550335
          ],
          [
            -88.129916,
            41.4564615
          ],
          [
            -88.1289633,
            41.45742
          ],
          [
            -88.1276329,
            41.4587322
          ],
          [
            -88.1274956,
            41.4588287
          ],
          [
            -88.1273325,
            41.458893
          ],
          [
            -88.1271265,
            41.4589187
          ],
          [
            -88.1268948,
            41.4588995
          ],
          [
            -88.1259506,
            41.4587708
          ],
          [
            -88.1257275,
            41.4587708
          ],
          [
            -88.1255301,
            41.4588094
          ],
          [
            -88.1253498,
            41.458893
          ],
          [
            -88.1251867,
            41.4590152
          ],
          [
            -88.1250837,
            41.4591503
          ],
          [
            -88.1250151,
            41.4593111
          ],
          [
            -88.1249292,
            41.4599801
          ],
          [
            -88.1248778,
            41.460321
          ],
          [
            -88.1248091,
            41.4604689
          ],
          [
            -88.1246889,
            41.460604
          ],
          [
            -88.1245173,
            41.4607455
          ],
          [
            -88.1243113,
            41.4608356
          ],
          [
            -88.1240366,
            41.4608999
          ],
          [
            -88.1210154,
            41.4611701
          ],
          [
            -88.1208437,
            41.4611572
          ],
          [
            -88.1206635,
            41.4610864
          ],
          [
            -88.1205004,
            41.4609964
          ],
          [
            -88.1204403,
            41.4609128
          ],
          [
            -88.1204231,
            41.4607906
          ],
          [
            -88.1206806,
            41.4601023
          ],
          [
            -88.1208866,
            41.4597421
          ],
          [
            -88.1225002,
            41.457227
          ],
          [
            -88.1225346,
            41.4571176
          ],
          [
            -88.1225346,
            41.4570147
          ],
          [
            -88.1224917,
            41.4568925
          ],
          [
            -88.1224144,
            41.4567703
          ],
          [
            -88.1222942,
            41.4566931
          ],
          [
            -88.1221226,
            41.4566223
          ],
          [
            -88.1212729,
            41.4563457
          ],
          [
            -88.1208265,
            41.4562106
          ],
          [
            -88.1206892,
            41.4561592
          ],
          [
            -88.120612,
            41.4560884
          ],
          [
            -88.120569,
            41.4559919
          ],
          [
            -88.1205776,
            41.4558697
          ],
          [
            -88.1206549,
            41.4557539
          ],
          [
            -88.1210926,
            41.4552843
          ],
          [
            -88.1212214,
            41.4552136
          ],
          [
            -88.1214102,
            41.4551557
          ],
          [
            -88.121599,
            41.4551235
          ],
          [
            -88.122011,
            41.4551106
          ],
          [
            -88.122938,
            41.4550849
          ],
          [
            -88.1231268,
            41.4550978
          ],
          [
            -88.1232727,
            41.4551299
          ],
          [
            -88.1234701,
            41.4552264
          ],
          [
            -88.1251782,
            41.4560434
          ],
          [
            -88.126191,
            41.4565194
          ],
          [
            -88.127281,
            41.4570919
          ],
          [
            -88.1274698,
            41.4571434
          ],
          [
            -88.1276587,
            41.4571369
          ],
          [
            -88.1278303,
            41.4570791
          ],
          [
            -88.1280277,
            41.4569633
          ],
          [
            -88.1281393,
            41.4568603
          ],
          [
            -88.1282166,
            41.456751
          ],
          [
            -88.1282423,
            41.4566352
          ],
          [
            -88.1281994,
            41.4562878
          ],
          [
            -88.1284397,
            41.4564036
          ],
          [
            -88.1285856,
            41.4564744
          ],
          [
            -88.1287487,
            41.4565065
          ],
          [
            -88.128886,
            41.4565194
          ],
          [
            -88.1295984,
            41.4565258
          ]
        ]
      }
    }
  ]
}
