{
  "type": "FeatureCollection",
  "bbox": [
    -97.6244345,
    32.5209925,
    -97.6196745,
    32.524784
  ],
  "metadata": {
    "schemaVersion": 1,
    "trackId": "us-motorsport-ranch-537040271",
    "layoutId": "motorsport-ranch-1-3-mile-course",
    "license": "ODbL-1.0",
    "attribution": "© OpenStreetMap contributors",
    "closed": true,
    "geometryStatus": "draft",
    "timingStatus": "missing",
    "timingMode": "shared",
    "lengthM": 2145.1,
    "reviewedAt": null,
    "notes": [
      "Draft configuration: Separate western 1.3-mile course with its central elongated hairpin. Branch identity was checked against catalogue layout facts and circuit identification references. Independent source distance 2145.1 m; no coordinates are changed to match a diagram or distance. Travel direction and historical alignment remain provisional."
    ]
  },
  "features": [
    {
      "type": "Feature",
      "id": "trace",
      "properties": {
        "role": "trace",
        "sourceIds": [
          "osm-selection-537040271"
        ]
      },
      "geometry": {
        "type": "LineString",
        "coordinates": [
          [
            -97.619855,
            32.5229661
          ],
          [
            -97.6198228,
            32.5230856
          ],
          [
            -97.6197559,
            32.5233684
          ],
          [
            -97.6196917,
            32.5237402
          ],
          [
            -97.6196784,
            32.5238347
          ],
          [
            -97.6196745,
            32.5239232
          ],
          [
            -97.6196773,
            32.5240143
          ],
          [
            -97.6196865,
            32.5241271
          ],
          [
            -97.6196992,
            32.5242216
          ],
          [
            -97.6197142,
            32.5242994
          ],
          [
            -97.6197375,
            32.5243739
          ],
          [
            -97.6197712,
            32.5244431
          ],
          [
            -97.6198081,
            32.5245023
          ],
          [
            -97.6198621,
            32.524557
          ],
          [
            -97.6199131,
            32.524599
          ],
          [
            -97.6200987,
            32.5247211
          ],
          [
            -97.6201913,
            32.5247647
          ],
          [
            -97.6202649,
            32.524783
          ],
          [
            -97.6203232,
            32.524784
          ],
          [
            -97.6203895,
            32.5247727
          ],
          [
            -97.6205781,
            32.5247228
          ],
          [
            -97.6206584,
            32.5247069
          ],
          [
            -97.6207388,
            32.5246978
          ],
          [
            -97.6208404,
            32.5246946
          ],
          [
            -97.6209445,
            32.5247039
          ],
          [
            -97.6212343,
            32.5247255
          ],
          [
            -97.6213304,
            32.5247264
          ],
          [
            -97.6214285,
            32.5247214
          ],
          [
            -97.6215454,
            32.5247052
          ],
          [
            -97.621651,
            32.5246837
          ],
          [
            -97.6217563,
            32.5246562
          ],
          [
            -97.6218733,
            32.524619
          ],
          [
            -97.6219981,
            32.5245677
          ],
          [
            -97.6221008,
            32.5245121
          ],
          [
            -97.6221958,
            32.5244503
          ],
          [
            -97.6222698,
            32.5243952
          ],
          [
            -97.6223487,
            32.5243317
          ],
          [
            -97.6225665,
            32.5241238
          ],
          [
            -97.6226351,
            32.524069
          ],
          [
            -97.6227179,
            32.5240185
          ],
          [
            -97.6228045,
            32.5239728
          ],
          [
            -97.6228962,
            32.5239336
          ],
          [
            -97.6230051,
            32.5238949
          ],
          [
            -97.6231236,
            32.5238576
          ],
          [
            -97.623248,
            32.523829
          ],
          [
            -97.623349,
            32.5238107
          ],
          [
            -97.6234382,
            32.5238001
          ],
          [
            -97.6235103,
            32.5237894
          ],
          [
            -97.6235727,
            32.5237759
          ],
          [
            -97.623624,
            32.5237556
          ],
          [
            -97.6236739,
            32.5237292
          ],
          [
            -97.6237166,
            32.5237009
          ],
          [
            -97.6237637,
            32.5236637
          ],
          [
            -97.6237986,
            32.5236246
          ],
          [
            -97.623819,
            32.5235856
          ],
          [
            -97.6238353,
            32.5235425
          ],
          [
            -97.6238445,
            32.5234802
          ],
          [
            -97.6239013,
            32.5230955
          ],
          [
            -97.6239125,
            32.5230289
          ],
          [
            -97.6239325,
            32.5229589
          ],
          [
            -97.6239542,
            32.5228916
          ],
          [
            -97.6239886,
            32.5228213
          ],
          [
            -97.62403,
            32.5227494
          ],
          [
            -97.6242119,
            32.52248
          ],
          [
            -97.6242431,
            32.5224288
          ],
          [
            -97.62427,
            32.5223719
          ],
          [
            -97.6242953,
            32.5223122
          ],
          [
            -97.6243162,
            32.522251
          ],
          [
            -97.624334,
            32.5221801
          ],
          [
            -97.6244331,
            32.5215617
          ],
          [
            -97.6244345,
            32.5215027
          ],
          [
            -97.6244304,
            32.5214324
          ],
          [
            -97.6244182,
            32.5213662
          ],
          [
            -97.6243971,
            32.5212985
          ],
          [
            -97.6243652,
            32.5212459
          ],
          [
            -97.624326,
            32.5211939
          ],
          [
            -97.6242773,
            32.5211625
          ],
          [
            -97.6242207,
            32.5211386
          ],
          [
            -97.624152,
            32.521128
          ],
          [
            -97.6240805,
            32.5211336
          ],
          [
            -97.6240173,
            32.5211527
          ],
          [
            -97.6239525,
            32.5211868
          ],
          [
            -97.6239084,
            32.5212326
          ],
          [
            -97.6238734,
            32.5213018
          ],
          [
            -97.6237174,
            32.5216529
          ],
          [
            -97.6236727,
            32.5217286
          ],
          [
            -97.6236283,
            32.5217941
          ],
          [
            -97.623569,
            32.5218609
          ],
          [
            -97.6235022,
            32.5219229
          ],
          [
            -97.6234236,
            32.5219784
          ],
          [
            -97.6233094,
            32.5220448
          ],
          [
            -97.6232296,
            32.5220843
          ],
          [
            -97.6231525,
            32.5221313
          ],
          [
            -97.6230833,
            32.5221889
          ],
          [
            -97.6229818,
            32.5222954
          ],
          [
            -97.6229157,
            32.5223464
          ],
          [
            -97.6228274,
            32.5223929
          ],
          [
            -97.6223726,
            32.5226124
          ],
          [
            -97.6223011,
            32.5226492
          ],
          [
            -97.6222395,
            32.5226935
          ],
          [
            -97.6221828,
            32.5227432
          ],
          [
            -97.6221354,
            32.5227985
          ],
          [
            -97.6220977,
            32.5228708
          ],
          [
            -97.6219295,
            32.5233013
          ],
          [
            -97.6218955,
            32.5233709
          ],
          [
            -97.6218422,
            32.5234588
          ],
          [
            -97.621784,
            32.5235426
          ],
          [
            -97.621715,
            32.5236224
          ],
          [
            -97.6216348,
            32.5237022
          ],
          [
            -97.6215394,
            32.5237792
          ],
          [
            -97.6214561,
            32.5238367
          ],
          [
            -97.6213535,
            32.5238956
          ],
          [
            -97.621265,
            32.5239294
          ],
          [
            -97.6211545,
            32.5239517
          ],
          [
            -97.6210378,
            32.5239656
          ],
          [
            -97.6209164,
            32.52397
          ],
          [
            -97.6207772,
            32.5239639
          ],
          [
            -97.6206645,
            32.5239471
          ],
          [
            -97.6205904,
            32.5239237
          ],
          [
            -97.6205275,
            32.5238834
          ],
          [
            -97.6204735,
            32.5238278
          ],
          [
            -97.6204384,
            32.5237619
          ],
          [
            -97.6204049,
            32.5236851
          ],
          [
            -97.620386,
            32.5236027
          ],
          [
            -97.6203815,
            32.5235276
          ],
          [
            -97.620385,
            32.5234577
          ],
          [
            -97.6204046,
            32.5233688
          ],
          [
            -97.6204271,
            32.5232774
          ],
          [
            -97.6204634,
            32.5232022
          ],
          [
            -97.6205138,
            32.5231333
          ],
          [
            -97.6205885,
            32.5230657
          ],
          [
            -97.6206727,
            32.5230082
          ],
          [
            -97.6207553,
            32.5229615
          ],
          [
            -97.6211572,
            32.5227626
          ],
          [
            -97.6212521,
            32.5227112
          ],
          [
            -97.621332,
            32.5226616
          ],
          [
            -97.6214003,
            32.5226123
          ],
          [
            -97.6214723,
            32.5225506
          ],
          [
            -97.6215381,
            32.5224864
          ],
          [
            -97.6222717,
            32.5216738
          ],
          [
            -97.6223126,
            32.5216196
          ],
          [
            -97.6223422,
            32.5215701
          ],
          [
            -97.6223638,
            32.5215116
          ],
          [
            -97.6223724,
            32.52144
          ],
          [
            -97.6223696,
            32.5213754
          ],
          [
            -97.6223597,
            32.5213108
          ],
          [
            -97.6223401,
            32.5212398
          ],
          [
            -97.6223181,
            32.521176
          ],
          [
            -97.6222848,
            32.5211207
          ],
          [
            -97.6222388,
            32.5210722
          ],
          [
            -97.6221683,
            32.5210273
          ],
          [
            -97.6221004,
            32.5210026
          ],
          [
            -97.6220216,
            32.5209925
          ],
          [
            -97.6219455,
            32.5210035
          ],
          [
            -97.6218626,
            32.5210214
          ],
          [
            -97.6217594,
            32.5210567
          ],
          [
            -97.6209958,
            32.5213525
          ],
          [
            -97.6206984,
            32.5214764
          ],
          [
            -97.6205832,
            32.5215338
          ],
          [
            -97.6205048,
            32.5215822
          ],
          [
            -97.6204405,
            32.5216328
          ],
          [
            -97.620387,
            32.5216816
          ],
          [
            -97.6203484,
            32.5217358
          ],
          [
            -97.6203055,
            32.5218207
          ],
          [
            -97.620042,
            32.5224458
          ],
          [
            -97.6199499,
            32.522677
          ],
          [
            -97.619855,
            32.5229661
          ]
        ]
      }
    }
  ]
}
