{
  "type": "FeatureCollection",
  "bbox": [
    -115.0120956,
    36.2697376,
    -115.0066266,
    36.275023
  ],
  "metadata": {
    "schemaVersion": 1,
    "trackId": "us-las-vegas-motor-speedway-27545411",
    "layoutId": "lvms-infield-road-course",
    "license": "ODbL-1.0",
    "attribution": "© OpenStreetMap contributors",
    "closed": true,
    "geometryStatus": "draft",
    "timingStatus": "missing",
    "timingMode": "shared",
    "lengthM": 1745,
    "reviewedAt": null,
    "notes": [
      "Draft route hypothesis: the source cycle is the unique closest nominal-distance match within conservative timing and distance checks. Approximate OSM trace length 1745 m. Difference from the supplied layout distance 10.0 m. Course configuration still requires visual review."
    ]
  },
  "features": [
    {
      "type": "Feature",
      "id": "trace",
      "properties": {
        "role": "trace",
        "sourceIds": [
          "osm-network-125207287"
        ]
      },
      "geometry": {
        "type": "LineString",
        "coordinates": [
          [
            -115.0071305,
            36.2733401
          ],
          [
            -115.0073505,
            36.2731943
          ],
          [
            -115.0073911,
            36.2731595
          ],
          [
            -115.007424,
            36.2731198
          ],
          [
            -115.0074483,
            36.2730762
          ],
          [
            -115.0074633,
            36.27303
          ],
          [
            -115.0074685,
            36.2729824
          ],
          [
            -115.0074638,
            36.2729349
          ],
          [
            -115.0074494,
            36.2728886
          ],
          [
            -115.0074257,
            36.272845
          ],
          [
            -115.0073934,
            36.2728051
          ],
          [
            -115.0072968,
            36.272684
          ],
          [
            -115.0072596,
            36.2726273
          ],
          [
            -115.007232,
            36.2725673
          ],
          [
            -115.0072145,
            36.2725047
          ],
          [
            -115.0072075,
            36.2724409
          ],
          [
            -115.007211,
            36.2723769
          ],
          [
            -115.0072257,
            36.2723114
          ],
          [
            -115.0072515,
            36.2722481
          ],
          [
            -115.0072878,
            36.2721883
          ],
          [
            -115.007334,
            36.2721331
          ],
          [
            -115.0073891,
            36.2720836
          ],
          [
            -115.0074522,
            36.2720406
          ],
          [
            -115.007522,
            36.272005
          ],
          [
            -115.0075973,
            36.2719775
          ],
          [
            -115.0076765,
            36.2719587
          ],
          [
            -115.0077581,
            36.2719487
          ],
          [
            -115.009346,
            36.2716503
          ],
          [
            -115.0094052,
            36.2716372
          ],
          [
            -115.0094614,
            36.2716174
          ],
          [
            -115.0095136,
            36.2715913
          ],
          [
            -115.0095606,
            36.2715595
          ],
          [
            -115.0096045,
            36.2715194
          ],
          [
            -115.0096403,
            36.2714743
          ],
          [
            -115.009667,
            36.2714253
          ],
          [
            -115.009684,
            36.2713735
          ],
          [
            -115.0099307,
            36.2705907
          ],
          [
            -115.0099489,
            36.2705396
          ],
          [
            -115.0099739,
            36.2704905
          ],
          [
            -115.0100055,
            36.2704439
          ],
          [
            -115.0100434,
            36.2704004
          ],
          [
            -115.0100926,
            36.270356
          ],
          [
            -115.0101484,
            36.2703169
          ],
          [
            -115.0102097,
            36.2702836
          ],
          [
            -115.0111324,
            36.2697992
          ],
          [
            -115.0111907,
            36.2697719
          ],
          [
            -115.0112537,
            36.2697522
          ],
          [
            -115.0113197,
            36.2697407
          ],
          [
            -115.0113871,
            36.2697376
          ],
          [
            -115.0114542,
            36.269743
          ],
          [
            -115.0115117,
            36.2697547
          ],
          [
            -115.0115667,
            36.2697726
          ],
          [
            -115.011618,
            36.2697964
          ],
          [
            -115.0116649,
            36.2698256
          ],
          [
            -115.0117064,
            36.2698598
          ],
          [
            -115.0119853,
            36.2701279
          ],
          [
            -115.0120256,
            36.2701771
          ],
          [
            -115.0120573,
            36.2702301
          ],
          [
            -115.0120798,
            36.2702862
          ],
          [
            -115.0120926,
            36.2703442
          ],
          [
            -115.0120956,
            36.2703982
          ],
          [
            -115.0120903,
            36.2704521
          ],
          [
            -115.0120767,
            36.270505
          ],
          [
            -115.012055,
            36.2705561
          ],
          [
            -115.0120259,
            36.2706282
          ],
          [
            -115.0119891,
            36.2706979
          ],
          [
            -115.0119451,
            36.2707649
          ],
          [
            -115.0118941,
            36.2708286
          ],
          [
            -115.0118339,
            36.2708911
          ],
          [
            -115.0117669,
            36.270949
          ],
          [
            -115.0116938,
            36.2710018
          ],
          [
            -115.0116152,
            36.2710492
          ],
          [
            -115.008673,
            36.2730345
          ],
          [
            -115.0081605,
            36.2733803
          ],
          [
            -115.0081219,
            36.2734098
          ],
          [
            -115.008089,
            36.2734435
          ],
          [
            -115.0080625,
            36.2734807
          ],
          [
            -115.008043,
            36.2735206
          ],
          [
            -115.0080309,
            36.2735624
          ],
          [
            -115.0080264,
            36.2736052
          ],
          [
            -115.0080299,
            36.2736496
          ],
          [
            -115.0080417,
            36.2736931
          ],
          [
            -115.0080614,
            36.2737347
          ],
          [
            -115.0080887,
            36.2737734
          ],
          [
            -115.0081229,
            36.2738084
          ],
          [
            -115.0085253,
            36.2742106
          ],
          [
            -115.0085634,
            36.27425
          ],
          [
            -115.0085943,
            36.2742932
          ],
          [
            -115.0086175,
            36.2743395
          ],
          [
            -115.0086325,
            36.2743879
          ],
          [
            -115.0086391,
            36.2744383
          ],
          [
            -115.0086367,
            36.274489
          ],
          [
            -115.0086255,
            36.2745388
          ],
          [
            -115.0086057,
            36.2745869
          ],
          [
            -115.008579,
            36.2746395
          ],
          [
            -115.0085467,
            36.2746901
          ],
          [
            -115.0085092,
            36.2747382
          ],
          [
            -115.0084597,
            36.2747902
          ],
          [
            -115.0084041,
            36.2748379
          ],
          [
            -115.0083429,
            36.274881
          ],
          [
            -115.0082787,
            36.2749174
          ],
          [
            -115.0082106,
            36.2749488
          ],
          [
            -115.0081392,
            36.274975
          ],
          [
            -115.008065,
            36.2749957
          ],
          [
            -115.0079888,
            36.2750107
          ],
          [
            -115.0078987,
            36.2750208
          ],
          [
            -115.0078077,
            36.275023
          ],
          [
            -115.0077169,
            36.2750172
          ],
          [
            -115.0076275,
            36.2750036
          ],
          [
            -115.0075404,
            36.2749821
          ],
          [
            -115.0074567,
            36.2749532
          ],
          [
            -115.0073774,
            36.2749172
          ],
          [
            -115.0073034,
            36.2748745
          ],
          [
            -115.0072356,
            36.2748255
          ],
          [
            -115.0071748,
            36.2747709
          ],
          [
            -115.0071217,
            36.2747113
          ],
          [
            -115.0070769,
            36.2746474
          ],
          [
            -115.0066584,
            36.2739511
          ],
          [
            -115.0066374,
            36.273901
          ],
          [
            -115.0066267,
            36.2738488
          ],
          [
            -115.0066266,
            36.2737958
          ],
          [
            -115.006637,
            36.2737436
          ],
          [
            -115.0066557,
            36.2736972
          ],
          [
            -115.0066827,
            36.2736537
          ],
          [
            -115.0067174,
            36.2736138
          ],
          [
            -115.0071305,
            36.2733401
          ]
        ]
      }
    }
  ]
}
