{
  "type": "FeatureCollection",
  "bbox": [
    -115.0203876,
    36.2641031,
    -115.0155798,
    36.2757839
  ],
  "metadata": {
    "schemaVersion": 1,
    "trackId": "us-las-vegas-motor-speedway-27545411",
    "layoutId": "lvms-outfield-road-course",
    "license": "ODbL-1.0",
    "attribution": "© OpenStreetMap contributors",
    "closed": true,
    "geometryStatus": "draft",
    "timingStatus": "missing",
    "timingMode": "shared",
    "lengthM": 3896.2,
    "reviewedAt": null,
    "notes": [
      "Draft route hypothesis: the source cycle is the unique closest nominal-distance match within conservative timing and distance checks. Approximate OSM trace length 3896.2 m. Difference from the supplied layout distance 11.2 m. Course configuration still requires visual review."
    ]
  },
  "features": [
    {
      "type": "Feature",
      "id": "trace",
      "properties": {
        "role": "trace",
        "sourceIds": [
          "osm-network-51319172"
        ]
      },
      "geometry": {
        "type": "LineString",
        "coordinates": [
          [
            -115.0172418,
            36.2689562
          ],
          [
            -115.0172988,
            36.2690834
          ],
          [
            -115.0173343,
            36.2691598
          ],
          [
            -115.0173739,
            36.2692348
          ],
          [
            -115.0174261,
            36.2693224
          ],
          [
            -115.0174838,
            36.2694078
          ],
          [
            -115.0176796,
            36.2696976
          ],
          [
            -115.017711,
            36.2697551
          ],
          [
            -115.0177369,
            36.2698143
          ],
          [
            -115.0177574,
            36.2698749
          ],
          [
            -115.0177746,
            36.2699492
          ],
          [
            -115.0177836,
            36.2700243
          ],
          [
            -115.0177842,
            36.2700998
          ],
          [
            -115.0177923,
            36.2702274
          ],
          [
            -115.0177757,
            36.2702945
          ],
          [
            -115.017771,
            36.2703629
          ],
          [
            -115.0177784,
            36.2704311
          ],
          [
            -115.0177977,
            36.2704977
          ],
          [
            -115.017823,
            36.270552
          ],
          [
            -115.0178562,
            36.2706034
          ],
          [
            -115.0178969,
            36.2706513
          ],
          [
            -115.0179302,
            36.2706786
          ],
          [
            -115.017968,
            36.2707019
          ],
          [
            -115.0180095,
            36.2707205
          ],
          [
            -115.0180592,
            36.2707352
          ],
          [
            -115.0181111,
            36.2707434
          ],
          [
            -115.0181639,
            36.2707447
          ],
          [
            -115.0182164,
            36.2707392
          ],
          [
            -115.018267,
            36.2707269
          ],
          [
            -115.0186399,
            36.2706599
          ],
          [
            -115.0187029,
            36.2706483
          ],
          [
            -115.0187674,
            36.2706436
          ],
          [
            -115.018832,
            36.270646
          ],
          [
            -115.0188957,
            36.2706554
          ],
          [
            -115.0189572,
            36.2706717
          ],
          [
            -115.0190154,
            36.2706945
          ],
          [
            -115.0190725,
            36.2707255
          ],
          [
            -115.0191235,
            36.2707628
          ],
          [
            -115.0191673,
            36.2708057
          ],
          [
            -115.0192031,
            36.2708531
          ],
          [
            -115.01923,
            36.2709043
          ],
          [
            -115.0192553,
            36.270967
          ],
          [
            -115.0192713,
            36.2710317
          ],
          [
            -115.0192778,
            36.2710975
          ],
          [
            -115.0192646,
            36.2711629
          ],
          [
            -115.019243,
            36.2712268
          ],
          [
            -115.0192132,
            36.2712886
          ],
          [
            -115.0191757,
            36.2713475
          ],
          [
            -115.0191308,
            36.2714029
          ],
          [
            -115.0190789,
            36.2714543
          ],
          [
            -115.0190207,
            36.2715011
          ],
          [
            -115.0189524,
            36.2715453
          ],
          [
            -115.0188785,
            36.2715831
          ],
          [
            -115.0187997,
            36.2716141
          ],
          [
            -115.0187173,
            36.2716378
          ],
          [
            -115.018632,
            36.2716541
          ],
          [
            -115.0185451,
            36.2716626
          ],
          [
            -115.0184491,
            36.2716703
          ],
          [
            -115.0183526,
            36.2716719
          ],
          [
            -115.0182563,
            36.2716676
          ],
          [
            -115.0181563,
            36.2716567
          ],
          [
            -115.0180578,
            36.2716394
          ],
          [
            -115.0179613,
            36.2716157
          ],
          [
            -115.0177199,
            36.2715595
          ],
          [
            -115.0176466,
            36.2715426
          ],
          [
            -115.0175714,
            36.2715333
          ],
          [
            -115.0174952,
            36.2715317
          ],
          [
            -115.0174195,
            36.2715379
          ],
          [
            -115.0173463,
            36.2715514
          ],
          [
            -115.0172757,
            36.2715721
          ],
          [
            -115.0172089,
            36.2715998
          ],
          [
            -115.0171468,
            36.2716339
          ],
          [
            -115.0170905,
            36.2716739
          ],
          [
            -115.0170407,
            36.2717193
          ],
          [
            -115.0169984,
            36.2717693
          ],
          [
            -115.0169615,
            36.2718193
          ],
          [
            -115.0169336,
            36.271873
          ],
          [
            -115.0169152,
            36.2719293
          ],
          [
            -115.0169068,
            36.271986
          ],
          [
            -115.0169076,
            36.2720215
          ],
          [
            -115.0169081,
            36.2720431
          ],
          [
            -115.0169393,
            36.2721542
          ],
          [
            -115.0170627,
            36.2723747
          ],
          [
            -115.0170888,
            36.2724137
          ],
          [
            -115.0171085,
            36.272455
          ],
          [
            -115.0171217,
            36.272498
          ],
          [
            -115.0171285,
            36.2725471
          ],
          [
            -115.0171267,
            36.2725964
          ],
          [
            -115.0171164,
            36.272645
          ],
          [
            -115.0168589,
            36.2734278
          ],
          [
            -115.0168344,
            36.273488
          ],
          [
            -115.0168185,
            36.2735501
          ],
          [
            -115.0168114,
            36.2736132
          ],
          [
            -115.0168133,
            36.2736765
          ],
          [
            -115.016826,
            36.2737469
          ],
          [
            -115.0168498,
            36.2738155
          ],
          [
            -115.0168841,
            36.273881
          ],
          [
            -115.0169286,
            36.2739425
          ],
          [
            -115.0183019,
            36.2756443
          ],
          [
            -115.0183265,
            36.2756748
          ],
          [
            -115.0183335,
            36.2756834
          ],
          [
            -115.0183732,
            36.2757174
          ],
          [
            -115.0184197,
            36.2757452
          ],
          [
            -115.0184716,
            36.275766
          ],
          [
            -115.0185272,
            36.275779
          ],
          [
            -115.0185848,
            36.2757839
          ],
          [
            -115.0186425,
            36.2757805
          ],
          [
            -115.0186975,
            36.2757692
          ],
          [
            -115.0187492,
            36.2757505
          ],
          [
            -115.0187961,
            36.2757248
          ],
          [
            -115.0188368,
            36.2756929
          ],
          [
            -115.01887,
            36.2756559
          ],
          [
            -115.0188947,
            36.2756148
          ],
          [
            -115.0189103,
            36.2755708
          ],
          [
            -115.0189161,
            36.2755253
          ],
          [
            -115.0188383,
            36.2747209
          ],
          [
            -115.018836,
            36.274685
          ],
          [
            -115.0188437,
            36.2746496
          ],
          [
            -115.0188579,
            36.2746212
          ],
          [
            -115.0188786,
            36.2745955
          ],
          [
            -115.0189056,
            36.2745668
          ],
          [
            -115.0189269,
            36.274535
          ],
          [
            -115.0189431,
            36.2744969
          ],
          [
            -115.018951,
            36.2744571
          ],
          [
            -115.018943,
            36.2743101
          ],
          [
            -115.0189348,
            36.2742708
          ],
          [
            -115.0189214,
            36.2742324
          ],
          [
            -115.0189027,
            36.2741955
          ],
          [
            -115.0188722,
            36.2741517
          ],
          [
            -115.0188344,
            36.2741118
          ],
          [
            -115.0187901,
            36.2740766
          ],
          [
            -115.0187632,
            36.2739944
          ],
          [
            -115.0187525,
            36.2739144
          ],
          [
            -115.0187069,
            36.2734516
          ],
          [
            -115.0186828,
            36.2730775
          ],
          [
            -115.0186901,
            36.2730226
          ],
          [
            -115.0187036,
            36.2729684
          ],
          [
            -115.018723,
            36.2729153
          ],
          [
            -115.0187537,
            36.2728545
          ],
          [
            -115.0187923,
            36.2727966
          ],
          [
            -115.0188383,
            36.2727424
          ],
          [
            -115.0190449,
            36.2725434
          ],
          [
            -115.0191086,
            36.2724846
          ],
          [
            -115.0191471,
            36.2724551
          ],
          [
            -115.019179,
            36.272431
          ],
          [
            -115.0192497,
            36.2723861
          ],
          [
            -115.019325,
            36.2723463
          ],
          [
            -115.0194043,
            36.272312
          ],
          [
            -115.0199005,
            36.2720633
          ],
          [
            -115.0199832,
            36.2720183
          ],
          [
            -115.0200599,
            36.2719669
          ],
          [
            -115.0201301,
            36.2719096
          ],
          [
            -115.0201929,
            36.2718471
          ],
          [
            -115.0202483,
            36.2717791
          ],
          [
            -115.0202951,
            36.271707
          ],
          [
            -115.0203327,
            36.2716315
          ],
          [
            -115.0203609,
            36.2715533
          ],
          [
            -115.0203793,
            36.2714733
          ],
          [
            -115.0203876,
            36.2713922
          ],
          [
            -115.020386,
            36.2713108
          ],
          [
            -115.0203753,
            36.2711248
          ],
          [
            -115.0203578,
            36.2710194
          ],
          [
            -115.0203323,
            36.2709151
          ],
          [
            -115.0202965,
            36.2708059
          ],
          [
            -115.0202519,
            36.2706988
          ],
          [
            -115.0201955,
            36.2695938
          ],
          [
            -115.0201937,
            36.2689415
          ],
          [
            -115.020192,
            36.2683221
          ],
          [
            -115.0201902,
            36.2676627
          ],
          [
            -115.020186,
            36.2675522
          ],
          [
            -115.0201741,
            36.2674421
          ],
          [
            -115.0201569,
            36.2673439
          ],
          [
            -115.0201337,
            36.2672465
          ],
          [
            -115.0201044,
            36.2671501
          ],
          [
            -115.0199997,
            36.2669079
          ],
          [
            -115.0199676,
            36.2668495
          ],
          [
            -115.0199112,
            36.2667652
          ],
          [
            -115.0198617,
            36.2666902
          ],
          [
            -115.0198062,
            36.266618
          ],
          [
            -115.0197449,
            36.2665489
          ],
          [
            -115.0196683,
            36.2664741
          ],
          [
            -115.019585,
            36.266404
          ],
          [
            -115.0194955,
            36.2663392
          ],
          [
            -115.019457,
            36.266312
          ],
          [
            -115.0194134,
            36.2662906
          ],
          [
            -115.0193658,
            36.2662756
          ],
          [
            -115.0193157,
            36.2662674
          ],
          [
            -115.0192647,
            36.2662663
          ],
          [
            -115.0192141,
            36.2662722
          ],
          [
            -115.0191656,
            36.2662851
          ],
          [
            -115.0191206,
            36.2663045
          ],
          [
            -115.0190804,
            36.2663298
          ],
          [
            -115.0190462,
            36.2663603
          ],
          [
            -115.019019,
            36.2663951
          ],
          [
            -115.0189996,
            36.2664331
          ],
          [
            -115.0189886,
            36.2664732
          ],
          [
            -115.0189763,
            36.2665422
          ],
          [
            -115.0189698,
            36.2666116
          ],
          [
            -115.0189687,
            36.2666755
          ],
          [
            -115.0189725,
            36.2667392
          ],
          [
            -115.019002,
            36.2670031
          ],
          [
            -115.0192165,
            36.2685839
          ],
          [
            -115.0192182,
            36.2686304
          ],
          [
            -115.0192125,
            36.2686767
          ],
          [
            -115.0191993,
            36.268722
          ],
          [
            -115.019179,
            36.2687656
          ],
          [
            -115.0191463,
            36.2688137
          ],
          [
            -115.0191048,
            36.2688573
          ],
          [
            -115.0190556,
            36.2688953
          ],
          [
            -115.0190198,
            36.2689224
          ],
          [
            -115.0189791,
            36.2689444
          ],
          [
            -115.0189345,
            36.2689608
          ],
          [
            -115.0188871,
            36.2689712
          ],
          [
            -115.0188383,
            36.2689753
          ],
          [
            -115.0187867,
            36.2689727
          ],
          [
            -115.0187364,
            36.268963
          ],
          [
            -115.0186889,
            36.2689465
          ],
          [
            -115.0186456,
            36.2689237
          ],
          [
            -115.0186077,
            36.2688953
          ],
          [
            -115.0185665,
            36.2688574
          ],
          [
            -115.018531,
            36.2688159
          ],
          [
            -115.0185016,
            36.2687714
          ],
          [
            -115.0184789,
            36.2687245
          ],
          [
            -115.018462,
            36.2686709
          ],
          [
            -115.0184536,
            36.2686161
          ],
          [
            -115.0184538,
            36.2685608
          ],
          [
            -115.0184628,
            36.2685061
          ],
          [
            -115.0185031,
            36.2683676
          ],
          [
            -115.0185209,
            36.2683125
          ],
          [
            -115.0185308,
            36.268256
          ],
          [
            -115.0185326,
            36.268199
          ],
          [
            -115.0185273,
            36.2681484
          ],
          [
            -115.0185156,
            36.2680984
          ],
          [
            -115.0184977,
            36.2680498
          ],
          [
            -115.0181377,
            36.2673785
          ],
          [
            -115.0181034,
            36.2673145
          ],
          [
            -115.0180806,
            36.2672727
          ],
          [
            -115.0180642,
            36.2672426
          ],
          [
            -115.0180283,
            36.2671696
          ],
          [
            -115.0179853,
            36.2670695
          ],
          [
            -115.0179486,
            36.2669678
          ],
          [
            -115.0179184,
            36.2668647
          ],
          [
            -115.0177547,
            36.2660969
          ],
          [
            -115.0177424,
            36.2660347
          ],
          [
            -115.0177225,
            36.2659737
          ],
          [
            -115.0176967,
            36.2659172
          ],
          [
            -115.0176645,
            36.265863
          ],
          [
            -115.017626,
            36.2658115
          ],
          [
            -115.0174195,
            36.2655628
          ],
          [
            -115.017378,
            36.2655096
          ],
          [
            -115.0173437,
            36.2654531
          ],
          [
            -115.0173172,
            36.2653941
          ],
          [
            -115.0172985,
            36.2653331
          ],
          [
            -115.017293,
            36.2653007
          ],
          [
            -115.017288,
            36.2652708
          ],
          [
            -115.0172859,
            36.265207
          ],
          [
            -115.0172923,
            36.2651433
          ],
          [
            -115.0173072,
            36.2650806
          ],
          [
            -115.0173304,
            36.2650196
          ],
          [
            -115.0173617,
            36.2649609
          ],
          [
            -115.0174007,
            36.2649053
          ],
          [
            -115.0176179,
            36.264648
          ],
          [
            -115.0176575,
            36.2646063
          ],
          [
            -115.0176883,
            36.2645601
          ],
          [
            -115.0177095,
            36.2645105
          ],
          [
            -115.0177205,
            36.2644588
          ],
          [
            -115.0177212,
            36.2644063
          ],
          [
            -115.0177114,
            36.2643544
          ],
          [
            -115.0176914,
            36.2643045
          ],
          [
            -115.0176618,
            36.2642577
          ],
          [
            -115.0176233,
            36.2642155
          ],
          [
            -115.0175799,
            36.2641807
          ],
          [
            -115.0175305,
            36.2641517
          ],
          [
            -115.0174763,
            36.2641289
          ],
          [
            -115.0174184,
            36.2641131
          ],
          [
            -115.0173582,
            36.2641044
          ],
          [
            -115.0172971,
            36.2641031
          ],
          [
            -115.0172364,
            36.2641092
          ],
          [
            -115.0171776,
            36.2641227
          ],
          [
            -115.017122,
            36.2641431
          ],
          [
            -115.0170708,
            36.26417
          ],
          [
            -115.0157136,
            36.2649508
          ],
          [
            -115.0156714,
            36.2649838
          ],
          [
            -115.0156362,
            36.2650217
          ],
          [
            -115.0156089,
            36.2650637
          ],
          [
            -115.0155902,
            36.2651086
          ],
          [
            -115.0155807,
            36.2651536
          ],
          [
            -115.0155798,
            36.2651992
          ],
          [
            -115.0155875,
            36.2652444
          ],
          [
            -115.0156036,
            36.2652881
          ],
          [
            -115.0156927,
            36.2654816
          ],
          [
            -115.0160441,
            36.2662749
          ],
          [
            -115.0170413,
            36.2685082
          ],
          [
            -115.0171143,
            36.2686714
          ],
          [
            -115.0172418,
            36.2689562
          ]
        ]
      }
    }
  ]
}
