{
  "type": "FeatureCollection",
  "bbox": [
    -115.0149351,
    36.2687078,
    -115.0056113,
    36.2757077
  ],
  "metadata": {
    "schemaVersion": 1,
    "trackId": "us-las-vegas-motor-speedway-27545411",
    "layoutId": "main",
    "license": "ODbL-1.0",
    "attribution": "© OpenStreetMap contributors",
    "closed": true,
    "geometryStatus": "draft",
    "timingStatus": "missing",
    "timingMode": "shared",
    "lengthM": 2476.9,
    "reviewedAt": null,
    "notes": [
      "Connected OSM course candidate. The selected loop is the longest simple source-node cycle after explicit exclusions; its association with a named circuit configuration requires review.",
      "Source way order and shared node IDs are retained. No nearby endpoints are joined and no reference boundaries are read."
    ]
  },
  "features": [
    {
      "type": "Feature",
      "id": "trace",
      "properties": {
        "role": "trace",
        "sourceIds": [
          "osm-snapshot"
        ]
      },
      "geometry": {
        "type": "LineString",
        "coordinates": [
          [
            -115.0121208,
            36.2747977
          ],
          [
            -115.0123218,
            36.2746873
          ],
          [
            -115.0125164,
            36.2745696
          ],
          [
            -115.0126275,
            36.2744962
          ],
          [
            -115.012698,
            36.2744491
          ],
          [
            -115.0128729,
            36.2743223
          ],
          [
            -115.0130408,
            36.2741895
          ],
          [
            -115.013104,
            36.2741348
          ],
          [
            -115.0132012,
            36.2740508
          ],
          [
            -115.0133538,
            36.2739065
          ],
          [
            -115.0134985,
            36.273757
          ],
          [
            -115.0136349,
            36.2736025
          ],
          [
            -115.0136714,
            36.273556
          ],
          [
            -115.0137685,
            36.2734344
          ],
          [
            -115.0138817,
            36.2732798
          ],
          [
            -115.0139916,
            36.2731121
          ],
          [
            -115.0147373,
            36.2716373
          ],
          [
            -115.0147975,
            36.2715074
          ],
          [
            -115.014847,
            36.2713745
          ],
          [
            -115.0148857,
            36.2712393
          ],
          [
            -115.0149133,
            36.2711023
          ],
          [
            -115.0149298,
            36.2709642
          ],
          [
            -115.0149351,
            36.2708255
          ],
          [
            -115.0149291,
            36.2706868
          ],
          [
            -115.0149119,
            36.2705488
          ],
          [
            -115.0148835,
            36.2704119
          ],
          [
            -115.0148441,
            36.2702768
          ],
          [
            -115.0147938,
            36.2701441
          ],
          [
            -115.0147329,
            36.2700143
          ],
          [
            -115.0146616,
            36.2698881
          ],
          [
            -115.0145802,
            36.2697658
          ],
          [
            -115.014489,
            36.2696481
          ],
          [
            -115.0143886,
            36.2695354
          ],
          [
            -115.0142806,
            36.2694296
          ],
          [
            -115.0141643,
            36.2693296
          ],
          [
            -115.0140403,
            36.2692358
          ],
          [
            -115.0139091,
            36.2691487
          ],
          [
            -115.0137711,
            36.2690686
          ],
          [
            -115.013627,
            36.2689958
          ],
          [
            -115.0134774,
            36.2689307
          ],
          [
            -115.0133229,
            36.2688736
          ],
          [
            -115.0131642,
            36.2688245
          ],
          [
            -115.0130018,
            36.2687839
          ],
          [
            -115.0128365,
            36.2687518
          ],
          [
            -115.012669,
            36.2687283
          ],
          [
            -115.0125,
            36.2687136
          ],
          [
            -115.0123302,
            36.2687078
          ],
          [
            -115.0121602,
            36.2687107
          ],
          [
            -115.0119908,
            36.2687226
          ],
          [
            -115.0118228,
            36.2687432
          ],
          [
            -115.0116567,
            36.2687725
          ],
          [
            -115.0114933,
            36.2688104
          ],
          [
            -115.0113333,
            36.2688567
          ],
          [
            -115.0111774,
            36.2689113
          ],
          [
            -115.0110261,
            36.2689738
          ],
          [
            -115.0108802,
            36.2690441
          ],
          [
            -115.0107401,
            36.2691218
          ],
          [
            -115.0106067,
            36.2692067
          ],
          [
            -115.0105365,
            36.269253
          ],
          [
            -115.0104558,
            36.2693068
          ],
          [
            -115.0103938,
            36.2693481
          ],
          [
            -115.0101462,
            36.2695131
          ],
          [
            -115.0100381,
            36.2695851
          ],
          [
            -115.0099409,
            36.2696499
          ],
          [
            -115.0098347,
            36.2697207
          ],
          [
            -115.0069267,
            36.271659
          ],
          [
            -115.0067963,
            36.2717458
          ],
          [
            -115.0066705,
            36.2718368
          ],
          [
            -115.0065494,
            36.2719319
          ],
          [
            -115.0064331,
            36.2720309
          ],
          [
            -115.0062899,
            36.272165
          ],
          [
            -115.0061557,
            36.2723049
          ],
          [
            -115.0060308,
            36.2724504
          ],
          [
            -115.0059428,
            36.2725684
          ],
          [
            -115.0058645,
            36.2726908
          ],
          [
            -115.0057962,
            36.2728171
          ],
          [
            -115.0057643,
            36.2728862
          ],
          [
            -115.0057383,
            36.2729467
          ],
          [
            -115.005691,
            36.273079
          ],
          [
            -115.0056546,
            36.2732135
          ],
          [
            -115.005629,
            36.2733497
          ],
          [
            -115.0056146,
            36.2734869
          ],
          [
            -115.0056113,
            36.2736246
          ],
          [
            -115.0056191,
            36.2737622
          ],
          [
            -115.005638,
            36.2738991
          ],
          [
            -115.005668,
            36.2740346
          ],
          [
            -115.0057088,
            36.2741684
          ],
          [
            -115.0057604,
            36.2742996
          ],
          [
            -115.0058225,
            36.2744279
          ],
          [
            -115.0058949,
            36.2745527
          ],
          [
            -115.0059772,
            36.2746734
          ],
          [
            -115.0060682,
            36.2747886
          ],
          [
            -115.0061684,
            36.2748987
          ],
          [
            -115.0062771,
            36.2750035
          ],
          [
            -115.0063941,
            36.2751023
          ],
          [
            -115.0065187,
            36.2751949
          ],
          [
            -115.0066505,
            36.2752807
          ],
          [
            -115.0067889,
            36.2753595
          ],
          [
            -115.0069333,
            36.275431
          ],
          [
            -115.0070832,
            36.2754947
          ],
          [
            -115.0072378,
            36.2755505
          ],
          [
            -115.0073966,
            36.2755981
          ],
          [
            -115.0075589,
            36.2756373
          ],
          [
            -115.0077241,
            36.275668
          ],
          [
            -115.0078913,
            36.27569
          ],
          [
            -115.0080599,
            36.2757033
          ],
          [
            -115.0082293,
            36.2757077
          ],
          [
            -115.0083986,
            36.2757033
          ],
          [
            -115.0085672,
            36.2756901
          ],
          [
            -115.0087345,
            36.2756681
          ],
          [
            -115.0103331,
            36.2753956
          ],
          [
            -115.0105697,
            36.2753501
          ],
          [
            -115.0108035,
            36.275296
          ],
          [
            -115.011034,
            36.2752334
          ],
          [
            -115.0112608,
            36.2751624
          ],
          [
            -115.0114833,
            36.2750832
          ],
          [
            -115.0117011,
            36.2749958
          ],
          [
            -115.0119137,
            36.2749006
          ],
          [
            -115.0121208,
            36.2747977
          ]
        ]
      }
    }
  ]
}
