{
  "type": "FeatureCollection",
  "bbox": [
    26.7103557,
    -27.9079866,
    26.7191962,
    -27.9008329
  ],
  "metadata": {
    "schemaVersion": 1,
    "trackId": "za-phakisa-freeway-79bc85ad",
    "layoutId": "phakisa-freeway",
    "license": "ODbL-1.0",
    "attribution": "© OpenStreetMap contributors",
    "closed": true,
    "geometryStatus": "draft",
    "timingStatus": "missing",
    "timingMode": "shared",
    "lengthM": 4256.9,
    "reviewedAt": null,
    "notes": [
      "Draft route hypothesis: the source cycle is the unique closest nominal-distance match within conservative timing and distance checks. Approximate OSM trace length 4256.9 m. Difference from the supplied layout distance 12.9 m. Course configuration still requires visual review."
    ]
  },
  "features": [
    {
      "type": "Feature",
      "id": "trace",
      "properties": {
        "role": "trace",
        "sourceIds": [
          "osm-network-677349494"
        ]
      },
      "geometry": {
        "type": "LineString",
        "coordinates": [
          [
            26.7103557,
            -27.9027103
          ],
          [
            26.7108009,
            -27.9064886
          ],
          [
            26.7108385,
            -27.9066545
          ],
          [
            26.7109297,
            -27.9068442
          ],
          [
            26.7110423,
            -27.9069911
          ],
          [
            26.7111067,
            -27.9070527
          ],
          [
            26.7122064,
            -27.9078871
          ],
          [
            26.7123512,
            -27.907944
          ],
          [
            26.7125819,
            -27.9079866
          ],
          [
            26.7127858,
            -27.9079866
          ],
          [
            26.7129682,
            -27.9079487
          ],
          [
            26.7131774,
            -27.9078681
          ],
          [
            26.7133705,
            -27.9077117
          ],
          [
            26.7135046,
            -27.9075126
          ],
          [
            26.7139659,
            -27.9066925
          ],
          [
            26.7141322,
            -27.9064649
          ],
          [
            26.7142663,
            -27.9062943
          ],
          [
            26.7145963,
            -27.9059683
          ],
          [
            26.7150871,
            -27.9054836
          ],
          [
            26.7152391,
            -27.9052748
          ],
          [
            26.7155163,
            -27.9048626
          ],
          [
            26.7160742,
            -27.9039287
          ],
          [
            26.7162512,
            -27.9037959
          ],
          [
            26.7164443,
            -27.903739
          ],
          [
            26.7166213,
            -27.9037438
          ],
          [
            26.7167018,
            -27.903777
          ],
          [
            26.7168144,
            -27.9038623
          ],
          [
            26.7179517,
            -27.9049906
          ],
          [
            26.7181824,
            -27.905147
          ],
          [
            26.7184238,
            -27.9052276
          ],
          [
            26.7186544,
            -27.9052371
          ],
          [
            26.718869,
            -27.9051849
          ],
          [
            26.7190299,
            -27.9050854
          ],
          [
            26.7191587,
            -27.9049527
          ],
          [
            26.7191962,
            -27.9048247
          ],
          [
            26.7191962,
            -27.904654
          ],
          [
            26.7191426,
            -27.9045402
          ],
          [
            26.7190246,
            -27.9043885
          ],
          [
            26.716675,
            -27.901966
          ],
          [
            26.716557,
            -27.9018759
          ],
          [
            26.716396,
            -27.9018285
          ],
          [
            26.7162619,
            -27.9018238
          ],
          [
            26.7161171,
            -27.9018522
          ],
          [
            26.7159722,
            -27.9019091
          ],
          [
            26.7158649,
            -27.9019897
          ],
          [
            26.7157737,
            -27.9021224
          ],
          [
            26.7156289,
            -27.9025017
          ],
          [
            26.715468,
            -27.9028478
          ],
          [
            26.7153017,
            -27.9031133
          ],
          [
            26.7151729,
            -27.9032839
          ],
          [
            26.715009,
            -27.9034452
          ],
          [
            26.7149369,
            -27.9035162
          ],
          [
            26.7143522,
            -27.9039097
          ],
          [
            26.7141376,
            -27.9040709
          ],
          [
            26.7138962,
            -27.9043079
          ],
          [
            26.7136816,
            -27.9045971
          ],
          [
            26.7135368,
            -27.9048578
          ],
          [
            26.7134429,
            -27.9050925
          ],
          [
            26.7129091,
            -27.906427
          ],
          [
            26.7127536,
            -27.9066071
          ],
          [
            26.7125766,
            -27.9067399
          ],
          [
            26.7123512,
            -27.9068347
          ],
          [
            26.7121259,
            -27.9068442
          ],
          [
            26.7119006,
            -27.9067778
          ],
          [
            26.7117129,
            -27.9066925
          ],
          [
            26.7115037,
            -27.9065028
          ],
          [
            26.7114178,
            -27.9063559
          ],
          [
            26.7113642,
            -27.90619
          ],
          [
            26.7109404,
            -27.9027008
          ],
          [
            26.7109565,
            -27.9025349
          ],
          [
            26.7110155,
            -27.9023832
          ],
          [
            26.711155,
            -27.902222
          ],
          [
            26.711391,
            -27.9020892
          ],
          [
            26.7116324,
            -27.9020276
          ],
          [
            26.7118094,
            -27.9020276
          ],
          [
            26.7129536,
            -27.9022045
          ],
          [
            26.7136494,
            -27.9023121
          ],
          [
            26.7137996,
            -27.9022931
          ],
          [
            26.7139498,
            -27.9022315
          ],
          [
            26.714041,
            -27.9021272
          ],
          [
            26.7140786,
            -27.9019802
          ],
          [
            26.7140786,
            -27.9018427
          ],
          [
            26.7140493,
            -27.9017552
          ],
          [
            26.7139767,
            -27.9016436
          ],
          [
            26.7131935,
            -27.9010463
          ],
          [
            26.7130003,
            -27.9009325
          ],
          [
            26.7127053,
            -27.9008519
          ],
          [
            26.71248,
            -27.9008329
          ],
          [
            26.7122976,
            -27.9008329
          ],
          [
            26.7121045,
            -27.9008709
          ],
          [
            26.7118845,
            -27.9009372
          ],
          [
            26.7117719,
            -27.9009846
          ],
          [
            26.710994,
            -27.9014729
          ],
          [
            26.7107741,
            -27.9016626
          ],
          [
            26.7106185,
            -27.9018617
          ],
          [
            26.7104683,
            -27.9021746
          ],
          [
            26.7103986,
            -27.9023974
          ],
          [
            26.7103557,
            -27.9027103
          ]
        ]
      }
    }
  ]
}
