{
  "type": "FeatureCollection",
  "bbox": [
    -71.4629464,
    43.359427,
    -71.4575659,
    43.3656927
  ],
  "metadata": {
    "schemaVersion": 1,
    "trackId": "us-new-hampshire-motor-speedway-60096117",
    "layoutId": "main",
    "license": "ODbL-1.0",
    "attribution": "© OpenStreetMap contributors",
    "closed": true,
    "geometryStatus": "draft",
    "timingStatus": "missing",
    "timingMode": "shared",
    "lengthM": 2635.4,
    "reviewedAt": null,
    "notes": [
      "Connected OSM course candidate. The selected loop is the longest simple source-node cycle after explicit exclusions; its association with a named circuit configuration requires review.",
      "Source way order and shared node IDs are retained. No nearby endpoints are joined and no Racelogic boundaries are read."
    ]
  },
  "features": [
    {
      "type": "Feature",
      "id": "trace",
      "properties": {
        "role": "trace",
        "sourceIds": [
          "osm-snapshot"
        ]
      },
      "geometry": {
        "type": "LineString",
        "coordinates": [
          [
            -71.4629464,
            43.3608635
          ],
          [
            -71.4629363,
            43.3607567
          ],
          [
            -71.4629201,
            43.3606543
          ],
          [
            -71.4628377,
            43.360445
          ],
          [
            -71.462728,
            43.3602931
          ],
          [
            -71.4626775,
            43.3602392
          ],
          [
            -71.4626469,
            43.3602095
          ],
          [
            -71.4625388,
            43.3601045
          ],
          [
            -71.4623586,
            43.3599797
          ],
          [
            -71.462191,
            43.3598931
          ],
          [
            -71.4619999,
            43.3598212
          ],
          [
            -71.4617927,
            43.3597637
          ],
          [
            -71.4616067,
            43.3597328
          ],
          [
            -71.4614097,
            43.3597172
          ],
          [
            -71.4611767,
            43.3597277
          ],
          [
            -71.460969,
            43.359756
          ],
          [
            -71.4608087,
            43.3597925
          ],
          [
            -71.4606586,
            43.3598422
          ],
          [
            -71.4605262,
            43.359891
          ],
          [
            -71.4603545,
            43.3599795
          ],
          [
            -71.4602072,
            43.3600739
          ],
          [
            -71.4600841,
            43.3601791
          ],
          [
            -71.459983,
            43.3602933
          ],
          [
            -71.4598962,
            43.360425
          ],
          [
            -71.4598322,
            43.3605508
          ],
          [
            -71.4592034,
            43.3619287
          ],
          [
            -71.4591515,
            43.3624344
          ],
          [
            -71.4591342,
            43.3626796
          ],
          [
            -71.4591139,
            43.3628329
          ],
          [
            -71.4590914,
            43.3628809
          ],
          [
            -71.4590701,
            43.3629033
          ],
          [
            -71.4590457,
            43.3629172
          ],
          [
            -71.4590119,
            43.3629295
          ],
          [
            -71.4589778,
            43.3629313
          ],
          [
            -71.4589287,
            43.3629268
          ],
          [
            -71.4587388,
            43.3628936
          ],
          [
            -71.4585902,
            43.3628583
          ],
          [
            -71.4584218,
            43.3628007
          ],
          [
            -71.4583554,
            43.3627644
          ],
          [
            -71.4583163,
            43.3627292
          ],
          [
            -71.4582664,
            43.3626728
          ],
          [
            -71.4582302,
            43.3626113
          ],
          [
            -71.458208,
            43.3625204
          ],
          [
            -71.4582098,
            43.3623509
          ],
          [
            -71.4582316,
            43.3622577
          ],
          [
            -71.4582658,
            43.3621475
          ],
          [
            -71.4584022,
            43.3618616
          ],
          [
            -71.4585748,
            43.3615343
          ],
          [
            -71.458852,
            43.3610883
          ],
          [
            -71.4589206,
            43.3609829
          ],
          [
            -71.4589951,
            43.3608893
          ],
          [
            -71.4590438,
            43.3608373
          ],
          [
            -71.4592939,
            43.3605702
          ],
          [
            -71.4594059,
            43.3604424
          ],
          [
            -71.4595733,
            43.3602155
          ],
          [
            -71.4596418,
            43.3600832
          ],
          [
            -71.4596873,
            43.3599686
          ],
          [
            -71.4597248,
            43.3597257
          ],
          [
            -71.4596771,
            43.3595769
          ],
          [
            -71.459595,
            43.3594844
          ],
          [
            -71.4595238,
            43.3594489
          ],
          [
            -71.4594227,
            43.359427
          ],
          [
            -71.4593169,
            43.3594294
          ],
          [
            -71.459181,
            43.3594473
          ],
          [
            -71.4590843,
            43.3594803
          ],
          [
            -71.4589609,
            43.3595369
          ],
          [
            -71.4587451,
            43.3596658
          ],
          [
            -71.4585735,
            43.3597951
          ],
          [
            -71.4583932,
            43.3599461
          ],
          [
            -71.4583153,
            43.3600658
          ],
          [
            -71.4582819,
            43.3601874
          ],
          [
            -71.458292,
            43.3603001
          ],
          [
            -71.4583133,
            43.3603637
          ],
          [
            -71.4583326,
            43.3604211
          ],
          [
            -71.4583754,
            43.3605178
          ],
          [
            -71.458408,
            43.3606199
          ],
          [
            -71.4584205,
            43.3607057
          ],
          [
            -71.4584189,
            43.3607624
          ],
          [
            -71.4584036,
            43.3608443
          ],
          [
            -71.4583255,
            43.3612204
          ],
          [
            -71.4582327,
            43.3615254
          ],
          [
            -71.4581677,
            43.3616256
          ],
          [
            -71.4580786,
            43.3617299
          ],
          [
            -71.4580148,
            43.3617971
          ],
          [
            -71.4579147,
            43.3618722
          ],
          [
            -71.4578115,
            43.3619407
          ],
          [
            -71.4577008,
            43.3620198
          ],
          [
            -71.457626,
            43.3620891
          ],
          [
            -71.457593,
            43.3621398
          ],
          [
            -71.457578,
            43.3622041
          ],
          [
            -71.4575659,
            43.3623322
          ],
          [
            -71.4575804,
            43.3624461
          ],
          [
            -71.4576169,
            43.3625603
          ],
          [
            -71.4576475,
            43.3626464
          ],
          [
            -71.4577251,
            43.3627444
          ],
          [
            -71.4578148,
            43.3628265
          ],
          [
            -71.457943,
            43.3629002
          ],
          [
            -71.4581072,
            43.3629559
          ],
          [
            -71.4583494,
            43.3630206
          ],
          [
            -71.4584198,
            43.3630497
          ],
          [
            -71.4585039,
            43.3630905
          ],
          [
            -71.4585888,
            43.3631536
          ],
          [
            -71.4586108,
            43.3631743
          ],
          [
            -71.4581881,
            43.3640824
          ],
          [
            -71.4581262,
            43.3641921
          ],
          [
            -71.4580902,
            43.3642912
          ],
          [
            -71.4580665,
            43.3643922
          ],
          [
            -71.4580551,
            43.3644943
          ],
          [
            -71.4580561,
            43.3645967
          ],
          [
            -71.4580697,
            43.3646987
          ],
          [
            -71.4580955,
            43.3647994
          ],
          [
            -71.4581336,
            43.364898
          ],
          [
            -71.4581835,
            43.3649938
          ],
          [
            -71.4582448,
            43.3650861
          ],
          [
            -71.4583172,
            43.365174
          ],
          [
            -71.4583999,
            43.3652569
          ],
          [
            -71.4584925,
            43.3653342
          ],
          [
            -71.458594,
            43.3654052
          ],
          [
            -71.4587038,
            43.3654694
          ],
          [
            -71.458821,
            43.3655263
          ],
          [
            -71.4589447,
            43.3655754
          ],
          [
            -71.4590738,
            43.3656164
          ],
          [
            -71.4592075,
            43.3656489
          ],
          [
            -71.4593296,
            43.3656705
          ],
          [
            -71.4594536,
            43.3656851
          ],
          [
            -71.4595789,
            43.3656925
          ],
          [
            -71.4597046,
            43.3656927
          ],
          [
            -71.4598299,
            43.3656857
          ],
          [
            -71.4599541,
            43.3656715
          ],
          [
            -71.4600763,
            43.3656502
          ],
          [
            -71.4601959,
            43.365622
          ],
          [
            -71.4603167,
            43.3655854
          ],
          [
            -71.4604331,
            43.3655418
          ],
          [
            -71.460544,
            43.3654913
          ],
          [
            -71.4606489,
            43.3654343
          ],
          [
            -71.460747,
            43.3653713
          ],
          [
            -71.4608377,
            43.3653026
          ],
          [
            -71.4609155,
            43.3652334
          ],
          [
            -71.4609857,
            43.36516
          ],
          [
            -71.4610479,
            43.3650829
          ],
          [
            -71.4611017,
            43.3650025
          ],
          [
            -71.4611468,
            43.3649194
          ],
          [
            -71.4613382,
            43.3645125
          ],
          [
            -71.4617079,
            43.363787
          ],
          [
            -71.4620158,
            43.3631079
          ],
          [
            -71.4625254,
            43.3620295
          ],
          [
            -71.4626756,
            43.3616912
          ],
          [
            -71.4628258,
            43.3613528
          ],
          [
            -71.4628788,
            43.3612231
          ],
          [
            -71.4629264,
            43.36103
          ],
          [
            -71.4629464,
            43.3608635
          ]
        ]
      }
    }
  ]
}
