{
  "type": "FeatureCollection",
  "bbox": [
    -71.4629464,
    43.359427,
    -71.4575659,
    43.365354
  ],
  "metadata": {
    "schemaVersion": 1,
    "trackId": "us-new-hampshire-motor-speedway-60096117",
    "layoutId": "new-hampshire-motor-spdwy-chicane",
    "license": "ODbL-1.0",
    "attribution": "© OpenStreetMap contributors",
    "closed": true,
    "geometryStatus": "draft",
    "timingStatus": "missing",
    "timingMode": "shared",
    "lengthM": 2533.3,
    "reviewedAt": null,
    "notes": [
      "Draft configuration selected from the independently named circuit relation 10625003. The source route passes timing and course-distance checks. Layout identity and travel direction still require visual review.",
      "Source one-way tags are preserved. Relation routes can follow a race-day direction different from ordinary road use; travel direction is provisional."
    ]
  },
  "features": [
    {
      "type": "Feature",
      "id": "trace",
      "properties": {
        "role": "trace",
        "sourceIds": [
          "osm-circuit-10625003"
        ]
      },
      "geometry": {
        "type": "LineString",
        "coordinates": [
          [
            -71.4629464,
            43.3608635
          ],
          [
            -71.4629363,
            43.3607567
          ],
          [
            -71.4629201,
            43.3606543
          ],
          [
            -71.4628377,
            43.360445
          ],
          [
            -71.462728,
            43.3602931
          ],
          [
            -71.4626775,
            43.3602392
          ],
          [
            -71.4626469,
            43.3602095
          ],
          [
            -71.4625388,
            43.3601045
          ],
          [
            -71.4623586,
            43.3599797
          ],
          [
            -71.462191,
            43.3598931
          ],
          [
            -71.4619999,
            43.3598212
          ],
          [
            -71.4617927,
            43.3597637
          ],
          [
            -71.4616067,
            43.3597328
          ],
          [
            -71.4614097,
            43.3597172
          ],
          [
            -71.4611767,
            43.3597277
          ],
          [
            -71.460969,
            43.359756
          ],
          [
            -71.4608087,
            43.3597925
          ],
          [
            -71.4606586,
            43.3598422
          ],
          [
            -71.4605262,
            43.359891
          ],
          [
            -71.4603545,
            43.3599795
          ],
          [
            -71.4602072,
            43.3600739
          ],
          [
            -71.4600841,
            43.3601791
          ],
          [
            -71.459983,
            43.3602933
          ],
          [
            -71.4598962,
            43.360425
          ],
          [
            -71.4598322,
            43.3605508
          ],
          [
            -71.4592034,
            43.3619287
          ],
          [
            -71.4591515,
            43.3624344
          ],
          [
            -71.4591342,
            43.3626796
          ],
          [
            -71.4591139,
            43.3628329
          ],
          [
            -71.4590914,
            43.3628809
          ],
          [
            -71.4590701,
            43.3629033
          ],
          [
            -71.4590457,
            43.3629172
          ],
          [
            -71.4590119,
            43.3629295
          ],
          [
            -71.4589778,
            43.3629313
          ],
          [
            -71.4589287,
            43.3629268
          ],
          [
            -71.4587388,
            43.3628936
          ],
          [
            -71.4585902,
            43.3628583
          ],
          [
            -71.4584218,
            43.3628007
          ],
          [
            -71.4583554,
            43.3627644
          ],
          [
            -71.4583163,
            43.3627292
          ],
          [
            -71.4582664,
            43.3626728
          ],
          [
            -71.4582302,
            43.3626113
          ],
          [
            -71.458208,
            43.3625204
          ],
          [
            -71.4582098,
            43.3623509
          ],
          [
            -71.4582316,
            43.3622577
          ],
          [
            -71.4582658,
            43.3621475
          ],
          [
            -71.4584022,
            43.3618616
          ],
          [
            -71.4585748,
            43.3615343
          ],
          [
            -71.458852,
            43.3610883
          ],
          [
            -71.4589206,
            43.3609829
          ],
          [
            -71.4589951,
            43.3608893
          ],
          [
            -71.4590438,
            43.3608373
          ],
          [
            -71.4592939,
            43.3605702
          ],
          [
            -71.4594059,
            43.3604424
          ],
          [
            -71.4595733,
            43.3602155
          ],
          [
            -71.4596418,
            43.3600832
          ],
          [
            -71.4596873,
            43.3599686
          ],
          [
            -71.4597248,
            43.3597257
          ],
          [
            -71.4596771,
            43.3595769
          ],
          [
            -71.459595,
            43.3594844
          ],
          [
            -71.4595238,
            43.3594489
          ],
          [
            -71.4594227,
            43.359427
          ],
          [
            -71.4593169,
            43.3594294
          ],
          [
            -71.459181,
            43.3594473
          ],
          [
            -71.4590843,
            43.3594803
          ],
          [
            -71.4589609,
            43.3595369
          ],
          [
            -71.4587451,
            43.3596658
          ],
          [
            -71.4585735,
            43.3597951
          ],
          [
            -71.4583932,
            43.3599461
          ],
          [
            -71.4583153,
            43.3600658
          ],
          [
            -71.4582819,
            43.3601874
          ],
          [
            -71.458292,
            43.3603001
          ],
          [
            -71.4583133,
            43.3603637
          ],
          [
            -71.4583326,
            43.3604211
          ],
          [
            -71.4583754,
            43.3605178
          ],
          [
            -71.458408,
            43.3606199
          ],
          [
            -71.4584205,
            43.3607057
          ],
          [
            -71.4584189,
            43.3607624
          ],
          [
            -71.4584036,
            43.3608443
          ],
          [
            -71.4583255,
            43.3612204
          ],
          [
            -71.4582327,
            43.3615254
          ],
          [
            -71.4581677,
            43.3616256
          ],
          [
            -71.4580786,
            43.3617299
          ],
          [
            -71.4580148,
            43.3617971
          ],
          [
            -71.4579147,
            43.3618722
          ],
          [
            -71.4578115,
            43.3619407
          ],
          [
            -71.4577008,
            43.3620198
          ],
          [
            -71.457626,
            43.3620891
          ],
          [
            -71.457593,
            43.3621398
          ],
          [
            -71.457578,
            43.3622041
          ],
          [
            -71.4575659,
            43.3623322
          ],
          [
            -71.4575804,
            43.3624461
          ],
          [
            -71.4576169,
            43.3625603
          ],
          [
            -71.4576475,
            43.3626464
          ],
          [
            -71.4577251,
            43.3627444
          ],
          [
            -71.4578148,
            43.3628265
          ],
          [
            -71.457943,
            43.3629002
          ],
          [
            -71.4581072,
            43.3629559
          ],
          [
            -71.4583494,
            43.3630206
          ],
          [
            -71.4584198,
            43.3630497
          ],
          [
            -71.4585039,
            43.3630905
          ],
          [
            -71.4585888,
            43.3631536
          ],
          [
            -71.4586108,
            43.3631743
          ],
          [
            -71.4586289,
            43.3631852
          ],
          [
            -71.4586743,
            43.3632379
          ],
          [
            -71.458693,
            43.363278
          ],
          [
            -71.4587038,
            43.3633309
          ],
          [
            -71.4587099,
            43.3635139
          ],
          [
            -71.4586684,
            43.3637891
          ],
          [
            -71.4585996,
            43.3640801
          ],
          [
            -71.4585617,
            43.364209
          ],
          [
            -71.4585464,
            43.3643007
          ],
          [
            -71.4585613,
            43.3643247
          ],
          [
            -71.4585493,
            43.3644152
          ],
          [
            -71.4585633,
            43.3645405
          ],
          [
            -71.4585788,
            43.364633
          ],
          [
            -71.4585964,
            43.3647247
          ],
          [
            -71.4586134,
            43.3647664
          ],
          [
            -71.4586329,
            43.3647918
          ],
          [
            -71.4586856,
            43.3648415
          ],
          [
            -71.4587828,
            43.3649009
          ],
          [
            -71.4588514,
            43.3649445
          ],
          [
            -71.4589003,
            43.3649987
          ],
          [
            -71.4589415,
            43.3650879
          ],
          [
            -71.4589639,
            43.3651398
          ],
          [
            -71.4589958,
            43.3651991
          ],
          [
            -71.4590308,
            43.3652356
          ],
          [
            -71.4590842,
            43.3652803
          ],
          [
            -71.4591633,
            43.3653158
          ],
          [
            -71.4592607,
            43.3653457
          ],
          [
            -71.4593587,
            43.365354
          ],
          [
            -71.4594475,
            43.3653521
          ],
          [
            -71.459525,
            43.3653398
          ],
          [
            -71.4596139,
            43.3653104
          ],
          [
            -71.4596993,
            43.3652675
          ],
          [
            -71.4597449,
            43.3652432
          ],
          [
            -71.4598223,
            43.3652189
          ],
          [
            -71.4599009,
            43.3651993
          ],
          [
            -71.4600692,
            43.365159
          ],
          [
            -71.4603042,
            43.365103
          ],
          [
            -71.4605145,
            43.3650358
          ],
          [
            -71.4607216,
            43.3649489
          ],
          [
            -71.4608943,
            43.3648511
          ],
          [
            -71.461229,
            43.3646095
          ],
          [
            -71.4613382,
            43.3645125
          ],
          [
            -71.4617079,
            43.363787
          ],
          [
            -71.4620158,
            43.3631079
          ],
          [
            -71.4625254,
            43.3620295
          ],
          [
            -71.4626756,
            43.3616912
          ],
          [
            -71.4628258,
            43.3613528
          ],
          [
            -71.4628788,
            43.3612231
          ],
          [
            -71.4629264,
            43.36103
          ],
          [
            -71.4629464,
            43.3608635
          ]
        ]
      }
    }
  ]
}
