{
  "type": "FeatureCollection",
  "bbox": [
    3.0256504,
    45.7387888,
    3.0411578,
    45.7446439
  ],
  "metadata": {
    "schemaVersion": 1,
    "trackId": "fr-circuit-de-charade-34405294",
    "layoutId": "main",
    "license": "ODbL-1.0",
    "attribution": "© OpenStreetMap contributors",
    "closed": true,
    "geometryStatus": "draft",
    "timingStatus": "missing",
    "timingMode": "shared",
    "lengthM": 3939,
    "reviewedAt": null,
    "notes": [
      "Closed named OSM raceway retained as a course candidate. Named-layout association requires review.",
      "Source way order and shared node IDs are retained. No nearby endpoints are joined and no Racelogic boundaries are read."
    ]
  },
  "features": [
    {
      "type": "Feature",
      "id": "trace",
      "properties": {
        "role": "trace",
        "sourceIds": [
          "osm-snapshot"
        ]
      },
      "geometry": {
        "type": "LineString",
        "coordinates": [
          [
            3.0385988,
            45.7421958
          ],
          [
            3.0385116,
            45.7421446
          ],
          [
            3.0384323,
            45.7421065
          ],
          [
            3.0383317,
            45.7420676
          ],
          [
            3.0382516,
            45.7420431
          ],
          [
            3.0381861,
            45.7420249
          ],
          [
            3.038121,
            45.7420122
          ],
          [
            3.0377436,
            45.7419606
          ],
          [
            3.0373621,
            45.7419154
          ],
          [
            3.0364681,
            45.7417967
          ],
          [
            3.0362716,
            45.7417603
          ],
          [
            3.0357959,
            45.7416441
          ],
          [
            3.0353157,
            45.7415267
          ],
          [
            3.0352547,
            45.7415151
          ],
          [
            3.0351878,
            45.7415053
          ],
          [
            3.0350853,
            45.7414889
          ],
          [
            3.0349841,
            45.74148
          ],
          [
            3.0348045,
            45.7414748
          ],
          [
            3.0334112,
            45.7414556
          ],
          [
            3.0327073,
            45.7414503
          ],
          [
            3.0321885,
            45.7414431
          ],
          [
            3.0320282,
            45.7414377
          ],
          [
            3.031978,
            45.7414354
          ],
          [
            3.0319375,
            45.7414284
          ],
          [
            3.0318423,
            45.7414042
          ],
          [
            3.0317718,
            45.7413764
          ],
          [
            3.031713,
            45.741337
          ],
          [
            3.0316741,
            45.7413056
          ],
          [
            3.0316407,
            45.7412607
          ],
          [
            3.0316213,
            45.7412099
          ],
          [
            3.0316186,
            45.7411752
          ],
          [
            3.0316189,
            45.7411235
          ],
          [
            3.0316245,
            45.7410906
          ],
          [
            3.0316364,
            45.7410628
          ],
          [
            3.0316525,
            45.7410351
          ],
          [
            3.0316741,
            45.7410132
          ],
          [
            3.0317216,
            45.7409718
          ],
          [
            3.0317705,
            45.7409406
          ],
          [
            3.0318591,
            45.7408949
          ],
          [
            3.0319448,
            45.7408637
          ],
          [
            3.0322217,
            45.7407684
          ],
          [
            3.0325028,
            45.7406773
          ],
          [
            3.0326995,
            45.7406106
          ],
          [
            3.0327872,
            45.7405854
          ],
          [
            3.0328864,
            45.7405596
          ],
          [
            3.0329867,
            45.7405397
          ],
          [
            3.0330927,
            45.7405236
          ],
          [
            3.0333174,
            45.7405038
          ],
          [
            3.0336904,
            45.7404749
          ],
          [
            3.0337526,
            45.7404626
          ],
          [
            3.0337981,
            45.7404474
          ],
          [
            3.033851,
            45.7404132
          ],
          [
            3.0338773,
            45.7403815
          ],
          [
            3.0338888,
            45.7403629
          ],
          [
            3.0338966,
            45.7403332
          ],
          [
            3.0338954,
            45.740309
          ],
          [
            3.0338904,
            45.7402914
          ],
          [
            3.0338807,
            45.7402668
          ],
          [
            3.0338634,
            45.7402417
          ],
          [
            3.0338343,
            45.7402159
          ],
          [
            3.0338,
            45.7401952
          ],
          [
            3.0337562,
            45.74018
          ],
          [
            3.033716,
            45.7401722
          ],
          [
            3.0336632,
            45.7401703
          ],
          [
            3.0336112,
            45.7401774
          ],
          [
            3.0335675,
            45.7401882
          ],
          [
            3.0332597,
            45.7402904
          ],
          [
            3.0331171,
            45.7403245
          ],
          [
            3.0330471,
            45.7403362
          ],
          [
            3.0329764,
            45.7403455
          ],
          [
            3.0328756,
            45.7403552
          ],
          [
            3.0327712,
            45.7403633
          ],
          [
            3.0326738,
            45.7403609
          ],
          [
            3.0325752,
            45.7403564
          ],
          [
            3.0323268,
            45.740334
          ],
          [
            3.0318682,
            45.7402843
          ],
          [
            3.0314201,
            45.740228
          ],
          [
            3.0313351,
            45.7402144
          ],
          [
            3.0312488,
            45.7401912
          ],
          [
            3.0311591,
            45.7401651
          ],
          [
            3.0310669,
            45.740128
          ],
          [
            3.0310222,
            45.7401091
          ],
          [
            3.030978,
            45.7400843
          ],
          [
            3.030914,
            45.7400377
          ],
          [
            3.0308543,
            45.7399945
          ],
          [
            3.0308062,
            45.7399527
          ],
          [
            3.0307564,
            45.7398999
          ],
          [
            3.0307241,
            45.7398554
          ],
          [
            3.030696,
            45.739811
          ],
          [
            3.0306755,
            45.7397728
          ],
          [
            3.0306511,
            45.7397231
          ],
          [
            3.0306427,
            45.7396774
          ],
          [
            3.0306344,
            45.7396034
          ],
          [
            3.0306334,
            45.7395509
          ],
          [
            3.0306422,
            45.7394811
          ],
          [
            3.0306459,
            45.7394245
          ],
          [
            3.0306447,
            45.7393682
          ],
          [
            3.0306385,
            45.7393305
          ],
          [
            3.0306304,
            45.739296
          ],
          [
            3.0306106,
            45.7392508
          ],
          [
            3.0305893,
            45.7392136
          ],
          [
            3.0305686,
            45.7391696
          ],
          [
            3.0305399,
            45.739129
          ],
          [
            3.0304723,
            45.7390539
          ],
          [
            3.0304213,
            45.7390103
          ],
          [
            3.0303664,
            45.7389727
          ],
          [
            3.0302551,
            45.7389052
          ],
          [
            3.0301864,
            45.7388731
          ],
          [
            3.0301172,
            45.7388482
          ],
          [
            3.0300458,
            45.7388268
          ],
          [
            3.029986,
            45.738812
          ],
          [
            3.0299081,
            45.7387975
          ],
          [
            3.0298233,
            45.7387913
          ],
          [
            3.0297542,
            45.7387888
          ],
          [
            3.0296235,
            45.7387914
          ],
          [
            3.0295112,
            45.7388078
          ],
          [
            3.0294505,
            45.738824
          ],
          [
            3.0293359,
            45.7388546
          ],
          [
            3.0292342,
            45.7388917
          ],
          [
            3.0291629,
            45.7389271
          ],
          [
            3.0290956,
            45.7389673
          ],
          [
            3.0290296,
            45.739017
          ],
          [
            3.0289899,
            45.7390591
          ],
          [
            3.0289457,
            45.7391038
          ],
          [
            3.0289015,
            45.7391614
          ],
          [
            3.0288205,
            45.7392763
          ],
          [
            3.028734,
            45.7394019
          ],
          [
            3.0286624,
            45.7394848
          ],
          [
            3.0286187,
            45.7395242
          ],
          [
            3.028563,
            45.7395639
          ],
          [
            3.0283993,
            45.7396469
          ],
          [
            3.0282796,
            45.7396777
          ],
          [
            3.0281556,
            45.7396943
          ],
          [
            3.0280259,
            45.7397034
          ],
          [
            3.0270494,
            45.7397327
          ],
          [
            3.0264299,
            45.7397633
          ],
          [
            3.0262005,
            45.7398021
          ],
          [
            3.0259915,
            45.7398514
          ],
          [
            3.0257662,
            45.7399268
          ],
          [
            3.0256837,
            45.7399828
          ],
          [
            3.0256622,
            45.7400279
          ],
          [
            3.0256504,
            45.7400788
          ],
          [
            3.0256627,
            45.7401273
          ],
          [
            3.0256803,
            45.7401563
          ],
          [
            3.0257051,
            45.7401921
          ],
          [
            3.0257645,
            45.7402345
          ],
          [
            3.0259033,
            45.7403042
          ],
          [
            3.0264562,
            45.7405171
          ],
          [
            3.0271441,
            45.7407819
          ],
          [
            3.0285452,
            45.7413248
          ],
          [
            3.0287287,
            45.7413999
          ],
          [
            3.0288191,
            45.7414466
          ],
          [
            3.0288924,
            45.7415046
          ],
          [
            3.0289765,
            45.7415849
          ],
          [
            3.0290567,
            45.7416744
          ],
          [
            3.029114,
            45.7417856
          ],
          [
            3.0291555,
            45.7418955
          ],
          [
            3.0291599,
            45.7420121
          ],
          [
            3.0291523,
            45.7421256
          ],
          [
            3.029124,
            45.7422387
          ],
          [
            3.0291041,
            45.7422863
          ],
          [
            3.0290676,
            45.7423491
          ],
          [
            3.0290087,
            45.7424229
          ],
          [
            3.028937,
            45.7424969
          ],
          [
            3.0267103,
            45.7444031
          ],
          [
            3.0266791,
            45.7444367
          ],
          [
            3.0266608,
            45.7444671
          ],
          [
            3.0266473,
            45.7445062
          ],
          [
            3.0266535,
            45.744543
          ],
          [
            3.0266732,
            45.7445728
          ],
          [
            3.0266952,
            45.7445896
          ],
          [
            3.0267318,
            45.7446143
          ],
          [
            3.0267722,
            45.7446295
          ],
          [
            3.0268048,
            45.7446385
          ],
          [
            3.0268399,
            45.7446427
          ],
          [
            3.0268723,
            45.7446439
          ],
          [
            3.0268996,
            45.7446424
          ],
          [
            3.0269425,
            45.7446394
          ],
          [
            3.0284134,
            45.7444694
          ],
          [
            3.0284871,
            45.7444593
          ],
          [
            3.0285562,
            45.7444394
          ],
          [
            3.0286067,
            45.7444146
          ],
          [
            3.0286475,
            45.7443875
          ],
          [
            3.0286931,
            45.7443415
          ],
          [
            3.0287127,
            45.7443105
          ],
          [
            3.0287242,
            45.74428
          ],
          [
            3.0287423,
            45.7441895
          ],
          [
            3.0287535,
            45.7441441
          ],
          [
            3.0287705,
            45.7441117
          ],
          [
            3.0287855,
            45.7440879
          ],
          [
            3.0288092,
            45.7440598
          ],
          [
            3.028837,
            45.7440391
          ],
          [
            3.0288753,
            45.7440188
          ],
          [
            3.0289116,
            45.7440007
          ],
          [
            3.0289529,
            45.7439887
          ],
          [
            3.0300327,
            45.7436797
          ],
          [
            3.0309984,
            45.7434105
          ],
          [
            3.031103,
            45.7433885
          ],
          [
            3.0311581,
            45.7433852
          ],
          [
            3.0312066,
            45.7433905
          ],
          [
            3.031293,
            45.7434124
          ],
          [
            3.0313404,
            45.7434294
          ],
          [
            3.0313832,
            45.7434535
          ],
          [
            3.0314197,
            45.7434831
          ],
          [
            3.0314511,
            45.7435219
          ],
          [
            3.031489,
            45.7435884
          ],
          [
            3.0315565,
            45.7437202
          ],
          [
            3.0315902,
            45.7437747
          ],
          [
            3.0316103,
            45.7437999
          ],
          [
            3.0316268,
            45.7438158
          ],
          [
            3.0316891,
            45.7438693
          ],
          [
            3.0317743,
            45.7439148
          ],
          [
            3.0318601,
            45.7439458
          ],
          [
            3.0319533,
            45.7439676
          ],
          [
            3.0335416,
            45.7440499
          ],
          [
            3.0336506,
            45.7440458
          ],
          [
            3.0337382,
            45.7440305
          ],
          [
            3.0338367,
            45.7440042
          ],
          [
            3.033918,
            45.7439629
          ],
          [
            3.0339997,
            45.7438964
          ],
          [
            3.0340569,
            45.7438225
          ],
          [
            3.0340922,
            45.7437401
          ],
          [
            3.0341248,
            45.7436457
          ],
          [
            3.0341506,
            45.7435831
          ],
          [
            3.0341932,
            45.7435389
          ],
          [
            3.0342324,
            45.7435065
          ],
          [
            3.0342978,
            45.7434752
          ],
          [
            3.034355,
            45.7434566
          ],
          [
            3.0344353,
            45.7434362
          ],
          [
            3.0345185,
            45.7434327
          ],
          [
            3.0346457,
            45.7434498
          ],
          [
            3.0347224,
            45.7434718
          ],
          [
            3.0347775,
            45.7435122
          ],
          [
            3.0349671,
            45.7436429
          ],
          [
            3.0350579,
            45.7436968
          ],
          [
            3.0351565,
            45.7437367
          ],
          [
            3.0352806,
            45.7437774
          ],
          [
            3.035373,
            45.7438054
          ],
          [
            3.035491,
            45.743827
          ],
          [
            3.0367174,
            45.7438615
          ],
          [
            3.0373306,
            45.7438794
          ],
          [
            3.0378501,
            45.7439108
          ],
          [
            3.0380944,
            45.7439288
          ],
          [
            3.0383402,
            45.7439633
          ],
          [
            3.0386107,
            45.7440028
          ],
          [
            3.0388855,
            45.7440514
          ],
          [
            3.0398254,
            45.7442767
          ],
          [
            3.0402763,
            45.7443878
          ],
          [
            3.0404222,
            45.744423
          ],
          [
            3.0405495,
            45.7444483
          ],
          [
            3.0406565,
            45.7444662
          ],
          [
            3.0407263,
            45.7444736
          ],
          [
            3.0407917,
            45.7444734
          ],
          [
            3.0408368,
            45.7444655
          ],
          [
            3.0409022,
            45.744452
          ],
          [
            3.0409833,
            45.7444232
          ],
          [
            3.0410499,
            45.7443878
          ],
          [
            3.0411002,
            45.7443438
          ],
          [
            3.0411321,
            45.7443101
          ],
          [
            3.0411454,
            45.7442755
          ],
          [
            3.0411578,
            45.7442014
          ],
          [
            3.0411542,
            45.7441626
          ],
          [
            3.0411463,
            45.744133
          ],
          [
            3.0411151,
            45.7440795
          ],
          [
            3.0410556,
            45.7440232
          ],
          [
            3.0409831,
            45.7439751
          ],
          [
            3.0408676,
            45.7439246
          ],
          [
            3.040746,
            45.743887
          ],
          [
            3.0405278,
            45.7438538
          ],
          [
            3.0399727,
            45.7437548
          ],
          [
            3.0398332,
            45.7437271
          ],
          [
            3.0397426,
            45.7436989
          ],
          [
            3.0396725,
            45.7436657
          ],
          [
            3.0396213,
            45.7436273
          ],
          [
            3.0395763,
            45.7435715
          ],
          [
            3.0395435,
            45.7435041
          ],
          [
            3.03953,
            45.7434397
          ],
          [
            3.0395386,
            45.7433636
          ],
          [
            3.0396316,
            45.7431226
          ],
          [
            3.0396451,
            45.7430549
          ],
          [
            3.0396421,
            45.7429909
          ],
          [
            3.0396226,
            45.7429302
          ],
          [
            3.0395919,
            45.7428743
          ],
          [
            3.0395563,
            45.7428342
          ],
          [
            3.0395158,
            45.7427917
          ],
          [
            3.0390074,
            45.7424564
          ],
          [
            3.0385988,
            45.7421958
          ]
        ]
      }
    }
  ]
}
