{
  "type": "FeatureCollection",
  "bbox": [
    12.6770223,
    43.9580845,
    12.6899449,
    43.9648513
  ],
  "metadata": {
    "schemaVersion": 1,
    "trackId": "it-misano",
    "layoutId": "short",
    "license": "ODbL-1.0",
    "attribution": "© OpenStreetMap contributors",
    "closed": true,
    "geometryStatus": "draft",
    "timingStatus": "missing",
    "timingMode": "shared",
    "lengthM": 4038.5,
    "reviewedAt": null,
    "notes": [
      "Short course uses the mapped connector on way 230406260 in place of Curva del Carro. The MotoGP long-lap penalty detour is excluded.",
      "Approximate OSM raceway trace; geometry is a draft pending independent layout review."
    ]
  },
  "features": [
    {
      "type": "Feature",
      "id": "trace",
      "properties": {
        "role": "trace",
        "sourceIds": [
          "osm-snapshot"
        ]
      },
      "geometry": {
        "type": "LineString",
        "coordinates": [
          [
            12.6860562,
            43.9643254
          ],
          [
            12.6859876,
            43.9643379
          ],
          [
            12.6859395,
            43.9643445
          ],
          [
            12.6858903,
            43.9643489
          ],
          [
            12.6858392,
            43.9643505
          ],
          [
            12.6858067,
            43.9643497
          ],
          [
            12.6857738,
            43.9643473
          ],
          [
            12.6857412,
            43.9643433
          ],
          [
            12.6857129,
            43.9643374
          ],
          [
            12.6856881,
            43.9643296
          ],
          [
            12.6856675,
            43.9643224
          ],
          [
            12.6856401,
            43.9643104
          ],
          [
            12.6856155,
            43.9642975
          ],
          [
            12.6855903,
            43.964282
          ],
          [
            12.6855662,
            43.9642662
          ],
          [
            12.6855414,
            43.9642474
          ],
          [
            12.68552,
            43.9642268
          ],
          [
            12.6854984,
            43.9642035
          ],
          [
            12.6854801,
            43.96418
          ],
          [
            12.6854566,
            43.9641458
          ],
          [
            12.684605,
            43.9628033
          ],
          [
            12.6842075,
            43.9621766
          ],
          [
            12.6828527,
            43.9600406
          ],
          [
            12.682755,
            43.9598864
          ],
          [
            12.6827172,
            43.9598341
          ],
          [
            12.6826826,
            43.9597953
          ],
          [
            12.6826488,
            43.9597642
          ],
          [
            12.6826225,
            43.95974
          ],
          [
            12.6825965,
            43.9597217
          ],
          [
            12.6825602,
            43.9597029
          ],
          [
            12.6825159,
            43.9596842
          ],
          [
            12.6824639,
            43.9596674
          ],
          [
            12.6824139,
            43.9596547
          ],
          [
            12.6823516,
            43.9596424
          ],
          [
            12.6822702,
            43.9596337
          ],
          [
            12.6821851,
            43.9596302
          ],
          [
            12.6821047,
            43.9596322
          ],
          [
            12.6813958,
            43.9596532
          ],
          [
            12.6813358,
            43.95965
          ],
          [
            12.6812976,
            43.9596454
          ],
          [
            12.6812595,
            43.9596376
          ],
          [
            12.6812224,
            43.9596242
          ],
          [
            12.6811872,
            43.9596093
          ],
          [
            12.681154,
            43.9595912
          ],
          [
            12.6811358,
            43.9595797
          ],
          [
            12.6811179,
            43.9595657
          ],
          [
            12.6810979,
            43.9595466
          ],
          [
            12.6810758,
            43.9595205
          ],
          [
            12.6810583,
            43.9594931
          ],
          [
            12.6810393,
            43.9594569
          ],
          [
            12.6810242,
            43.9594112
          ],
          [
            12.6810159,
            43.9593682
          ],
          [
            12.6809501,
            43.9587698
          ],
          [
            12.6809383,
            43.9587209
          ],
          [
            12.6809183,
            43.9586712
          ],
          [
            12.6808897,
            43.9586203
          ],
          [
            12.6808487,
            43.9585658
          ],
          [
            12.6808091,
            43.9585222
          ],
          [
            12.6807438,
            43.958465
          ],
          [
            12.680671,
            43.9584194
          ],
          [
            12.6805867,
            43.9583748
          ],
          [
            12.6804648,
            43.9583197
          ],
          [
            12.6803193,
            43.9582558
          ],
          [
            12.6801777,
            43.9582007
          ],
          [
            12.6801041,
            43.9581765
          ],
          [
            12.6800285,
            43.9581571
          ],
          [
            12.6799275,
            43.9581353
          ],
          [
            12.679864,
            43.9581251
          ],
          [
            12.6798077,
            43.958116
          ],
          [
            12.6797559,
            43.9581076
          ],
          [
            12.6796462,
            43.9580944
          ],
          [
            12.6795623,
            43.9580889
          ],
          [
            12.6794799,
            43.9580845
          ],
          [
            12.679383,
            43.9580857
          ],
          [
            12.6775119,
            43.9582018
          ],
          [
            12.6773075,
            43.9582145
          ],
          [
            12.6772167,
            43.9582219
          ],
          [
            12.6771826,
            43.9582272
          ],
          [
            12.677151,
            43.9582351
          ],
          [
            12.6771254,
            43.9582445
          ],
          [
            12.6771086,
            43.958254
          ],
          [
            12.67709,
            43.9582672
          ],
          [
            12.6770704,
            43.9582832
          ],
          [
            12.677059,
            43.9582942
          ],
          [
            12.6770469,
            43.958309
          ],
          [
            12.6770379,
            43.9583236
          ],
          [
            12.6770318,
            43.9583377
          ],
          [
            12.6770271,
            43.958357
          ],
          [
            12.6770232,
            43.9583833
          ],
          [
            12.6770223,
            43.9584073
          ],
          [
            12.6770238,
            43.9584295
          ],
          [
            12.6770288,
            43.9584511
          ],
          [
            12.6770359,
            43.9584687
          ],
          [
            12.6770443,
            43.958483
          ],
          [
            12.6770525,
            43.9584959
          ],
          [
            12.6770654,
            43.9585108
          ],
          [
            12.6774629,
            43.9588518
          ],
          [
            12.6774804,
            43.9588641
          ],
          [
            12.6774998,
            43.9588758
          ],
          [
            12.6775239,
            43.9588868
          ],
          [
            12.6775561,
            43.9588992
          ],
          [
            12.6775916,
            43.9589095
          ],
          [
            12.6776278,
            43.9589162
          ],
          [
            12.677667,
            43.9589204
          ],
          [
            12.6777048,
            43.9589214
          ],
          [
            12.6777453,
            43.9589179
          ],
          [
            12.6777773,
            43.9589121
          ],
          [
            12.6778131,
            43.9589032
          ],
          [
            12.6786667,
            43.9586764
          ],
          [
            12.6787196,
            43.9586658
          ],
          [
            12.6787582,
            43.9586608
          ],
          [
            12.6788076,
            43.9586581
          ],
          [
            12.6788589,
            43.9586581
          ],
          [
            12.6788997,
            43.9586608
          ],
          [
            12.6789415,
            43.9586674
          ],
          [
            12.6789735,
            43.9586765
          ],
          [
            12.6790076,
            43.9586919
          ],
          [
            12.6790414,
            43.95871
          ],
          [
            12.6790776,
            43.9587322
          ],
          [
            12.679114,
            43.9587558
          ],
          [
            12.6791492,
            43.9587795
          ],
          [
            12.6810686,
            43.960214
          ],
          [
            12.6811689,
            43.9602889
          ],
          [
            12.681544,
            43.9605914
          ],
          [
            12.681643,
            43.9606735
          ],
          [
            12.6817797,
            43.9607958
          ],
          [
            12.682219,
            43.9612227
          ],
          [
            12.6837613,
            43.9629523
          ],
          [
            12.6838521,
            43.963073
          ],
          [
            12.6838717,
            43.9631015
          ],
          [
            12.6838799,
            43.9631165
          ],
          [
            12.6838902,
            43.9631363
          ],
          [
            12.6838982,
            43.9631569
          ],
          [
            12.6839043,
            43.9631777
          ],
          [
            12.6839085,
            43.9631972
          ],
          [
            12.6839118,
            43.9632168
          ],
          [
            12.683914,
            43.96324
          ],
          [
            12.6839141,
            43.9632633
          ],
          [
            12.6839139,
            43.9632857
          ],
          [
            12.6839119,
            43.963308
          ],
          [
            12.6839075,
            43.9633292
          ],
          [
            12.6839006,
            43.9633531
          ],
          [
            12.6838924,
            43.9633716
          ],
          [
            12.6838838,
            43.9633875
          ],
          [
            12.6838718,
            43.9634039
          ],
          [
            12.6838577,
            43.9634191
          ],
          [
            12.683841,
            43.9634348
          ],
          [
            12.6838272,
            43.9634476
          ],
          [
            12.6838104,
            43.9634604
          ],
          [
            12.6837868,
            43.9634768
          ],
          [
            12.6837588,
            43.9634931
          ],
          [
            12.6837325,
            43.963506
          ],
          [
            12.6836951,
            43.96352
          ],
          [
            12.6836652,
            43.9635281
          ],
          [
            12.6836325,
            43.9635374
          ],
          [
            12.6835906,
            43.9635482
          ],
          [
            12.6835425,
            43.9635561
          ],
          [
            12.6835029,
            43.9635605
          ],
          [
            12.6834614,
            43.9635634
          ],
          [
            12.6834041,
            43.9635645
          ],
          [
            12.6833536,
            43.9635626
          ],
          [
            12.6832941,
            43.9635585
          ],
          [
            12.6831804,
            43.9635445
          ],
          [
            12.6830407,
            43.9635197
          ],
          [
            12.6828902,
            43.9634871
          ],
          [
            12.6827303,
            43.9634438
          ],
          [
            12.6825635,
            43.9633904
          ],
          [
            12.6823965,
            43.9633332
          ],
          [
            12.6822157,
            43.9632641
          ],
          [
            12.6797618,
            43.9622754
          ],
          [
            12.6796965,
            43.9622498
          ],
          [
            12.6796233,
            43.9622261
          ],
          [
            12.6795573,
            43.9622093
          ],
          [
            12.6794873,
            43.962196
          ],
          [
            12.6794328,
            43.9621877
          ],
          [
            12.6793628,
            43.9621812
          ],
          [
            12.679276,
            43.9621793
          ],
          [
            12.6787863,
            43.962191
          ],
          [
            12.6787156,
            43.9621969
          ],
          [
            12.6786534,
            43.9622041
          ],
          [
            12.6786147,
            43.962212
          ],
          [
            12.678584,
            43.9622228
          ],
          [
            12.6785591,
            43.9622341
          ],
          [
            12.6785399,
            43.9622458
          ],
          [
            12.6785185,
            43.9622599
          ],
          [
            12.6784943,
            43.9622765
          ],
          [
            12.678476,
            43.9622911
          ],
          [
            12.6784585,
            43.9623067
          ],
          [
            12.6784431,
            43.9623223
          ],
          [
            12.6784307,
            43.962338
          ],
          [
            12.6784176,
            43.9623596
          ],
          [
            12.6784065,
            43.9623805
          ],
          [
            12.6783976,
            43.9623999
          ],
          [
            12.678389,
            43.9624207
          ],
          [
            12.6783837,
            43.9624391
          ],
          [
            12.6783805,
            43.9624583
          ],
          [
            12.6783787,
            43.962478
          ],
          [
            12.6783784,
            43.9624965
          ],
          [
            12.6783788,
            43.962512
          ],
          [
            12.6783806,
            43.962526
          ],
          [
            12.6783847,
            43.9625424
          ],
          [
            12.6783893,
            43.9625593
          ],
          [
            12.6783953,
            43.9625773
          ],
          [
            12.6784036,
            43.9625972
          ],
          [
            12.6784141,
            43.9626214
          ],
          [
            12.678424,
            43.9626414
          ],
          [
            12.6784368,
            43.9626633
          ],
          [
            12.6784496,
            43.9626828
          ],
          [
            12.6784641,
            43.962702
          ],
          [
            12.6784814,
            43.9627224
          ],
          [
            12.6785101,
            43.9627512
          ],
          [
            12.6785464,
            43.9627794
          ],
          [
            12.678595,
            43.9628098
          ],
          [
            12.6786469,
            43.9628383
          ],
          [
            12.6787042,
            43.9628668
          ],
          [
            12.6787606,
            43.962893
          ],
          [
            12.678813,
            43.9629151
          ],
          [
            12.678942,
            43.9629635
          ],
          [
            12.6790706,
            43.9630078
          ],
          [
            12.679197,
            43.9630498
          ],
          [
            12.679599,
            43.9631708
          ],
          [
            12.6849069,
            43.9647778
          ],
          [
            12.685016,
            43.9648079
          ],
          [
            12.6851225,
            43.9648305
          ],
          [
            12.6852184,
            43.9648441
          ],
          [
            12.6853257,
            43.9648513
          ],
          [
            12.6854429,
            43.9648505
          ],
          [
            12.6855687,
            43.9648421
          ],
          [
            12.6856957,
            43.9648308
          ],
          [
            12.6860675,
            43.9647831
          ],
          [
            12.6882843,
            43.9644985
          ],
          [
            12.6884577,
            43.9644717
          ],
          [
            12.6885677,
            43.9644499
          ],
          [
            12.6886754,
            43.9644241
          ],
          [
            12.6887824,
            43.9643888
          ],
          [
            12.6888938,
            43.964344
          ],
          [
            12.6889756,
            43.9643023
          ],
          [
            12.6890446,
            43.9642621
          ],
          [
            12.6891375,
            43.9642046
          ],
          [
            12.6899027,
            43.9637035
          ],
          [
            12.6899136,
            43.9636943
          ],
          [
            12.6899281,
            43.9636774
          ],
          [
            12.6899358,
            43.963664
          ],
          [
            12.6899408,
            43.9636503
          ],
          [
            12.6899437,
            43.9636341
          ],
          [
            12.6899449,
            43.9636165
          ],
          [
            12.689943,
            43.9635965
          ],
          [
            12.6899382,
            43.963575
          ],
          [
            12.6899297,
            43.9635513
          ],
          [
            12.6897807,
            43.963219
          ],
          [
            12.6896368,
            43.962898
          ],
          [
            12.6896208,
            43.962869
          ],
          [
            12.6896023,
            43.9628451
          ],
          [
            12.6895869,
            43.9628282
          ],
          [
            12.6895733,
            43.9628168
          ],
          [
            12.6895523,
            43.9628027
          ],
          [
            12.6895277,
            43.9627885
          ],
          [
            12.6894961,
            43.962774
          ],
          [
            12.6894681,
            43.9627645
          ],
          [
            12.6894376,
            43.9627561
          ],
          [
            12.6894059,
            43.962752
          ],
          [
            12.6893746,
            43.9627499
          ],
          [
            12.6893457,
            43.9627501
          ],
          [
            12.6893113,
            43.962752
          ],
          [
            12.6892866,
            43.9627558
          ],
          [
            12.6892569,
            43.9627611
          ],
          [
            12.689231,
            43.9627665
          ],
          [
            12.6892064,
            43.9627744
          ],
          [
            12.6891816,
            43.9627849
          ],
          [
            12.6891549,
            43.9627989
          ],
          [
            12.6891348,
            43.9628144
          ],
          [
            12.6891187,
            43.9628308
          ],
          [
            12.6891,
            43.962854
          ],
          [
            12.6890879,
            43.9628733
          ],
          [
            12.6890715,
            43.9629031
          ],
          [
            12.6889476,
            43.9634565
          ],
          [
            12.6889292,
            43.9635086
          ],
          [
            12.6889005,
            43.9635625
          ],
          [
            12.6888665,
            43.9636142
          ],
          [
            12.6888364,
            43.9636492
          ],
          [
            12.6887974,
            43.9636832
          ],
          [
            12.6887669,
            43.9637069
          ],
          [
            12.6887275,
            43.9637307
          ],
          [
            12.6886901,
            43.9637465
          ],
          [
            12.6886358,
            43.9637633
          ],
          [
            12.688561,
            43.963783
          ],
          [
            12.6872267,
            43.9640719
          ],
          [
            12.6860562,
            43.9643254
          ]
        ]
      }
    }
  ]
}
