{
  "type": "FeatureCollection",
  "bbox": [
    48.1362735,
    28.9228732,
    48.1451556,
    28.9361883
  ],
  "metadata": {
    "schemaVersion": 1,
    "trackId": "kw-kuwait-motor-town-807928887",
    "layoutId": "kuwait-motor-town-gp",
    "license": "ODbL-1.0",
    "attribution": "© OpenStreetMap contributors",
    "closed": true,
    "geometryStatus": "draft",
    "timingStatus": "missing",
    "timingMode": "shared",
    "lengthM": 5620.9,
    "reviewedAt": null,
    "notes": [
      "Draft route hypothesis: the source cycle is the unique closest nominal-distance match within conservative timing and distance checks. Approximate OSM trace length 5620.9 m. Difference from the supplied layout distance 3.1 m. Course configuration still requires visual review."
    ]
  },
  "features": [
    {
      "type": "Feature",
      "id": "trace",
      "properties": {
        "role": "trace",
        "sourceIds": [
          "osm-network-807928887"
        ]
      },
      "geometry": {
        "type": "LineString",
        "coordinates": [
          [
            48.1436482,
            28.9339442
          ],
          [
            48.1436482,
            28.933808
          ],
          [
            48.1434926,
            28.932977
          ],
          [
            48.1434444,
            28.9328268
          ],
          [
            48.143388,
            28.9327071
          ],
          [
            48.1433102,
            28.9325756
          ],
          [
            48.1432191,
            28.9324559
          ],
          [
            48.1431037,
            28.9323338
          ],
          [
            48.1430152,
            28.9322188
          ],
          [
            48.1429401,
            28.9321061
          ],
          [
            48.1428811,
            28.931977
          ],
          [
            48.1428489,
            28.9318385
          ],
          [
            48.1427282,
            28.9306812
          ],
          [
            48.1427014,
            28.9305404
          ],
          [
            48.1426504,
            28.9303948
          ],
          [
            48.1425726,
            28.9302657
          ],
          [
            48.142468,
            28.930146
          ],
          [
            48.1423634,
            28.9300427
          ],
          [
            48.1422454,
            28.9299699
          ],
          [
            48.1420845,
            28.9298995
          ],
          [
            48.1419343,
            28.9298197
          ],
          [
            48.1418055,
            28.9297281
          ],
          [
            48.1417063,
            28.9296389
          ],
          [
            48.1416205,
            28.929538
          ],
          [
            48.14154,
            28.9294183
          ],
          [
            48.1414783,
            28.9292962
          ],
          [
            48.1414434,
            28.9291788
          ],
          [
            48.1414138,
            28.9290526
          ],
          [
            48.1408802,
            28.9267773
          ],
          [
            48.1408346,
            28.926674
          ],
          [
            48.1407756,
            28.9265895
          ],
          [
            48.1407031,
            28.9265144
          ],
          [
            48.1406173,
            28.9264533
          ],
          [
            48.1398877,
            28.9260848
          ],
          [
            48.1397778,
            28.9260472
          ],
          [
            48.1396678,
            28.9260402
          ],
          [
            48.1395632,
            28.9260495
          ],
          [
            48.1383964,
            28.9263242
          ],
          [
            48.1382865,
            28.9263688
          ],
          [
            48.1382114,
            28.9264228
          ],
          [
            48.1381443,
            28.9264932
          ],
          [
            48.1377071,
            28.9272022
          ],
          [
            48.1376857,
            28.9272961
          ],
          [
            48.1376937,
            28.92739
          ],
          [
            48.1377205,
            28.9274769
          ],
          [
            48.1384233,
            28.9283173
          ],
          [
            48.1384984,
            28.9283971
          ],
          [
            48.1386003,
            28.9284511
          ],
          [
            48.1388712,
            28.9285427
          ],
          [
            48.1390241,
            28.9285943
          ],
          [
            48.1391716,
            28.928653
          ],
          [
            48.1392896,
            28.9287258
          ],
          [
            48.1394184,
            28.9288291
          ],
          [
            48.1395122,
            28.9289183
          ],
          [
            48.1396008,
            28.9290215
          ],
          [
            48.1398448,
            28.9294418
          ],
          [
            48.1398958,
            28.9295591
          ],
          [
            48.1399253,
            28.9297141
          ],
          [
            48.1399119,
            28.9298432
          ],
          [
            48.1398609,
            28.9299723
          ],
          [
            48.1397751,
            28.9300897
          ],
          [
            48.1396598,
            28.9301976
          ],
          [
            48.1395122,
            28.9302681
          ],
          [
            48.1393781,
            28.9303009
          ],
          [
            48.1379807,
            28.9304042
          ],
          [
            48.1378037,
            28.9304042
          ],
          [
            48.137632,
            28.9303714
          ],
          [
            48.1374416,
            28.9303033
          ],
          [
            48.1372994,
            28.9302305
          ],
          [
            48.1371492,
            28.9301202
          ],
          [
            48.1370312,
            28.9299981
          ],
          [
            48.13694,
            28.929862
          ],
          [
            48.1368729,
            28.9297258
          ],
          [
            48.1368408,
            28.9296084
          ],
          [
            48.1366603,
            28.9275757
          ],
          [
            48.1362735,
            28.9232171
          ],
          [
            48.1362909,
            28.9231021
          ],
          [
            48.1363499,
            28.9230058
          ],
          [
            48.1364331,
            28.9229319
          ],
          [
            48.1365417,
            28.9228873
          ],
          [
            48.1366812,
            28.9228732
          ],
          [
            48.1368072,
            28.922899
          ],
          [
            48.1422186,
            28.9259016
          ],
          [
            48.1423768,
            28.9260143
          ],
          [
            48.1425083,
            28.9261364
          ],
          [
            48.1426048,
            28.9262796
          ],
          [
            48.1426612,
            28.9264111
          ],
          [
            48.1427024,
            28.9265655
          ],
          [
            48.1433113,
            28.928847
          ],
          [
            48.1438204,
            28.9307543
          ],
          [
            48.1446511,
            28.9338662
          ],
          [
            48.1451556,
            28.9357564
          ],
          [
            48.1451556,
            28.9358972
          ],
          [
            48.1450966,
            28.9360169
          ],
          [
            48.1449893,
            28.9361202
          ],
          [
            48.1448418,
            28.9361765
          ],
          [
            48.1446969,
            28.9361883
          ],
          [
            48.1430769,
            28.935869
          ],
          [
            48.1429401,
            28.9358127
          ],
          [
            48.1428596,
            28.9357564
          ],
          [
            48.1425673,
            28.9353714
          ],
          [
            48.1424546,
            28.9352822
          ],
          [
            48.1423366,
            28.935254
          ],
          [
            48.1417197,
            28.9353151
          ],
          [
            48.1415534,
            28.9352963
          ],
          [
            48.1414247,
            28.9352564
          ],
          [
            48.1411135,
            28.9350733
          ],
          [
            48.1409445,
            28.9349371
          ],
          [
            48.1408077,
            28.9347681
          ],
          [
            48.1407273,
            28.9345897
          ],
          [
            48.1406817,
            28.934416
          ],
          [
            48.1406736,
            28.9342188
          ],
          [
            48.1406924,
            28.9340451
          ],
          [
            48.1407407,
            28.933862
          ],
          [
            48.1408104,
            28.9337001
          ],
          [
            48.1409016,
            28.9335616
          ],
          [
            48.1410062,
            28.9334324
          ],
          [
            48.1411296,
            28.9333245
          ],
          [
            48.141261,
            28.9332353
          ],
          [
            48.1413951,
            28.9331601
          ],
          [
            48.1415454,
            28.9331062
          ],
          [
            48.141709,
            28.9330733
          ],
          [
            48.1418753,
            28.9330686
          ],
          [
            48.1420228,
            28.9330944
          ],
          [
            48.1421596,
            28.9331367
          ],
          [
            48.1422803,
            28.9331883
          ],
          [
            48.1423822,
            28.9332587
          ],
          [
            48.1424707,
            28.933355
          ],
          [
            48.1425458,
            28.9334677
          ],
          [
            48.1425887,
            28.9335897
          ],
          [
            48.1426075,
            28.9337094
          ],
          [
            48.1426048,
            28.9338526
          ],
          [
            48.1426129,
            28.9339489
          ],
          [
            48.1426477,
            28.9340592
          ],
          [
            48.1427363,
            28.9341742
          ],
          [
            48.1428543,
            28.9342564
          ],
          [
            48.1430072,
            28.9343151
          ],
          [
            48.1431815,
            28.9343198
          ],
          [
            48.1433612,
            28.9342728
          ],
          [
            48.1435034,
            28.9341883
          ],
          [
            48.1435999,
            28.9340686
          ],
          [
            48.1436482,
            28.9339442
          ]
        ]
      }
    }
  ]
}
