{
  "type": "FeatureCollection",
  "bbox": [
    132.7107457,
    34.7485651,
    132.7136011,
    34.7511575
  ],
  "metadata": {
    "schemaVersion": 1,
    "trackId": "jp-ts-1197577813",
    "layoutId": "main",
    "license": "ODbL-1.0",
    "attribution": "© OpenStreetMap contributors",
    "closed": true,
    "geometryStatus": "draft",
    "timingStatus": "missing",
    "timingMode": "shared",
    "lengthM": 1404.7,
    "reviewedAt": null,
    "notes": [
      "Closed named OSM raceway retained as a course candidate. Named-layout association requires review.",
      "Source way order and shared node IDs are retained. No nearby endpoints are joined and no reference boundaries are read.",
      "Some source ways lack one-way direction tags. Travel direction is provisional."
    ]
  },
  "features": [
    {
      "type": "Feature",
      "id": "trace",
      "properties": {
        "role": "trace",
        "sourceIds": [
          "osm-snapshot"
        ]
      },
      "geometry": {
        "type": "LineString",
        "coordinates": [
          [
            132.711912,
            34.7491551
          ],
          [
            132.7114974,
            34.7491734
          ],
          [
            132.7113835,
            34.7491597
          ],
          [
            132.7112696,
            34.749121
          ],
          [
            132.7112013,
            34.7490891
          ],
          [
            132.7111238,
            34.7490139
          ],
          [
            132.7110555,
            34.7488772
          ],
          [
            132.7110281,
            34.7488043
          ],
          [
            132.7109666,
            34.7486266
          ],
          [
            132.7109188,
            34.7485765
          ],
          [
            132.7108573,
            34.7485651
          ],
          [
            132.7107958,
            34.7485925
          ],
          [
            132.7107662,
            34.748654
          ],
          [
            132.7107457,
            34.7487246
          ],
          [
            132.7107571,
            34.7488499
          ],
          [
            132.7109234,
            34.7495743
          ],
          [
            132.7109735,
            34.7498522
          ],
          [
            132.7109803,
            34.7499889
          ],
          [
            132.7109689,
            34.7502645
          ],
          [
            132.7109461,
            34.7505515
          ],
          [
            132.7109552,
            34.7506267
          ],
          [
            132.7109963,
            34.7506814
          ],
          [
            132.7110578,
            34.750711
          ],
          [
            132.7111557,
            34.7507247
          ],
          [
            132.711281,
            34.7507065
          ],
          [
            132.7113721,
            34.7506677
          ],
          [
            132.711486,
            34.7505971
          ],
          [
            132.7115361,
            34.750506
          ],
          [
            132.711568,
            34.7503853
          ],
          [
            132.711568,
            34.7502964
          ],
          [
            132.7115453,
            34.750203
          ],
          [
            132.7115111,
            34.7501347
          ],
          [
            132.7111375,
            34.7496153
          ],
          [
            132.7110942,
            34.7495447
          ],
          [
            132.7110783,
            34.7494763
          ],
          [
            132.7110965,
            34.7494217
          ],
          [
            132.7111625,
            34.7493693
          ],
          [
            132.7112423,
            34.7493579
          ],
          [
            132.7112992,
            34.7493761
          ],
          [
            132.7113539,
            34.7494148
          ],
          [
            132.7113995,
            34.7494786
          ],
          [
            132.7114587,
            34.7497041
          ],
          [
            132.711486,
            34.7497611
          ],
          [
            132.7115544,
            34.7498203
          ],
          [
            132.7116227,
            34.7498476
          ],
          [
            132.7116865,
            34.7498522
          ],
          [
            132.7117343,
            34.749818
          ],
          [
            132.7117913,
            34.7497679
          ],
          [
            132.7118141,
            34.7496859
          ],
          [
            132.7118232,
            34.7495014
          ],
          [
            132.7118551,
            34.7494262
          ],
          [
            132.7119234,
            34.7493602
          ],
          [
            132.7119872,
            34.7493374
          ],
          [
            132.7121011,
            34.7493396
          ],
          [
            132.7122605,
            34.7493738
          ],
          [
            132.7124542,
            34.7494376
          ],
          [
            132.7126774,
            34.7495583
          ],
          [
            132.7128756,
            34.7496495
          ],
          [
            132.7130328,
            34.749752
          ],
          [
            132.7131307,
            34.7498363
          ],
          [
            132.7132036,
            34.7499456
          ],
          [
            132.7132264,
            34.7500458
          ],
          [
            132.7132105,
            34.7501324
          ],
          [
            132.7131717,
            34.7502303
          ],
          [
            132.7129234,
            34.7505971
          ],
          [
            132.7128984,
            34.7506654
          ],
          [
            132.7128802,
            34.7507497
          ],
          [
            132.7128551,
            34.7510049
          ],
          [
            132.7128619,
            34.751055
          ],
          [
            132.7128847,
            34.7511119
          ],
          [
            132.7129212,
            34.7511438
          ],
          [
            132.7129713,
            34.7511575
          ],
          [
            132.7130396,
            34.7511507
          ],
          [
            132.7132583,
            34.7510937
          ],
          [
            132.7133608,
            34.7510504
          ],
          [
            132.71342,
            34.7510049
          ],
          [
            132.7134542,
            34.750957
          ],
          [
            132.7134656,
            34.7508682
          ],
          [
            132.7134451,
            34.7507771
          ],
          [
            132.713354,
            34.750506
          ],
          [
            132.713338,
            34.7504103
          ],
          [
            132.7133426,
            34.7503374
          ],
          [
            132.7133585,
            34.7502714
          ],
          [
            132.7134064,
            34.7501483
          ],
          [
            132.7134178,
            34.7500732
          ],
          [
            132.7134223,
            34.7499729
          ],
          [
            132.7134178,
            34.7498112
          ],
          [
            132.7134292,
            34.749785
          ],
          [
            132.7134428,
            34.7497622
          ],
          [
            132.7134952,
            34.7497485
          ],
          [
            132.7135544,
            34.7497337
          ],
          [
            132.7135806,
            34.7497189
          ],
          [
            132.7135966,
            34.7496893
          ],
          [
            132.7136011,
            34.7496381
          ],
          [
            132.7135943,
            34.7495652
          ],
          [
            132.713575,
            34.7495014
          ],
          [
            132.7135305,
            34.749441
          ],
          [
            132.7134702,
            34.7493727
          ],
          [
            132.7134034,
            34.7493223
          ],
          [
            132.7133631,
            34.7492918
          ],
          [
            132.7132241,
            34.7492212
          ],
          [
            132.7130875,
            34.7491813
          ],
          [
            132.7129155,
            34.7491346
          ],
          [
            132.7127982,
            34.749121
          ],
          [
            132.7126592,
            34.7491187
          ],
          [
            132.711912,
            34.7491551
          ]
        ]
      }
    }
  ]
}
