{
  "type": "FeatureCollection",
  "bbox": [
    -1.3412655,
    52.595143,
    -1.3340694,
    52.6017737
  ],
  "metadata": {
    "schemaVersion": 1,
    "trackId": "gb-mallory-park-racing-circuit-215336384",
    "layoutId": "mallory-park",
    "license": "ODbL-1.0",
    "attribution": "© OpenStreetMap contributors",
    "closed": true,
    "geometryStatus": "draft",
    "timingStatus": "missing",
    "timingMode": "shared",
    "lengthM": 2032.7,
    "reviewedAt": null,
    "notes": [
      "Draft configuration: Road course retains Gerards Bend, the Esses, Shaws Hairpin and Devils Elbow, without Edwinas, Stapletons, Charlies or Bus Stop chicanes. This corrects the previous unreviewed relation association. The operator identifies a 1.35-mile configuration; the independent source line measures 2032.7 m and remains a draft with historical alignment provisional. Branch identity was checked against catalogue layout facts and circuit identification references. Independent source distance 2032.7 m; no coordinates are changed to match a diagram or distance. Travel direction and historical alignment remain provisional."
    ]
  },
  "features": [
    {
      "type": "Feature",
      "id": "trace",
      "properties": {
        "role": "trace",
        "sourceIds": [
          "osm-selection-215336384"
        ]
      },
      "geometry": {
        "type": "LineString",
        "coordinates": [
          [
            -1.3370277,
            52.5998874
          ],
          [
            -1.3370226,
            52.5997721
          ],
          [
            -1.3369739,
            52.5986602
          ],
          [
            -1.3369659,
            52.5984766
          ],
          [
            -1.3369314,
            52.59769
          ],
          [
            -1.3368746,
            52.5963928
          ],
          [
            -1.3368667,
            52.5962119
          ],
          [
            -1.3368688,
            52.5961663
          ],
          [
            -1.3368791,
            52.5961181
          ],
          [
            -1.3369199,
            52.5960137
          ],
          [
            -1.3369804,
            52.595912
          ],
          [
            -1.3370499,
            52.5958178
          ],
          [
            -1.3371406,
            52.5957176
          ],
          [
            -1.3372312,
            52.5956324
          ],
          [
            -1.3373399,
            52.5955503
          ],
          [
            -1.3374665,
            52.5954791
          ],
          [
            -1.3375898,
            52.5954139
          ],
          [
            -1.3377347,
            52.5953488
          ],
          [
            -1.337886,
            52.5952896
          ],
          [
            -1.3380523,
            52.5952375
          ],
          [
            -1.3382132,
            52.5952016
          ],
          [
            -1.3384117,
            52.5951691
          ],
          [
            -1.3385994,
            52.5951528
          ],
          [
            -1.3387818,
            52.595143
          ],
          [
            -1.3389428,
            52.595143
          ],
          [
            -1.3391251,
            52.5951495
          ],
          [
            -1.3393129,
            52.5951691
          ],
          [
            -1.3394846,
            52.5951951
          ],
          [
            -1.3396509,
            52.5952277
          ],
          [
            -1.3397977,
            52.5952658
          ],
          [
            -1.3399395,
            52.5953162
          ],
          [
            -1.3400897,
            52.5953716
          ],
          [
            -1.3402291,
            52.5954237
          ],
          [
            -1.3403579,
            52.5954824
          ],
          [
            -1.3404609,
            52.5955405
          ],
          [
            -1.3405778,
            52.5956127
          ],
          [
            -1.3406434,
            52.5956591
          ],
          [
            -1.3406969,
            52.5956969
          ],
          [
            -1.3408031,
            52.5957789
          ],
          [
            -1.3409061,
            52.5958664
          ],
          [
            -1.3409855,
            52.5959548
          ],
          [
            -1.3410553,
            52.5960559
          ],
          [
            -1.3411153,
            52.5961401
          ],
          [
            -1.3411625,
            52.5962351
          ],
          [
            -1.3411918,
            52.596304
          ],
          [
            -1.3412055,
            52.5963361
          ],
          [
            -1.3412334,
            52.5964268
          ],
          [
            -1.3412548,
            52.5965181
          ],
          [
            -1.3412655,
            52.5966321
          ],
          [
            -1.3412537,
            52.5967336
          ],
          [
            -1.3412377,
            52.5968379
          ],
          [
            -1.3412119,
            52.5969319
          ],
          [
            -1.341036,
            52.5973917
          ],
          [
            -1.3403915,
            52.5990768
          ],
          [
            -1.3403263,
            52.5992472
          ],
          [
            -1.3399427,
            52.6002499
          ],
          [
            -1.3399167,
            52.6002907
          ],
          [
            -1.3398788,
            52.6003347
          ],
          [
            -1.3397944,
            52.6003996
          ],
          [
            -1.3397195,
            52.6004579
          ],
          [
            -1.3396348,
            52.600516
          ],
          [
            -1.3395328,
            52.600578
          ],
          [
            -1.3394363,
            52.6006236
          ],
          [
            -1.3393129,
            52.6006757
          ],
          [
            -1.3391842,
            52.6007181
          ],
          [
            -1.3390543,
            52.6007511
          ],
          [
            -1.338888,
            52.6007804
          ],
          [
            -1.3387335,
            52.6007995
          ],
          [
            -1.3385715,
            52.6008098
          ],
          [
            -1.338416,
            52.6008098
          ],
          [
            -1.338373,
            52.6008089
          ],
          [
            -1.3382604,
            52.6008065
          ],
          [
            -1.3381005,
            52.6007995
          ],
          [
            -1.3379546,
            52.6008
          ],
          [
            -1.3377776,
            52.6008098
          ],
          [
            -1.3376274,
            52.6008261
          ],
          [
            -1.3374568,
            52.6008549
          ],
          [
            -1.3372787,
            52.6008912
          ],
          [
            -1.3371178,
            52.6009303
          ],
          [
            -1.3368656,
            52.6010053
          ],
          [
            -1.3366296,
            52.6010802
          ],
          [
            -1.336356,
            52.6011682
          ],
          [
            -1.3360942,
            52.6012589
          ],
          [
            -1.3358518,
            52.6013408
          ],
          [
            -1.3356383,
            52.6014055
          ],
          [
            -1.3353593,
            52.6014707
          ],
          [
            -1.3350257,
            52.6015494
          ],
          [
            -1.3347735,
            52.601621
          ],
          [
            -1.3342918,
            52.6017639
          ],
          [
            -1.334249,
            52.6017721
          ],
          [
            -1.334206,
            52.6017737
          ],
          [
            -1.3341635,
            52.6017712
          ],
          [
            -1.3341255,
            52.6017639
          ],
          [
            -1.3340935,
            52.6017439
          ],
          [
            -1.3340772,
            52.6017183
          ],
          [
            -1.3340694,
            52.6016904
          ],
          [
            -1.3340719,
            52.6016629
          ],
          [
            -1.3340845,
            52.6016294
          ],
          [
            -1.3341083,
            52.6015982
          ],
          [
            -1.334143,
            52.6015759
          ],
          [
            -1.3341845,
            52.6015619
          ],
          [
            -1.3349527,
            52.601355
          ],
          [
            -1.3350416,
            52.6013309
          ],
          [
            -1.3356815,
            52.601132
          ],
          [
            -1.3359859,
            52.6010559
          ],
          [
            -1.3360985,
            52.6010183
          ],
          [
            -1.336223,
            52.6009754
          ],
          [
            -1.3363249,
            52.6009331
          ],
          [
            -1.3364204,
            52.6008815
          ],
          [
            -1.336517,
            52.6008228
          ],
          [
            -1.3365931,
            52.6007637
          ],
          [
            -1.3366575,
            52.6006985
          ],
          [
            -1.3367219,
            52.6006171
          ],
          [
            -1.3368184,
            52.6004737
          ],
          [
            -1.336989,
            52.600106
          ],
          [
            -1.3370116,
            52.6000436
          ],
          [
            -1.3370266,
            52.5999625
          ],
          [
            -1.3370277,
            52.5998874
          ]
        ]
      }
    }
  ]
}
