{
  "type": "FeatureCollection",
  "bbox": [
    -0.7730409,
    48.3160078,
    -0.7690542,
    48.318161
  ],
  "metadata": {
    "schemaVersion": 1,
    "trackId": "fr-circuit-maurice-forget-30d9b95a",
    "layoutId": "circuit-maurice-forget",
    "license": "ODbL-1.0",
    "attribution": "© OpenStreetMap contributors",
    "closed": true,
    "geometryStatus": "draft",
    "timingStatus": "missing",
    "timingMode": "shared",
    "lengthM": 1136,
    "reviewedAt": null,
    "notes": [
      "Draft configuration: Full rallycross perimeter retains the long upper branch and western sweeping return. The independently published circuit description states 1,135 m, consistent with this 1,136.0 m source route. The catalogue scalar 2,249 m differs substantially; its pictured circuit identifies the same venue perimeter. The source is not repeated or stretched to match that number. Normal and alternative-lap classification still needs review. Branch identity was checked against catalogue layout facts and circuit identification references. Independent source distance 1136.0 m; no coordinates are changed to match a diagram or distance. Travel direction and historical alignment remain provisional."
    ]
  },
  "features": [
    {
      "type": "Feature",
      "id": "trace",
      "properties": {
        "role": "trace",
        "sourceIds": [
          "osm-selection-786576875"
        ]
      },
      "geometry": {
        "type": "LineString",
        "coordinates": [
          [
            -0.7715723,
            48.3168525
          ],
          [
            -0.7715374,
            48.3169312
          ],
          [
            -0.7715191,
            48.3169874
          ],
          [
            -0.7715008,
            48.3170735
          ],
          [
            -0.7714885,
            48.3171505
          ],
          [
            -0.7714744,
            48.3172152
          ],
          [
            -0.7714515,
            48.3172725
          ],
          [
            -0.771415,
            48.317342
          ],
          [
            -0.7713737,
            48.3174006
          ],
          [
            -0.7713334,
            48.3174398
          ],
          [
            -0.771286,
            48.317475
          ],
          [
            -0.771233,
            48.3175042
          ],
          [
            -0.7711598,
            48.3175306
          ],
          [
            -0.7709968,
            48.3175835
          ],
          [
            -0.7708267,
            48.3176494
          ],
          [
            -0.7707392,
            48.3176966
          ],
          [
            -0.7706319,
            48.3177745
          ],
          [
            -0.7706001,
            48.3178112
          ],
          [
            -0.7705696,
            48.3178502
          ],
          [
            -0.7705312,
            48.3179305
          ],
          [
            -0.7704734,
            48.3180304
          ],
          [
            -0.7704338,
            48.3180809
          ],
          [
            -0.7703843,
            48.3181127
          ],
          [
            -0.7703083,
            48.3181402
          ],
          [
            -0.7702241,
            48.3181555
          ],
          [
            -0.7701432,
            48.318161
          ],
          [
            -0.7700392,
            48.3181457
          ],
          [
            -0.7699112,
            48.3181112
          ],
          [
            -0.7697986,
            48.3180729
          ],
          [
            -0.769651,
            48.3180097
          ],
          [
            -0.7695408,
            48.3179448
          ],
          [
            -0.7694307,
            48.3178499
          ],
          [
            -0.7693532,
            48.317765
          ],
          [
            -0.7692956,
            48.3176718
          ],
          [
            -0.7692237,
            48.317526
          ],
          [
            -0.7691708,
            48.3172113
          ],
          [
            -0.7691546,
            48.3171119
          ],
          [
            -0.7690677,
            48.3165417
          ],
          [
            -0.7690564,
            48.3164282
          ],
          [
            -0.7690542,
            48.31634
          ],
          [
            -0.7690586,
            48.3162943
          ],
          [
            -0.7690616,
            48.3162704
          ],
          [
            -0.7690683,
            48.3162486
          ],
          [
            -0.7690951,
            48.3161862
          ],
          [
            -0.7691219,
            48.3161425
          ],
          [
            -0.7691581,
            48.3161015
          ],
          [
            -0.7691997,
            48.3160667
          ],
          [
            -0.7692493,
            48.316039
          ],
          [
            -0.7693164,
            48.3160176
          ],
          [
            -0.7693982,
            48.3160078
          ],
          [
            -0.7694706,
            48.3160078
          ],
          [
            -0.7695309,
            48.3160158
          ],
          [
            -0.7695913,
            48.3160301
          ],
          [
            -0.7696449,
            48.3160524
          ],
          [
            -0.7696946,
            48.316081
          ],
          [
            -0.7697294,
            48.3161148
          ],
          [
            -0.7697522,
            48.3161603
          ],
          [
            -0.769763,
            48.3162014
          ],
          [
            -0.7697643,
            48.316253
          ],
          [
            -0.7697638,
            48.3163006
          ],
          [
            -0.7697606,
            48.3163501
          ],
          [
            -0.769721,
            48.3170772
          ],
          [
            -0.7697237,
            48.3171316
          ],
          [
            -0.7697331,
            48.3171869
          ],
          [
            -0.7697666,
            48.3172431
          ],
          [
            -0.7697948,
            48.3172841
          ],
          [
            -0.7698404,
            48.3173251
          ],
          [
            -0.76989,
            48.3173617
          ],
          [
            -0.7699664,
            48.317392
          ],
          [
            -0.7700402,
            48.3174072
          ],
          [
            -0.7701166,
            48.3174134
          ],
          [
            -0.7702078,
            48.3174108
          ],
          [
            -0.7702883,
            48.3173974
          ],
          [
            -0.7703781,
            48.317368
          ],
          [
            -0.7704559,
            48.317326
          ],
          [
            -0.7705246,
            48.3172733
          ],
          [
            -0.7705783,
            48.3172331
          ],
          [
            -0.7711528,
            48.3167953
          ],
          [
            -0.7717721,
            48.3163118
          ],
          [
            -0.771803,
            48.3162959
          ],
          [
            -0.7718439,
            48.3162819
          ],
          [
            -0.77193,
            48.3162671
          ],
          [
            -0.7720287,
            48.3162692
          ],
          [
            -0.7721691,
            48.3162824
          ],
          [
            -0.7723375,
            48.3163142
          ],
          [
            -0.7725323,
            48.3163724
          ],
          [
            -0.7727288,
            48.3164548
          ],
          [
            -0.7729385,
            48.3165821
          ],
          [
            -0.7729646,
            48.3166031
          ],
          [
            -0.7729888,
            48.3166285
          ],
          [
            -0.7730128,
            48.3166612
          ],
          [
            -0.7730261,
            48.3166911
          ],
          [
            -0.7730357,
            48.3167245
          ],
          [
            -0.7730409,
            48.3167742
          ],
          [
            -0.7730369,
            48.3168258
          ],
          [
            -0.7730258,
            48.3168795
          ],
          [
            -0.7730092,
            48.3169155
          ],
          [
            -0.7729812,
            48.3169454
          ],
          [
            -0.772939,
            48.3169718
          ],
          [
            -0.7728901,
            48.3169887
          ],
          [
            -0.7728341,
            48.3169993
          ],
          [
            -0.7727754,
            48.3170044
          ],
          [
            -0.7727046,
            48.3169993
          ],
          [
            -0.7726583,
            48.3169881
          ],
          [
            -0.7726182,
            48.3169707
          ],
          [
            -0.7725894,
            48.3169459
          ],
          [
            -0.7725656,
            48.3169106
          ],
          [
            -0.7725367,
            48.3168534
          ],
          [
            -0.7725074,
            48.3167923
          ],
          [
            -0.7724744,
            48.3167207
          ],
          [
            -0.7724528,
            48.3166859
          ],
          [
            -0.7724217,
            48.3166497
          ],
          [
            -0.7723857,
            48.316617
          ],
          [
            -0.7723414,
            48.3165928
          ],
          [
            -0.7722936,
            48.3165757
          ],
          [
            -0.7722356,
            48.3165616
          ],
          [
            -0.7721774,
            48.3165552
          ],
          [
            -0.7721203,
            48.3165527
          ],
          [
            -0.7720593,
            48.3165569
          ],
          [
            -0.7719913,
            48.3165676
          ],
          [
            -0.7719314,
            48.3165827
          ],
          [
            -0.7718646,
            48.3166066
          ],
          [
            -0.7718092,
            48.3166352
          ],
          [
            -0.7717435,
            48.3166749
          ],
          [
            -0.7716983,
            48.3167089
          ],
          [
            -0.7716489,
            48.3167533
          ],
          [
            -0.7716126,
            48.3167937
          ],
          [
            -0.7715857,
            48.3168298
          ],
          [
            -0.7715723,
            48.3168525
          ]
        ]
      }
    }
  ]
}
