{
  "type": "FeatureCollection",
  "bbox": [
    138.5591217,
    -34.7010788,
    138.570349,
    -34.6974458
  ],
  "metadata": {
    "schemaVersion": 1,
    "trackId": "au-adelaide-international-raceway-326840502",
    "layoutId": "main",
    "license": "ODbL-1.0",
    "attribution": "© OpenStreetMap contributors",
    "closed": true,
    "geometryStatus": "draft",
    "timingStatus": "missing",
    "timingMode": "shared",
    "lengthM": 2454.7,
    "reviewedAt": null,
    "notes": [
      "Connected OSM course candidate. The selected loop is the longest simple source-node cycle after explicit exclusions; its association with a named circuit configuration requires review.",
      "Source way order and shared node IDs are retained. No nearby endpoints are joined and no reference boundaries are read.",
      "Some source ways lack one-way direction tags. Travel direction is provisional."
    ]
  },
  "features": [
    {
      "type": "Feature",
      "id": "trace",
      "properties": {
        "role": "trace",
        "sourceIds": [
          "osm-snapshot"
        ]
      },
      "geometry": {
        "type": "LineString",
        "coordinates": [
          [
            138.5698032,
            -34.6989016
          ],
          [
            138.5677821,
            -34.6993845
          ],
          [
            138.5675658,
            -34.6993863
          ],
          [
            138.5674685,
            -34.6993827
          ],
          [
            138.5673913,
            -34.6993725
          ],
          [
            138.5673314,
            -34.6994109
          ],
          [
            138.5671182,
            -34.6995273
          ],
          [
            138.5669766,
            -34.6995722
          ],
          [
            138.5625005,
            -34.7006028
          ],
          [
            138.5604347,
            -34.7010788
          ],
          [
            138.5602623,
            -34.7010788
          ],
          [
            138.5601163,
            -34.7010637
          ],
          [
            138.5599901,
            -34.7010325
          ],
          [
            138.5598678,
            -34.7009979
          ],
          [
            138.5597641,
            -34.7009566
          ],
          [
            138.559635,
            -34.7008901
          ],
          [
            138.559542,
            -34.7008304
          ],
          [
            138.5594677,
            -34.7007674
          ],
          [
            138.559409,
            -34.7007003
          ],
          [
            138.5593585,
            -34.7006284
          ],
          [
            138.5592898,
            -34.7005056
          ],
          [
            138.5592373,
            -34.7003869
          ],
          [
            138.5591955,
            -34.7002653
          ],
          [
            138.5591525,
            -34.7001091
          ],
          [
            138.5591335,
            -34.7000186
          ],
          [
            138.5591217,
            -34.699896
          ],
          [
            138.5591364,
            -34.6997918
          ],
          [
            138.5591829,
            -34.6996818
          ],
          [
            138.5592402,
            -34.6996014
          ],
          [
            138.5593133,
            -34.6995217
          ],
          [
            138.5593936,
            -34.6994684
          ],
          [
            138.5594946,
            -34.6994127
          ],
          [
            138.5595943,
            -34.699366
          ],
          [
            138.5596682,
            -34.6993445
          ],
          [
            138.5597508,
            -34.6993335
          ],
          [
            138.5598437,
            -34.6993401
          ],
          [
            138.5599905,
            -34.699356
          ],
          [
            138.5601751,
            -34.6993818
          ],
          [
            138.5604212,
            -34.6994246
          ],
          [
            138.5608283,
            -34.6995183
          ],
          [
            138.5612802,
            -34.6996455
          ],
          [
            138.561745,
            -34.6997639
          ],
          [
            138.5619035,
            -34.699799
          ],
          [
            138.5620751,
            -34.6998169
          ],
          [
            138.562278,
            -34.6998274
          ],
          [
            138.5624121,
            -34.6998318
          ],
          [
            138.5625305,
            -34.6998267
          ],
          [
            138.5627152,
            -34.6998087
          ],
          [
            138.5631029,
            -34.6997445
          ],
          [
            138.5642609,
            -34.6994815
          ],
          [
            138.5644254,
            -34.6994533
          ],
          [
            138.5645477,
            -34.6994415
          ],
          [
            138.564667,
            -34.6994424
          ],
          [
            138.5647931,
            -34.6994517
          ],
          [
            138.56498,
            -34.6994849
          ],
          [
            138.5651608,
            -34.6995206
          ],
          [
            138.5653491,
            -34.6995553
          ],
          [
            138.5654787,
            -34.6995676
          ],
          [
            138.565599,
            -34.6995647
          ],
          [
            138.565791,
            -34.6995389
          ],
          [
            138.5661124,
            -34.6994777
          ],
          [
            138.5665232,
            -34.6993769
          ],
          [
            138.566645,
            -34.6993228
          ],
          [
            138.566699,
            -34.6992907
          ],
          [
            138.5667376,
            -34.699251
          ],
          [
            138.566769,
            -34.6991845
          ],
          [
            138.5667829,
            -34.6991276
          ],
          [
            138.5667966,
            -34.6990474
          ],
          [
            138.5667555,
            -34.6989113
          ],
          [
            138.5667247,
            -34.6987896
          ],
          [
            138.5667103,
            -34.6986986
          ],
          [
            138.5667083,
            -34.6986271
          ],
          [
            138.5667133,
            -34.6985575
          ],
          [
            138.56674,
            -34.6984318
          ],
          [
            138.5668044,
            -34.6982907
          ],
          [
            138.5669171,
            -34.6981408
          ],
          [
            138.566992,
            -34.6980644
          ],
          [
            138.5670566,
            -34.6980217
          ],
          [
            138.5671583,
            -34.6979673
          ],
          [
            138.567239,
            -34.6979379
          ],
          [
            138.5691166,
            -34.6974748
          ],
          [
            138.5693392,
            -34.6974483
          ],
          [
            138.5694931,
            -34.6974458
          ],
          [
            138.5696463,
            -34.6974638
          ],
          [
            138.5697978,
            -34.6975035
          ],
          [
            138.5699317,
            -34.6975594
          ],
          [
            138.5700392,
            -34.6976258
          ],
          [
            138.5701384,
            -34.697703
          ],
          [
            138.5702348,
            -34.697824
          ],
          [
            138.57029,
            -34.6979181
          ],
          [
            138.5703287,
            -34.6980236
          ],
          [
            138.570349,
            -34.6981331
          ],
          [
            138.5703477,
            -34.6982433
          ],
          [
            138.5703287,
            -34.698372
          ],
          [
            138.5703061,
            -34.6984606
          ],
          [
            138.5702643,
            -34.6985628
          ],
          [
            138.5702125,
            -34.6986573
          ],
          [
            138.5701466,
            -34.6987317
          ],
          [
            138.5700336,
            -34.6988075
          ],
          [
            138.5699319,
            -34.6988641
          ],
          [
            138.5698032,
            -34.6989016
          ]
        ]
      }
    }
  ]
}
