{
  "type": "FeatureCollection",
  "bbox": [
    -97.2846229,
    33.0325246,
    -97.2783131,
    33.0406924
  ],
  "metadata": {
    "schemaVersion": 1,
    "trackId": "us-texas-motorspeedway-road-course-258054eb",
    "layoutId": "texas-motorspeedway-road-course",
    "license": "ODbL-1.0",
    "attribution": "© OpenStreetMap contributors",
    "closed": true,
    "geometryStatus": "draft",
    "timingStatus": "missing",
    "timingMode": "shared",
    "lengthM": 3719.7,
    "reviewedAt": null,
    "notes": [
      "Draft configuration: Road course using the full outer oval and kinked southern infield return. Branch identity was checked against catalogue layout facts and circuit identification references. Independent source distance 3719.7 m; no coordinates are changed to match a diagram or distance. Travel direction and historical alignment remain provisional."
    ]
  },
  "features": [
    {
      "type": "Feature",
      "id": "trace",
      "properties": {
        "role": "trace",
        "sourceIds": [
          "osm-selection-104503520"
        ]
      },
      "geometry": {
        "type": "LineString",
        "coordinates": [
          [
            -97.2797255,
            33.034094
          ],
          [
            -97.2796285,
            33.03437
          ],
          [
            -97.2792904,
            33.0353675
          ],
          [
            -97.2793385,
            33.0356508
          ],
          [
            -97.2793728,
            33.0357154
          ],
          [
            -97.2794111,
            33.0357643
          ],
          [
            -97.2794526,
            33.0358008
          ],
          [
            -97.2795162,
            33.035836
          ],
          [
            -97.2796013,
            33.0358621
          ],
          [
            -97.2796966,
            33.03587
          ],
          [
            -97.2797851,
            33.0358542
          ],
          [
            -97.2798682,
            33.0358194
          ],
          [
            -97.2799341,
            33.0357627
          ],
          [
            -97.2799737,
            33.035714
          ],
          [
            -97.2800026,
            33.0356564
          ],
          [
            -97.2801874,
            33.0351459
          ],
          [
            -97.2802653,
            33.0349087
          ],
          [
            -97.2803486,
            33.0346951
          ],
          [
            -97.2804296,
            33.0345141
          ],
          [
            -97.2805253,
            33.0343263
          ],
          [
            -97.2806856,
            33.0340576
          ],
          [
            -97.2807386,
            33.0339699
          ],
          [
            -97.2807957,
            33.0338957
          ],
          [
            -97.2808565,
            33.0338417
          ],
          [
            -97.2809186,
            33.033799
          ],
          [
            -97.2810029,
            33.0337658
          ],
          [
            -97.281106,
            33.0337518
          ],
          [
            -97.2812123,
            33.0337585
          ],
          [
            -97.2813088,
            33.0337855
          ],
          [
            -97.2813866,
            33.0338193
          ],
          [
            -97.2814503,
            33.0338598
          ],
          [
            -97.2815009,
            33.033907
          ],
          [
            -97.281545,
            33.0339598
          ],
          [
            -97.2815791,
            33.0340087
          ],
          [
            -97.281616,
            33.0341363
          ],
          [
            -97.2816206,
            33.0341993
          ],
          [
            -97.2816133,
            33.0342633
          ],
          [
            -97.281597,
            33.0343319
          ],
          [
            -97.2815755,
            33.0343921
          ],
          [
            -97.2815486,
            33.034441
          ],
          [
            -97.281396,
            33.0346648
          ],
          [
            -97.2813138,
            33.0347924
          ],
          [
            -97.2812677,
            33.0348761
          ],
          [
            -97.2811801,
            33.0350566
          ],
          [
            -97.2810014,
            33.0354979
          ],
          [
            -97.2809813,
            33.0355744
          ],
          [
            -97.2809746,
            33.0356508
          ],
          [
            -97.2809786,
            33.0357115
          ],
          [
            -97.2810014,
            33.0357823
          ],
          [
            -97.2810323,
            33.035843
          ],
          [
            -97.2811362,
            33.0360235
          ],
          [
            -97.2811654,
            33.0360799
          ],
          [
            -97.2811878,
            33.0361499
          ],
          [
            -97.2811992,
            33.036223
          ],
          [
            -97.2811999,
            33.0362826
          ],
          [
            -97.2811865,
            33.036368
          ],
          [
            -97.2810662,
            33.0367002
          ],
          [
            -97.2805133,
            33.0382995
          ],
          [
            -97.2804015,
            33.0386183
          ],
          [
            -97.2803487,
            33.0387681
          ],
          [
            -97.2802821,
            33.0389645
          ],
          [
            -97.2802303,
            33.0391135
          ],
          [
            -97.2801768,
            33.0392063
          ],
          [
            -97.2801233,
            33.0392596
          ],
          [
            -97.2800519,
            33.0393136
          ],
          [
            -97.2799741,
            33.0393462
          ],
          [
            -97.279895,
            33.0393631
          ],
          [
            -97.2798092,
            33.0393709
          ],
          [
            -97.279724,
            33.0393636
          ],
          [
            -97.2796483,
            33.0393473
          ],
          [
            -97.2795792,
            33.039317
          ],
          [
            -97.2795128,
            33.0392743
          ],
          [
            -97.2794653,
            33.0392316
          ],
          [
            -97.2794286,
            33.0391866
          ],
          [
            -97.2793648,
            33.0391051
          ],
          [
            -97.2792996,
            33.0390067
          ],
          [
            -97.279252,
            33.0389117
          ],
          [
            -97.2792164,
            33.0388189
          ],
          [
            -97.2791876,
            33.0387233
          ],
          [
            -97.2791695,
            33.0386424
          ],
          [
            -97.2791578,
            33.0385598
          ],
          [
            -97.2791523,
            33.0377374
          ],
          [
            -97.2791596,
            33.0376362
          ],
          [
            -97.2791722,
            33.0375598
          ],
          [
            -97.2791918,
            33.0374749
          ],
          [
            -97.2792217,
            33.0373785
          ],
          [
            -97.2793535,
            33.0370223
          ],
          [
            -97.2794297,
            33.0368032
          ],
          [
            -97.2794538,
            33.036716
          ],
          [
            -97.2794646,
            33.0366579
          ],
          [
            -97.2794686,
            33.0365963
          ],
          [
            -97.2794545,
            33.0365384
          ],
          [
            -97.2794136,
            33.0364804
          ],
          [
            -97.2793586,
            33.0364467
          ],
          [
            -97.2792902,
            33.0364243
          ],
          [
            -97.2792052,
            33.036417
          ],
          [
            -97.2791158,
            33.0364268
          ],
          [
            -97.2790277,
            33.0364468
          ],
          [
            -97.2789624,
            33.0364865
          ],
          [
            -97.2788864,
            33.0365594
          ],
          [
            -97.2785097,
            33.0376708
          ],
          [
            -97.2784365,
            33.0378813
          ],
          [
            -97.278399,
            33.0380222
          ],
          [
            -97.2783614,
            33.0381929
          ],
          [
            -97.2783347,
            33.0383617
          ],
          [
            -97.2783163,
            33.0385594
          ],
          [
            -97.2783131,
            33.0387246
          ],
          [
            -97.2783257,
            33.0388781
          ],
          [
            -97.2783567,
            33.0390475
          ],
          [
            -97.2783801,
            33.0391719
          ],
          [
            -97.2784213,
            33.0392897
          ],
          [
            -97.2784905,
            33.0394579
          ],
          [
            -97.2785528,
            33.0395818
          ],
          [
            -97.2786269,
            33.0396991
          ],
          [
            -97.2787336,
            33.0398363
          ],
          [
            -97.2788442,
            33.0399536
          ],
          [
            -97.2789697,
            33.0400711
          ],
          [
            -97.279074,
            33.0401563
          ],
          [
            -97.2791922,
            33.0402415
          ],
          [
            -97.2793353,
            33.0403343
          ],
          [
            -97.279482,
            33.0404155
          ],
          [
            -97.2796108,
            33.040476
          ],
          [
            -97.279768,
            33.0405411
          ],
          [
            -97.2799016,
            33.0405846
          ],
          [
            -97.2800552,
            33.0406181
          ],
          [
            -97.2802537,
            33.0406602
          ],
          [
            -97.2804171,
            33.0406821
          ],
          [
            -97.2805705,
            33.0406924
          ],
          [
            -97.2807388,
            33.0406921
          ],
          [
            -97.280907,
            33.0406835
          ],
          [
            -97.2810528,
            33.0406669
          ],
          [
            -97.2811848,
            33.040647
          ],
          [
            -97.28131,
            33.0406241
          ],
          [
            -97.2814259,
            33.0405961
          ],
          [
            -97.2815373,
            33.0405605
          ],
          [
            -97.2816388,
            33.0405266
          ],
          [
            -97.2817564,
            33.0404784
          ],
          [
            -97.2818662,
            33.0404352
          ],
          [
            -97.2819764,
            33.040378
          ],
          [
            -97.2820533,
            33.0403362
          ],
          [
            -97.2821312,
            33.0402904
          ],
          [
            -97.2822296,
            33.0402227
          ],
          [
            -97.2823239,
            33.0401551
          ],
          [
            -97.2824494,
            33.0400518
          ],
          [
            -97.2826105,
            33.0398954
          ],
          [
            -97.2836958,
            33.0386242
          ],
          [
            -97.2837531,
            33.0385611
          ],
          [
            -97.2838081,
            33.0384851
          ],
          [
            -97.2838432,
            33.0384276
          ],
          [
            -97.2838827,
            33.0383608
          ],
          [
            -97.2839156,
            33.0382865
          ],
          [
            -97.2839504,
            33.0381899
          ],
          [
            -97.2840764,
            33.0378199
          ],
          [
            -97.2844053,
            33.0368541
          ],
          [
            -97.2845404,
            33.0364574
          ],
          [
            -97.284579,
            33.0363325
          ],
          [
            -97.2845999,
            33.0362521
          ],
          [
            -97.2846152,
            33.0361559
          ],
          [
            -97.2846229,
            33.0360833
          ],
          [
            -97.2846218,
            33.0360014
          ],
          [
            -97.2846185,
            33.0359207
          ],
          [
            -97.2845301,
            33.0348778
          ],
          [
            -97.2845029,
            33.034526
          ],
          [
            -97.2844927,
            33.0343932
          ],
          [
            -97.2844513,
            33.0341474
          ],
          [
            -97.2843762,
            33.0338994
          ],
          [
            -97.2842819,
            33.0336854
          ],
          [
            -97.2841517,
            33.0334856
          ],
          [
            -97.2840215,
            33.0333189
          ],
          [
            -97.2838553,
            33.0331588
          ],
          [
            -97.2836962,
            33.0330316
          ],
          [
            -97.2835315,
            33.0329222
          ],
          [
            -97.2833592,
            33.0328195
          ],
          [
            -97.2831632,
            33.0327366
          ],
          [
            -97.2829474,
            33.0326546
          ],
          [
            -97.2827158,
            33.032589
          ],
          [
            -97.2825624,
            33.0325567
          ],
          [
            -97.2822393,
            33.0325256
          ],
          [
            -97.2819382,
            33.0325246
          ],
          [
            -97.2817596,
            33.0325393
          ],
          [
            -97.2815794,
            33.0325671
          ],
          [
            -97.2813844,
            33.0326156
          ],
          [
            -97.2812111,
            33.0326669
          ],
          [
            -97.2808811,
            33.0328066
          ],
          [
            -97.2805649,
            33.0329846
          ],
          [
            -97.2803448,
            33.0331629
          ],
          [
            -97.2802178,
            33.0332917
          ],
          [
            -97.2801018,
            33.0334205
          ],
          [
            -97.2799768,
            33.0335927
          ],
          [
            -97.2798343,
            33.0338439
          ],
          [
            -97.2797255,
            33.034094
          ]
        ]
      }
    }
  ]
}
