{
  "type": "FeatureCollection",
  "bbox": [
    -65.4999078,
    -33.6937002,
    -65.4916525,
    -33.6798579
  ],
  "metadata": {
    "schemaVersion": 1,
    "trackId": "ar-autodromo-internacional-jose-carlos-bassi-584033696",
    "layoutId": "main",
    "license": "ODbL-1.0",
    "attribution": "© OpenStreetMap contributors",
    "closed": true,
    "geometryStatus": "draft",
    "timingStatus": "missing",
    "timingMode": "shared",
    "lengthM": 4349.9,
    "reviewedAt": null,
    "notes": [
      "Closed named OSM raceway retained as a course candidate. Named-layout association requires review.",
      "Source way order and shared node IDs are retained. No nearby endpoints are joined and no reference boundaries are read.",
      "Some source ways lack one-way direction tags. Travel direction is provisional."
    ]
  },
  "features": [
    {
      "type": "Feature",
      "id": "trace",
      "properties": {
        "role": "trace",
        "sourceIds": [
          "osm-snapshot"
        ]
      },
      "geometry": {
        "type": "LineString",
        "coordinates": [
          [
            -65.4950934,
            -33.6906862
          ],
          [
            -65.4950264,
            -33.6907429
          ],
          [
            -65.4949956,
            -33.6908075
          ],
          [
            -65.494998,
            -33.6908689
          ],
          [
            -65.4950269,
            -33.6909295
          ],
          [
            -65.4963973,
            -33.6926135
          ],
          [
            -65.4965351,
            -33.6927649
          ],
          [
            -65.496577,
            -33.6928439
          ],
          [
            -65.4966028,
            -33.6929313
          ],
          [
            -65.496603,
            -33.6930037
          ],
          [
            -65.4965883,
            -33.6930894
          ],
          [
            -65.4965557,
            -33.6931485
          ],
          [
            -65.4964954,
            -33.6932122
          ],
          [
            -65.4957776,
            -33.6936455
          ],
          [
            -65.495687,
            -33.6936818
          ],
          [
            -65.4955493,
            -33.6937002
          ],
          [
            -65.4954343,
            -33.6936876
          ],
          [
            -65.495309,
            -33.6936402
          ],
          [
            -65.4952205,
            -33.6935701
          ],
          [
            -65.4941712,
            -33.692314
          ],
          [
            -65.4941033,
            -33.6922538
          ],
          [
            -65.4940115,
            -33.6921937
          ],
          [
            -65.4938504,
            -33.692112
          ],
          [
            -65.4936631,
            -33.6920545
          ],
          [
            -65.4935605,
            -33.6920469
          ],
          [
            -65.4934561,
            -33.6920494
          ],
          [
            -65.4933219,
            -33.692063
          ],
          [
            -65.4932102,
            -33.6920848
          ],
          [
            -65.4931058,
            -33.6921246
          ],
          [
            -65.4919556,
            -33.692678
          ],
          [
            -65.4918632,
            -33.6927121
          ],
          [
            -65.4917972,
            -33.6927198
          ],
          [
            -65.4917304,
            -33.6927014
          ],
          [
            -65.4916803,
            -33.6926646
          ],
          [
            -65.4916596,
            -33.6926161
          ],
          [
            -65.4916525,
            -33.6925659
          ],
          [
            -65.4916665,
            -33.6925253
          ],
          [
            -65.4916949,
            -33.692483
          ],
          [
            -65.4929432,
            -33.6911757
          ],
          [
            -65.4930636,
            -33.6910459
          ],
          [
            -65.4931796,
            -33.6909043
          ],
          [
            -65.4931932,
            -33.6908877
          ],
          [
            -65.4932164,
            -33.6908272
          ],
          [
            -65.4932256,
            -33.6907706
          ],
          [
            -65.4932227,
            -33.6907373
          ],
          [
            -65.4932119,
            -33.6906809
          ],
          [
            -65.4928094,
            -33.6892513
          ],
          [
            -65.4928124,
            -33.689196
          ],
          [
            -65.4928541,
            -33.6891461
          ],
          [
            -65.4929308,
            -33.6891098
          ],
          [
            -65.4931488,
            -33.6890576
          ],
          [
            -65.4932224,
            -33.6890151
          ],
          [
            -65.4932442,
            -33.6889716
          ],
          [
            -65.4932455,
            -33.6889268
          ],
          [
            -65.4932313,
            -33.6888661
          ],
          [
            -65.4931792,
            -33.6887967
          ],
          [
            -65.4929589,
            -33.6885607
          ],
          [
            -65.4928603,
            -33.6884767
          ],
          [
            -65.4925993,
            -33.6882691
          ],
          [
            -65.4925511,
            -33.6882272
          ],
          [
            -65.4924928,
            -33.6881638
          ],
          [
            -65.4924667,
            -33.6881082
          ],
          [
            -65.4924406,
            -33.6880292
          ],
          [
            -65.4922488,
            -33.6872815
          ],
          [
            -65.4919746,
            -33.6862119
          ],
          [
            -65.4919429,
            -33.686038
          ],
          [
            -65.4919253,
            -33.6858718
          ],
          [
            -65.4919358,
            -33.6857112
          ],
          [
            -65.4919736,
            -33.6855041
          ],
          [
            -65.4920249,
            -33.6853156
          ],
          [
            -65.4920873,
            -33.6851342
          ],
          [
            -65.4921722,
            -33.6849525
          ],
          [
            -65.49228,
            -33.6847805
          ],
          [
            -65.4924234,
            -33.6846034
          ],
          [
            -65.4925295,
            -33.6844827
          ],
          [
            -65.4938298,
            -33.6831504
          ],
          [
            -65.4939929,
            -33.6829971
          ],
          [
            -65.4942022,
            -33.6828079
          ],
          [
            -65.4943832,
            -33.682673
          ],
          [
            -65.4946249,
            -33.6825167
          ],
          [
            -65.4970825,
            -33.6810648
          ],
          [
            -65.4981325,
            -33.6804447
          ],
          [
            -65.4989499,
            -33.6799388
          ],
          [
            -65.499064,
            -33.679883
          ],
          [
            -65.4991709,
            -33.6798579
          ],
          [
            -65.4992809,
            -33.6798614
          ],
          [
            -65.4993565,
            -33.6798745
          ],
          [
            -65.4994382,
            -33.6799046
          ],
          [
            -65.4994957,
            -33.6799583
          ],
          [
            -65.4998691,
            -33.6805624
          ],
          [
            -65.4998951,
            -33.6806315
          ],
          [
            -65.4999078,
            -33.6807
          ],
          [
            -65.4998986,
            -33.6807738
          ],
          [
            -65.4998715,
            -33.6808333
          ],
          [
            -65.4998256,
            -33.6808919
          ],
          [
            -65.4997624,
            -33.6809445
          ],
          [
            -65.499193,
            -33.6811918
          ],
          [
            -65.4989819,
            -33.681276
          ],
          [
            -65.4987856,
            -33.6813708
          ],
          [
            -65.4985703,
            -33.6814876
          ],
          [
            -65.4984054,
            -33.6815918
          ],
          [
            -65.4982722,
            -33.6816894
          ],
          [
            -65.4979869,
            -33.68192
          ],
          [
            -65.4978311,
            -33.6820556
          ],
          [
            -65.4976127,
            -33.6822786
          ],
          [
            -65.497529,
            -33.682382
          ],
          [
            -65.4974457,
            -33.6825062
          ],
          [
            -65.4974149,
            -33.6825767
          ],
          [
            -65.4974088,
            -33.6825907
          ],
          [
            -65.4974036,
            -33.6826843
          ],
          [
            -65.4974227,
            -33.6827679
          ],
          [
            -65.4983053,
            -33.6852605
          ],
          [
            -65.4984727,
            -33.6857434
          ],
          [
            -65.4984943,
            -33.6858172
          ],
          [
            -65.4984928,
            -33.6858852
          ],
          [
            -65.4984683,
            -33.6859234
          ],
          [
            -65.4984247,
            -33.6859516
          ],
          [
            -65.4983745,
            -33.6859718
          ],
          [
            -65.4982379,
            -33.6860009
          ],
          [
            -65.4981657,
            -33.6860276
          ],
          [
            -65.4981188,
            -33.6860627
          ],
          [
            -65.4980976,
            -33.6861136
          ],
          [
            -65.4981057,
            -33.6861671
          ],
          [
            -65.498133,
            -33.6862126
          ],
          [
            -65.4987801,
            -33.6869306
          ],
          [
            -65.4988689,
            -33.6870345
          ],
          [
            -65.4989155,
            -33.6870903
          ],
          [
            -65.4989634,
            -33.6871712
          ],
          [
            -65.4989864,
            -33.6872314
          ],
          [
            -65.4992356,
            -33.6880492
          ],
          [
            -65.4992393,
            -33.6881358
          ],
          [
            -65.4992145,
            -33.6882074
          ],
          [
            -65.4991694,
            -33.688286
          ],
          [
            -65.4990822,
            -33.6883609
          ],
          [
            -65.4950934,
            -33.6906862
          ]
        ]
      }
    }
  ]
}
