{
  "type": "FeatureCollection",
  "bbox": [
    6.9172744,
    48.2998088,
    6.9184531,
    48.301257
  ],
  "metadata": {
    "schemaVersion": 1,
    "trackId": "fr-geoparc-391622752",
    "layoutId": "geoparc-direct-infield",
    "license": "ODbL-1.0",
    "attribution": "© OpenStreetMap contributors",
    "closed": true,
    "geometryStatus": "draft",
    "timingStatus": "missing",
    "timingMode": "shared",
    "lengthM": 432.5,
    "reviewedAt": null,
    "notes": [
      "The alternative southern infield circuit uses the direct western connector, upper infield arc and lower infield return shown in the operator configuration plan. No paddock or parallel pit access is included. Exact source coordinates are unchanged; historical alignment and direction remain provisional."
    ]
  },
  "features": [
    {
      "type": "Feature",
      "id": "trace",
      "properties": {
        "role": "trace",
        "sourceIds": [
          "osm-components-391622752"
        ]
      },
      "geometry": {
        "type": "LineString",
        "coordinates": [
          [
            6.9175093,
            48.3000858
          ],
          [
            6.9172744,
            48.3008955
          ],
          [
            6.9172744,
            48.3010358
          ],
          [
            6.9173475,
            48.3011155
          ],
          [
            6.9174315,
            48.3011751
          ],
          [
            6.9174908,
            48.3012091
          ],
          [
            6.9175578,
            48.3012311
          ],
          [
            6.9176449,
            48.3012445
          ],
          [
            6.917749,
            48.301257
          ],
          [
            6.9178558,
            48.3012547
          ],
          [
            6.9179881,
            48.3012408
          ],
          [
            6.9181666,
            48.301176
          ],
          [
            6.9182131,
            48.3010384
          ],
          [
            6.9178769,
            48.3005105
          ],
          [
            6.9184531,
            48.3001251
          ],
          [
            6.9183546,
            48.2999085
          ],
          [
            6.918233,
            48.2998454
          ],
          [
            6.9180766,
            48.2998088
          ],
          [
            6.9179445,
            48.2998129
          ],
          [
            6.9178175,
            48.2998376
          ],
          [
            6.9176553,
            48.2998808
          ],
          [
            6.9176004,
            48.2999153
          ],
          [
            6.9175514,
            48.299973
          ],
          [
            6.9175093,
            48.3000858
          ]
        ]
      }
    }
  ]
}
