{
  "type": "FeatureCollection",
  "bbox": [
    6.9134032,
    48.2990179,
    6.9189687,
    48.3059639
  ],
  "metadata": {
    "schemaVersion": 2,
    "geometryKind": "network",
    "trackId": "fr-geoparc-391622752",
    "layoutId": "geoparc-long",
    "license": "ODbL-1.0",
    "attribution": "© OpenStreetMap contributors",
    "closed": false,
    "geometryStatus": "draft",
    "timingStatus": "missing",
    "timingMode": "shared",
    "lengthM": 2971.6,
    "reviewedAt": null,
    "notes": []
  },
  "features": [
    {
      "type": "Feature",
      "id": "trace",
      "properties": {
        "role": "trace",
        "sourceIds": [
          "osm-network-geoparc-long"
        ]
      },
      "geometry": {
        "type": "MultiLineString",
        "coordinates": [
          [
            [
              6.9184531,
              48.3001251
            ],
            [
              6.9185141,
              48.2999837
            ],
            [
              6.9188325,
              48.2998982
            ],
            [
              6.9188761,
              48.2997839
            ],
            [
              6.9189687,
              48.2993788
            ],
            [
              6.9189527,
              48.2993315
            ],
            [
              6.9189162,
              48.2992887
            ],
            [
              6.9187835,
              48.29925
            ],
            [
              6.9180338,
              48.2990336
            ],
            [
              6.9179207,
              48.2990179
            ],
            [
              6.9177871,
              48.2990237
            ],
            [
              6.9176809,
              48.2990886
            ],
            [
              6.9175749,
              48.2992227
            ],
            [
              6.9169986,
              48.3000429
            ],
            [
              6.9168372,
              48.3002696
            ],
            [
              6.9167859,
              48.3003667
            ],
            [
              6.9167689,
              48.3004638
            ],
            [
              6.9167706,
              48.3007467
            ],
            [
              6.916768,
              48.3010544
            ],
            [
              6.9167403,
              48.3011286
            ],
            [
              6.9166784,
              48.3011982
            ],
            [
              6.9163975,
              48.3013254
            ],
            [
              6.9160918,
              48.3014782
            ],
            [
              6.9158536,
              48.3016946
            ],
            [
              6.91531,
              48.3024889
            ],
            [
              6.9152141,
              48.302676
            ],
            [
              6.9149438,
              48.3033537
            ],
            [
              6.9135007,
              48.3053474
            ],
            [
              6.9134323,
              48.3054574
            ],
            [
              6.9134032,
              48.3055674
            ],
            [
              6.9134518,
              48.3057058
            ],
            [
              6.9135285,
              48.3058073
            ],
            [
              6.9136366,
              48.3058842
            ],
            [
              6.9137722,
              48.3059376
            ],
            [
              6.9139233,
              48.3059639
            ],
            [
              6.9140432,
              48.3059566
            ],
            [
              6.9141827,
              48.3059347
            ],
            [
              6.9143061,
              48.3058901
            ],
            [
              6.9144411,
              48.3057491
            ],
            [
              6.9149483,
              48.3044563
            ],
            [
              6.9150112,
              48.3043269
            ],
            [
              6.9150898,
              48.3042182
            ],
            [
              6.9152213,
              48.3041207
            ],
            [
              6.9153788,
              48.3040613
            ],
            [
              6.9162647,
              48.3039373
            ],
            [
              6.9165337,
              48.3038927
            ],
            [
              6.9167555,
              48.3038208
            ],
            [
              6.9170086,
              48.3036621
            ],
            [
              6.9171551,
              48.3034932
            ],
            [
              6.9172686,
              48.3031773
            ],
            [
              6.9173501,
              48.3027779
            ],
            [
              6.9173417,
              48.302564
            ],
            [
              6.9175124,
              48.302467
            ],
            [
              6.9178584,
              48.3023631
            ],
            [
              6.9179395,
              48.3021149
            ],
            [
              6.9179884,
              48.3019242
            ],
            [
              6.9180163,
              48.3018157
            ],
            [
              6.9181666,
              48.301176
            ],
            [
              6.9179881,
              48.3012408
            ],
            [
              6.9178558,
              48.3012547
            ],
            [
              6.917749,
              48.301257
            ],
            [
              6.9176449,
              48.3012445
            ],
            [
              6.9175578,
              48.3012311
            ],
            [
              6.9174908,
              48.3012091
            ],
            [
              6.9174315,
              48.3011751
            ],
            [
              6.9173475,
              48.3011155
            ],
            [
              6.9172744,
              48.3010358
            ],
            [
              6.9172744,
              48.3008955
            ],
            [
              6.9178769,
              48.3005105
            ],
            [
              6.9184531,
              48.3001251
            ]
          ],
          [
            [
              6.9184531,
              48.3001251
            ],
            [
              6.9185141,
              48.2999837
            ],
            [
              6.9188325,
              48.2998982
            ],
            [
              6.9188761,
              48.2997839
            ],
            [
              6.9189687,
              48.2993788
            ],
            [
              6.9189527,
              48.2993315
            ],
            [
              6.9189162,
              48.2992887
            ],
            [
              6.9187835,
              48.29925
            ],
            [
              6.9180338,
              48.2990336
            ],
            [
              6.9179207,
              48.2990179
            ],
            [
              6.9177871,
              48.2990237
            ],
            [
              6.9176809,
              48.2990886
            ],
            [
              6.9175749,
              48.2992227
            ],
            [
              6.9169986,
              48.3000429
            ],
            [
              6.9168372,
              48.3002696
            ],
            [
              6.9167859,
              48.3003667
            ],
            [
              6.9167689,
              48.3004638
            ],
            [
              6.9167706,
              48.3007467
            ],
            [
              6.916768,
              48.3010544
            ],
            [
              6.9167403,
              48.3011286
            ],
            [
              6.9166784,
              48.3011982
            ],
            [
              6.9163975,
              48.3013254
            ],
            [
              6.9160918,
              48.3014782
            ],
            [
              6.9158536,
              48.3016946
            ],
            [
              6.91531,
              48.3024889
            ],
            [
              6.9152141,
              48.302676
            ],
            [
              6.9149438,
              48.3033537
            ],
            [
              6.9164217,
              48.3028549
            ],
            [
              6.9173417,
              48.302564
            ],
            [
              6.9175124,
              48.302467
            ],
            [
              6.9178584,
              48.3023631
            ],
            [
              6.9179395,
              48.3021149
            ],
            [
              6.9179884,
              48.3019242
            ],
            [
              6.9180163,
              48.3018157
            ],
            [
              6.9181666,
              48.301176
            ],
            [
              6.9179881,
              48.3012408
            ],
            [
              6.9178558,
              48.3012547
            ],
            [
              6.917749,
              48.301257
            ],
            [
              6.9176449,
              48.3012445
            ],
            [
              6.9175578,
              48.3012311
            ],
            [
              6.9174908,
              48.3012091
            ],
            [
              6.9174315,
              48.3011751
            ],
            [
              6.9173475,
              48.3011155
            ],
            [
              6.9172744,
              48.3010358
            ],
            [
              6.9172744,
              48.3008955
            ],
            [
              6.9178769,
              48.3005105
            ],
            [
              6.9184531,
              48.3001251
            ]
          ],
          [
            [
              6.9175093,
              48.3000858
            ],
            [
              6.9178769,
              48.3005105
            ],
            [
              6.9172744,
              48.3008955
            ],
            [
              6.9172744,
              48.3010358
            ],
            [
              6.9173475,
              48.3011155
            ],
            [
              6.9174315,
              48.3011751
            ],
            [
              6.9174908,
              48.3012091
            ],
            [
              6.9175578,
              48.3012311
            ],
            [
              6.9176449,
              48.3012445
            ],
            [
              6.917749,
              48.301257
            ],
            [
              6.9178558,
              48.3012547
            ],
            [
              6.9179881,
              48.3012408
            ],
            [
              6.9181666,
              48.301176
            ],
            [
              6.9182131,
              48.3010384
            ],
            [
              6.9183322,
              48.3005864
            ],
            [
              6.9183432,
              48.3005429
            ],
            [
              6.9184273,
              48.3002231
            ],
            [
              6.9184531,
              48.3001251
            ],
            [
              6.9183546,
              48.2999085
            ],
            [
              6.918233,
              48.2998454
            ],
            [
              6.9180766,
              48.2998088
            ],
            [
              6.9179445,
              48.2998129
            ],
            [
              6.9178175,
              48.2998376
            ],
            [
              6.9176553,
              48.2998808
            ],
            [
              6.9176004,
              48.2999153
            ],
            [
              6.9175514,
              48.299973
            ],
            [
              6.9175093,
              48.3000858
            ]
          ],
          [
            [
              6.9175093,
              48.3000858
            ],
            [
              6.9172744,
              48.3008955
            ],
            [
              6.9172744,
              48.3010358
            ],
            [
              6.9173475,
              48.3011155
            ],
            [
              6.9174315,
              48.3011751
            ],
            [
              6.9174908,
              48.3012091
            ],
            [
              6.9175578,
              48.3012311
            ],
            [
              6.9176449,
              48.3012445
            ],
            [
              6.917749,
              48.301257
            ],
            [
              6.9178558,
              48.3012547
            ],
            [
              6.9179881,
              48.3012408
            ],
            [
              6.9181666,
              48.301176
            ],
            [
              6.9182131,
              48.3010384
            ],
            [
              6.9178769,
              48.3005105
            ],
            [
              6.9184531,
              48.3001251
            ],
            [
              6.9183546,
              48.2999085
            ],
            [
              6.918233,
              48.2998454
            ],
            [
              6.9180766,
              48.2998088
            ],
            [
              6.9179445,
              48.2998129
            ],
            [
              6.9178175,
              48.2998376
            ],
            [
              6.9176553,
              48.2998808
            ],
            [
              6.9176004,
              48.2999153
            ],
            [
              6.9175514,
              48.299973
            ],
            [
              6.9175093,
              48.3000858
            ]
          ],
          [
            [
              6.9164217,
              48.3028549
            ],
            [
              6.9161139,
              48.3027351
            ],
            [
              6.9160696,
              48.3026655
            ],
            [
              6.9160586,
              48.3025907
            ],
            [
              6.9163811,
              48.3019349
            ],
            [
              6.9165109,
              48.3018039
            ],
            [
              6.91668,
              48.3016991
            ],
            [
              6.9168827,
              48.3016182
            ],
            [
              6.9170855,
              48.3015858
            ],
            [
              6.9172883,
              48.3015912
            ],
            [
              6.9174505,
              48.3016721
            ],
            [
              6.9175154,
              48.3017692
            ],
            [
              6.9175782,
              48.3018735
            ],
            [
              6.9176461,
              48.3019629
            ],
            [
              6.9176863,
              48.3019996
            ],
            [
              6.9177636,
              48.3020141
            ],
            [
              6.9178454,
              48.3020049
            ],
            [
              6.9179884,
              48.3019242
            ],
            [
              6.9179395,
              48.3021149
            ],
            [
              6.9178584,
              48.3023631
            ],
            [
              6.9175124,
              48.302467
            ],
            [
              6.9173417,
              48.302564
            ],
            [
              6.9164217,
              48.3028549
            ]
          ],
          [
            [
              6.9160586,
              48.3025907
            ],
            [
              6.9163811,
              48.3019349
            ],
            [
              6.9165109,
              48.3018039
            ],
            [
              6.91668,
              48.3016991
            ],
            [
              6.9168827,
              48.3016182
            ],
            [
              6.9170855,
              48.3015858
            ],
            [
              6.9172883,
              48.3015912
            ],
            [
              6.9174505,
              48.3016721
            ],
            [
              6.9175154,
              48.3017692
            ],
            [
              6.9175782,
              48.3018735
            ],
            [
              6.9176461,
              48.3019629
            ],
            [
              6.9176863,
              48.3019996
            ],
            [
              6.9177636,
              48.3020141
            ],
            [
              6.9178454,
              48.3020049
            ],
            [
              6.9179884,
              48.3019242
            ],
            [
              6.9180163,
              48.3018157
            ],
            [
              6.9181666,
              48.301176
            ],
            [
              6.9179881,
              48.3012408
            ],
            [
              6.9178558,
              48.3012547
            ],
            [
              6.917749,
              48.301257
            ],
            [
              6.9176449,
              48.3012445
            ],
            [
              6.9175578,
              48.3012311
            ],
            [
              6.9174908,
              48.3012091
            ],
            [
              6.9174315,
              48.3011751
            ],
            [
              6.9173475,
              48.3011155
            ],
            [
              6.9172744,
              48.3010358
            ],
            [
              6.9172744,
              48.3008955
            ],
            [
              6.9178769,
              48.3005105
            ],
            [
              6.9184531,
              48.3001251
            ],
            [
              6.9185141,
              48.2999837
            ],
            [
              6.9188325,
              48.2998982
            ],
            [
              6.9188761,
              48.2997839
            ],
            [
              6.9189687,
              48.2993788
            ],
            [
              6.9189527,
              48.2993315
            ],
            [
              6.9189162,
              48.2992887
            ],
            [
              6.9187835,
              48.29925
            ],
            [
              6.9180338,
              48.2990336
            ],
            [
              6.9179207,
              48.2990179
            ],
            [
              6.9177871,
              48.2990237
            ],
            [
              6.9176809,
              48.2990886
            ],
            [
              6.9175749,
              48.2992227
            ],
            [
              6.9169986,
              48.3000429
            ],
            [
              6.9168372,
              48.3002696
            ],
            [
              6.9167859,
              48.3003667
            ],
            [
              6.9167689,
              48.3004638
            ],
            [
              6.9167706,
              48.3007467
            ],
            [
              6.916768,
              48.3010544
            ],
            [
              6.9167403,
              48.3011286
            ],
            [
              6.9166784,
              48.3011982
            ],
            [
              6.9163975,
              48.3013254
            ],
            [
              6.9160918,
              48.3014782
            ],
            [
              6.9158536,
              48.3016946
            ],
            [
              6.91531,
              48.3024889
            ],
            [
              6.9153659,
              48.3025894
            ],
            [
              6.9154978,
              48.302662
            ],
            [
              6.9156358,
              48.3026942
            ],
            [
              6.9157512,
              48.3026966
            ],
            [
              6.9158646,
              48.3026834
            ],
            [
              6.9159316,
              48.30266
            ],
            [
              6.9160586,
              48.3025907
            ]
          ]
        ]
      }
    }
  ]
}
