{
  "type": "FeatureCollection",
  "bbox": [
    6.9160586,
    48.3015858,
    6.9179884,
    48.3028549
  ],
  "metadata": {
    "schemaVersion": 1,
    "trackId": "fr-geoparc-391622752",
    "layoutId": "geoparc-central-curved",
    "license": "ODbL-1.0",
    "attribution": "© OpenStreetMap contributors",
    "closed": true,
    "geometryStatus": "draft",
    "timingStatus": "missing",
    "timingMode": "shared",
    "lengthM": 453.6,
    "reviewedAt": null,
    "notes": [
      "The operator modular plan retains the central curved return, connecting the western middle-course branch to the eastern main straight. Exact repeated source-node joins close this course; the western short-course connector remains a separate variant. Exact source coordinates are unchanged; historical alignment and direction remain provisional."
    ]
  },
  "features": [
    {
      "type": "Feature",
      "id": "trace",
      "properties": {
        "role": "trace",
        "sourceIds": [
          "osm-components-391622752"
        ]
      },
      "geometry": {
        "type": "LineString",
        "coordinates": [
          [
            6.9164217,
            48.3028549
          ],
          [
            6.9161139,
            48.3027351
          ],
          [
            6.9160696,
            48.3026655
          ],
          [
            6.9160586,
            48.3025907
          ],
          [
            6.9163811,
            48.3019349
          ],
          [
            6.9165109,
            48.3018039
          ],
          [
            6.91668,
            48.3016991
          ],
          [
            6.9168827,
            48.3016182
          ],
          [
            6.9170855,
            48.3015858
          ],
          [
            6.9172883,
            48.3015912
          ],
          [
            6.9174505,
            48.3016721
          ],
          [
            6.9175154,
            48.3017692
          ],
          [
            6.9175782,
            48.3018735
          ],
          [
            6.9176461,
            48.3019629
          ],
          [
            6.9176863,
            48.3019996
          ],
          [
            6.9177636,
            48.3020141
          ],
          [
            6.9178454,
            48.3020049
          ],
          [
            6.9179884,
            48.3019242
          ],
          [
            6.9179395,
            48.3021149
          ],
          [
            6.9178584,
            48.3023631
          ],
          [
            6.9175124,
            48.302467
          ],
          [
            6.9173417,
            48.302564
          ],
          [
            6.9164217,
            48.3028549
          ]
        ]
      }
    }
  ]
}
