{
  "type": "FeatureCollection",
  "bbox": [
    45.6519569,
    43.3047194,
    45.6624681,
    43.3083577
  ],
  "metadata": {
    "schemaVersion": 1,
    "trackId": "ru-grozny-1b32be51",
    "layoutId": "grozny",
    "license": "ODbL-1.0",
    "attribution": "© OpenStreetMap contributors",
    "closed": true,
    "geometryStatus": "draft",
    "timingStatus": "missing",
    "timingMode": "shared",
    "lengthM": 3069.5,
    "reviewedAt": null,
    "notes": [
      "Draft route hypothesis: the source cycle is the unique closest nominal-distance match within conservative timing and distance checks. Approximate OSM trace length 3069.5 m. Difference from the supplied layout distance 18.5 m. Course configuration still requires visual review."
    ]
  },
  "features": [
    {
      "type": "Feature",
      "id": "trace",
      "properties": {
        "role": "trace",
        "sourceIds": [
          "osm-network-444649662"
        ]
      },
      "geometry": {
        "type": "LineString",
        "coordinates": [
          [
            45.6520681,
            43.3047194
          ],
          [
            45.6553709,
            43.3052985
          ],
          [
            45.6587324,
            43.3058866
          ],
          [
            45.6610182,
            43.3062866
          ],
          [
            45.6622643,
            43.3067187
          ],
          [
            45.6623072,
            43.3067362
          ],
          [
            45.6624024,
            43.3068143
          ],
          [
            45.6624681,
            43.3069187
          ],
          [
            45.6624614,
            43.3070114
          ],
          [
            45.6623997,
            43.3070954
          ],
          [
            45.6622897,
            43.3071627
          ],
          [
            45.6620685,
            43.3072535
          ],
          [
            45.6618204,
            43.3073032
          ],
          [
            45.6616366,
            43.307314
          ],
          [
            45.6614267,
            43.3072984
          ],
          [
            45.6612417,
            43.3072632
          ],
          [
            45.6609895,
            43.307191
          ],
          [
            45.6607481,
            43.3070524
          ],
          [
            45.6605416,
            43.3068895
          ],
          [
            45.6603297,
            43.306748
          ],
          [
            45.6601487,
            43.3066572
          ],
          [
            45.659981,
            43.3066025
          ],
          [
            45.6597946,
            43.3065645
          ],
          [
            45.6595036,
            43.306545
          ],
          [
            45.6593869,
            43.3065518
          ],
          [
            45.6592179,
            43.306583
          ],
          [
            45.6590034,
            43.3066299
          ],
          [
            45.6588357,
            43.306663
          ],
          [
            45.6586413,
            43.306664
          ],
          [
            45.658418,
            43.3066435
          ],
          [
            45.6582356,
            43.3066143
          ],
          [
            45.6580478,
            43.306544
          ],
          [
            45.657844,
            43.3064542
          ],
          [
            45.6575409,
            43.3062668
          ],
          [
            45.6573692,
            43.306179
          ],
          [
            45.6571439,
            43.3060951
          ],
          [
            45.6569159,
            43.3060346
          ],
          [
            45.6562789,
            43.3059184
          ],
          [
            45.656128,
            43.3059077
          ],
          [
            45.6559725,
            43.3059233
          ],
          [
            45.6557874,
            43.3059858
          ],
          [
            45.6556131,
            43.3060834
          ],
          [
            45.6555406,
            43.3061927
          ],
          [
            45.655495,
            43.3062844
          ],
          [
            45.655495,
            43.306382
          ],
          [
            45.6555192,
            43.3064737
          ],
          [
            45.6555862,
            43.3065967
          ],
          [
            45.6556908,
            43.3067138
          ],
          [
            45.6558303,
            43.3068465
          ],
          [
            45.6560449,
            43.3069539
          ],
          [
            45.6562273,
            43.3070554
          ],
          [
            45.6564445,
            43.3071334
          ],
          [
            45.6566779,
            43.3071939
          ],
          [
            45.6569193,
            43.3072271
          ],
          [
            45.6589001,
            43.307274
          ],
          [
            45.6591013,
            43.3072837
          ],
          [
            45.6593775,
            43.3073228
          ],
          [
            45.6598228,
            43.3074086
          ],
          [
            45.6602439,
            43.3075004
          ],
          [
            45.660496,
            43.3075784
          ],
          [
            45.6607481,
            43.3076702
          ],
          [
            45.6613181,
            43.307879
          ],
          [
            45.6614066,
            43.3079356
          ],
          [
            45.6614737,
            43.3080332
          ],
          [
            45.6614764,
            43.3081289
          ],
          [
            45.6614227,
            43.3082167
          ],
          [
            45.6613127,
            43.3082791
          ],
          [
            45.6611572,
            43.3083045
          ],
          [
            45.6610204,
            43.308283
          ],
          [
            45.6607173,
            43.3081796
          ],
          [
            45.6603686,
            43.3080957
          ],
          [
            45.6601406,
            43.3080644
          ],
          [
            45.659804,
            43.308043
          ],
          [
            45.6594148,
            43.3080298
          ],
          [
            45.6592297,
            43.3080435
          ],
          [
            45.65905,
            43.308063
          ],
          [
            45.6588434,
            43.308104
          ],
          [
            45.6586208,
            43.3081567
          ],
          [
            45.6583767,
            43.3082289
          ],
          [
            45.6581192,
            43.3083011
          ],
          [
            45.6579422,
            43.308344
          ],
          [
            45.657725,
            43.3083577
          ],
          [
            45.6575801,
            43.3083499
          ],
          [
            45.6573937,
            43.3083167
          ],
          [
            45.6572757,
            43.3082699
          ],
          [
            45.6553365,
            43.3072549
          ],
          [
            45.6547571,
            43.306927
          ],
          [
            45.6544138,
            43.3067162
          ],
          [
            45.6520722,
            43.3051274
          ],
          [
            45.6519837,
            43.3050123
          ],
          [
            45.6519569,
            43.3049166
          ],
          [
            45.6519743,
            43.3048444
          ],
          [
            45.6520681,
            43.3047194
          ]
        ]
      }
    }
  ]
}
