{
  "type": "FeatureCollection",
  "bbox": [
    -80.412621,
    25.449429,
    -80.4042499,
    25.4548961
  ],
  "metadata": {
    "schemaVersion": 1,
    "trackId": "us-homestead-miami-speedway-108159182",
    "layoutId": "main",
    "license": "ODbL-1.0",
    "attribution": "© OpenStreetMap contributors",
    "closed": true,
    "geometryStatus": "draft",
    "timingStatus": "missing",
    "timingMode": "shared",
    "lengthM": 3761.8,
    "reviewedAt": null,
    "notes": [
      "Connected OSM course candidate. The selected loop is the longest simple source-node cycle after explicit exclusions; its association with a named circuit configuration requires review.",
      "Source way order and shared node IDs are retained. No nearby endpoints are joined and no reference boundaries are read.",
      "Some source ways lack one-way direction tags. Travel direction is provisional."
    ]
  },
  "features": [
    {
      "type": "Feature",
      "id": "trace",
      "properties": {
        "role": "trace",
        "sourceIds": [
          "osm-snapshot"
        ]
      },
      "geometry": {
        "type": "LineString",
        "coordinates": [
          [
            -80.4116925,
            25.4528165
          ],
          [
            -80.411811,
            25.452667
          ],
          [
            -80.4119527,
            25.4524005
          ],
          [
            -80.4120685,
            25.4521827
          ],
          [
            -80.4123823,
            25.4516838
          ],
          [
            -80.4125191,
            25.4514416
          ],
          [
            -80.4125754,
            25.4513011
          ],
          [
            -80.412621,
            25.4511703
          ],
          [
            -80.412621,
            25.451088
          ],
          [
            -80.4125915,
            25.4509863
          ],
          [
            -80.4124467,
            25.4508312
          ],
          [
            -80.4120685,
            25.4505382
          ],
          [
            -80.4117493,
            25.4503638
          ],
          [
            -80.4115642,
            25.4503008
          ],
          [
            -80.411414,
            25.4502742
          ],
          [
            -80.4113255,
            25.4502766
          ],
          [
            -80.411237,
            25.4503154
          ],
          [
            -80.4111726,
            25.4503711
          ],
          [
            -80.4111216,
            25.450451
          ],
          [
            -80.4110895,
            25.4505552
          ],
          [
            -80.4113094,
            25.451134
          ],
          [
            -80.4113094,
            25.4512188
          ],
          [
            -80.4112772,
            25.4513011
          ],
          [
            -80.4112102,
            25.4513689
          ],
          [
            -80.4111082,
            25.4514343
          ],
          [
            -80.4110144,
            25.4514343
          ],
          [
            -80.4108856,
            25.451427
          ],
          [
            -80.4107247,
            25.4514052
          ],
          [
            -80.4105691,
            25.451398
          ],
          [
            -80.4104135,
            25.4514125
          ],
          [
            -80.4102419,
            25.4514343
          ],
          [
            -80.4100836,
            25.4514585
          ],
          [
            -80.4098986,
            25.451536
          ],
          [
            -80.4063929,
            25.4531684
          ],
          [
            -80.4063017,
            25.4532023
          ],
          [
            -80.4062078,
            25.4531974
          ],
          [
            -80.4061274,
            25.4531708
          ],
          [
            -80.4060657,
            25.453132
          ],
          [
            -80.4060067,
            25.4530788
          ],
          [
            -80.4059798,
            25.4530037
          ],
          [
            -80.4059718,
            25.4529068
          ],
          [
            -80.4059996,
            25.4525086
          ],
          [
            -80.4060228,
            25.4521754
          ],
          [
            -80.4060389,
            25.4520931
          ],
          [
            -80.4060603,
            25.4520398
          ],
          [
            -80.4060871,
            25.4519817
          ],
          [
            -80.4061166,
            25.4519259
          ],
          [
            -80.4061488,
            25.451863
          ],
          [
            -80.4061783,
            25.451817
          ],
          [
            -80.4062212,
            25.4517685
          ],
          [
            -80.4062695,
            25.4517225
          ],
          [
            -80.4063259,
            25.4516789
          ],
          [
            -80.406409,
            25.4516184
          ],
          [
            -80.4064841,
            25.4515772
          ],
          [
            -80.4066504,
            25.4515118
          ],
          [
            -80.411296,
            25.4498431
          ],
          [
            -80.4113979,
            25.4498044
          ],
          [
            -80.4114811,
            25.4497414
          ],
          [
            -80.4115293,
            25.4496833
          ],
          [
            -80.4115374,
            25.449613
          ],
          [
            -80.4115374,
            25.4495549
          ],
          [
            -80.4115079,
            25.4494968
          ],
          [
            -80.4114542,
            25.4494508
          ],
          [
            -80.4113496,
            25.449429
          ],
          [
            -80.4095967,
            25.4494301
          ],
          [
            -80.4067761,
            25.4507289
          ],
          [
            -80.4063017,
            25.4510202
          ],
          [
            -80.4059959,
            25.4512236
          ],
          [
            -80.4056472,
            25.4514271
          ],
          [
            -80.4053393,
            25.4516283
          ],
          [
            -80.4054005,
            25.4515142
          ],
          [
            -80.4056231,
            25.4512606
          ],
          [
            -80.4053632,
            25.4514292
          ],
          [
            -80.4051465,
            25.4515857
          ],
          [
            -80.4048832,
            25.4518294
          ],
          [
            -80.4047032,
            25.4520311
          ],
          [
            -80.4045566,
            25.4522387
          ],
          [
            -80.4044633,
            25.4523772
          ],
          [
            -80.4043533,
            25.452633
          ],
          [
            -80.4042866,
            25.4528647
          ],
          [
            -80.4042533,
            25.4530513
          ],
          [
            -80.4042499,
            25.4533221
          ],
          [
            -80.4043066,
            25.453593
          ],
          [
            -80.4044033,
            25.4538187
          ],
          [
            -80.4045366,
            25.4540715
          ],
          [
            -80.4046932,
            25.4542701
          ],
          [
            -80.4048499,
            25.4544266
          ],
          [
            -80.4050365,
            25.454565
          ],
          [
            -80.4052265,
            25.4546674
          ],
          [
            -80.4054565,
            25.4547727
          ],
          [
            -80.4056631,
            25.4548148
          ],
          [
            -80.4059464,
            25.454878
          ],
          [
            -80.4063197,
            25.4548961
          ],
          [
            -80.406703,
            25.454887
          ],
          [
            -80.4070296,
            25.4548238
          ],
          [
            -80.4073629,
            25.4547366
          ],
          [
            -80.4097069,
            25.4536971
          ],
          [
            -80.4116925,
            25.4528165
          ]
        ]
      }
    }
  ]
}
