{
  "type": "FeatureCollection",
  "bbox": [
    -49.1969919,
    -16.7224374,
    -49.1886959,
    -16.7140711
  ],
  "metadata": {
    "schemaVersion": 1,
    "trackId": "br-autodromo-internacional-ayrton-senna-288004307",
    "layoutId": "main",
    "license": "ODbL-1.0",
    "attribution": "© OpenStreetMap contributors",
    "closed": true,
    "geometryStatus": "draft",
    "timingStatus": "missing",
    "timingMode": "shared",
    "lengthM": 3828.5,
    "reviewedAt": null,
    "notes": [
      "Connected OSM course candidate. The selected loop is the longest simple source-node cycle after explicit exclusions; its association with a named circuit configuration requires review.",
      "Source way order and shared node IDs are retained. No nearby endpoints are joined and no Racelogic boundaries are read."
    ]
  },
  "features": [
    {
      "type": "Feature",
      "id": "trace",
      "properties": {
        "role": "trace",
        "sourceIds": [
          "osm-snapshot"
        ]
      },
      "geometry": {
        "type": "LineString",
        "coordinates": [
          [
            -49.193202,
            -16.7191955
          ],
          [
            -49.1943699,
            -16.718054
          ],
          [
            -49.1967747,
            -16.7156865
          ],
          [
            -49.1968793,
            -16.7155482
          ],
          [
            -49.196949,
            -16.7153941
          ],
          [
            -49.1969919,
            -16.7152297
          ],
          [
            -49.1969919,
            -16.7149882
          ],
          [
            -49.1969168,
            -16.7147621
          ],
          [
            -49.1967586,
            -16.7145515
          ],
          [
            -49.1965038,
            -16.7143482
          ],
          [
            -49.1961953,
            -16.7141713
          ],
          [
            -49.1959298,
            -16.7140913
          ],
          [
            -49.1957769,
            -16.7140711
          ],
          [
            -49.1955355,
            -16.7140861
          ],
          [
            -49.1939986,
            -16.7144997
          ],
          [
            -49.1931215,
            -16.7147489
          ],
          [
            -49.1930062,
            -16.714793
          ],
          [
            -49.1928989,
            -16.7148495
          ],
          [
            -49.192805,
            -16.7149184
          ],
          [
            -49.1926977,
            -16.7150186
          ],
          [
            -49.192518,
            -16.7152168
          ],
          [
            -49.1917348,
            -16.7161335
          ],
          [
            -49.1916302,
            -16.7162645
          ],
          [
            -49.1915685,
            -16.7164033
          ],
          [
            -49.1915578,
            -16.716542
          ],
          [
            -49.1915685,
            -16.7166678
          ],
          [
            -49.1915873,
            -16.7167732
          ],
          [
            -49.1916329,
            -16.7168605
          ],
          [
            -49.1916865,
            -16.7169427
          ],
          [
            -49.1917697,
            -16.7170279
          ],
          [
            -49.1918636,
            -16.7170994
          ],
          [
            -49.1919977,
            -16.7171508
          ],
          [
            -49.1921103,
            -16.7171688
          ],
          [
            -49.1922391,
            -16.7171662
          ],
          [
            -49.1923812,
            -16.7171405
          ],
          [
            -49.1925127,
            -16.7170789
          ],
          [
            -49.1926199,
            -16.7169992
          ],
          [
            -49.1927272,
            -16.7168708
          ],
          [
            -49.1927996,
            -16.7167372
          ],
          [
            -49.1932234,
            -16.7158102
          ],
          [
            -49.1933039,
            -16.7157174
          ],
          [
            -49.1934005,
            -16.7156223
          ],
          [
            -49.1935212,
            -16.7155555
          ],
          [
            -49.1936553,
            -16.7154964
          ],
          [
            -49.1951466,
            -16.7150931
          ],
          [
            -49.1952619,
            -16.7150803
          ],
          [
            -49.195388,
            -16.7151137
          ],
          [
            -49.1954899,
            -16.715183
          ],
          [
            -49.1955435,
            -16.7152652
          ],
          [
            -49.1955784,
            -16.7153731
          ],
          [
            -49.1955945,
            -16.7154913
          ],
          [
            -49.1955865,
            -16.7156069
          ],
          [
            -49.1955516,
            -16.7157379
          ],
          [
            -49.1954845,
            -16.7158535
          ],
          [
            -49.1953746,
            -16.7159665
          ],
          [
            -49.1952056,
            -16.7160671
          ],
          [
            -49.1949266,
            -16.7161695
          ],
          [
            -49.1947389,
            -16.7162469
          ],
          [
            -49.1945565,
            -16.7163754
          ],
          [
            -49.1943875,
            -16.7165214
          ],
          [
            -49.1929418,
            -16.7182014
          ],
          [
            -49.1928345,
            -16.7183016
          ],
          [
            -49.192695,
            -16.7183941
          ],
          [
            -49.1925046,
            -16.7184664
          ],
          [
            -49.1920299,
            -16.7186227
          ],
          [
            -49.1918743,
            -16.7186437
          ],
          [
            -49.1917992,
            -16.7186206
          ],
          [
            -49.1916865,
            -16.7185409
          ],
          [
            -49.1916356,
            -16.7184403
          ],
          [
            -49.191539,
            -16.7181167
          ],
          [
            -49.19148,
            -16.7180477
          ],
          [
            -49.1913861,
            -16.7179985
          ],
          [
            -49.1913003,
            -16.717986
          ],
          [
            -49.1912064,
            -16.7180062
          ],
          [
            -49.190552,
            -16.7182348
          ],
          [
            -49.1904313,
            -16.7183068
          ],
          [
            -49.1903374,
            -16.7183842
          ],
          [
            -49.1902516,
            -16.7184917
          ],
          [
            -49.1900382,
            -16.7189554
          ],
          [
            -49.1891775,
            -16.7208256
          ],
          [
            -49.1888246,
            -16.7215923
          ],
          [
            -49.1887146,
            -16.7218569
          ],
          [
            -49.1886959,
            -16.7219339
          ],
          [
            -49.1886959,
            -16.722029
          ],
          [
            -49.1887146,
            -16.7221266
          ],
          [
            -49.1887522,
            -16.7221985
          ],
          [
            -49.1888246,
            -16.7222704
          ],
          [
            -49.1889346,
            -16.7223347
          ],
          [
            -49.1893852,
            -16.7224297
          ],
          [
            -49.1895113,
            -16.7224374
          ],
          [
            -49.1896293,
            -16.7224246
          ],
          [
            -49.1897795,
            -16.7223941
          ],
          [
            -49.1899082,
            -16.7223449
          ],
          [
            -49.1900692,
            -16.7222602
          ],
          [
            -49.1902623,
            -16.7221163
          ],
          [
            -49.193202,
            -16.7191955
          ]
        ]
      }
    }
  ]
}
