{
  "type": "FeatureCollection",
  "bbox": [
    -8.214353,
    41.4238407,
    -8.2131251,
    41.4255094
  ],
  "metadata": {
    "schemaVersion": 1,
    "trackId": "pt-fafe-reference",
    "layoutId": "main",
    "license": "ODbL-1.0",
    "attribution": "© OpenStreetMap contributors",
    "closed": true,
    "geometryStatus": "draft",
    "timingStatus": "missing",
    "timingMode": "shared",
    "lengthM": 798.7,
    "reviewedAt": null,
    "notes": [
      "Single reference course at a unique connected OSM source cycle, with private timing proximity. Draft geometry; course identity and operating status require review. Timing coordinates remain private.",
      "Travel direction is provisional."
    ]
  },
  "features": [
    {
      "type": "Feature",
      "id": "trace",
      "properties": {
        "role": "trace",
        "sourceIds": [
          "osm-snapshot"
        ]
      },
      "geometry": {
        "type": "LineString",
        "coordinates": [
          [
            -8.2139031,
            41.4248144
          ],
          [
            -8.2138853,
            41.4253
          ],
          [
            -8.2138713,
            41.4253182
          ],
          [
            -8.2138524,
            41.4253299
          ],
          [
            -8.2138325,
            41.4253362
          ],
          [
            -8.2138125,
            41.425335
          ],
          [
            -8.2137891,
            41.4253278
          ],
          [
            -8.2137709,
            41.4253126
          ],
          [
            -8.2137608,
            41.4252952
          ],
          [
            -8.2137378,
            41.425096
          ],
          [
            -8.2137322,
            41.4250793
          ],
          [
            -8.2137148,
            41.4250638
          ],
          [
            -8.2136933,
            41.425055
          ],
          [
            -8.2136659,
            41.4250537
          ],
          [
            -8.2136322,
            41.4250567
          ],
          [
            -8.2136077,
            41.4250659
          ],
          [
            -8.2133995,
            41.4252877
          ],
          [
            -8.2133928,
            41.4253024
          ],
          [
            -8.2133937,
            41.4253228
          ],
          [
            -8.2133981,
            41.4253445
          ],
          [
            -8.213409,
            41.4253593
          ],
          [
            -8.2134282,
            41.4253755
          ],
          [
            -8.2134508,
            41.4253887
          ],
          [
            -8.2135054,
            41.425422
          ],
          [
            -8.2135218,
            41.4254392
          ],
          [
            -8.2135249,
            41.4254575
          ],
          [
            -8.213521,
            41.4254707
          ],
          [
            -8.2135101,
            41.4254827
          ],
          [
            -8.2134982,
            41.4254913
          ],
          [
            -8.2134801,
            41.4254971
          ],
          [
            -8.2134657,
            41.4255017
          ],
          [
            -8.2134508,
            41.4255048
          ],
          [
            -8.2134229,
            41.4255082
          ],
          [
            -8.2133945,
            41.4255094
          ],
          [
            -8.2133655,
            41.4255093
          ],
          [
            -8.2133365,
            41.4255048
          ],
          [
            -8.213226,
            41.4254771
          ],
          [
            -8.2132079,
            41.4254692
          ],
          [
            -8.2131916,
            41.4254586
          ],
          [
            -8.2131715,
            41.4254384
          ],
          [
            -8.2131594,
            41.4254198
          ],
          [
            -8.2131522,
            41.4254046
          ],
          [
            -8.213149,
            41.4253901
          ],
          [
            -8.2131488,
            41.4253611
          ],
          [
            -8.2131484,
            41.4253423
          ],
          [
            -8.2131533,
            41.4253209
          ],
          [
            -8.2131684,
            41.4252927
          ],
          [
            -8.2131847,
            41.4252689
          ],
          [
            -8.2132037,
            41.4252472
          ],
          [
            -8.2132488,
            41.4252117
          ],
          [
            -8.2134535,
            41.4250521
          ],
          [
            -8.2134724,
            41.4250307
          ],
          [
            -8.2134852,
            41.4250086
          ],
          [
            -8.2134929,
            41.4249843
          ],
          [
            -8.2134911,
            41.4249553
          ],
          [
            -8.2134867,
            41.4249357
          ],
          [
            -8.2134725,
            41.4248972
          ],
          [
            -8.2134582,
            41.4248429
          ],
          [
            -8.213455,
            41.4248054
          ],
          [
            -8.2134572,
            41.4247732
          ],
          [
            -8.2134635,
            41.4247501
          ],
          [
            -8.2134715,
            41.424729
          ],
          [
            -8.2134854,
            41.4247097
          ],
          [
            -8.2135081,
            41.424693
          ],
          [
            -8.213534,
            41.4246787
          ],
          [
            -8.2135553,
            41.4246693
          ],
          [
            -8.2135801,
            41.4246613
          ],
          [
            -8.2136404,
            41.4246465
          ],
          [
            -8.2136952,
            41.4246357
          ],
          [
            -8.2137197,
            41.4246259
          ],
          [
            -8.2137406,
            41.4246109
          ],
          [
            -8.2137535,
            41.4245951
          ],
          [
            -8.2137594,
            41.4245781
          ],
          [
            -8.2137603,
            41.4244924
          ],
          [
            -8.2137657,
            41.4244538
          ],
          [
            -8.2137756,
            41.4244205
          ],
          [
            -8.2137943,
            41.4243938
          ],
          [
            -8.2138121,
            41.424371
          ],
          [
            -8.214142,
            41.4240773
          ],
          [
            -8.2141517,
            41.4240659
          ],
          [
            -8.2141572,
            41.4240536
          ],
          [
            -8.2141587,
            41.4240409
          ],
          [
            -8.2141585,
            41.4240282
          ],
          [
            -8.2141561,
            41.424018
          ],
          [
            -8.2141509,
            41.4240067
          ],
          [
            -8.2141393,
            41.4239929
          ],
          [
            -8.2141303,
            41.423986
          ],
          [
            -8.2141191,
            41.4239818
          ],
          [
            -8.2141037,
            41.4239791
          ],
          [
            -8.2140906,
            41.423979
          ],
          [
            -8.2140766,
            41.4239808
          ],
          [
            -8.2140663,
            41.4239837
          ],
          [
            -8.2140455,
            41.423994
          ],
          [
            -8.2140322,
            41.4240026
          ],
          [
            -8.2140213,
            41.424013
          ],
          [
            -8.2139462,
            41.4240834
          ],
          [
            -8.2138892,
            41.4241277
          ],
          [
            -8.2138276,
            41.4241711
          ],
          [
            -8.2137943,
            41.4241855
          ],
          [
            -8.2137557,
            41.424196
          ],
          [
            -8.2137113,
            41.4242061
          ],
          [
            -8.2136646,
            41.4242121
          ],
          [
            -8.2136259,
            41.4242146
          ],
          [
            -8.2135841,
            41.4242101
          ],
          [
            -8.2134258,
            41.4241699
          ],
          [
            -8.2133982,
            41.4241704
          ],
          [
            -8.213373,
            41.4241756
          ],
          [
            -8.2133536,
            41.4241846
          ],
          [
            -8.2133427,
            41.424196
          ],
          [
            -8.2133369,
            41.4242168
          ],
          [
            -8.2133419,
            41.4242365
          ],
          [
            -8.2133572,
            41.4242562
          ],
          [
            -8.2133818,
            41.4242736
          ],
          [
            -8.2135279,
            41.4243694
          ],
          [
            -8.2135606,
            41.4243977
          ],
          [
            -8.2135698,
            41.4244162
          ],
          [
            -8.2135682,
            41.4244347
          ],
          [
            -8.2135534,
            41.4244504
          ],
          [
            -8.213534,
            41.4244604
          ],
          [
            -8.2135131,
            41.4244666
          ],
          [
            -8.2134923,
            41.424467
          ],
          [
            -8.2134745,
            41.4244658
          ],
          [
            -8.2134583,
            41.4244587
          ],
          [
            -8.2132164,
            41.4243093
          ],
          [
            -8.2131801,
            41.4242813
          ],
          [
            -8.2131536,
            41.4242494
          ],
          [
            -8.213134,
            41.4242049
          ],
          [
            -8.2131251,
            41.4241581
          ],
          [
            -8.2131277,
            41.4241254
          ],
          [
            -8.213138,
            41.4240926
          ],
          [
            -8.2131586,
            41.4240649
          ],
          [
            -8.213193,
            41.4240441
          ],
          [
            -8.2132287,
            41.4240315
          ],
          [
            -8.2132674,
            41.4240247
          ],
          [
            -8.2133087,
            41.42402
          ],
          [
            -8.2133515,
            41.4240223
          ],
          [
            -8.2134485,
            41.4240587
          ],
          [
            -8.213565,
            41.4241047
          ],
          [
            -8.2136095,
            41.4241172
          ],
          [
            -8.2136587,
            41.4241193
          ],
          [
            -8.2137049,
            41.4241107
          ],
          [
            -8.2137481,
            41.4240952
          ],
          [
            -8.213777,
            41.4240826
          ],
          [
            -8.2138013,
            41.4240653
          ],
          [
            -8.2138761,
            41.4239601
          ],
          [
            -8.2139172,
            41.4239198
          ],
          [
            -8.2139692,
            41.423884
          ],
          [
            -8.2140099,
            41.4238619
          ],
          [
            -8.214063,
            41.4238501
          ],
          [
            -8.2141082,
            41.4238407
          ],
          [
            -8.2141503,
            41.4238428
          ],
          [
            -8.2141987,
            41.4238502
          ],
          [
            -8.2142418,
            41.4238639
          ],
          [
            -8.2142441,
            41.4238646
          ],
          [
            -8.2142811,
            41.4238859
          ],
          [
            -8.2143088,
            41.4239107
          ],
          [
            -8.2143312,
            41.4239441
          ],
          [
            -8.2143444,
            41.4239786
          ],
          [
            -8.214353,
            41.424015
          ],
          [
            -8.2143509,
            41.4240514
          ],
          [
            -8.2143317,
            41.4240976
          ],
          [
            -8.2143024,
            41.4241338
          ],
          [
            -8.2139531,
            41.424437
          ],
          [
            -8.2139337,
            41.4244855
          ],
          [
            -8.2139078,
            41.4246092
          ],
          [
            -8.2139045,
            41.4247429
          ],
          [
            -8.2139031,
            41.4248144
          ]
        ]
      }
    }
  ]
}
