{
  "type": "FeatureCollection",
  "bbox": [
    23.9804843,
    63.4131516,
    23.9905452,
    63.4203918
  ],
  "metadata": {
    "schemaVersion": 1,
    "trackId": "fi-kemora-circuit-231449083",
    "layoutId": "kemora",
    "license": "ODbL-1.0",
    "attribution": "© OpenStreetMap contributors",
    "closed": true,
    "geometryStatus": "draft",
    "timingStatus": "missing",
    "timingMode": "shared",
    "lengthM": 2686.4,
    "reviewedAt": null,
    "notes": [
      "Draft route hypothesis: the source cycle is the unique closest nominal-distance match within conservative timing and distance checks. Approximate OSM trace length 2686.4 m. Difference from the supplied layout distance 0.6 m. Course configuration still requires visual review."
    ]
  },
  "features": [
    {
      "type": "Feature",
      "id": "trace",
      "properties": {
        "role": "trace",
        "sourceIds": [
          "osm-network-231449083"
        ]
      },
      "geometry": {
        "type": "LineString",
        "coordinates": [
          [
            23.9862869,
            63.4183471
          ],
          [
            23.9859839,
            63.4184056
          ],
          [
            23.9856637,
            63.4184181
          ],
          [
            23.9854166,
            63.4184069
          ],
          [
            23.9851356,
            63.4183514
          ],
          [
            23.9848691,
            63.4182533
          ],
          [
            23.984556,
            63.4179258
          ],
          [
            23.9844517,
            63.4178556
          ],
          [
            23.9843059,
            63.4177864
          ],
          [
            23.9840581,
            63.4177257
          ],
          [
            23.983802,
            63.4176984
          ],
          [
            23.983543,
            63.4177091
          ],
          [
            23.9833111,
            63.4177427
          ],
          [
            23.9831011,
            63.4178122
          ],
          [
            23.9829319,
            63.4178942
          ],
          [
            23.9828373,
            63.4179993
          ],
          [
            23.982822,
            63.4180746
          ],
          [
            23.982835,
            63.4181641
          ],
          [
            23.9829031,
            63.4182634
          ],
          [
            23.9830491,
            63.4183515
          ],
          [
            23.9831804,
            63.418422
          ],
          [
            23.9834949,
            63.418502
          ],
          [
            23.9846129,
            63.4187157
          ],
          [
            23.9849555,
            63.4187667
          ],
          [
            23.9852393,
            63.4187953
          ],
          [
            23.9855785,
            63.4188088
          ],
          [
            23.9859131,
            63.418808
          ],
          [
            23.9862523,
            63.4188275
          ],
          [
            23.9864453,
            63.4188773
          ],
          [
            23.9866158,
            63.4189461
          ],
          [
            23.9867081,
            63.4190477
          ],
          [
            23.986758,
            63.4191279
          ],
          [
            23.9867518,
            63.4192103
          ],
          [
            23.9867031,
            63.4192786
          ],
          [
            23.9866348,
            63.419337
          ],
          [
            23.986527,
            63.419391
          ],
          [
            23.9863555,
            63.4194539
          ],
          [
            23.986134,
            63.4194843
          ],
          [
            23.9858693,
            63.4194996
          ],
          [
            23.9854504,
            63.4194998
          ],
          [
            23.9845697,
            63.4194849
          ],
          [
            23.9833415,
            63.4194862
          ],
          [
            23.9831118,
            63.4194864
          ],
          [
            23.9820663,
            63.419493
          ],
          [
            23.9816474,
            63.4195336
          ],
          [
            23.9812378,
            63.4196184
          ],
          [
            23.9809863,
            63.4197153
          ],
          [
            23.9807907,
            63.4198055
          ],
          [
            23.9806463,
            63.4198934
          ],
          [
            23.9805286,
            63.4200073
          ],
          [
            23.9804843,
            63.4200908
          ],
          [
            23.9804872,
            63.4201883
          ],
          [
            23.9805615,
            63.4202669
          ],
          [
            23.9806965,
            63.420336
          ],
          [
            23.9808445,
            63.4203798
          ],
          [
            23.9810198,
            63.4203918
          ],
          [
            23.98309,
            63.4202458
          ],
          [
            23.9832608,
            63.4202338
          ],
          [
            23.9869919,
            63.4199375
          ],
          [
            23.9872333,
            63.419889
          ],
          [
            23.9874265,
            63.4198244
          ],
          [
            23.9875755,
            63.4197364
          ],
          [
            23.9878098,
            63.4193889
          ],
          [
            23.9883463,
            63.4184575
          ],
          [
            23.9905124,
            63.4149239
          ],
          [
            23.9905452,
            63.4147585
          ],
          [
            23.9905111,
            63.4146029
          ],
          [
            23.9904264,
            63.4144685
          ],
          [
            23.9887212,
            63.4133246
          ],
          [
            23.9884205,
            63.4132207
          ],
          [
            23.9881418,
            63.4131689
          ],
          [
            23.9878599,
            63.4131516
          ],
          [
            23.9876167,
            63.4131665
          ],
          [
            23.987353,
            63.4131922
          ],
          [
            23.9871074,
            63.4132412
          ],
          [
            23.9868675,
            63.4133324
          ],
          [
            23.986719,
            63.4134594
          ],
          [
            23.9862225,
            63.4139252
          ],
          [
            23.9858944,
            63.4143064
          ],
          [
            23.98585,
            63.4144257
          ],
          [
            23.985847,
            63.4145302
          ],
          [
            23.9858885,
            63.4146214
          ],
          [
            23.985974,
            63.4147246
          ],
          [
            23.9867179,
            63.4155069
          ],
          [
            23.9868235,
            63.4156753
          ],
          [
            23.9868557,
            63.415821
          ],
          [
            23.9867482,
            63.4180015
          ],
          [
            23.98665,
            63.4181596
          ],
          [
            23.9865166,
            63.4182466
          ],
          [
            23.9862869,
            63.4183471
          ]
        ]
      }
    }
  ]
}
