{
  "type": "FeatureCollection",
  "bbox": [
    -70.0920868,
    -20.2484504,
    -70.0852253,
    -20.246676
  ],
  "metadata": {
    "schemaVersion": 1,
    "trackId": "cl-autodromo-municipal-de-alto-hospicio-372529140",
    "layoutId": "main",
    "license": "ODbL-1.0",
    "attribution": "© OpenStreetMap contributors",
    "closed": true,
    "geometryStatus": "draft",
    "timingStatus": "missing",
    "timingMode": "shared",
    "lengthM": 1661.2,
    "reviewedAt": null,
    "notes": [
      "Closed named OSM raceway retained as a course candidate. Named-layout association requires review.",
      "Source way order and shared node IDs are retained. No nearby endpoints are joined and no reference boundaries are read.",
      "Some source ways lack one-way direction tags. Travel direction is provisional."
    ]
  },
  "features": [
    {
      "type": "Feature",
      "id": "trace",
      "properties": {
        "role": "trace",
        "sourceIds": [
          "osm-snapshot"
        ]
      },
      "geometry": {
        "type": "LineString",
        "coordinates": [
          [
            -70.0920868,
            -20.2472627
          ],
          [
            -70.0918508,
            -20.2482693
          ],
          [
            -70.0917698,
            -20.2483771
          ],
          [
            -70.0917001,
            -20.2484325
          ],
          [
            -70.0916148,
            -20.2484504
          ],
          [
            -70.0875917,
            -20.2481193
          ],
          [
            -70.0854993,
            -20.2479471
          ],
          [
            -70.0854023,
            -20.2479191
          ],
          [
            -70.0853111,
            -20.2478437
          ],
          [
            -70.0852628,
            -20.2477631
          ],
          [
            -70.0852253,
            -20.2476524
          ],
          [
            -70.0852633,
            -20.2473231
          ],
          [
            -70.0853111,
            -20.2472196
          ],
          [
            -70.0854076,
            -20.247139
          ],
          [
            -70.0855471,
            -20.2470686
          ],
          [
            -70.0859714,
            -20.2469003
          ],
          [
            -70.0864005,
            -20.2468198
          ],
          [
            -70.0865127,
            -20.2468169
          ],
          [
            -70.0866254,
            -20.2468371
          ],
          [
            -70.0867439,
            -20.2469003
          ],
          [
            -70.0870228,
            -20.2471016
          ],
          [
            -70.0873661,
            -20.2473029
          ],
          [
            -70.0876339,
            -20.2473857
          ],
          [
            -70.0878163,
            -20.2473907
          ],
          [
            -70.0879455,
            -20.2473835
          ],
          [
            -70.0880308,
            -20.2473605
          ],
          [
            -70.0884605,
            -20.2471419
          ],
          [
            -70.0888038,
            -20.2468802
          ],
          [
            -70.0891042,
            -20.246699
          ],
          [
            -70.0891949,
            -20.246676
          ],
          [
            -70.0892968,
            -20.246676
          ],
          [
            -70.0896406,
            -20.2467191
          ],
          [
            -70.0918503,
            -20.2470233
          ],
          [
            -70.0919576,
            -20.2470484
          ],
          [
            -70.0920434,
            -20.2470988
          ],
          [
            -70.092081,
            -20.2471743
          ],
          [
            -70.0920868,
            -20.2472627
          ]
        ]
      }
    }
  ]
}
