{
  "type": "FeatureCollection",
  "bbox": [
    54.6015388,
    24.4631581,
    54.6095482,
    24.478646
  ],
  "metadata": {
    "schemaVersion": 1,
    "trackId": "ae-yas-marina-e2656e19",
    "layoutId": "yas-marina-gp",
    "license": "ODbL-1.0",
    "attribution": "© OpenStreetMap contributors",
    "closed": true,
    "geometryStatus": "draft",
    "timingStatus": "missing",
    "timingMode": "shared",
    "lengthM": 5297,
    "reviewedAt": null,
    "notes": [
      "Draft course from an independently named OSM circuit relation. Timing variants retain separate catalogue entries; private start/finish GPS is displayed locally."
    ]
  },
  "features": [
    {
      "type": "Feature",
      "id": "trace",
      "properties": {
        "role": "trace",
        "sourceIds": [
          "osm-relation-11378665"
        ]
      },
      "geometry": {
        "type": "LineString",
        "coordinates": [
          [
            54.6058366,
            24.4744434
          ],
          [
            54.6059218,
            24.4747155
          ],
          [
            54.6059506,
            24.4748188
          ],
          [
            54.6059931,
            24.4749753
          ],
          [
            54.6060262,
            24.4751392
          ],
          [
            54.60605,
            24.4753045
          ],
          [
            54.6060527,
            24.4753353
          ],
          [
            54.6060644,
            24.4754707
          ],
          [
            54.6060696,
            24.4756373
          ],
          [
            54.6060653,
            24.475804
          ],
          [
            54.6060517,
            24.4759702
          ],
          [
            54.6060287,
            24.4761356
          ],
          [
            54.6059575,
            24.4766764
          ],
          [
            54.6058714,
            24.4773673
          ],
          [
            54.6058412,
            24.4775792
          ],
          [
            54.6057502,
            24.4782485
          ],
          [
            54.6057247,
            24.4783575
          ],
          [
            54.6056972,
            24.4784351
          ],
          [
            54.605679,
            24.4784663
          ],
          [
            54.6056541,
            24.4785011
          ],
          [
            54.605622,
            24.4785351
          ],
          [
            54.6055861,
            24.4785653
          ],
          [
            54.6055395,
            24.4785995
          ],
          [
            54.6054986,
            24.4786196
          ],
          [
            54.6054313,
            24.4786371
          ],
          [
            54.6053956,
            24.4786431
          ],
          [
            54.6053467,
            24.478646
          ],
          [
            54.6053065,
            24.4786423
          ],
          [
            54.6052681,
            24.4786333
          ],
          [
            54.6052287,
            24.4786193
          ],
          [
            54.6051923,
            24.4785997
          ],
          [
            54.6051611,
            24.4785775
          ],
          [
            54.6051292,
            24.4785474
          ],
          [
            54.6050948,
            24.4785067
          ],
          [
            54.605069,
            24.4784642
          ],
          [
            54.6050352,
            24.4783978
          ],
          [
            54.6048963,
            24.4780183
          ],
          [
            54.6048769,
            24.4779556
          ],
          [
            54.604719,
            24.4773829
          ],
          [
            54.6045828,
            24.4769891
          ],
          [
            54.6042168,
            24.4759783
          ],
          [
            54.6036261,
            24.4743874
          ],
          [
            54.6035749,
            24.4742486
          ],
          [
            54.6034934,
            24.4740274
          ],
          [
            54.603079,
            24.4729223
          ],
          [
            54.6028327,
            24.4722617
          ],
          [
            54.602731,
            24.4719671
          ],
          [
            54.6026092,
            24.4716269
          ],
          [
            54.6025402,
            24.4713962
          ],
          [
            54.6024503,
            24.471084
          ],
          [
            54.602353,
            24.4707749
          ],
          [
            54.6015457,
            24.468567
          ],
          [
            54.6015388,
            24.4685418
          ],
          [
            54.6015392,
            24.4685158
          ],
          [
            54.601547,
            24.4684908
          ],
          [
            54.6015616,
            24.4684685
          ],
          [
            54.601582,
            24.4684504
          ],
          [
            54.6016068,
            24.4684376
          ],
          [
            54.6016344,
            24.468431
          ],
          [
            54.6016629,
            24.4684312
          ],
          [
            54.6021046,
            24.4684975
          ],
          [
            54.6021326,
            24.4684986
          ],
          [
            54.6021604,
            24.4684948
          ],
          [
            54.6021868,
            24.4684864
          ],
          [
            54.6022111,
            24.4684736
          ],
          [
            54.6022296,
            24.4684584
          ],
          [
            54.6022423,
            24.4684369
          ],
          [
            54.6022499,
            24.4684119
          ],
          [
            54.6022575,
            24.4683851
          ],
          [
            54.6023761,
            24.4679843
          ],
          [
            54.6024127,
            24.4678434
          ],
          [
            54.6025121,
            24.4675375
          ],
          [
            54.6026107,
            24.4672141
          ],
          [
            54.602667,
            24.4671073
          ],
          [
            54.6027388,
            24.4669991
          ],
          [
            54.6028765,
            24.4667983
          ],
          [
            54.6030422,
            24.4665989
          ],
          [
            54.6032671,
            24.4663856
          ],
          [
            54.6034359,
            24.4662412
          ],
          [
            54.6037089,
            24.466032
          ],
          [
            54.6044068,
            24.4655447
          ],
          [
            54.6053288,
            24.4648776
          ],
          [
            54.6057028,
            24.4646245
          ],
          [
            54.605972,
            24.4644385
          ],
          [
            54.6061381,
            24.4643353
          ],
          [
            54.6065381,
            24.4641002
          ],
          [
            54.6067684,
            24.4639814
          ],
          [
            54.6071079,
            24.4638324
          ],
          [
            54.6086683,
            24.4632022
          ],
          [
            54.6087227,
            24.4631852
          ],
          [
            54.6087821,
            24.4631705
          ],
          [
            54.6088589,
            24.4631596
          ],
          [
            54.6089025,
            24.4631581
          ],
          [
            54.6089577,
            24.463161
          ],
          [
            54.6090276,
            24.4631682
          ],
          [
            54.6091057,
            24.4631852
          ],
          [
            54.6091806,
            24.4632154
          ],
          [
            54.6092572,
            24.4632585
          ],
          [
            54.6093008,
            24.4632902
          ],
          [
            54.6093617,
            24.4633418
          ],
          [
            54.6093989,
            24.463384
          ],
          [
            54.6094498,
            24.4634599
          ],
          [
            54.6094823,
            24.4635195
          ],
          [
            54.60951,
            24.4635919
          ],
          [
            54.6095289,
            24.4636616
          ],
          [
            54.6095466,
            24.4637821
          ],
          [
            54.6095482,
            24.4638627
          ],
          [
            54.6095381,
            24.4639533
          ],
          [
            54.6095159,
            24.4640511
          ],
          [
            54.6094865,
            24.4641295
          ],
          [
            54.6094368,
            24.4642158
          ],
          [
            54.6093853,
            24.4642804
          ],
          [
            54.6093294,
            24.4643407
          ],
          [
            54.6093005,
            24.4643683
          ],
          [
            54.6092536,
            24.4644049
          ],
          [
            54.6091759,
            24.4644559
          ],
          [
            54.6091104,
            24.4644933
          ],
          [
            54.6090366,
            24.4645244
          ],
          [
            54.608932,
            24.4645549
          ],
          [
            54.608827,
            24.4645724
          ],
          [
            54.6087253,
            24.4645827
          ],
          [
            54.6084396,
            24.4646016
          ],
          [
            54.6071156,
            24.4646851
          ],
          [
            54.6069837,
            24.4646993
          ],
          [
            54.6069013,
            24.4647056
          ],
          [
            54.6068364,
            24.4647142
          ],
          [
            54.6067574,
            24.4647329
          ],
          [
            54.6067131,
            24.4647451
          ],
          [
            54.6066633,
            24.4647653
          ],
          [
            54.6057429,
            24.4653026
          ],
          [
            54.6056965,
            24.4653371
          ],
          [
            54.6056609,
            24.4653721
          ],
          [
            54.6056153,
            24.4654281
          ],
          [
            54.6055766,
            24.4654893
          ],
          [
            54.6055378,
            24.4655878
          ],
          [
            54.6053099,
            24.4665118
          ],
          [
            54.6053067,
            24.4665352
          ],
          [
            54.6053107,
            24.4665543
          ],
          [
            54.6053212,
            24.4665778
          ],
          [
            54.6053349,
            24.4665924
          ],
          [
            54.605355,
            24.4666027
          ],
          [
            54.6054013,
            24.4666133
          ],
          [
            54.6062121,
            24.4667153
          ],
          [
            54.6062532,
            24.4667264
          ],
          [
            54.6063061,
            24.466743
          ],
          [
            54.606351,
            24.4667681
          ],
          [
            54.60639,
            24.4667991
          ],
          [
            54.606421,
            24.466836
          ],
          [
            54.6064594,
            24.466892
          ],
          [
            54.6064761,
            24.4669248
          ],
          [
            54.6064854,
            24.4669533
          ],
          [
            54.6064934,
            24.4670055
          ],
          [
            54.6064937,
            24.4673333
          ],
          [
            54.6064803,
            24.4675896
          ],
          [
            54.606476,
            24.4676537
          ],
          [
            54.6064687,
            24.4676856
          ],
          [
            54.6064549,
            24.4677248
          ],
          [
            54.60644,
            24.4677573
          ],
          [
            54.6064139,
            24.4678009
          ],
          [
            54.6063952,
            24.4678252
          ],
          [
            54.6063825,
            24.4678391
          ],
          [
            54.6063628,
            24.4678537
          ],
          [
            54.6063229,
            24.4678721
          ],
          [
            54.6063004,
            24.4678809
          ],
          [
            54.6062745,
            24.4678905
          ],
          [
            54.6062387,
            24.4679008
          ],
          [
            54.6061984,
            24.4679103
          ],
          [
            54.6061251,
            24.4679212
          ],
          [
            54.6060378,
            24.4679296
          ],
          [
            54.6059369,
            24.4679345
          ],
          [
            54.6058448,
            24.4679351
          ],
          [
            54.6057632,
            24.4679346
          ],
          [
            54.6056007,
            24.4679224
          ],
          [
            54.6040815,
            24.467721
          ],
          [
            54.6039916,
            24.4677144
          ],
          [
            54.6038683,
            24.4677139
          ],
          [
            54.6037912,
            24.4677197
          ],
          [
            54.6036734,
            24.4677441
          ],
          [
            54.6035931,
            24.4677678
          ],
          [
            54.6034953,
            24.4678012
          ],
          [
            54.6034426,
            24.4678291
          ],
          [
            54.6033839,
            24.4678819
          ],
          [
            54.6029417,
            24.4685853
          ],
          [
            54.6026855,
            24.4689728
          ],
          [
            54.6026681,
            24.4690071
          ],
          [
            54.6026472,
            24.4690643
          ],
          [
            54.6026286,
            24.4691356
          ],
          [
            54.6026091,
            24.4692406
          ],
          [
            54.6026033,
            24.4693191
          ],
          [
            54.6026014,
            24.4693544
          ],
          [
            54.602601,
            24.4693836
          ],
          [
            54.6026032,
            24.4694117
          ],
          [
            54.602608,
            24.4694394
          ],
          [
            54.6026157,
            24.4694714
          ],
          [
            54.6026288,
            24.4695062
          ],
          [
            54.6026406,
            24.4695297
          ],
          [
            54.6026633,
            24.4695584
          ],
          [
            54.6026889,
            24.4695809
          ],
          [
            54.6027153,
            24.4695963
          ],
          [
            54.6027517,
            24.4696089
          ],
          [
            54.6028383,
            24.4696255
          ],
          [
            54.6038851,
            24.4697621
          ],
          [
            54.6041498,
            24.4697966
          ],
          [
            54.6052325,
            24.4699397
          ],
          [
            54.6078325,
            24.4702766
          ],
          [
            54.6078767,
            24.4702875
          ],
          [
            54.6079161,
            24.4703018
          ],
          [
            54.6079568,
            24.4703266
          ],
          [
            54.6080003,
            24.4703643
          ],
          [
            54.6080369,
            24.4704076
          ],
          [
            54.6080753,
            24.4704633
          ],
          [
            54.608098,
            24.470516
          ],
          [
            54.6081067,
            24.4705582
          ],
          [
            54.6081092,
            24.4706015
          ],
          [
            54.6081054,
            24.4706451
          ],
          [
            54.6080912,
            24.4707165
          ],
          [
            54.6077845,
            24.4718734
          ],
          [
            54.6076981,
            24.4722149
          ],
          [
            54.6076816,
            24.4722878
          ],
          [
            54.6076592,
            24.4723547
          ],
          [
            54.6076416,
            24.4723994
          ],
          [
            54.6076181,
            24.4724446
          ],
          [
            54.6075939,
            24.4724763
          ],
          [
            54.6075635,
            24.4725086
          ],
          [
            54.6074993,
            24.4725647
          ],
          [
            54.6074266,
            24.4726115
          ],
          [
            54.6073472,
            24.4726481
          ],
          [
            54.6072627,
            24.4726737
          ],
          [
            54.6066531,
            24.4728508
          ],
          [
            54.606548,
            24.4728867
          ],
          [
            54.6064626,
            24.4729235
          ],
          [
            54.6063942,
            24.4729593
          ],
          [
            54.6063238,
            24.473
          ],
          [
            54.6062553,
            24.4730451
          ],
          [
            54.6061865,
            24.473096
          ],
          [
            54.6061127,
            24.4731584
          ],
          [
            54.6060668,
            24.4732015
          ],
          [
            54.6060115,
            24.4732573
          ],
          [
            54.6059544,
            24.4733238
          ],
          [
            54.6058995,
            24.473392
          ],
          [
            54.6058105,
            24.4735071
          ],
          [
            54.6057781,
            24.47359
          ],
          [
            54.6057583,
            24.4736655
          ],
          [
            54.6057346,
            24.4737898
          ],
          [
            54.6057294,
            24.4738447
          ],
          [
            54.6057255,
            24.4738862
          ],
          [
            54.6057266,
            24.4739982
          ],
          [
            54.6057449,
            24.4741174
          ],
          [
            54.6057671,
            24.4742209
          ],
          [
            54.6058366,
            24.4744434
          ]
        ]
      }
    }
  ]
}
