{
  "type": "FeatureCollection",
  "bbox": [
    54.6015681,
    24.4684605,
    54.6081272,
    24.4790075
  ],
  "metadata": {
    "schemaVersion": 1,
    "trackId": "ae-yas-marina-e2656e19",
    "layoutId": "yas-historical-north-chicane",
    "license": "ODbL-1.0",
    "attribution": "© OpenStreetMap contributors",
    "closed": true,
    "geometryStatus": "draft",
    "timingStatus": "missing",
    "timingMode": "shared",
    "lengthM": 3144.3,
    "reviewedAt": null,
    "notes": [
      "The historical North route includes the Western back-straight chicane in addition to the full Northern hairpin and short Southern connection. Coordinates retain exact independent 2019 OSM nodes; direction, detailed corner and historical barrier alignment remain draft. Exact source coordinates are unchanged; historical alignment and direction remain provisional."
    ]
  },
  "features": [
    {
      "type": "Feature",
      "id": "trace",
      "properties": {
        "role": "trace",
        "sourceIds": [
          "osm-components-168477013"
        ]
      },
      "geometry": {
        "type": "LineString",
        "coordinates": [
          [
            54.6058484,
            24.4744403
          ],
          [
            54.6057778,
            24.4742172
          ],
          [
            54.6057556,
            24.4741137
          ],
          [
            54.6057373,
            24.4739945
          ],
          [
            54.6057362,
            24.4738825
          ],
          [
            54.6057401,
            24.473841
          ],
          [
            54.6057453,
            24.4737861
          ],
          [
            54.6057784,
            24.4736502
          ],
          [
            54.6058329,
            24.4735154
          ],
          [
            54.6059035,
            24.4733951
          ],
          [
            54.6059571,
            24.4733257
          ],
          [
            54.6060732,
            24.4732054
          ],
          [
            54.606186,
            24.4731028
          ],
          [
            54.6063227,
            24.4730063
          ],
          [
            54.6065015,
            24.4729099
          ],
          [
            54.6066531,
            24.4728508
          ],
          [
            54.6072627,
            24.4726737
          ],
          [
            54.6073472,
            24.4726481
          ],
          [
            54.6074266,
            24.4726115
          ],
          [
            54.6074993,
            24.4725647
          ],
          [
            54.6075635,
            24.4725086
          ],
          [
            54.6076181,
            24.4724446
          ],
          [
            54.6076617,
            24.4723739
          ],
          [
            54.6076934,
            24.4722982
          ],
          [
            54.6077125,
            24.4722191
          ],
          [
            54.6078062,
            24.4718665
          ],
          [
            54.6081124,
            24.4707147
          ],
          [
            54.6081241,
            24.4706437
          ],
          [
            54.6081272,
            24.4705844
          ],
          [
            54.6081141,
            24.4705197
          ],
          [
            54.608088,
            24.4704584
          ],
          [
            54.6080496,
            24.4704027
          ],
          [
            54.6080003,
            24.4703545
          ],
          [
            54.607942,
            24.4703156
          ],
          [
            54.6078767,
            24.4702875
          ],
          [
            54.6077346,
            24.4702668
          ],
          [
            54.6052325,
            24.4699397
          ],
          [
            54.6041498,
            24.4697966
          ],
          [
            54.6038851,
            24.4697621
          ],
          [
            54.6028383,
            24.4696255
          ],
          [
            54.6027517,
            24.4696089
          ],
          [
            54.6026889,
            24.4695809
          ],
          [
            54.6026543,
            24.4695442
          ],
          [
            54.6026287,
            24.4695081
          ],
          [
            54.6023168,
            24.4686903
          ],
          [
            54.6023047,
            24.4686586
          ],
          [
            54.6022804,
            24.4686042
          ],
          [
            54.6022517,
            24.4685555
          ],
          [
            54.602205,
            24.4685247
          ],
          [
            54.6021621,
            24.4685102
          ],
          [
            54.6021046,
            24.4684975
          ],
          [
            54.6016922,
            24.4684607
          ],
          [
            54.6016637,
            24.4684605
          ],
          [
            54.6016361,
            24.4684671
          ],
          [
            54.6016113,
            24.4684799
          ],
          [
            54.6015909,
            24.468498
          ],
          [
            54.6015763,
            24.4685203
          ],
          [
            54.6015685,
            24.4685453
          ],
          [
            54.6015681,
            24.4685713
          ],
          [
            54.601575,
            24.4685965
          ],
          [
            54.6023624,
            24.4707749
          ],
          [
            54.6024597,
            24.4710822
          ],
          [
            54.6025385,
            24.4713616
          ],
          [
            54.602621,
            24.4716407
          ],
          [
            54.602731,
            24.4719671
          ],
          [
            54.6028412,
            24.4722578
          ],
          [
            54.6030971,
            24.4729523
          ],
          [
            54.6031355,
            24.4729918
          ],
          [
            54.6031623,
            24.4730114
          ],
          [
            54.6032026,
            24.4730456
          ],
          [
            54.6032616,
            24.4730871
          ],
          [
            54.6033555,
            24.4731334
          ],
          [
            54.6034386,
            24.4731823
          ],
          [
            54.6035137,
            24.4732262
          ],
          [
            54.60357,
            24.4732726
          ],
          [
            54.6036103,
            24.4733116
          ],
          [
            54.6036371,
            24.473358
          ],
          [
            54.6036612,
            24.4734117
          ],
          [
            54.6036746,
            24.4734703
          ],
          [
            54.60368,
            24.4735289
          ],
          [
            54.6036746,
            24.4735924
          ],
          [
            54.6036559,
            24.4736485
          ],
          [
            54.603613,
            24.4737218
          ],
          [
            54.6035727,
            24.4737828
          ],
          [
            54.6035486,
            24.4738316
          ],
          [
            54.6035191,
            24.4738951
          ],
          [
            54.6034949,
            24.4739586
          ],
          [
            54.6034934,
            24.4740274
          ],
          [
            54.6035749,
            24.4742486
          ],
          [
            54.6036261,
            24.4743874
          ],
          [
            54.6042193,
            24.4759645
          ],
          [
            54.6046016,
            24.4770166
          ],
          [
            54.605296,
            24.4788883
          ],
          [
            54.605323,
            24.4789367
          ],
          [
            54.6053589,
            24.4789698
          ],
          [
            54.6054028,
            24.4789935
          ],
          [
            54.6054518,
            24.4790063
          ],
          [
            54.6055028,
            24.4790075
          ],
          [
            54.6055525,
            24.4789969
          ],
          [
            54.6055976,
            24.4789753
          ],
          [
            54.6056353,
            24.478944
          ],
          [
            54.6056631,
            24.478905
          ],
          [
            54.6056791,
            24.4788609
          ],
          [
            54.6056824,
            24.4788146
          ],
          [
            54.6056646,
            24.4787466
          ],
          [
            54.6053311,
            24.4779597
          ],
          [
            54.6053129,
            24.4779181
          ],
          [
            54.6053039,
            24.4778773
          ],
          [
            54.6053044,
            24.4778398
          ],
          [
            54.6053119,
            24.4778108
          ],
          [
            54.6053323,
            24.4777755
          ],
          [
            54.6053611,
            24.4777483
          ],
          [
            54.6054009,
            24.4777248
          ],
          [
            54.6054435,
            24.4777133
          ],
          [
            54.6056916,
            24.4776712
          ],
          [
            54.6057304,
            24.4776644
          ],
          [
            54.6057612,
            24.4776549
          ],
          [
            54.6057886,
            24.477639
          ],
          [
            54.6058095,
            24.4776218
          ],
          [
            54.6058412,
            24.4775792
          ],
          [
            54.6059703,
            24.4766735
          ],
          [
            54.6060436,
            24.4761337
          ],
          [
            54.6060666,
            24.4759683
          ],
          [
            54.6060802,
            24.4758021
          ],
          [
            54.6060845,
            24.4756354
          ],
          [
            54.6060793,
            24.4754688
          ],
          [
            54.6060676,
            24.4753334
          ],
          [
            54.6060649,
            24.4753026
          ],
          [
            54.6060411,
            24.4751373
          ],
          [
            54.606008,
            24.4749734
          ],
          [
            54.6059658,
            24.4748111
          ],
          [
            54.6059346,
            24.4747126
          ],
          [
            54.6058484,
            24.4744403
          ]
        ]
      }
    }
  ]
}
