{
  "type": "FeatureCollection",
  "bbox": [
    54.6045796,
    24.4754206,
    54.6059703,
    24.4790075
  ],
  "metadata": {
    "schemaVersion": 1,
    "trackId": "ae-yas-marina-e2656e19",
    "layoutId": "yas-historical-handling",
    "license": "ODbL-1.0",
    "attribution": "© OpenStreetMap contributors",
    "closed": true,
    "geometryStatus": "draft",
    "timingStatus": "missing",
    "timingMode": "shared",
    "lengthM": 993.2,
    "reviewedAt": null,
    "notes": [
      "The independent Handling loop retains the Northern hairpin, Western step, middle Eastern return and Southern small notch. The main course and small Northern shortcut are excluded. Coordinates retain exact independent 2019 OSM nodes; direction, detailed corner and historical barrier alignment remain draft. Exact source coordinates are unchanged; historical alignment and direction remain provisional."
    ]
  },
  "features": [
    {
      "type": "Feature",
      "id": "trace",
      "properties": {
        "role": "trace",
        "sourceIds": [
          "osm-components-168477013"
        ]
      },
      "geometry": {
        "type": "LineString",
        "coordinates": [
          [
            54.6056791,
            24.4788609
          ],
          [
            54.6056824,
            24.4788146
          ],
          [
            54.6056646,
            24.4787466
          ],
          [
            54.6053311,
            24.4779597
          ],
          [
            54.6053129,
            24.4779181
          ],
          [
            54.6053039,
            24.4778773
          ],
          [
            54.6053044,
            24.4778398
          ],
          [
            54.6053119,
            24.4778108
          ],
          [
            54.6053323,
            24.4777755
          ],
          [
            54.6053611,
            24.4777483
          ],
          [
            54.6054009,
            24.4777248
          ],
          [
            54.6054435,
            24.4777133
          ],
          [
            54.6056916,
            24.4776712
          ],
          [
            54.6057304,
            24.4776644
          ],
          [
            54.6057612,
            24.4776549
          ],
          [
            54.6057886,
            24.477639
          ],
          [
            54.6058095,
            24.4776218
          ],
          [
            54.6058412,
            24.4775792
          ],
          [
            54.6059703,
            24.4766735
          ],
          [
            54.6059697,
            24.4765936
          ],
          [
            54.6059653,
            24.4765124
          ],
          [
            54.6059474,
            24.4764364
          ],
          [
            54.6059061,
            24.4763514
          ],
          [
            54.6058568,
            24.4762798
          ],
          [
            54.6058036,
            24.4762119
          ],
          [
            54.6057666,
            24.4761698
          ],
          [
            54.6057076,
            24.4761114
          ],
          [
            54.6056614,
            24.4760458
          ],
          [
            54.6056241,
            24.4759729
          ],
          [
            54.6056006,
            24.4758953
          ],
          [
            54.6053937,
            24.4759604
          ],
          [
            54.6053607,
            24.4759639
          ],
          [
            54.6053295,
            24.4759626
          ],
          [
            54.6053017,
            24.4759584
          ],
          [
            54.6052697,
            24.4759459
          ],
          [
            54.6052429,
            24.4759312
          ],
          [
            54.6052211,
            24.475913
          ],
          [
            54.6052021,
            24.4758883
          ],
          [
            54.6051831,
            24.4758525
          ],
          [
            54.6050525,
            24.475484
          ],
          [
            54.6050262,
            24.4754524
          ],
          [
            54.6050068,
            24.4754383
          ],
          [
            54.6049824,
            24.475427
          ],
          [
            54.6049785,
            24.4754261
          ],
          [
            54.6049626,
            24.4754222
          ],
          [
            54.6049391,
            24.4754206
          ],
          [
            54.6049123,
            24.4754228
          ],
          [
            54.6048837,
            24.4754293
          ],
          [
            54.6047592,
            24.4754694
          ],
          [
            54.6046395,
            24.475508
          ],
          [
            54.6046225,
            24.475515
          ],
          [
            54.604606,
            24.4755268
          ],
          [
            54.6045948,
            24.4755387
          ],
          [
            54.6045853,
            24.4755524
          ],
          [
            54.6045803,
            24.4755691
          ],
          [
            54.6045796,
            24.4755867
          ],
          [
            54.6045817,
            24.4756033
          ],
          [
            54.6045871,
            24.4756228
          ],
          [
            54.6046685,
            24.4758312
          ],
          [
            54.6049468,
            24.476591
          ],
          [
            54.6049538,
            24.4766177
          ],
          [
            54.6049568,
            24.4766448
          ],
          [
            54.6049548,
            24.476672
          ],
          [
            54.6049488,
            24.4766915
          ],
          [
            54.6049418,
            24.4767114
          ],
          [
            54.6049269,
            24.476734
          ],
          [
            54.60491,
            24.4767499
          ],
          [
            54.6048807,
            24.4767698
          ],
          [
            54.6046667,
            24.4768351
          ],
          [
            54.6046442,
            24.4768457
          ],
          [
            54.6046253,
            24.47686
          ],
          [
            54.6046133,
            24.4768767
          ],
          [
            54.6046045,
            24.4768972
          ],
          [
            54.6045962,
            24.4769249
          ],
          [
            54.6045934,
            24.476953
          ],
          [
            54.6045949,
            24.4769815
          ],
          [
            54.6046016,
            24.4770166
          ],
          [
            54.605296,
            24.4788883
          ],
          [
            54.605323,
            24.4789367
          ],
          [
            54.6053589,
            24.4789698
          ],
          [
            54.6054028,
            24.4789935
          ],
          [
            54.6054518,
            24.4790063
          ],
          [
            54.6055028,
            24.4790075
          ],
          [
            54.6055525,
            24.4789969
          ],
          [
            54.6055976,
            24.4789753
          ],
          [
            54.6056353,
            24.478944
          ],
          [
            54.6056631,
            24.478905
          ],
          [
            54.6056791,
            24.4788609
          ]
        ]
      }
    }
  ]
}
