{
  "type": "FeatureCollection",
  "bbox": [
    -83.0454927,
    42.3273308,
    -83.0332866,
    42.3332805
  ],
  "metadata": {
    "schemaVersion": 1,
    "trackId": "us-detroit-street-circuit-54f7fe14",
    "layoutId": "detroit-street-circuit",
    "license": "ODbL-1.0",
    "attribution": "© OpenStreetMap contributors",
    "closed": true,
    "geometryStatus": "draft",
    "timingStatus": "missing",
    "timingMode": "shared",
    "lengthM": 2684.8,
    "reviewedAt": null,
    "notes": [
      "Draft configuration: Downtown street circuit follows Jefferson Avenue and the southern riverfront section. Independently mapped way 46380295 connects the named relation at exact source nodes; pit roads are excluded. Branch identity was checked against catalogue layout facts and circuit identification references. Independent source distance 2684.8 m; no coordinates are changed to match a diagram or distance. Travel direction and historical alignment remain provisional."
    ]
  },
  "features": [
    {
      "type": "Feature",
      "id": "trace",
      "properties": {
        "role": "trace",
        "sourceIds": [
          "osm-selection-detroit-current-8732681"
        ]
      },
      "geometry": {
        "type": "LineString",
        "coordinates": [
          [
            -83.0453732,
            42.3281934
          ],
          [
            -83.0452699,
            42.3282252
          ],
          [
            -83.0452448,
            42.3282329
          ],
          [
            -83.0452298,
            42.3282381
          ],
          [
            -83.0447994,
            42.3283864
          ],
          [
            -83.0447631,
            42.3283989
          ],
          [
            -83.0446864,
            42.328426
          ],
          [
            -83.0445802,
            42.328463
          ],
          [
            -83.0445112,
            42.3284909
          ],
          [
            -83.04431,
            42.3285724
          ],
          [
            -83.0441837,
            42.3286261
          ],
          [
            -83.0441373,
            42.3286459
          ],
          [
            -83.0440868,
            42.3286676
          ],
          [
            -83.0439093,
            42.3287437
          ],
          [
            -83.0437818,
            42.3287972
          ],
          [
            -83.0435912,
            42.3288797
          ],
          [
            -83.0435293,
            42.3289065
          ],
          [
            -83.0434948,
            42.3289215
          ],
          [
            -83.0434502,
            42.3289408
          ],
          [
            -83.0434328,
            42.3289186
          ],
          [
            -83.043399,
            42.3288753
          ],
          [
            -83.0433743,
            42.3288438
          ],
          [
            -83.0432397,
            42.328672
          ],
          [
            -83.0422919,
            42.327462
          ],
          [
            -83.0422465,
            42.3274041
          ],
          [
            -83.0422283,
            42.3273808
          ],
          [
            -83.0422145,
            42.3273632
          ],
          [
            -83.0421891,
            42.3273308
          ],
          [
            -83.0421178,
            42.3273614
          ],
          [
            -83.0420677,
            42.3273829
          ],
          [
            -83.0420429,
            42.3273937
          ],
          [
            -83.0414027,
            42.327671
          ],
          [
            -83.0411208,
            42.3277929
          ],
          [
            -83.041039,
            42.3278234
          ],
          [
            -83.041005,
            42.3278361
          ],
          [
            -83.0409665,
            42.3278505
          ],
          [
            -83.0409433,
            42.3278285
          ],
          [
            -83.0408692,
            42.3277583
          ],
          [
            -83.0408597,
            42.3277525
          ],
          [
            -83.0407882,
            42.3277099
          ],
          [
            -83.0407229,
            42.3276709
          ],
          [
            -83.0406939,
            42.3276588
          ],
          [
            -83.0406627,
            42.3276485
          ],
          [
            -83.0406292,
            42.3276403
          ],
          [
            -83.0405949,
            42.3276346
          ],
          [
            -83.0405593,
            42.3276315
          ],
          [
            -83.0405234,
            42.32763
          ],
          [
            -83.0404786,
            42.3276321
          ],
          [
            -83.0404336,
            42.3276387
          ],
          [
            -83.0403768,
            42.3276542
          ],
          [
            -83.0403195,
            42.3276725
          ],
          [
            -83.0402194,
            42.3277091
          ],
          [
            -83.04014,
            42.3277381
          ],
          [
            -83.040108,
            42.3277498
          ],
          [
            -83.0399399,
            42.3278214
          ],
          [
            -83.0397145,
            42.3279042
          ],
          [
            -83.0391149,
            42.3281569
          ],
          [
            -83.0387339,
            42.3283223
          ],
          [
            -83.0385233,
            42.3284243
          ],
          [
            -83.0383356,
            42.3285151
          ],
          [
            -83.0380739,
            42.3286326
          ],
          [
            -83.038003,
            42.3286636
          ],
          [
            -83.0379523,
            42.3286858
          ],
          [
            -83.0379106,
            42.328704
          ],
          [
            -83.0373239,
            42.3289592
          ],
          [
            -83.0368375,
            42.3291707
          ],
          [
            -83.0368008,
            42.3291882
          ],
          [
            -83.0367597,
            42.3292077
          ],
          [
            -83.0366886,
            42.3292415
          ],
          [
            -83.0367207,
            42.3292901
          ],
          [
            -83.0367393,
            42.3293182
          ],
          [
            -83.0370921,
            42.3298253
          ],
          [
            -83.0371968,
            42.3299776
          ],
          [
            -83.0372711,
            42.3300858
          ],
          [
            -83.0373489,
            42.3301673
          ],
          [
            -83.0372375,
            42.3302072
          ],
          [
            -83.0371693,
            42.3302366
          ],
          [
            -83.0357688,
            42.3308409
          ],
          [
            -83.035524,
            42.3309459
          ],
          [
            -83.0354547,
            42.3309764
          ],
          [
            -83.0353591,
            42.3310171
          ],
          [
            -83.0352703,
            42.3310558
          ],
          [
            -83.0344656,
            42.3314014
          ],
          [
            -83.0340457,
            42.3315817
          ],
          [
            -83.0333689,
            42.3318888
          ],
          [
            -83.0332866,
            42.3319296
          ],
          [
            -83.0333587,
            42.3320367
          ],
          [
            -83.0336624,
            42.3324878
          ],
          [
            -83.033681,
            42.3325155
          ],
          [
            -83.0337188,
            42.3325718
          ],
          [
            -83.0337497,
            42.3326197
          ],
          [
            -83.0340317,
            42.3330545
          ],
          [
            -83.034084,
            42.3331332
          ],
          [
            -83.0341651,
            42.3332805
          ],
          [
            -83.0342637,
            42.3332311
          ],
          [
            -83.0346024,
            42.3330847
          ],
          [
            -83.0347574,
            42.3330167
          ],
          [
            -83.0348511,
            42.332976
          ],
          [
            -83.0350451,
            42.3329665
          ],
          [
            -83.0354024,
            42.3328144
          ],
          [
            -83.0357927,
            42.3326452
          ],
          [
            -83.0362198,
            42.3324631
          ],
          [
            -83.0362822,
            42.3324386
          ],
          [
            -83.0363658,
            42.3324056
          ],
          [
            -83.0364479,
            42.3323681
          ],
          [
            -83.0365773,
            42.3323089
          ],
          [
            -83.0366261,
            42.3322866
          ],
          [
            -83.0366395,
            42.3322808
          ],
          [
            -83.0377348,
            42.3318065
          ],
          [
            -83.0382812,
            42.3315767
          ],
          [
            -83.0385002,
            42.3314779
          ],
          [
            -83.0386033,
            42.3314314
          ],
          [
            -83.0389507,
            42.3312745
          ],
          [
            -83.0391949,
            42.3311389
          ],
          [
            -83.0394491,
            42.3310234
          ],
          [
            -83.0396296,
            42.3309461
          ],
          [
            -83.0397342,
            42.3309014
          ],
          [
            -83.0398579,
            42.3308485
          ],
          [
            -83.0399533,
            42.3308076
          ],
          [
            -83.040049,
            42.3307668
          ],
          [
            -83.0401824,
            42.3307097
          ],
          [
            -83.0408746,
            42.3304144
          ],
          [
            -83.0409439,
            42.3303848
          ],
          [
            -83.0410255,
            42.3303502
          ],
          [
            -83.0417009,
            42.3300623
          ],
          [
            -83.0419905,
            42.3299402
          ],
          [
            -83.0421612,
            42.3298683
          ],
          [
            -83.0422408,
            42.3298347
          ],
          [
            -83.0427337,
            42.3296243
          ],
          [
            -83.0429478,
            42.3295336
          ],
          [
            -83.0431648,
            42.3294417
          ],
          [
            -83.0440976,
            42.3290377
          ],
          [
            -83.0443981,
            42.3289117
          ],
          [
            -83.044501,
            42.3288672
          ],
          [
            -83.0446923,
            42.3287845
          ],
          [
            -83.0448136,
            42.328732
          ],
          [
            -83.0448834,
            42.3286575
          ],
          [
            -83.0449128,
            42.3286322
          ],
          [
            -83.0453778,
            42.328398
          ],
          [
            -83.0454927,
            42.3283447
          ],
          [
            -83.0453732,
            42.3281934
          ]
        ]
      }
    }
  ]
}
