{
  "type": "FeatureCollection",
  "bbox": [
    7.2785023,
    52.7550384,
    7.2841767,
    52.7594834
  ],
  "metadata": {
    "schemaVersion": 1,
    "trackId": "de-circuit-meppen-206291125",
    "layoutId": "main",
    "license": "ODbL-1.0",
    "attribution": "© OpenStreetMap contributors",
    "closed": true,
    "geometryStatus": "draft",
    "timingStatus": "missing",
    "timingMode": "shared",
    "lengthM": 2131.1,
    "reviewedAt": null,
    "notes": [
      "Closed named OSM raceway retained as a course candidate. Named-layout association requires review.",
      "Source way order and shared node IDs are retained. No nearby endpoints are joined and no reference boundaries are read."
    ]
  },
  "features": [
    {
      "type": "Feature",
      "id": "trace",
      "properties": {
        "role": "trace",
        "sourceIds": [
          "osm-snapshot"
        ]
      },
      "geometry": {
        "type": "LineString",
        "coordinates": [
          [
            7.2799502,
            52.7563302
          ],
          [
            7.2799252,
            52.7562929
          ],
          [
            7.2799083,
            52.7562497
          ],
          [
            7.2798952,
            52.7562014
          ],
          [
            7.2798948,
            52.7561426
          ],
          [
            7.2798988,
            52.7560891
          ],
          [
            7.280079,
            52.7555132
          ],
          [
            7.280081,
            52.7554495
          ],
          [
            7.2800751,
            52.7553963
          ],
          [
            7.280057,
            52.7553419
          ],
          [
            7.2800193,
            52.7552793
          ],
          [
            7.2799631,
            52.7552111
          ],
          [
            7.279874,
            52.755138
          ],
          [
            7.2797623,
            52.7550753
          ],
          [
            7.2796429,
            52.7550447
          ],
          [
            7.2795175,
            52.7550384
          ],
          [
            7.279398,
            52.7550426
          ],
          [
            7.2792683,
            52.7550616
          ],
          [
            7.2791563,
            52.7550881
          ],
          [
            7.2790537,
            52.7551239
          ],
          [
            7.2789647,
            52.7551612
          ],
          [
            7.2788964,
            52.7552034
          ],
          [
            7.2788326,
            52.75525
          ],
          [
            7.2787848,
            52.7552986
          ],
          [
            7.2787445,
            52.7553579
          ],
          [
            7.278717,
            52.7554113
          ],
          [
            7.2785197,
            52.7560437
          ],
          [
            7.2785085,
            52.7561014
          ],
          [
            7.2785023,
            52.7561603
          ],
          [
            7.2785047,
            52.7562213
          ],
          [
            7.2785162,
            52.7562759
          ],
          [
            7.2785402,
            52.7563323
          ],
          [
            7.2785733,
            52.7563831
          ],
          [
            7.2786153,
            52.7564332
          ],
          [
            7.278675,
            52.7564854
          ],
          [
            7.2787403,
            52.7565351
          ],
          [
            7.2788197,
            52.7565838
          ],
          [
            7.2789135,
            52.7566221
          ],
          [
            7.2790338,
            52.7566626
          ],
          [
            7.279203,
            52.7567024
          ],
          [
            7.2793711,
            52.756729
          ],
          [
            7.2799006,
            52.7567932
          ],
          [
            7.2806986,
            52.75689
          ],
          [
            7.2812088,
            52.7569541
          ],
          [
            7.2825799,
            52.757113
          ],
          [
            7.2827585,
            52.757138
          ],
          [
            7.2828553,
            52.7571611
          ],
          [
            7.2829269,
            52.7571822
          ],
          [
            7.2829858,
            52.7572116
          ],
          [
            7.2830421,
            52.7572476
          ],
          [
            7.2830825,
            52.7572875
          ],
          [
            7.2831217,
            52.7573403
          ],
          [
            7.2831422,
            52.7574008
          ],
          [
            7.2831473,
            52.7574668
          ],
          [
            7.2831422,
            52.7575189
          ],
          [
            7.2831281,
            52.7575739
          ],
          [
            7.2831018,
            52.7576338
          ],
          [
            7.2830606,
            52.7576917
          ],
          [
            7.2830141,
            52.7577428
          ],
          [
            7.2829718,
            52.7577767
          ],
          [
            7.2829127,
            52.7578161
          ],
          [
            7.2828469,
            52.7578509
          ],
          [
            7.2827816,
            52.7578817
          ],
          [
            7.2827022,
            52.7579119
          ],
          [
            7.2825907,
            52.7579411
          ],
          [
            7.2824941,
            52.7579669
          ],
          [
            7.2823868,
            52.7580037
          ],
          [
            7.2822892,
            52.7580405
          ],
          [
            7.2822111,
            52.7580788
          ],
          [
            7.2821141,
            52.7581263
          ],
          [
            7.28203,
            52.7581769
          ],
          [
            7.2819568,
            52.758227
          ],
          [
            7.2818754,
            52.7582892
          ],
          [
            7.2817966,
            52.7583552
          ],
          [
            7.2817552,
            52.7583971
          ],
          [
            7.2817061,
            52.7584539
          ],
          [
            7.2816648,
            52.7585396
          ],
          [
            7.2816236,
            52.7586345
          ],
          [
            7.2815986,
            52.7587303
          ],
          [
            7.2815359,
            52.7590023
          ],
          [
            7.2815276,
            52.7590724
          ],
          [
            7.2815288,
            52.7591383
          ],
          [
            7.2815446,
            52.7591874
          ],
          [
            7.2815789,
            52.7592426
          ],
          [
            7.2816296,
            52.7592989
          ],
          [
            7.2816942,
            52.7593514
          ],
          [
            7.2817796,
            52.7593962
          ],
          [
            7.2818583,
            52.7594245
          ],
          [
            7.2819508,
            52.7594456
          ],
          [
            7.2820553,
            52.759464
          ],
          [
            7.2821899,
            52.7594775
          ],
          [
            7.2823156,
            52.7594834
          ],
          [
            7.2824501,
            52.7594817
          ],
          [
            7.282553,
            52.7594734
          ],
          [
            7.2826749,
            52.7594556
          ],
          [
            7.2828041,
            52.7594274
          ],
          [
            7.282919,
            52.759394
          ],
          [
            7.2830106,
            52.7593607
          ],
          [
            7.2830914,
            52.7593211
          ],
          [
            7.283186,
            52.7592745
          ],
          [
            7.2832548,
            52.7592309
          ],
          [
            7.2833202,
            52.7591749
          ],
          [
            7.2833657,
            52.7591304
          ],
          [
            7.2834144,
            52.7590746
          ],
          [
            7.2834571,
            52.7590158
          ],
          [
            7.2834881,
            52.7589565
          ],
          [
            7.2838077,
            52.7580283
          ],
          [
            7.2839824,
            52.7575451
          ],
          [
            7.2841727,
            52.7569343
          ],
          [
            7.2841767,
            52.7568827
          ],
          [
            7.2841666,
            52.7568367
          ],
          [
            7.2841331,
            52.7567897
          ],
          [
            7.2840701,
            52.7567442
          ],
          [
            7.2840047,
            52.7567172
          ],
          [
            7.2839011,
            52.7566923
          ],
          [
            7.2837321,
            52.7566534
          ],
          [
            7.2838421,
            52.7563531
          ],
          [
            7.2838609,
            52.7562784
          ],
          [
            7.2838784,
            52.7561924
          ],
          [
            7.2838902,
            52.7561128
          ],
          [
            7.283885,
            52.7560333
          ],
          [
            7.2838644,
            52.7559578
          ],
          [
            7.2838314,
            52.7558839
          ],
          [
            7.2837887,
            52.7558189
          ],
          [
            7.2837395,
            52.7557627
          ],
          [
            7.2836865,
            52.7557135
          ],
          [
            7.2836161,
            52.755658
          ],
          [
            7.2835425,
            52.7556112
          ],
          [
            7.2834809,
            52.7555779
          ],
          [
            7.2834187,
            52.755545
          ],
          [
            7.2833356,
            52.7555113
          ],
          [
            7.283252,
            52.7554806
          ],
          [
            7.2831748,
            52.7554616
          ],
          [
            7.2831075,
            52.7554489
          ],
          [
            7.2819928,
            52.755305
          ],
          [
            7.2817811,
            52.7552926
          ],
          [
            7.2816726,
            52.7552888
          ],
          [
            7.2815756,
            52.7552962
          ],
          [
            7.2814723,
            52.7553211
          ],
          [
            7.2814027,
            52.7553534
          ],
          [
            7.2813481,
            52.7553869
          ],
          [
            7.2813058,
            52.7554313
          ],
          [
            7.2812758,
            52.7554732
          ],
          [
            7.2812615,
            52.7555224
          ],
          [
            7.2812669,
            52.7555681
          ],
          [
            7.2812849,
            52.7556137
          ],
          [
            7.2813272,
            52.7556581
          ],
          [
            7.2813667,
            52.7556891
          ],
          [
            7.2814242,
            52.7557198
          ],
          [
            7.2814985,
            52.755744
          ],
          [
            7.2815805,
            52.7557635
          ],
          [
            7.2828551,
            52.7559152
          ],
          [
            7.2829348,
            52.7559329
          ],
          [
            7.2830031,
            52.7559566
          ],
          [
            7.2830862,
            52.7559959
          ],
          [
            7.2831365,
            52.7560389
          ],
          [
            7.2831754,
            52.7560887
          ],
          [
            7.2831959,
            52.7561354
          ],
          [
            7.2832028,
            52.7561881
          ],
          [
            7.2831964,
            52.7562324
          ],
          [
            7.2831802,
            52.7562767
          ],
          [
            7.2831489,
            52.7563275
          ],
          [
            7.283117,
            52.7563686
          ],
          [
            7.2830752,
            52.7564065
          ],
          [
            7.283025,
            52.7564408
          ],
          [
            7.2829686,
            52.756478
          ],
          [
            7.282899,
            52.7565157
          ],
          [
            7.2828261,
            52.7565515
          ],
          [
            7.2827442,
            52.7565824
          ],
          [
            7.2826546,
            52.7566093
          ],
          [
            7.2825649,
            52.7566329
          ],
          [
            7.2824664,
            52.7566505
          ],
          [
            7.282372,
            52.7566604
          ],
          [
            7.2822723,
            52.7566655
          ],
          [
            7.2821963,
            52.7566648
          ],
          [
            7.2821088,
            52.7566599
          ],
          [
            7.2820229,
            52.75665
          ],
          [
            7.2819648,
            52.7566416
          ],
          [
            7.2818932,
            52.7566269
          ],
          [
            7.2818165,
            52.7566028
          ],
          [
            7.2817428,
            52.7565734
          ],
          [
            7.281681,
            52.7565428
          ],
          [
            7.2816236,
            52.7565109
          ],
          [
            7.2815315,
            52.7564565
          ],
          [
            7.2814682,
            52.7564122
          ],
          [
            7.2813771,
            52.7563439
          ],
          [
            7.2813271,
            52.7563043
          ],
          [
            7.2812799,
            52.7562764
          ],
          [
            7.2812139,
            52.7562487
          ],
          [
            7.2811435,
            52.756226
          ],
          [
            7.2810666,
            52.7562138
          ],
          [
            7.2809851,
            52.7562109
          ],
          [
            7.2808921,
            52.7562195
          ],
          [
            7.2808206,
            52.7562389
          ],
          [
            7.2807566,
            52.7562606
          ],
          [
            7.2806993,
            52.7562885
          ],
          [
            7.2805277,
            52.756405
          ],
          [
            7.2804654,
            52.7564432
          ],
          [
            7.2804076,
            52.7564649
          ],
          [
            7.2803412,
            52.756478
          ],
          [
            7.2802635,
            52.7564822
          ],
          [
            7.2801957,
            52.7564773
          ],
          [
            7.2801406,
            52.7564667
          ],
          [
            7.2800761,
            52.7564464
          ],
          [
            7.2800196,
            52.7564122
          ],
          [
            7.2799823,
            52.756374
          ],
          [
            7.2799502,
            52.7563302
          ]
        ]
      }
    }
  ]
}
