{
  "type": "FeatureCollection",
  "bbox": [
    -116.1577854,
    33.5995527,
    -116.1488066,
    33.6040442
  ],
  "metadata": {
    "schemaVersion": 1,
    "trackId": "us-the-thermal-club-443108132",
    "layoutId": "thermal-club-twin-palms-short",
    "license": "ODbL-1.0",
    "attribution": "USGS, USDA, The National Map: public-domain NAIP orthoimagery; centerline digitization by OpenRacetrackDB",
    "closed": true,
    "geometryStatus": "draft",
    "timingStatus": "missing",
    "timingMode": "shared",
    "lengthM": 3904.7,
    "reviewedAt": null,
    "notes": [
      "Twin Palms Short retains the middle Desert course with its northern undulations and eastern roundabout return, joined to the South Palm outer course. It excludes the North Palm extension, the South Palm inner technical loop, karting roads and pit access. Independently read public-domain 2022 NAIP pavement centers identify the full short branch sequence; route distance is unscaled and historical barriers and direction remain draft. The 2022 aerial centerline differs from the 3999 m catalogue scalar; the geometry is not scaled to match it. Independently digitized aerial centerline: 3904.7 m. Direction, historical configuration and fine corner alignment remain draft; no course coordinates come from the comparison catalogue."
    ]
  },
  "features": [
    {
      "type": "Feature",
      "id": "trace",
      "properties": {
        "role": "trace",
        "sourceIds": [
          "usgs-naip-2022-thermal-club-twin-palms-short"
        ]
      },
      "geometry": {
        "type": "LineString",
        "coordinates": [
          [
            -116.1544015,
            33.5995527
          ],
          [
            -116.1546711,
            33.5995527
          ],
          [
            -116.1549407,
            33.5995527
          ],
          [
            -116.1552104,
            33.5995527
          ],
          [
            -116.15548,
            33.5995527
          ],
          [
            -116.1557496,
            33.5995527
          ],
          [
            -116.1560193,
            33.5995527
          ],
          [
            -116.1562889,
            33.5995527
          ],
          [
            -116.1565585,
            33.5995527
          ],
          [
            -116.1568282,
            33.5995751
          ],
          [
            -116.1571248,
            33.5996538
          ],
          [
            -116.1574214,
            33.599766
          ],
          [
            -116.1576101,
            33.5999008
          ],
          [
            -116.1577314,
            33.6000805
          ],
          [
            -116.1577719,
            33.600305
          ],
          [
            -116.1577719,
            33.6005521
          ],
          [
            -116.1577719,
            33.6007767
          ],
          [
            -116.1577719,
            33.60099
          ],
          [
            -116.1577179,
            33.6011584
          ],
          [
            -116.1575697,
            33.601282
          ],
          [
            -116.1573674,
            33.6013269
          ],
          [
            -116.1571315,
            33.6013437
          ],
          [
            -116.1568956,
            33.6013606
          ],
          [
            -116.1565922,
            33.6013718
          ],
          [
            -116.1562889,
            33.601383
          ],
          [
            -116.1559519,
            33.6013943
          ],
          [
            -116.1556148,
            33.6014055
          ],
          [
            -116.1552778,
            33.6014167
          ],
          [
            -116.1549407,
            33.6014279
          ],
          [
            -116.1546037,
            33.6014392
          ],
          [
            -116.1542667,
            33.6014504
          ],
          [
            -116.1539296,
            33.6014616
          ],
          [
            -116.1535926,
            33.6014729
          ],
          [
            -116.1532555,
            33.6014841
          ],
          [
            -116.1529185,
            33.6014953
          ],
          [
            -116.1526758,
            33.6015122
          ],
          [
            -116.1524332,
            33.601529
          ],
          [
            -116.1521231,
            33.6016301
          ],
          [
            -116.1518939,
            33.6018097
          ],
          [
            -116.1516647,
            33.6019894
          ],
          [
            -116.1514355,
            33.602169
          ],
          [
            -116.1511929,
            33.6023487
          ],
          [
            -116.1510041,
            33.6025284
          ],
          [
            -116.1509232,
            33.6026856
          ],
          [
            -116.1509906,
            33.602854
          ],
          [
            -116.1511254,
            33.6030449
          ],
          [
            -116.1513007,
            33.6032246
          ],
          [
            -116.151449,
            33.6033481
          ],
          [
            -116.1516108,
            33.603393
          ],
          [
            -116.1517726,
            33.6033593
          ],
          [
            -116.1520017,
            33.6032695
          ],
          [
            -116.1522714,
            33.6031796
          ],
          [
            -116.1525949,
            33.6030898
          ],
          [
            -116.1529455,
            33.6030224
          ],
          [
            -116.1533499,
            33.6029775
          ],
          [
            -116.1536195,
            33.6029551
          ],
          [
            -116.1538892,
            33.6029326
          ],
          [
            -116.1541453,
            33.6029214
          ],
          [
            -116.1544015,
            33.6029101
          ],
          [
            -116.1546711,
            33.6028989
          ],
          [
            -116.1549407,
            33.6028877
          ],
          [
            -116.1552104,
            33.6028821
          ],
          [
            -116.15548,
            33.6028765
          ],
          [
            -116.1557496,
            33.6028708
          ],
          [
            -116.1560193,
            33.6028652
          ],
          [
            -116.1562889,
            33.6028652
          ],
          [
            -116.1565585,
            33.6028652
          ],
          [
            -116.1568282,
            33.6028652
          ],
          [
            -116.1570978,
            33.6028652
          ],
          [
            -116.1574079,
            33.6029101
          ],
          [
            -116.1575966,
            33.6029775
          ],
          [
            -116.1577314,
            33.603101
          ],
          [
            -116.1577854,
            33.6032582
          ],
          [
            -116.1577584,
            33.6034042
          ],
          [
            -116.1576505,
            33.6035277
          ],
          [
            -116.1574753,
            33.6036063
          ],
          [
            -116.1572326,
            33.6036512
          ],
          [
            -116.1568821,
            33.6036512
          ],
          [
            -116.1565585,
            33.6036176
          ],
          [
            -116.1562889,
            33.6035502
          ],
          [
            -116.1560193,
            33.603494
          ],
          [
            -116.1557631,
            33.6035053
          ],
          [
            -116.155507,
            33.6035726
          ],
          [
            -116.1552778,
            33.6036512
          ],
          [
            -116.1550351,
            33.6036962
          ],
          [
            -116.1547655,
            33.6036962
          ],
          [
            -116.1544958,
            33.60364
          ],
          [
            -116.1542397,
            33.603539
          ],
          [
            -116.153997,
            33.6034491
          ],
          [
            -116.1537409,
            33.6034042
          ],
          [
            -116.1534578,
            33.6034042
          ],
          [
            -116.1531207,
            33.6034267
          ],
          [
            -116.1527028,
            33.603494
          ],
          [
            -116.1522444,
            33.6035839
          ],
          [
            -116.1520085,
            33.60364
          ],
          [
            -116.1517726,
            33.6036962
          ],
          [
            -116.1515434,
            33.6037523
          ],
          [
            -116.1513142,
            33.6038084
          ],
          [
            -116.1508693,
            33.6039095
          ],
          [
            -116.1504648,
            33.6040106
          ],
          [
            -116.1501143,
            33.6040442
          ],
          [
            -116.1497638,
            33.604033
          ],
          [
            -116.1494268,
            33.6039656
          ],
          [
            -116.1491706,
            33.6038421
          ],
          [
            -116.1489819,
            33.6036737
          ],
          [
            -116.1488605,
            33.6034716
          ],
          [
            -116.1488066,
            33.603247
          ],
          [
            -116.1488066,
            33.6030112
          ],
          [
            -116.148874,
            33.6027754
          ],
          [
            -116.1489954,
            33.6025733
          ],
          [
            -116.1491706,
            33.6024049
          ],
          [
            -116.1493998,
            33.6022589
          ],
          [
            -116.1496694,
            33.6021578
          ],
          [
            -116.149993,
            33.602068
          ],
          [
            -116.1502761,
            33.6019782
          ],
          [
            -116.1505457,
            33.6018546
          ],
          [
            -116.150748,
            33.6017087
          ],
          [
            -116.1508828,
            33.6015402
          ],
          [
            -116.1509502,
            33.6013606
          ],
          [
            -116.1509367,
            33.6011697
          ],
          [
            -116.1508558,
            33.6009451
          ],
          [
            -116.1507075,
            33.6007542
          ],
          [
            -116.1505053,
            33.6006082
          ],
          [
            -116.1502761,
            33.6005072
          ],
          [
            -116.1500334,
            33.6004735
          ],
          [
            -116.1497099,
            33.6004959
          ],
          [
            -116.1494133,
            33.6004847
          ],
          [
            -116.1491706,
            33.6003949
          ],
          [
            -116.1490088,
            33.6002489
          ],
          [
            -116.1489145,
            33.6000692
          ],
          [
            -116.1488875,
            33.5998671
          ],
          [
            -116.1489549,
            33.5997099
          ],
          [
            -116.1491032,
            33.5995976
          ],
          [
            -116.1493459,
            33.5995527
          ],
          [
            -116.1498177,
            33.5995527
          ],
          [
            -116.1500874,
            33.5995527
          ],
          [
            -116.150357,
            33.5995527
          ],
          [
            -116.1506266,
            33.5995527
          ],
          [
            -116.1508963,
            33.5995527
          ],
          [
            -116.1511659,
            33.5995527
          ],
          [
            -116.1514355,
            33.5995527
          ],
          [
            -116.1517052,
            33.5995527
          ],
          [
            -116.1519748,
            33.5995527
          ],
          [
            -116.1522444,
            33.5995527
          ],
          [
            -116.1525141,
            33.5995527
          ],
          [
            -116.1527837,
            33.5995527
          ],
          [
            -116.1530533,
            33.5995527
          ],
          [
            -116.1533229,
            33.5995527
          ],
          [
            -116.1535926,
            33.5995527
          ],
          [
            -116.1538622,
            33.5995527
          ],
          [
            -116.1541318,
            33.5995527
          ],
          [
            -116.1544015,
            33.5995527
          ]
        ]
      }
    }
  ]
}
