{
  "type": "FeatureCollection",
  "bbox": [
    -116.153093,
    33.6048772,
    -116.1496653,
    33.61188
  ],
  "metadata": {
    "schemaVersion": 1,
    "trackId": "us-the-thermal-club-443108132",
    "layoutId": "thermal-club-desert",
    "license": "ODbL-1.0",
    "attribution": "© OpenStreetMap contributors",
    "closed": true,
    "geometryStatus": "draft",
    "timingStatus": "missing",
    "timingMode": "shared",
    "lengthM": 2172.4,
    "reviewedAt": null,
    "notes": [
      "Draft route hypothesis: the source cycle is the unique closest nominal-distance match within conservative timing and distance checks. Approximate OSM trace length 2172.4 m. Difference from the supplied layout distance 0.4 m. Course configuration still requires visual review."
    ]
  },
  "features": [
    {
      "type": "Feature",
      "id": "trace",
      "properties": {
        "role": "trace",
        "sourceIds": [
          "osm-network-443108132"
        ]
      },
      "geometry": {
        "type": "LineString",
        "coordinates": [
          [
            -116.1527475,
            33.6050734
          ],
          [
            -116.1527744,
            33.6052172
          ],
          [
            -116.1527999,
            33.605368
          ],
          [
            -116.1528146,
            33.6054674
          ],
          [
            -116.1528325,
            33.605607
          ],
          [
            -116.1528551,
            33.6057733
          ],
          [
            -116.1528589,
            33.6058505
          ],
          [
            -116.1528612,
            33.6059418
          ],
          [
            -116.152847,
            33.6060134
          ],
          [
            -116.1528224,
            33.6060962
          ],
          [
            -116.1527842,
            33.6061866
          ],
          [
            -116.1527345,
            33.606269
          ],
          [
            -116.1526882,
            33.6063364
          ],
          [
            -116.1526338,
            33.6064065
          ],
          [
            -116.1525703,
            33.6064748
          ],
          [
            -116.1524837,
            33.6065652
          ],
          [
            -116.1523972,
            33.6066484
          ],
          [
            -116.1523414,
            33.6067043
          ],
          [
            -116.1523009,
            33.6067571
          ],
          [
            -116.1522684,
            33.6067996
          ],
          [
            -116.1522462,
            33.6068513
          ],
          [
            -116.1522215,
            33.6069089
          ],
          [
            -116.1522081,
            33.6069631
          ],
          [
            -116.1521969,
            33.607024
          ],
          [
            -116.1521913,
            33.607088
          ],
          [
            -116.1521887,
            33.6071577
          ],
          [
            -116.1521899,
            33.6079735
          ],
          [
            -116.1521794,
            33.6085942
          ],
          [
            -116.1521928,
            33.6092866
          ],
          [
            -116.1521934,
            33.6093935
          ],
          [
            -116.1522056,
            33.6094736
          ],
          [
            -116.152225,
            33.6095359
          ],
          [
            -116.1522485,
            33.6095813
          ],
          [
            -116.1522871,
            33.6096237
          ],
          [
            -116.1523223,
            33.6096617
          ],
          [
            -116.1523691,
            33.6096949
          ],
          [
            -116.1524037,
            33.6097156
          ],
          [
            -116.1524523,
            33.6097388
          ],
          [
            -116.1525021,
            33.6097531
          ],
          [
            -116.1525682,
            33.6097691
          ],
          [
            -116.1526705,
            33.609788
          ],
          [
            -116.1527591,
            33.6098081
          ],
          [
            -116.1528219,
            33.6098243
          ],
          [
            -116.1528751,
            33.6098432
          ],
          [
            -116.152922,
            33.6098695
          ],
          [
            -116.1529667,
            33.6099065
          ],
          [
            -116.1529983,
            33.60994
          ],
          [
            -116.1530262,
            33.6099788
          ],
          [
            -116.153043,
            33.6100155
          ],
          [
            -116.1530551,
            33.6100734
          ],
          [
            -116.1530602,
            33.6101232
          ],
          [
            -116.1530567,
            33.6108782
          ],
          [
            -116.1530578,
            33.6111094
          ],
          [
            -116.1530613,
            33.6111835
          ],
          [
            -116.1530684,
            33.6112723
          ],
          [
            -116.1530917,
            33.6115255
          ],
          [
            -116.153093,
            33.6115834
          ],
          [
            -116.1530897,
            33.6116245
          ],
          [
            -116.1530694,
            33.6116628
          ],
          [
            -116.1530375,
            33.6116917
          ],
          [
            -116.153002,
            33.6117043
          ],
          [
            -116.152956,
            33.6117079
          ],
          [
            -116.1529161,
            33.6117034
          ],
          [
            -116.152874,
            33.6116865
          ],
          [
            -116.1528505,
            33.6116712
          ],
          [
            -116.1528014,
            33.6116298
          ],
          [
            -116.1522122,
            33.6110698
          ],
          [
            -116.1520884,
            33.610952
          ],
          [
            -116.1520189,
            33.6108977
          ],
          [
            -116.1519498,
            33.6108528
          ],
          [
            -116.1518827,
            33.6108233
          ],
          [
            -116.1518081,
            33.6107935
          ],
          [
            -116.1517308,
            33.6107728
          ],
          [
            -116.1516473,
            33.6107577
          ],
          [
            -116.1515586,
            33.6107465
          ],
          [
            -116.1514765,
            33.6107462
          ],
          [
            -116.1513981,
            33.6107553
          ],
          [
            -116.1513123,
            33.6107711
          ],
          [
            -116.151233,
            33.6107953
          ],
          [
            -116.151156,
            33.6108259
          ],
          [
            -116.1510947,
            33.6108587
          ],
          [
            -116.1510306,
            33.6108969
          ],
          [
            -116.1509777,
            33.6109372
          ],
          [
            -116.1509167,
            33.6109894
          ],
          [
            -116.1501812,
            33.6117578
          ],
          [
            -116.1501355,
            33.6118039
          ],
          [
            -116.1500914,
            33.6118354
          ],
          [
            -116.150029,
            33.6118628
          ],
          [
            -116.1499744,
            33.6118771
          ],
          [
            -116.1499211,
            33.61188
          ],
          [
            -116.1498729,
            33.6118763
          ],
          [
            -116.1498134,
            33.6118644
          ],
          [
            -116.1497658,
            33.6118407
          ],
          [
            -116.1497349,
            33.6118155
          ],
          [
            -116.1497103,
            33.6117873
          ],
          [
            -116.1496874,
            33.6117478
          ],
          [
            -116.149674,
            33.6117132
          ],
          [
            -116.1496658,
            33.6116683
          ],
          [
            -116.1496653,
            33.6116107
          ],
          [
            -116.1497056,
            33.6109777
          ],
          [
            -116.1497267,
            33.6106489
          ],
          [
            -116.1497361,
            33.6104616
          ],
          [
            -116.1497386,
            33.6103992
          ],
          [
            -116.1497466,
            33.6103543
          ],
          [
            -116.1497571,
            33.6103095
          ],
          [
            -116.1497688,
            33.6102724
          ],
          [
            -116.149788,
            33.6102313
          ],
          [
            -116.1498216,
            33.6101836
          ],
          [
            -116.1498671,
            33.61014
          ],
          [
            -116.1499188,
            33.6101007
          ],
          [
            -116.149967,
            33.6100737
          ],
          [
            -116.1500254,
            33.6100519
          ],
          [
            -116.1500751,
            33.6100375
          ],
          [
            -116.1501355,
            33.6100266
          ],
          [
            -116.1501964,
            33.6100188
          ],
          [
            -116.1502676,
            33.6100124
          ],
          [
            -116.1505392,
            33.610007
          ],
          [
            -116.1508993,
            33.6099969
          ],
          [
            -116.1509729,
            33.6099954
          ],
          [
            -116.1510711,
            33.6099886
          ],
          [
            -116.1511346,
            33.6099817
          ],
          [
            -116.1511979,
            33.6099674
          ],
          [
            -116.1512587,
            33.6099466
          ],
          [
            -116.151332,
            33.6099133
          ],
          [
            -116.1514027,
            33.6098732
          ],
          [
            -116.1514578,
            33.6098295
          ],
          [
            -116.1515,
            33.6097905
          ],
          [
            -116.1515501,
            33.6097343
          ],
          [
            -116.1515883,
            33.6096844
          ],
          [
            -116.151616,
            33.6096393
          ],
          [
            -116.1516347,
            33.6095925
          ],
          [
            -116.1516532,
            33.6095253
          ],
          [
            -116.1516628,
            33.6094789
          ],
          [
            -116.1517415,
            33.6079727
          ],
          [
            -116.151872,
            33.6055751
          ],
          [
            -116.1518871,
            33.6053646
          ],
          [
            -116.1519439,
            33.6052544
          ],
          [
            -116.1519905,
            33.6051694
          ],
          [
            -116.1520329,
            33.6051091
          ],
          [
            -116.1520875,
            33.6050564
          ],
          [
            -116.1521454,
            33.6049998
          ],
          [
            -116.1521964,
            33.6049603
          ],
          [
            -116.1522543,
            33.6049266
          ],
          [
            -116.1523084,
            33.6049003
          ],
          [
            -116.1523586,
            33.6048866
          ],
          [
            -116.1524032,
            33.6048772
          ],
          [
            -116.1524469,
            33.6048783
          ],
          [
            -116.1524862,
            33.6048808
          ],
          [
            -116.1525331,
            33.6048896
          ],
          [
            -116.1525827,
            33.6049051
          ],
          [
            -116.1526174,
            33.6049237
          ],
          [
            -116.1526572,
            33.6049471
          ],
          [
            -116.1526889,
            33.6049803
          ],
          [
            -116.1527475,
            33.6050734
          ]
        ]
      }
    }
  ]
}
