{
  "type": "FeatureCollection",
  "bbox": [
    -82.2583311,
    36.5142427,
    -82.255598,
    36.5170168
  ],
  "metadata": {
    "schemaVersion": 1,
    "trackId": "us-bristol-motor-speedway-116606212",
    "layoutId": "main",
    "license": "ODbL-1.0",
    "attribution": "© OpenStreetMap contributors",
    "closed": true,
    "geometryStatus": "draft",
    "timingStatus": "missing",
    "timingMode": "shared",
    "lengthM": 846.4,
    "reviewedAt": null,
    "notes": [
      "Closed named OSM raceway retained as a course candidate. Named-layout association requires review.",
      "Source way order and shared node IDs are retained. No nearby endpoints are joined and no reference boundaries are read."
    ]
  },
  "features": [
    {
      "type": "Feature",
      "id": "trace",
      "properties": {
        "role": "trace",
        "sourceIds": [
          "osm-snapshot"
        ]
      },
      "geometry": {
        "type": "LineString",
        "coordinates": [
          [
            -82.2562164,
            36.5142932
          ],
          [
            -82.2561077,
            36.5143285
          ],
          [
            -82.2559445,
            36.5144103
          ],
          [
            -82.2558558,
            36.5144813
          ],
          [
            -82.2557721,
            36.5145513
          ],
          [
            -82.2557016,
            36.5146545
          ],
          [
            -82.2556539,
            36.5147265
          ],
          [
            -82.2556251,
            36.5148202
          ],
          [
            -82.2556083,
            36.5149005
          ],
          [
            -82.255598,
            36.5149814
          ],
          [
            -82.2556084,
            36.5150779
          ],
          [
            -82.2556374,
            36.5151809
          ],
          [
            -82.2556682,
            36.5152662
          ],
          [
            -82.2557182,
            36.5153519
          ],
          [
            -82.2557566,
            36.5154191
          ],
          [
            -82.2565855,
            36.5165657
          ],
          [
            -82.2567357,
            36.516744
          ],
          [
            -82.2568117,
            36.5168152
          ],
          [
            -82.2568806,
            36.5168699
          ],
          [
            -82.2569431,
            36.5169009
          ],
          [
            -82.257038,
            36.5169405
          ],
          [
            -82.2571646,
            36.5169781
          ],
          [
            -82.2572806,
            36.5170034
          ],
          [
            -82.2573778,
            36.5170123
          ],
          [
            -82.2575022,
            36.5170168
          ],
          [
            -82.2576114,
            36.5170105
          ],
          [
            -82.2577186,
            36.5169894
          ],
          [
            -82.257844,
            36.5169444
          ],
          [
            -82.2579241,
            36.5169051
          ],
          [
            -82.2580214,
            36.5168484
          ],
          [
            -82.2581106,
            36.5167804
          ],
          [
            -82.2581883,
            36.5167023
          ],
          [
            -82.2582419,
            36.5166255
          ],
          [
            -82.2582783,
            36.5165554
          ],
          [
            -82.2583099,
            36.5164616
          ],
          [
            -82.2583265,
            36.5163758
          ],
          [
            -82.2583311,
            36.5162866
          ],
          [
            -82.2583225,
            36.5162031
          ],
          [
            -82.2583033,
            36.5161336
          ],
          [
            -82.258276,
            36.5160525
          ],
          [
            -82.2582387,
            36.5159788
          ],
          [
            -82.2573674,
            36.5146382
          ],
          [
            -82.2573073,
            36.5145601
          ],
          [
            -82.257288,
            36.5145408
          ],
          [
            -82.2572273,
            36.5144801
          ],
          [
            -82.2571272,
            36.5144107
          ],
          [
            -82.2570221,
            36.514348
          ],
          [
            -82.2569082,
            36.5143023
          ],
          [
            -82.2567566,
            36.514263
          ],
          [
            -82.256626,
            36.514243
          ],
          [
            -82.2564913,
            36.5142427
          ],
          [
            -82.2563577,
            36.5142558
          ],
          [
            -82.2562164,
            36.5142932
          ]
        ]
      }
    }
  ]
}
