{
  "type": "FeatureCollection",
  "bbox": [
    -2.9442535,
    48.4416767,
    -2.9421927,
    48.4452908
  ],
  "metadata": {
    "schemaVersion": 1,
    "trackId": "fr-kerlabo-rx-aad6ff1a",
    "layoutId": "kerlabo-rx",
    "license": "ODbL-1.0",
    "attribution": "© OpenStreetMap contributors",
    "closed": true,
    "geometryStatus": "draft",
    "timingStatus": "missing",
    "timingMode": "shared",
    "lengthM": 974.4,
    "reviewedAt": null,
    "notes": [
      "Draft configuration: Full rallycross perimeter uses the longer mapped northern branch and southern loop identified in the catalogue picture. Event regulations describe laps of 986 m and 978 m, consistent with the independently mapped 974.4 m draft rather than the catalogue scalar 1,440 m. Normal and joker branch classification remains provisional; no detour or repeated lap is added to reach the catalogue distance. Branch identity was checked against catalogue layout facts and circuit identification references. Independent source distance 974.4 m; no coordinates are changed to match a diagram or distance. Travel direction and historical alignment remain provisional."
    ]
  },
  "features": [
    {
      "type": "Feature",
      "id": "trace",
      "properties": {
        "role": "trace",
        "sourceIds": [
          "osm-selection-786983440"
        ]
      },
      "geometry": {
        "type": "LineString",
        "coordinates": [
          [
            -2.9441127,
            48.4450429
          ],
          [
            -2.9441597,
            48.4449919
          ],
          [
            -2.9442038,
            48.444924
          ],
          [
            -2.9442384,
            48.4448457
          ],
          [
            -2.944253,
            48.4447815
          ],
          [
            -2.9442535,
            48.4447203
          ],
          [
            -2.9442419,
            48.4446293
          ],
          [
            -2.9440621,
            48.4437286
          ],
          [
            -2.9440315,
            48.443595
          ],
          [
            -2.9440188,
            48.4435591
          ],
          [
            -2.9439996,
            48.4435255
          ],
          [
            -2.943976,
            48.4434986
          ],
          [
            -2.943944,
            48.4434776
          ],
          [
            -2.9439077,
            48.4434607
          ],
          [
            -2.9438634,
            48.4434453
          ],
          [
            -2.943813,
            48.443427
          ],
          [
            -2.943758,
            48.4434077
          ],
          [
            -2.943665,
            48.4433709
          ],
          [
            -2.9435884,
            48.4433368
          ],
          [
            -2.9435256,
            48.4433037
          ],
          [
            -2.9434878,
            48.4432798
          ],
          [
            -2.9434513,
            48.4432479
          ],
          [
            -2.9434202,
            48.4432012
          ],
          [
            -2.9434026,
            48.4431592
          ],
          [
            -2.9433878,
            48.4431043
          ],
          [
            -2.9433851,
            48.4430024
          ],
          [
            -2.943395,
            48.4429198
          ],
          [
            -2.9434097,
            48.4427967
          ],
          [
            -2.9434245,
            48.4427395
          ],
          [
            -2.9434452,
            48.442685
          ],
          [
            -2.9434836,
            48.4426291
          ],
          [
            -2.943531,
            48.442589
          ],
          [
            -2.9436048,
            48.4425436
          ],
          [
            -2.9437111,
            48.442494
          ],
          [
            -2.9438346,
            48.4424365
          ],
          [
            -2.9439165,
            48.4423902
          ],
          [
            -2.9439869,
            48.4423363
          ],
          [
            -2.9440189,
            48.4422901
          ],
          [
            -2.9440355,
            48.4422376
          ],
          [
            -2.9440378,
            48.4421835
          ],
          [
            -2.9440328,
            48.4421324
          ],
          [
            -2.9440073,
            48.4420564
          ],
          [
            -2.9439758,
            48.4419812
          ],
          [
            -2.9439265,
            48.4418974
          ],
          [
            -2.9438772,
            48.4418381
          ],
          [
            -2.9438295,
            48.4417932
          ],
          [
            -2.9437786,
            48.4417625
          ],
          [
            -2.9437181,
            48.4417336
          ],
          [
            -2.943646,
            48.4417111
          ],
          [
            -2.9435461,
            48.441689
          ],
          [
            -2.9433966,
            48.4416767
          ],
          [
            -2.9432631,
            48.4416813
          ],
          [
            -2.9431459,
            48.4417001
          ],
          [
            -2.9430186,
            48.4417342
          ],
          [
            -2.9428311,
            48.4418031
          ],
          [
            -2.9426262,
            48.4418968
          ],
          [
            -2.9425012,
            48.4419641
          ],
          [
            -2.9424304,
            48.4420036
          ],
          [
            -2.9423236,
            48.4420737
          ],
          [
            -2.9422631,
            48.4421292
          ],
          [
            -2.9422318,
            48.4421667
          ],
          [
            -2.9422093,
            48.4422044
          ],
          [
            -2.942194,
            48.4422499
          ],
          [
            -2.9421927,
            48.4422797
          ],
          [
            -2.9421995,
            48.4423082
          ],
          [
            -2.9422182,
            48.4423485
          ],
          [
            -2.9422551,
            48.4423927
          ],
          [
            -2.9423305,
            48.4424618
          ],
          [
            -2.9424368,
            48.4425578
          ],
          [
            -2.9424606,
            48.4425793
          ],
          [
            -2.9425256,
            48.4426415
          ],
          [
            -2.9426212,
            48.442747
          ],
          [
            -2.9426661,
            48.4428242
          ],
          [
            -2.9426941,
            48.4428836
          ],
          [
            -2.9428306,
            48.4431977
          ],
          [
            -2.9430176,
            48.4435866
          ],
          [
            -2.9431378,
            48.4438227
          ],
          [
            -2.9431809,
            48.4439198
          ],
          [
            -2.9432148,
            48.4440063
          ],
          [
            -2.9432379,
            48.4440874
          ],
          [
            -2.9432518,
            48.44419
          ],
          [
            -2.9432549,
            48.4442856
          ],
          [
            -2.9432579,
            48.4444236
          ],
          [
            -2.9432639,
            48.4445418
          ],
          [
            -2.9432694,
            48.4446598
          ],
          [
            -2.9432754,
            48.4447829
          ],
          [
            -2.9432765,
            48.4449203
          ],
          [
            -2.9432853,
            48.4450544
          ],
          [
            -2.9433031,
            48.445123
          ],
          [
            -2.9433168,
            48.4451602
          ],
          [
            -2.9433397,
            48.4451993
          ],
          [
            -2.9433732,
            48.4452267
          ],
          [
            -2.9434111,
            48.4452463
          ],
          [
            -2.9434583,
            48.4452675
          ],
          [
            -2.9435172,
            48.4452826
          ],
          [
            -2.9435639,
            48.4452897
          ],
          [
            -2.9435951,
            48.4452904
          ],
          [
            -2.9436131,
            48.4452908
          ],
          [
            -2.9436665,
            48.445287
          ],
          [
            -2.9437237,
            48.4452783
          ],
          [
            -2.9437816,
            48.4452604
          ],
          [
            -2.9438343,
            48.445236
          ],
          [
            -2.9438899,
            48.4452041
          ],
          [
            -2.9441127,
            48.4450429
          ]
        ]
      }
    }
  ]
}
