{
  "type": "FeatureCollection",
  "bbox": [
    28.1088318,
    -25.8120366,
    28.1135956,
    -25.8078261
  ],
  "metadata": {
    "schemaVersion": 1,
    "trackId": "za-zwartkops-raceway-14047742",
    "layoutId": "main",
    "license": "ODbL-1.0",
    "attribution": "© OpenStreetMap contributors",
    "closed": true,
    "geometryStatus": "draft",
    "timingStatus": "missing",
    "timingMode": "shared",
    "lengthM": 2401.7,
    "reviewedAt": null,
    "notes": [
      "Connected OSM course candidate. The selected loop is the longest simple source-node cycle after explicit exclusions; its association with a named circuit configuration requires review.",
      "Source way order and shared node IDs are retained. No nearby endpoints are joined and no Racelogic boundaries are read."
    ]
  },
  "features": [
    {
      "type": "Feature",
      "id": "trace",
      "properties": {
        "role": "trace",
        "sourceIds": [
          "osm-snapshot"
        ]
      },
      "geometry": {
        "type": "LineString",
        "coordinates": [
          [
            28.1110316,
            -25.8113431
          ],
          [
            28.112506,
            -25.8112097
          ],
          [
            28.1126264,
            -25.811191
          ],
          [
            28.112718,
            -25.8111618
          ],
          [
            28.1127842,
            -25.8111326
          ],
          [
            28.1128765,
            -25.8110733
          ],
          [
            28.1129239,
            -25.8110154
          ],
          [
            28.1129454,
            -25.810946
          ],
          [
            28.112938,
            -25.8108856
          ],
          [
            28.1129173,
            -25.8108276
          ],
          [
            28.1118003,
            -25.8087502
          ],
          [
            28.1117209,
            -25.8086429
          ],
          [
            28.1115928,
            -25.8085355
          ],
          [
            28.1113439,
            -25.808381
          ],
          [
            28.11121,
            -25.808343
          ],
          [
            28.1110435,
            -25.8083269
          ],
          [
            28.1109,
            -25.8083218
          ],
          [
            28.1107077,
            -25.8083532
          ],
          [
            28.1103474,
            -25.8084498
          ],
          [
            28.1103197,
            -25.8084608
          ],
          [
            28.1091809,
            -25.8088784
          ],
          [
            28.1090529,
            -25.8089144
          ],
          [
            28.1089448,
            -25.8088881
          ],
          [
            28.1088891,
            -25.8088369
          ],
          [
            28.108854,
            -25.8087087
          ],
          [
            28.1088884,
            -25.8086005
          ],
          [
            28.1089471,
            -25.8085037
          ],
          [
            28.1090538,
            -25.8084028
          ],
          [
            28.1102838,
            -25.8079272
          ],
          [
            28.1105985,
            -25.8078546
          ],
          [
            28.1109108,
            -25.8078261
          ],
          [
            28.1112372,
            -25.8078562
          ],
          [
            28.1115307,
            -25.8079177
          ],
          [
            28.1118183,
            -25.8080271
          ],
          [
            28.1120316,
            -25.8081432
          ],
          [
            28.1122166,
            -25.8082775
          ],
          [
            28.1124168,
            -25.8084505
          ],
          [
            28.1125638,
            -25.8086301
          ],
          [
            28.1126743,
            -25.8087905
          ],
          [
            28.1135159,
            -25.8105489
          ],
          [
            28.113573,
            -25.8106883
          ],
          [
            28.1135896,
            -25.8107605
          ],
          [
            28.1135956,
            -25.8109668
          ],
          [
            28.1135782,
            -25.8110784
          ],
          [
            28.113564,
            -25.8111342
          ],
          [
            28.1135372,
            -25.8112013
          ],
          [
            28.1134924,
            -25.8112687
          ],
          [
            28.1134296,
            -25.8113523
          ],
          [
            28.1133456,
            -25.8114404
          ],
          [
            28.1132506,
            -25.8115235
          ],
          [
            28.1131536,
            -25.8115975
          ],
          [
            28.1130289,
            -25.8116666
          ],
          [
            28.1129392,
            -25.8117067
          ],
          [
            28.1128327,
            -25.8117443
          ],
          [
            28.1126613,
            -25.8117847
          ],
          [
            28.1125288,
            -25.8118026
          ],
          [
            28.1121,
            -25.8118395
          ],
          [
            28.1116016,
            -25.8118777
          ],
          [
            28.1091357,
            -25.8120366
          ],
          [
            28.1090437,
            -25.812036
          ],
          [
            28.1089731,
            -25.8120204
          ],
          [
            28.10893,
            -25.8119923
          ],
          [
            28.1088989,
            -25.8119643
          ],
          [
            28.1088728,
            -25.8119312
          ],
          [
            28.1088491,
            -25.8118852
          ],
          [
            28.1088318,
            -25.8118228
          ],
          [
            28.1090369,
            -25.8109318
          ],
          [
            28.1090623,
            -25.8108943
          ],
          [
            28.1090867,
            -25.8108636
          ],
          [
            28.1091346,
            -25.8108188
          ],
          [
            28.1091726,
            -25.81079
          ],
          [
            28.1092363,
            -25.8107509
          ],
          [
            28.1092764,
            -25.8107387
          ],
          [
            28.1093183,
            -25.8107317
          ],
          [
            28.1094125,
            -25.8107267
          ],
          [
            28.1094985,
            -25.8107377
          ],
          [
            28.1095616,
            -25.8107573
          ],
          [
            28.1096209,
            -25.8107856
          ],
          [
            28.109716,
            -25.8108674
          ],
          [
            28.1097871,
            -25.8109345
          ],
          [
            28.1099765,
            -25.8111277
          ],
          [
            28.1101143,
            -25.8112419
          ],
          [
            28.1102344,
            -25.8113116
          ],
          [
            28.1103272,
            -25.8113456
          ],
          [
            28.1104311,
            -25.8113659
          ],
          [
            28.1105457,
            -25.8113763
          ],
          [
            28.1106797,
            -25.8113679
          ],
          [
            28.1110316,
            -25.8113431
          ]
        ]
      }
    }
  ]
}
