{
  "type": "FeatureCollection",
  "bbox": [
    27.2683495,
    38.4329901,
    27.2755864,
    38.4355617
  ],
  "metadata": {
    "schemaVersion": 1,
    "trackId": "tr-izmir-park-8a7dd2b1",
    "layoutId": "izmir-park",
    "license": "ODbL-1.0",
    "attribution": "© OpenStreetMap contributors",
    "closed": true,
    "geometryStatus": "draft",
    "timingStatus": "missing",
    "timingMode": "shared",
    "lengthM": 2087.9,
    "reviewedAt": null,
    "notes": [
      "Draft route hypothesis: the source cycle is the unique closest nominal-distance match within conservative timing and distance checks. Approximate OSM trace length 2087.9 m. Difference from the supplied layout distance 5.1 m. Course configuration still requires visual review."
    ]
  },
  "features": [
    {
      "type": "Feature",
      "id": "trace",
      "properties": {
        "role": "trace",
        "sourceIds": [
          "osm-network-793938284"
        ]
      },
      "geometry": {
        "type": "LineString",
        "coordinates": [
          [
            27.2690018,
            38.4335831
          ],
          [
            27.2693897,
            38.4336989
          ],
          [
            27.2695603,
            38.4337333
          ],
          [
            27.2697054,
            38.4337307
          ],
          [
            27.2698155,
            38.4337068
          ],
          [
            27.269943,
            38.4336585
          ],
          [
            27.2700714,
            38.433595
          ],
          [
            27.2701939,
            38.4334785
          ],
          [
            27.2702539,
            38.4333885
          ],
          [
            27.2703882,
            38.4330823
          ],
          [
            27.2705238,
            38.4330147
          ],
          [
            27.2706569,
            38.4329901
          ],
          [
            27.2708812,
            38.4329954
          ],
          [
            27.2723449,
            38.4332813
          ],
          [
            27.2732202,
            38.433493
          ],
          [
            27.27333,
            38.433542
          ],
          [
            27.2733714,
            38.4335856
          ],
          [
            27.2733969,
            38.4336615
          ],
          [
            27.2733969,
            38.433744
          ],
          [
            27.2733777,
            38.4338216
          ],
          [
            27.2733554,
            38.4338624
          ],
          [
            27.273316,
            38.4338925
          ],
          [
            27.2732458,
            38.4339116
          ],
          [
            27.2731542,
            38.4339058
          ],
          [
            27.2730488,
            38.4338891
          ],
          [
            27.2723601,
            38.4337149
          ],
          [
            27.2712819,
            38.4334022
          ],
          [
            27.2711797,
            38.4333955
          ],
          [
            27.27107,
            38.4334164
          ],
          [
            27.2709657,
            38.4334689
          ],
          [
            27.2708518,
            38.4335698
          ],
          [
            27.2708465,
            38.4336598
          ],
          [
            27.270854,
            38.4337624
          ],
          [
            27.2710236,
            38.4343633
          ],
          [
            27.2710582,
            38.4344553
          ],
          [
            27.2711022,
            38.4345314
          ],
          [
            27.2711684,
            38.4345938
          ],
          [
            27.2712475,
            38.4346358
          ],
          [
            27.2713414,
            38.4346631
          ],
          [
            27.2714245,
            38.4346704
          ],
          [
            27.2721058,
            38.4346505
          ],
          [
            27.2722185,
            38.4346316
          ],
          [
            27.2723418,
            38.4345748
          ],
          [
            27.2726141,
            38.434432
          ],
          [
            27.2726892,
            38.4343994
          ],
          [
            27.2727911,
            38.4343847
          ],
          [
            27.2740491,
            38.4344341
          ],
          [
            27.2741751,
            38.434454
          ],
          [
            27.2753065,
            38.4347321
          ],
          [
            27.2754374,
            38.4347963
          ],
          [
            27.2755311,
            38.4348738
          ],
          [
            27.275563,
            38.4349722
          ],
          [
            27.2755864,
            38.4350631
          ],
          [
            27.2755737,
            38.4352049
          ],
          [
            27.2755449,
            38.4352924
          ],
          [
            27.2754853,
            38.4353925
          ],
          [
            27.275364,
            38.4354683
          ],
          [
            27.2752384,
            38.4355142
          ],
          [
            27.2751362,
            38.4355525
          ],
          [
            27.2750415,
            38.4355617
          ],
          [
            27.2745785,
            38.4355344
          ],
          [
            27.2742698,
            38.4354915
          ],
          [
            27.2733732,
            38.4353669
          ],
          [
            27.2713287,
            38.4351882
          ],
          [
            27.270855,
            38.4351565
          ],
          [
            27.2704229,
            38.4351198
          ],
          [
            27.2700184,
            38.4350514
          ],
          [
            27.26988,
            38.4350014
          ],
          [
            27.2697161,
            38.434903
          ],
          [
            27.2696022,
            38.4347846
          ],
          [
            27.2695519,
            38.4346776
          ],
          [
            27.2695519,
            38.4344923
          ],
          [
            27.2695966,
            38.4342918
          ],
          [
            27.2695873,
            38.4341727
          ],
          [
            27.2695772,
            38.4341495
          ],
          [
            27.2695519,
            38.4341204
          ],
          [
            27.269513,
            38.4341019
          ],
          [
            27.2694302,
            38.4340741
          ],
          [
            27.2687161,
            38.4339315
          ],
          [
            27.2685708,
            38.4339025
          ],
          [
            27.2684462,
            38.4338633
          ],
          [
            27.2683795,
            38.4337973
          ],
          [
            27.2683496,
            38.4337304
          ],
          [
            27.2683495,
            38.4336601
          ],
          [
            27.268385,
            38.4335854
          ],
          [
            27.2684287,
            38.4335427
          ],
          [
            27.2685287,
            38.4334951
          ],
          [
            27.2686463,
            38.4334839
          ],
          [
            27.2687496,
            38.4335022
          ],
          [
            27.2690018,
            38.4335831
          ]
        ]
      }
    }
  ]
}
