{
  "type": "FeatureCollection",
  "bbox": [
    140.2803819,
    35.381257,
    140.2819384,
    35.382041
  ],
  "metadata": {
    "schemaVersion": 1,
    "trackId": "jp-mobara-twin-circuit-138539848",
    "layoutId": "main",
    "license": "ODbL-1.0",
    "attribution": "© OpenStreetMap contributors",
    "closed": true,
    "geometryStatus": "draft",
    "timingStatus": "missing",
    "timingMode": "shared",
    "lengthM": 652.7,
    "reviewedAt": null,
    "notes": [
      "Connected OSM course candidate. The selected loop is the longest simple source-node cycle after explicit exclusions; its association with a named circuit configuration requires review.",
      "Source way order and shared node IDs are retained. No nearby endpoints are joined and no reference boundaries are read.",
      "Some source ways lack one-way direction tags. Travel direction is provisional."
    ]
  },
  "features": [
    {
      "type": "Feature",
      "id": "trace",
      "properties": {
        "role": "trace",
        "sourceIds": [
          "osm-snapshot"
        ]
      },
      "geometry": {
        "type": "LineString",
        "coordinates": [
          [
            140.28097,
            35.3813085
          ],
          [
            140.2810261,
            35.3813367
          ],
          [
            140.2810629,
            35.3813663
          ],
          [
            140.2810865,
            35.3814121
          ],
          [
            140.2810894,
            35.3814574
          ],
          [
            140.2810886,
            35.3815712
          ],
          [
            140.2810742,
            35.3816027
          ],
          [
            140.2810536,
            35.3816158
          ],
          [
            140.281023,
            35.3816236
          ],
          [
            140.2809898,
            35.3816182
          ],
          [
            140.2808777,
            35.3815843
          ],
          [
            140.2807531,
            35.3815445
          ],
          [
            140.2806729,
            35.3815285
          ],
          [
            140.2806319,
            35.3815297
          ],
          [
            140.2806009,
            35.3815377
          ],
          [
            140.2805797,
            35.3815432
          ],
          [
            140.2805571,
            35.381566
          ],
          [
            140.2805365,
            35.3816028
          ],
          [
            140.2805286,
            35.3816412
          ],
          [
            140.2805336,
            35.3816728
          ],
          [
            140.2805622,
            35.3817094
          ],
          [
            140.2806256,
            35.3817443
          ],
          [
            140.2807459,
            35.3817694
          ],
          [
            140.2811309,
            35.3818284
          ],
          [
            140.2814102,
            35.3818782
          ],
          [
            140.2816787,
            35.3819366
          ],
          [
            140.2817006,
            35.3819384
          ],
          [
            140.2817224,
            35.3819364
          ],
          [
            140.2817432,
            35.3819325
          ],
          [
            140.2817627,
            35.3819255
          ],
          [
            140.2817785,
            35.3819123
          ],
          [
            140.2817874,
            35.3818946
          ],
          [
            140.2817961,
            35.3818643
          ],
          [
            140.2817963,
            35.3818511
          ],
          [
            140.2817936,
            35.3818399
          ],
          [
            140.281789,
            35.3818278
          ],
          [
            140.2817791,
            35.3818132
          ],
          [
            140.2817622,
            35.3818009
          ],
          [
            140.2817372,
            35.3817866
          ],
          [
            140.2815739,
            35.3817464
          ],
          [
            140.2813682,
            35.3816935
          ],
          [
            140.2813049,
            35.381671
          ],
          [
            140.2812775,
            35.3816565
          ],
          [
            140.2812315,
            35.3816282
          ],
          [
            140.2812128,
            35.38159
          ],
          [
            140.2812083,
            35.3815421
          ],
          [
            140.2812136,
            35.3814973
          ],
          [
            140.2812371,
            35.3814588
          ],
          [
            140.2812614,
            35.3814414
          ],
          [
            140.2812921,
            35.3814302
          ],
          [
            140.2813213,
            35.3814267
          ],
          [
            140.2813527,
            35.3814284
          ],
          [
            140.2813971,
            35.3814344
          ],
          [
            140.2814734,
            35.381461
          ],
          [
            140.2815741,
            35.3815062
          ],
          [
            140.2816696,
            35.3815617
          ],
          [
            140.2817798,
            35.3816234
          ],
          [
            140.281848,
            35.3816677
          ],
          [
            140.2818913,
            35.3816978
          ],
          [
            140.2819142,
            35.3817196
          ],
          [
            140.2819367,
            35.3817475
          ],
          [
            140.2819384,
            35.3817817
          ],
          [
            140.2819334,
            35.3818439
          ],
          [
            140.2819297,
            35.3818882
          ],
          [
            140.2819212,
            35.3819565
          ],
          [
            140.281893,
            35.3820027
          ],
          [
            140.2818467,
            35.382026
          ],
          [
            140.2817992,
            35.382041
          ],
          [
            140.2817396,
            35.3820378
          ],
          [
            140.2816598,
            35.3820254
          ],
          [
            140.2805926,
            35.3818505
          ],
          [
            140.2805317,
            35.3818405
          ],
          [
            140.280472,
            35.3818282
          ],
          [
            140.2804295,
            35.3818013
          ],
          [
            140.2804054,
            35.3817644
          ],
          [
            140.2803932,
            35.381716
          ],
          [
            140.2803876,
            35.3816355
          ],
          [
            140.2803859,
            35.3815559
          ],
          [
            140.2803819,
            35.3814748
          ],
          [
            140.2803972,
            35.3814208
          ],
          [
            140.2804271,
            35.381358
          ],
          [
            140.2804825,
            35.3813107
          ],
          [
            140.2805571,
            35.3812806
          ],
          [
            140.2806453,
            35.3812601
          ],
          [
            140.2807577,
            35.381257
          ],
          [
            140.2808384,
            35.3812622
          ],
          [
            140.2809117,
            35.3812803
          ],
          [
            140.28097,
            35.3813085
          ]
        ]
      }
    }
  ]
}
