{
  "type": "FeatureCollection",
  "bbox": [
    28.5658079,
    -20.1103582,
    28.5751332,
    -20.0990601
  ],
  "metadata": {
    "schemaVersion": 1,
    "trackId": "zw-breedon-everard-raceway-rl",
    "layoutId": "main",
    "license": "ODbL-1.0",
    "attribution": "© OpenStreetMap contributors",
    "closed": true,
    "geometryStatus": "draft",
    "timingStatus": "missing",
    "timingMode": "shared",
    "lengthM": 3480.5,
    "reviewedAt": null,
    "notes": [
      "Draft course identified by matching the expected Racelogic name to uniquely connected OSM raceway ways. Private timing GPS supports the association. Geometry, travel convention and operating status need review.",
      "OSM does not establish travel direction for all selected ways."
    ]
  },
  "features": [
    {
      "type": "Feature",
      "id": "trace",
      "properties": {
        "role": "trace",
        "sourceIds": [
          "osm-snapshot"
        ]
      },
      "geometry": {
        "type": "LineString",
        "coordinates": [
          [
            28.5714287,
            -20.1089989
          ],
          [
            28.5715188,
            -20.1090456
          ],
          [
            28.5741314,
            -20.1103305
          ],
          [
            28.5744503,
            -20.1103582
          ],
          [
            28.5747228,
            -20.1102755
          ],
          [
            28.5749221,
            -20.1101679
          ],
          [
            28.5750768,
            -20.1099818
          ],
          [
            28.5751332,
            -20.1098066
          ],
          [
            28.5751247,
            -20.1095407
          ],
          [
            28.5748544,
            -20.1085342
          ],
          [
            28.5747138,
            -20.1081833
          ],
          [
            28.5744762,
            -20.1078822
          ],
          [
            28.574135,
            -20.1076782
          ],
          [
            28.5723339,
            -20.1071403
          ],
          [
            28.5722043,
            -20.1070495
          ],
          [
            28.5720717,
            -20.106905
          ],
          [
            28.5720105,
            -20.1067917
          ],
          [
            28.5719718,
            -20.106606
          ],
          [
            28.5719825,
            -20.106486
          ],
          [
            28.5724743,
            -20.1053177
          ],
          [
            28.5724965,
            -20.1051843
          ],
          [
            28.5725008,
            -20.1049966
          ],
          [
            28.5724743,
            -20.1048395
          ],
          [
            28.5723965,
            -20.104667
          ],
          [
            28.5722484,
            -20.1045326
          ],
          [
            28.5708464,
            -20.1037949
          ],
          [
            28.5706949,
            -20.103656
          ],
          [
            28.5705842,
            -20.1035183
          ],
          [
            28.5686912,
            -20.0995188
          ],
          [
            28.5685508,
            -20.0993407
          ],
          [
            28.5683702,
            -20.0991987
          ],
          [
            28.5681546,
            -20.0990954
          ],
          [
            28.5679078,
            -20.0990601
          ],
          [
            28.5676753,
            -20.099111
          ],
          [
            28.5674352,
            -20.099308
          ],
          [
            28.5658573,
            -20.1014299
          ],
          [
            28.5658217,
            -20.1015892
          ],
          [
            28.5658079,
            -20.1018442
          ],
          [
            28.5658427,
            -20.1019764
          ],
          [
            28.5673811,
            -20.1061999
          ],
          [
            28.5676564,
            -20.106732
          ],
          [
            28.5679905,
            -20.1071324
          ],
          [
            28.5692178,
            -20.1078692
          ],
          [
            28.56967,
            -20.1081002
          ],
          [
            28.5702884,
            -20.1084162
          ],
          [
            28.5707571,
            -20.1086557
          ],
          [
            28.5714287,
            -20.1089989
          ]
        ]
      }
    }
  ]
}
