{
  "type": "FeatureCollection",
  "bbox": [
    24.9348463,
    60.3320084,
    24.9388616,
    60.3343814
  ],
  "metadata": {
    "schemaVersion": 1,
    "trackId": "fi-vantaa-circuit-1054317833",
    "layoutId": "vantaa-kart-circuit",
    "license": "ODbL-1.0",
    "attribution": "© OpenStreetMap contributors",
    "closed": true,
    "geometryStatus": "draft",
    "timingStatus": "missing",
    "timingMode": "shared",
    "lengthM": 1288.2,
    "reviewedAt": null,
    "notes": [
      "Draft route hypothesis: the source cycle is the unique closest nominal-distance match within conservative timing and distance checks. Approximate OSM trace length 1288.2 m. Difference from the supplied layout distance 4.8 m. Course configuration still requires visual review."
    ]
  },
  "features": [
    {
      "type": "Feature",
      "id": "trace",
      "properties": {
        "role": "trace",
        "sourceIds": [
          "osm-network-440471555"
        ]
      },
      "geometry": {
        "type": "LineString",
        "coordinates": [
          [
            24.9368271,
            60.3327983
          ],
          [
            24.9381038,
            60.3333891
          ],
          [
            24.9382809,
            60.3334734
          ],
          [
            24.9383506,
            60.3334933
          ],
          [
            24.9383989,
            60.3335006
          ],
          [
            24.9384807,
            60.3335059
          ],
          [
            24.9385585,
            60.3335006
          ],
          [
            24.9387275,
            60.3334707
          ],
          [
            24.9388012,
            60.3334515
          ],
          [
            24.9388441,
            60.3334223
          ],
          [
            24.9388616,
            60.3333857
          ],
          [
            24.9388602,
            60.3333592
          ],
          [
            24.9388428,
            60.3333273
          ],
          [
            24.9387825,
            60.3332981
          ],
          [
            24.9387181,
            60.3332822
          ],
          [
            24.9383801,
            60.3332271
          ],
          [
            24.9383104,
            60.3332132
          ],
          [
            24.938246,
            60.3331899
          ],
          [
            24.9375803,
            60.3328819
          ],
          [
            24.9370658,
            60.3326509
          ],
          [
            24.9368906,
            60.3325763
          ],
          [
            24.9368163,
            60.3325447
          ],
          [
            24.9366366,
            60.3324545
          ],
          [
            24.936532,
            60.3323735
          ],
          [
            24.9364798,
            60.3323044
          ],
          [
            24.9364328,
            60.3322361
          ],
          [
            24.9363886,
            60.332167
          ],
          [
            24.9363228,
            60.3320947
          ],
          [
            24.9362786,
            60.3320661
          ],
          [
            24.9362236,
            60.3320442
          ],
          [
            24.9361351,
            60.3320203
          ],
          [
            24.9360345,
            60.332015
          ],
          [
            24.935706,
            60.3320084
          ],
          [
            24.9356242,
            60.332015
          ],
          [
            24.9355289,
            60.3320356
          ],
          [
            24.9354243,
            60.332088
          ],
          [
            24.9349,
            60.3323575
          ],
          [
            24.9348691,
            60.3323854
          ],
          [
            24.9348463,
            60.3324106
          ],
          [
            24.9348517,
            60.3324471
          ],
          [
            24.9349,
            60.332487
          ],
          [
            24.9351695,
            60.3325713
          ],
          [
            24.9352178,
            60.3325845
          ],
          [
            24.9352661,
            60.3325859
          ],
          [
            24.935309,
            60.3325832
          ],
          [
            24.9353372,
            60.3325719
          ],
          [
            24.9353626,
            60.332558
          ],
          [
            24.9353747,
            60.3325334
          ],
          [
            24.935376,
            60.3324903
          ],
          [
            24.9353573,
            60.332412
          ],
          [
            24.9353506,
            60.3323761
          ],
          [
            24.9353546,
            60.3323482
          ],
          [
            24.935376,
            60.3323124
          ],
          [
            24.9355383,
            60.3322214
          ],
          [
            24.9355665,
            60.3322075
          ],
          [
            24.9356362,
            60.3321962
          ],
          [
            24.9357435,
            60.3322175
          ],
          [
            24.9358602,
            60.332254
          ],
          [
            24.9358977,
            60.3322746
          ],
          [
            24.9359232,
            60.3323124
          ],
          [
            24.9359152,
            60.3323376
          ],
          [
            24.9359044,
            60.3323668
          ],
          [
            24.9357261,
            60.3326629
          ],
          [
            24.9357073,
            60.3326981
          ],
          [
            24.9357019,
            60.3327405
          ],
          [
            24.935714,
            60.3327824
          ],
          [
            24.9357368,
            60.3328255
          ],
          [
            24.9357797,
            60.3328653
          ],
          [
            24.9358334,
            60.3328979
          ],
          [
            24.9359621,
            60.3329549
          ],
          [
            24.9371701,
            60.3334953
          ],
          [
            24.9373153,
            60.333563
          ],
          [
            24.9373797,
            60.3336015
          ],
          [
            24.9374387,
            60.3336486
          ],
          [
            24.9374856,
            60.333705
          ],
          [
            24.9375178,
            60.3337721
          ],
          [
            24.9375258,
            60.3338338
          ],
          [
            24.9375137,
            60.3338962
          ],
          [
            24.9374601,
            60.3339632
          ],
          [
            24.9373958,
            60.334023
          ],
          [
            24.9372911,
            60.33409
          ],
          [
            24.9371865,
            60.3341278
          ],
          [
            24.9370672,
            60.3341451
          ],
          [
            24.9369304,
            60.3341524
          ],
          [
            24.9368083,
            60.3341445
          ],
          [
            24.936642,
            60.3340953
          ],
          [
            24.9365106,
            60.3340402
          ],
          [
            24.9363832,
            60.3339931
          ],
          [
            24.9362518,
            60.3339719
          ],
          [
            24.9360681,
            60.3339553
          ],
          [
            24.9359983,
            60.3339612
          ],
          [
            24.93595,
            60.3339772
          ],
          [
            24.9359232,
            60.334025
          ],
          [
            24.9359366,
            60.3340688
          ],
          [
            24.9359755,
            60.334092
          ],
          [
            24.9364677,
            60.3343084
          ],
          [
            24.9365146,
            60.3343263
          ],
          [
            24.936571,
            60.3343442
          ],
          [
            24.9366447,
            60.3343615
          ],
          [
            24.9367225,
            60.3343728
          ],
          [
            24.9368057,
            60.3343807
          ],
          [
            24.9368955,
            60.3343814
          ],
          [
            24.93698,
            60.3343774
          ],
          [
            24.9370994,
            60.3343588
          ],
          [
            24.9371651,
            60.3343383
          ],
          [
            24.9372375,
            60.3343084
          ],
          [
            24.9373233,
            60.3342686
          ],
          [
            24.9380824,
            60.333855
          ],
          [
            24.9381374,
            60.3338245
          ],
          [
            24.9381736,
            60.3337933
          ],
          [
            24.9381843,
            60.3337634
          ],
          [
            24.938183,
            60.3337369
          ],
          [
            24.9381696,
            60.333713
          ],
          [
            24.9381199,
            60.3336858
          ],
          [
            24.9373615,
            60.333359
          ],
          [
            24.9361418,
            60.3328282
          ],
          [
            24.9360815,
            60.3327897
          ],
          [
            24.93606,
            60.3327551
          ],
          [
            24.936064,
            60.3327173
          ],
          [
            24.9360976,
            60.3326881
          ],
          [
            24.9361593,
            60.3326662
          ],
          [
            24.9362317,
            60.3326616
          ],
          [
            24.936284,
            60.3326649
          ],
          [
            24.9363443,
            60.3326795
          ],
          [
            24.936406,
            60.3327027
          ],
          [
            24.9365294,
            60.3327551
          ],
          [
            24.9365696,
            60.3327658
          ],
          [
            24.9366232,
            60.3327691
          ],
          [
            24.9366769,
            60.3327737
          ],
          [
            24.9367386,
            60.3327731
          ],
          [
            24.9367869,
            60.3327804
          ],
          [
            24.9368271,
            60.3327983
          ]
        ]
      }
    }
  ]
}
