{
  "type": "FeatureCollection",
  "bbox": [
    3.5075829,
    49.1058222,
    3.5138479,
    49.1112524
  ],
  "metadata": {
    "schemaVersion": 1,
    "trackId": "fr-circuit-des-ecuyers-164152809",
    "layoutId": "main",
    "license": "ODbL-1.0",
    "attribution": "© OpenStreetMap contributors",
    "closed": true,
    "geometryStatus": "draft",
    "timingStatus": "missing",
    "timingMode": "shared",
    "lengthM": 3300.6,
    "reviewedAt": null,
    "notes": [
      "Closed named OSM raceway retained as a course candidate. Named-layout association requires review.",
      "Source way order and shared node IDs are retained. No nearby endpoints are joined and no reference boundaries are read."
    ]
  },
  "features": [
    {
      "type": "Feature",
      "id": "trace",
      "properties": {
        "role": "trace",
        "sourceIds": [
          "osm-snapshot"
        ]
      },
      "geometry": {
        "type": "LineString",
        "coordinates": [
          [
            3.5087072,
            49.106133
          ],
          [
            3.5084178,
            49.1061249
          ],
          [
            3.5080576,
            49.106133
          ],
          [
            3.5078265,
            49.106178
          ],
          [
            3.5076454,
            49.1063047
          ],
          [
            3.5075829,
            49.1064805
          ],
          [
            3.5076579,
            49.1067136
          ],
          [
            3.5079202,
            49.1071757
          ],
          [
            3.5082371,
            49.1082095
          ],
          [
            3.5083075,
            49.1084392
          ],
          [
            3.5083678,
            49.1086304
          ],
          [
            3.5086297,
            49.1094605
          ],
          [
            3.5088176,
            49.1100831
          ],
          [
            3.5090195,
            49.1106963
          ],
          [
            3.5091695,
            49.1109212
          ],
          [
            3.50937,
            49.1110673
          ],
          [
            3.5094443,
            49.1111215
          ],
          [
            3.5097816,
            49.1112196
          ],
          [
            3.5100689,
            49.1112524
          ],
          [
            3.5105187,
            49.111236
          ],
          [
            3.5109621,
            49.1111583
          ],
          [
            3.5130484,
            49.1103937
          ],
          [
            3.5135793,
            49.1101934
          ],
          [
            3.5136918,
            49.1101034
          ],
          [
            3.5137667,
            49.1099889
          ],
          [
            3.5138479,
            49.1096659
          ],
          [
            3.5138354,
            49.1095228
          ],
          [
            3.5137292,
            49.1094328
          ],
          [
            3.5135481,
            49.1093838
          ],
          [
            3.5133857,
            49.1093838
          ],
          [
            3.5131983,
            49.109441
          ],
          [
            3.5117617,
            49.1099726
          ],
          [
            3.511668,
            49.1100625
          ],
          [
            3.5116055,
            49.1101852
          ],
          [
            3.5115493,
            49.1102956
          ],
          [
            3.5114056,
            49.1103651
          ],
          [
            3.510019,
            49.1105941
          ],
          [
            3.5098628,
            49.1105695
          ],
          [
            3.5097691,
            49.1105082
          ],
          [
            3.5097254,
            49.1104387
          ],
          [
            3.5093713,
            49.10937
          ],
          [
            3.5092444,
            49.1089871
          ],
          [
            3.5092819,
            49.108889
          ],
          [
            3.5093568,
            49.1088195
          ],
          [
            3.509463,
            49.1087704
          ],
          [
            3.5096005,
            49.1087377
          ],
          [
            3.5116617,
            49.1085455
          ],
          [
            3.5118304,
            49.1085782
          ],
          [
            3.5119366,
            49.1086559
          ],
          [
            3.5119615,
            49.1087745
          ],
          [
            3.5119178,
            49.1088808
          ],
          [
            3.5117742,
            49.1089585
          ],
          [
            3.511568,
            49.1089912
          ],
          [
            3.510623,
            49.1090681
          ],
          [
            3.5104624,
            49.1090812
          ],
          [
            3.5102813,
            49.1091466
          ],
          [
            3.5101251,
            49.1092406
          ],
          [
            3.5100377,
            49.109347
          ],
          [
            3.509994,
            49.1094615
          ],
          [
            3.5099877,
            49.10958
          ],
          [
            3.5100627,
            49.1097068
          ],
          [
            3.5101876,
            49.1098008
          ],
          [
            3.5103562,
            49.1098622
          ],
          [
            3.5105187,
            49.1098908
          ],
          [
            3.5107435,
            49.1098949
          ],
          [
            3.5109184,
            49.1098581
          ],
          [
            3.5111558,
            49.1097477
          ],
          [
            3.5127048,
            49.1090526
          ],
          [
            3.512911,
            49.1089217
          ],
          [
            3.5129984,
            49.1088072
          ],
          [
            3.5130172,
            49.1087091
          ],
          [
            3.5129984,
            49.1085537
          ],
          [
            3.5123863,
            49.1075928
          ],
          [
            3.5122364,
            49.1075028
          ],
          [
            3.512049,
            49.1074578
          ],
          [
            3.5118491,
            49.107466
          ],
          [
            3.5117054,
            49.1075274
          ],
          [
            3.5115805,
            49.1076091
          ],
          [
            3.5114743,
            49.1077277
          ],
          [
            3.5113119,
            49.1077931
          ],
          [
            3.5111495,
            49.1078136
          ],
          [
            3.5105686,
            49.107879
          ],
          [
            3.5103625,
            49.107834
          ],
          [
            3.5101689,
            49.1077604
          ],
          [
            3.5100127,
            49.1077523
          ],
          [
            3.5098753,
            49.1078218
          ],
          [
            3.5094006,
            49.1081039
          ],
          [
            3.5091882,
            49.1081489
          ],
          [
            3.5089946,
            49.1081244
          ],
          [
            3.5088571,
            49.1080712
          ],
          [
            3.5087572,
            49.1079812
          ],
          [
            3.5087072,
            49.1078995
          ],
          [
            3.5084886,
            49.1070408
          ],
          [
            3.5085074,
            49.1069263
          ],
          [
            3.5085573,
            49.1068445
          ],
          [
            3.508651,
            49.1067463
          ],
          [
            3.5087884,
            49.1066727
          ],
          [
            3.5089196,
            49.1066278
          ],
          [
            3.509057,
            49.1066032
          ],
          [
            3.5092069,
            49.1065991
          ],
          [
            3.5098316,
            49.1066809
          ],
          [
            3.5100127,
            49.1066891
          ],
          [
            3.5101501,
            49.1066605
          ],
          [
            3.5110371,
            49.1063579
          ],
          [
            3.5111433,
            49.1062965
          ],
          [
            3.5111932,
            49.1062148
          ],
          [
            3.5111808,
            49.1061371
          ],
          [
            3.511112,
            49.1060307
          ],
          [
            3.5108997,
            49.1058958
          ],
          [
            3.510706,
            49.1058345
          ],
          [
            3.5105436,
            49.1058222
          ],
          [
            3.5103375,
            49.1058222
          ],
          [
            3.5101751,
            49.1058631
          ],
          [
            3.5099565,
            49.1059612
          ],
          [
            3.5097129,
            49.1061043
          ],
          [
            3.509538,
            49.1061411
          ],
          [
            3.5093568,
            49.1061411
          ],
          [
            3.5087072,
            49.106133
          ]
        ]
      }
    }
  ]
}
