{
  "type": "FeatureCollection",
  "bbox": [
    0.1882027,
    49.2631626,
    0.1925313,
    49.2657811
  ],
  "metadata": {
    "schemaVersion": 1,
    "trackId": "fr-circuit-automobile-de-pont-l-eveque-153222666",
    "layoutId": "main",
    "license": "ODbL-1.0",
    "attribution": "© OpenStreetMap contributors",
    "closed": true,
    "geometryStatus": "draft",
    "timingStatus": "missing",
    "timingMode": "shared",
    "lengthM": 1652.6,
    "reviewedAt": null,
    "notes": [
      "Closed named OSM raceway retained as a course candidate. Named-layout association requires review.",
      "Source way order and shared node IDs are retained. No nearby endpoints are joined and no Racelogic boundaries are read."
    ]
  },
  "features": [
    {
      "type": "Feature",
      "id": "trace",
      "properties": {
        "role": "trace",
        "sourceIds": [
          "osm-snapshot"
        ]
      },
      "geometry": {
        "type": "LineString",
        "coordinates": [
          [
            0.1885804,
            49.2657811
          ],
          [
            0.1918552,
            49.2655227
          ],
          [
            0.1920243,
            49.2654893
          ],
          [
            0.1921566,
            49.2654486
          ],
          [
            0.1922925,
            49.265375
          ],
          [
            0.1923998,
            49.2652883
          ],
          [
            0.1924535,
            49.265221
          ],
          [
            0.1925043,
            49.2651338
          ],
          [
            0.1925286,
            49.26506
          ],
          [
            0.1925313,
            49.2649674
          ],
          [
            0.1925071,
            49.264899
          ],
          [
            0.1924507,
            49.2648424
          ],
          [
            0.192365,
            49.2647882
          ],
          [
            0.1922848,
            49.2647527
          ],
          [
            0.1921799,
            49.2647432
          ],
          [
            0.1920485,
            49.2647517
          ],
          [
            0.1918793,
            49.2647924
          ],
          [
            0.1903077,
            49.265228
          ],
          [
            0.1901212,
            49.2652422
          ],
          [
            0.1899526,
            49.2652112
          ],
          [
            0.1898356,
            49.265172
          ],
          [
            0.1897069,
            49.265102
          ],
          [
            0.1896164,
            49.2650171
          ],
          [
            0.1895556,
            49.2648356
          ],
          [
            0.1895853,
            49.2647122
          ],
          [
            0.1896299,
            49.2646248
          ],
          [
            0.1897069,
            49.2645472
          ],
          [
            0.1897786,
            49.2644963
          ],
          [
            0.1899036,
            49.2644419
          ],
          [
            0.1900096,
            49.2644061
          ],
          [
            0.190315,
            49.2643687
          ],
          [
            0.1911884,
            49.2642826
          ],
          [
            0.1916971,
            49.26422
          ],
          [
            0.1918883,
            49.2641736
          ],
          [
            0.1920187,
            49.264111
          ],
          [
            0.1921346,
            49.2640228
          ],
          [
            0.1922362,
            49.2638896
          ],
          [
            0.192255,
            49.2637755
          ],
          [
            0.1922464,
            49.2636581
          ],
          [
            0.1922201,
            49.2635837
          ],
          [
            0.1921261,
            49.2634683
          ],
          [
            0.1920511,
            49.2633999
          ],
          [
            0.1919286,
            49.2633246
          ],
          [
            0.1917963,
            49.2632661
          ],
          [
            0.1916389,
            49.2632213
          ],
          [
            0.1914234,
            49.2631807
          ],
          [
            0.1911446,
            49.2631626
          ],
          [
            0.1909811,
            49.2631646
          ],
          [
            0.1906296,
            49.2631665
          ],
          [
            0.190437,
            49.2631841
          ],
          [
            0.1903003,
            49.2632095
          ],
          [
            0.1901386,
            49.263253
          ],
          [
            0.1899711,
            49.2633239
          ],
          [
            0.1898308,
            49.2634056
          ],
          [
            0.1896425,
            49.2635757
          ],
          [
            0.1896228,
            49.2636544
          ],
          [
            0.1896276,
            49.2637163
          ],
          [
            0.1896637,
            49.2637758
          ],
          [
            0.189732,
            49.2638268
          ],
          [
            0.1898253,
            49.2638632
          ],
          [
            0.1899295,
            49.2638677
          ],
          [
            0.1900284,
            49.2638476
          ],
          [
            0.1901253,
            49.2638067
          ],
          [
            0.1908423,
            49.2634806
          ],
          [
            0.1909496,
            49.263461
          ],
          [
            0.1910721,
            49.2634667
          ],
          [
            0.1911746,
            49.2634901
          ],
          [
            0.1912638,
            49.2635399
          ],
          [
            0.1913261,
            49.2635968
          ],
          [
            0.1913436,
            49.2636495
          ],
          [
            0.1913298,
            49.2637096
          ],
          [
            0.1912606,
            49.2637639
          ],
          [
            0.1909954,
            49.2638243
          ],
          [
            0.1901146,
            49.2640588
          ],
          [
            0.1892209,
            49.2643014
          ],
          [
            0.1890734,
            49.2643802
          ],
          [
            0.1889881,
            49.2644509
          ],
          [
            0.1890068,
            49.2646238
          ],
          [
            0.1890524,
            49.2647869
          ],
          [
            0.1890205,
            49.2648836
          ],
          [
            0.1889451,
            49.264962
          ],
          [
            0.1887735,
            49.265046
          ],
          [
            0.1884516,
            49.265116
          ],
          [
            0.1882907,
            49.265214
          ],
          [
            0.1882252,
            49.2653297
          ],
          [
            0.1882027,
            49.2654233
          ],
          [
            0.1882034,
            49.2655249
          ],
          [
            0.1882396,
            49.2656039
          ],
          [
            0.1883143,
            49.265676
          ],
          [
            0.1884265,
            49.2657338
          ],
          [
            0.1885804,
            49.2657811
          ]
        ]
      }
    }
  ]
}
