{
  "type": "FeatureCollection",
  "bbox": [
    -105.0758084,
    38.8370751,
    -105.037347,
    38.9210442
  ],
  "metadata": {
    "schemaVersion": 1,
    "trackId": "us-pikes-peak-hillclimb-ab97c20e",
    "layoutId": "pikes-peak-hillclimb",
    "license": "ODbL-1.0",
    "attribution": "© OpenStreetMap contributors",
    "closed": false,
    "geometryStatus": "draft",
    "timingStatus": "missing",
    "timingMode": "separate",
    "lengthM": 19502,
    "reviewedAt": null,
    "notes": [
      "Draft open course: The event operator identifies the open Pikes Peak Highway climb from the mile-seven start to the summit. The planar source distance differs from the published event distance and supplied distance; the private timing positions agree with the source endpoints. Coordinates are unchanged independent OSM ways; no artificial closure or endpoint interpolation is added."
    ]
  },
  "features": [
    {
      "type": "Feature",
      "id": "trace",
      "properties": {
        "role": "trace",
        "sourceIds": [
          "osm-road-21180239"
        ]
      },
      "geometry": {
        "type": "LineString",
        "coordinates": [
          [
            -105.0374715,
            38.9210442
          ],
          [
            -105.0374043,
            38.920752
          ],
          [
            -105.0373721,
            38.9206205
          ],
          [
            -105.0373533,
            38.9205141
          ],
          [
            -105.037347,
            38.9203915
          ],
          [
            -105.0373667,
            38.9202804
          ],
          [
            -105.037419,
            38.9201166
          ],
          [
            -105.0374821,
            38.9199966
          ],
          [
            -105.0376685,
            38.9197128
          ],
          [
            -105.0379716,
            38.919287
          ],
          [
            -105.0382264,
            38.9189312
          ],
          [
            -105.0383363,
            38.9187685
          ],
          [
            -105.0384182,
            38.9186672
          ],
          [
            -105.0385053,
            38.9185723
          ],
          [
            -105.0386327,
            38.9184648
          ],
          [
            -105.0387601,
            38.9183918
          ],
          [
            -105.0388795,
            38.9183333
          ],
          [
            -105.0390485,
            38.9182874
          ],
          [
            -105.0396909,
            38.9181654
          ],
          [
            -105.0399014,
            38.9181309
          ],
          [
            -105.0400302,
            38.9181121
          ],
          [
            -105.0401965,
            38.9180965
          ],
          [
            -105.0403265,
            38.9180934
          ],
          [
            -105.0404311,
            38.9180954
          ],
          [
            -105.0405411,
            38.9181007
          ],
          [
            -105.0406404,
            38.9181059
          ],
          [
            -105.0407839,
            38.9181205
          ],
          [
            -105.0409099,
            38.9181403
          ],
          [
            -105.0412774,
            38.9182154
          ],
          [
            -105.04161,
            38.9182739
          ],
          [
            -105.0419521,
            38.9183056
          ],
          [
            -105.0422747,
            38.9182237
          ],
          [
            -105.0429608,
            38.9178807
          ],
          [
            -105.0438363,
            38.9173482
          ],
          [
            -105.0440974,
            38.9169898
          ],
          [
            -105.0441896,
            38.9166467
          ],
          [
            -105.0442733,
            38.9161754
          ],
          [
            -105.0443377,
            38.9157997
          ],
          [
            -105.0447347,
            38.9153573
          ],
          [
            -105.0448143,
            38.9152592
          ],
          [
            -105.045357,
            38.91508
          ],
          [
            -105.045741,
            38.9150646
          ],
          [
            -105.0463196,
            38.9151568
          ],
          [
            -105.0467804,
            38.9151721
          ],
          [
            -105.0471542,
            38.9150595
          ],
          [
            -105.0476252,
            38.9148393
          ],
          [
            -105.0480451,
            38.9147369
          ],
          [
            -105.0483574,
            38.9145577
          ],
          [
            -105.048808,
            38.914102
          ],
          [
            -105.0490735,
            38.9139393
          ],
          [
            -105.0495617,
            38.9137548
          ],
          [
            -105.0501085,
            38.9136105
          ],
          [
            -105.0503133,
            38.913421
          ],
          [
            -105.0504771,
            38.9131701
          ],
          [
            -105.0506154,
            38.9127042
          ],
          [
            -105.05082,
            38.912282
          ],
          [
            -105.0509431,
            38.9121103
          ],
          [
            -105.0512196,
            38.9118645
          ],
          [
            -105.0516394,
            38.9115727
          ],
          [
            -105.0517725,
            38.9114191
          ],
          [
            -105.0518084,
            38.9112091
          ],
          [
            -105.0517776,
            38.9110453
          ],
          [
            -105.0517213,
            38.9108507
          ],
          [
            -105.0517162,
            38.9106664
          ],
          [
            -105.0518288,
            38.9104616
          ],
          [
            -105.0519364,
            38.9103233
          ],
          [
            -105.0521207,
            38.9101697
          ],
          [
            -105.0524689,
            38.9100059
          ],
          [
            -105.0533393,
            38.9098318
          ],
          [
            -105.0536629,
            38.9096872
          ],
          [
            -105.053841,
            38.9094966
          ],
          [
            -105.0540247,
            38.909208
          ],
          [
            -105.0540605,
            38.9090641
          ],
          [
            -105.0540221,
            38.9089151
          ],
          [
            -105.0538667,
            38.9086849
          ],
          [
            -105.0538564,
            38.9084903
          ],
          [
            -105.0539332,
            38.9083162
          ],
          [
            -105.0540766,
            38.9081882
          ],
          [
            -105.0544248,
            38.9080551
          ],
          [
            -105.0554693,
            38.9077837
          ],
          [
            -105.0558021,
            38.9077121
          ],
          [
            -105.0560779,
            38.9075767
          ],
          [
            -105.0561724,
            38.9073922
          ],
          [
            -105.0561835,
            38.9070711
          ],
          [
            -105.0561416,
            38.9067727
          ],
          [
            -105.056125,
            38.9066165
          ],
          [
            -105.0561188,
            38.9064502
          ],
          [
            -105.0561467,
            38.9062892
          ],
          [
            -105.0562821,
            38.9060896
          ],
          [
            -105.0565029,
            38.9058482
          ],
          [
            -105.0568927,
            38.9055053
          ],
          [
            -105.0573944,
            38.9052698
          ],
          [
            -105.0585209,
            38.904768
          ],
          [
            -105.0588998,
            38.9046451
          ],
          [
            -105.0592838,
            38.9046041
          ],
          [
            -105.060016,
            38.9046246
          ],
          [
            -105.0605587,
            38.9046041
          ],
          [
            -105.0608174,
            38.9045509
          ],
          [
            -105.0613394,
            38.9043954
          ],
          [
            -105.0614111,
            38.9043288
          ],
          [
            -105.0614162,
            38.9042264
          ],
          [
            -105.061365,
            38.9041547
          ],
          [
            -105.0610843,
            38.9040745
          ],
          [
            -105.0608881,
            38.9039607
          ],
          [
            -105.0608198,
            38.903885
          ],
          [
            -105.0607789,
            38.9037211
          ],
          [
            -105.0607891,
            38.9035726
          ],
          [
            -105.0610152,
            38.9031662
          ],
          [
            -105.0612017,
            38.9029029
          ],
          [
            -105.061386,
            38.9027749
          ],
          [
            -105.0616676,
            38.9026725
          ],
          [
            -105.0621459,
            38.9026073
          ],
          [
            -105.0631648,
            38.9025458
          ],
          [
            -105.0635745,
            38.9025202
          ],
          [
            -105.0639226,
            38.9024025
          ],
          [
            -105.0641786,
            38.902254
          ],
          [
            -105.0643851,
            38.9020889
          ],
          [
            -105.0647089,
            38.9017377
          ],
          [
            -105.064843,
            38.9015774
          ],
          [
            -105.064979,
            38.9013889
          ],
          [
            -105.065111,
            38.9010988
          ],
          [
            -105.065446,
            38.9003632
          ],
          [
            -105.0657085,
            38.8997636
          ],
          [
            -105.0657967,
            38.8996089
          ],
          [
            -105.0659584,
            38.8993253
          ],
          [
            -105.066069,
            38.8991123
          ],
          [
            -105.0660936,
            38.8989361
          ],
          [
            -105.0660772,
            38.8988133
          ],
          [
            -105.0660116,
            38.8986986
          ],
          [
            -105.0659174,
            38.8986126
          ],
          [
            -105.0657618,
            38.8985347
          ],
          [
            -105.0655611,
            38.8984528
          ],
          [
            -105.0654177,
            38.8983873
          ],
          [
            -105.0651517,
            38.8982086
          ],
          [
            -105.0649059,
            38.8979546
          ],
          [
            -105.0647503,
            38.8976515
          ],
          [
            -105.064652,
            38.8973566
          ],
          [
            -105.0646028,
            38.8970289
          ],
          [
            -105.0645086,
            38.8968405
          ],
          [
            -105.0643939,
            38.8967094
          ],
          [
            -105.0640004,
            38.8964305
          ],
          [
            -105.0637382,
            38.8962462
          ],
          [
            -105.0635621,
            38.8960332
          ],
          [
            -105.0631402,
            38.8955826
          ],
          [
            -105.0628699,
            38.8954516
          ],
          [
            -105.0626528,
            38.8954352
          ],
          [
            -105.0624152,
            38.8954355
          ],
          [
            -105.0621899,
            38.8954577
          ],
          [
            -105.0620229,
            38.8954371
          ],
          [
            -105.0619441,
            38.8953646
          ],
          [
            -105.0619479,
            38.8952662
          ],
          [
            -105.0620378,
            38.8951884
          ],
          [
            -105.0627163,
            38.8950476
          ],
          [
            -105.0629787,
            38.8950284
          ],
          [
            -105.0633883,
            38.8950668
          ],
          [
            -105.0637723,
            38.8950156
          ],
          [
            -105.0640155,
            38.894926
          ],
          [
            -105.0642779,
            38.8946636
          ],
          [
            -105.0647259,
            38.8938636
          ],
          [
            -105.0649627,
            38.8936075
          ],
          [
            -105.0652315,
            38.8933707
          ],
          [
            -105.0659227,
            38.8928523
          ],
          [
            -105.0662043,
            38.8927435
          ],
          [
            -105.0662743,
            38.8927435
          ],
          [
            -105.0664604,
            38.8927435
          ],
          [
            -105.0667292,
            38.8928715
          ],
          [
            -105.066998,
            38.8931723
          ],
          [
            -105.0672476,
            38.8935371
          ],
          [
            -105.0674204,
            38.8936716
          ],
          [
            -105.0676252,
            38.8937228
          ],
          [
            -105.0678684,
            38.8937036
          ],
          [
            -105.0682844,
            38.8935243
          ],
          [
            -105.06863,
            38.8932939
          ],
          [
            -105.068726,
            38.8930635
          ],
          [
            -105.0686684,
            38.8927499
          ],
          [
            -105.0684124,
            38.8924683
          ],
          [
            -105.0679709,
            38.8923257
          ],
          [
            -105.0678562,
            38.8922634
          ],
          [
            -105.067735,
            38.892093
          ],
          [
            -105.0676432,
            38.8918472
          ],
          [
            -105.0675711,
            38.8916342
          ],
          [
            -105.0674269,
            38.8914573
          ],
          [
            -105.0670206,
            38.8912181
          ],
          [
            -105.0667855,
            38.8910796
          ],
          [
            -105.0667367,
            38.8909869
          ],
          [
            -105.0667743,
            38.8909014
          ],
          [
            -105.0668967,
            38.8908599
          ],
          [
            -105.0670484,
            38.8908724
          ],
          [
            -105.0677284,
            38.8911284
          ],
          [
            -105.0681684,
            38.8912804
          ],
          [
            -105.0684484,
            38.8912964
          ],
          [
            -105.0687205,
            38.8912644
          ],
          [
            -105.0690085,
            38.8910964
          ],
          [
            -105.0692885,
            38.8906644
          ],
          [
            -105.0695845,
            38.8900243
          ],
          [
            -105.0697045,
            38.8898003
          ],
          [
            -105.0699925,
            38.8895123
          ],
          [
            -105.0711634,
            38.8886095
          ],
          [
            -105.0714256,
            38.8884293
          ],
          [
            -105.072117,
            38.8880623
          ],
          [
            -105.0724218,
            38.8878362
          ],
          [
            -105.0727003,
            38.8875904
          ],
          [
            -105.0730411,
            38.8873578
          ],
          [
            -105.0731591,
            38.8872562
          ],
          [
            -105.0732017,
            38.8871644
          ],
          [
            -105.0731754,
            38.8870956
          ],
          [
            -105.0731165,
            38.8870661
          ],
          [
            -105.0730345,
            38.8870727
          ],
          [
            -105.0729231,
            38.8871481
          ],
          [
            -105.07272,
            38.8872726
          ],
          [
            -105.0724447,
            38.8873905
          ],
          [
            -105.0720941,
            38.8874954
          ],
          [
            -105.0717729,
            38.887538
          ],
          [
            -105.0715894,
            38.8875216
          ],
          [
            -105.0714715,
            38.8874495
          ],
          [
            -105.0714256,
            38.8873643
          ],
          [
            -105.0714256,
            38.8872234
          ],
          [
            -105.0714715,
            38.887053
          ],
          [
            -105.0717022,
            38.8864893
          ],
          [
            -105.0717964,
            38.8861575
          ],
          [
            -105.0718374,
            38.8858585
          ],
          [
            -105.0718333,
            38.8856496
          ],
          [
            -105.0717604,
            38.8853451
          ],
          [
            -105.0716325,
            38.8851212
          ],
          [
            -105.0714687,
            38.8849614
          ],
          [
            -105.0712475,
            38.8848386
          ],
          [
            -105.0711738,
            38.8847444
          ],
          [
            -105.0711615,
            38.8846133
          ],
          [
            -105.0711861,
            38.8845314
          ],
          [
            -105.0712693,
            38.884397
          ],
          [
            -105.0714503,
            38.8839968
          ],
          [
            -105.0714744,
            38.8837913
          ],
          [
            -105.0714667,
            38.8835299
          ],
          [
            -105.0714257,
            38.8832431
          ],
          [
            -105.0712946,
            38.8827352
          ],
          [
            -105.0712127,
            38.8825263
          ],
          [
            -105.0711799,
            38.8823256
          ],
          [
            -105.0712045,
            38.8821577
          ],
          [
            -105.0713192,
            38.881916
          ],
          [
            -105.0714585,
            38.8817358
          ],
          [
            -105.0717042,
            38.8816047
          ],
          [
            -105.0719746,
            38.8815514
          ],
          [
            -105.0721794,
            38.8815514
          ],
          [
            -105.0723268,
            38.8816211
          ],
          [
            -105.0724415,
            38.8817317
          ],
          [
            -105.0725194,
            38.8819897
          ],
          [
            -105.0726054,
            38.8822928
          ],
          [
            -105.0726463,
            38.882387
          ],
          [
            -105.0727584,
            38.8824921
          ],
          [
            -105.0728511,
            38.8825468
          ],
          [
            -105.0729945,
            38.8825714
          ],
          [
            -105.0731788,
            38.8825427
          ],
          [
            -105.0733386,
            38.8824321
          ],
          [
            -105.0733713,
            38.882342
          ],
          [
            -105.0733468,
            38.8821863
          ],
          [
            -105.0732812,
            38.8820594
          ],
          [
            -105.0731665,
            38.8819488
          ],
          [
            -105.0730478,
            38.8817808
          ],
          [
            -105.0730191,
            38.8815883
          ],
          [
            -105.0730559,
            38.881404
          ],
          [
            -105.0731033,
            38.881249
          ],
          [
            -105.0730774,
            38.8810606
          ],
          [
            -105.0728757,
            38.8806872
          ],
          [
            -105.0728061,
            38.8804455
          ],
          [
            -105.0727692,
            38.8801342
          ],
          [
            -105.0727651,
            38.8796918
          ],
          [
            -105.0727364,
            38.8795198
          ],
          [
            -105.0726586,
            38.8793068
          ],
          [
            -105.0726463,
            38.879147
          ],
          [
            -105.0727077,
            38.879054
          ],
          [
            -105.072817,
            38.8790205
          ],
          [
            -105.0729288,
            38.8790367
          ],
          [
            -105.0730355,
            38.8791429
          ],
          [
            -105.0730764,
            38.8792945
          ],
          [
            -105.0731919,
            38.8795439
          ],
          [
            -105.0732959,
            38.8797679
          ],
          [
            -105.0734879,
            38.8799418
          ],
          [
            -105.0737119,
            38.8800239
          ],
          [
            -105.0740719,
            38.8800719
          ],
          [
            -105.0743119,
            38.8800239
          ],
          [
            -105.0744319,
            38.8798879
          ],
          [
            -105.0744239,
            38.8797039
          ],
          [
            -105.0743359,
            38.8795679
          ],
          [
            -105.0741561,
            38.8793378
          ],
          [
            -105.0740988,
            38.8791944
          ],
          [
            -105.0738694,
            38.8788831
          ],
          [
            -105.0736851,
            38.8786537
          ],
          [
            -105.0736196,
            38.878453
          ],
          [
            -105.0736465,
            38.8780443
          ],
          [
            -105.0736497,
            38.8777526
          ],
          [
            -105.0736039,
            38.8775593
          ],
          [
            -105.0734466,
            38.8773528
          ],
          [
            -105.073345,
            38.8772152
          ],
          [
            -105.0732532,
            38.8768744
          ],
          [
            -105.0732515,
            38.8763889
          ],
          [
            -105.0732742,
            38.8758367
          ],
          [
            -105.07322,
            38.8756605
          ],
          [
            -105.0732446,
            38.8753423
          ],
          [
            -105.073346,
            38.8750365
          ],
          [
            -105.0733661,
            38.8744214
          ],
          [
            -105.0734163,
            38.8742866
          ],
          [
            -105.0735231,
            38.8741708
          ],
          [
            -105.0738892,
            38.8740294
          ],
          [
            -105.0741347,
            38.873909
          ],
          [
            -105.0744243,
            38.8737288
          ],
          [
            -105.0750089,
            38.8734194
          ],
          [
            -105.0753287,
            38.8732726
          ],
          [
            -105.0756669,
            38.873173
          ],
          [
            -105.0757848,
            38.8730917
          ],
          [
            -105.0758084,
            38.8730026
          ],
          [
            -105.0757743,
            38.8729318
          ],
          [
            -105.0757009,
            38.8728977
          ],
          [
            -105.0755749,
            38.8729006
          ],
          [
            -105.0754518,
            38.8729467
          ],
          [
            -105.0753385,
            38.8730273
          ],
          [
            -105.0752275,
            38.8731006
          ],
          [
            -105.0751231,
            38.8731626
          ],
          [
            -105.0748549,
            38.8732758
          ],
          [
            -105.0745541,
            38.8733334
          ],
          [
            -105.0742213,
            38.8733654
          ],
          [
            -105.07385,
            38.8733718
          ],
          [
            -105.073242,
            38.873263
          ],
          [
            -105.0725956,
            38.8731734
          ],
          [
            -105.0723012,
            38.8730902
          ],
          [
            -105.07209,
            38.8729942
          ],
          [
            -105.071869,
            38.8728627
          ],
          [
            -105.0715716,
            38.8725718
          ],
          [
            -105.0712964,
            38.8724182
          ],
          [
            -105.0709572,
            38.8723158
          ],
          [
            -105.0707716,
            38.872335
          ],
          [
            -105.0706244,
            38.8724118
          ],
          [
            -105.0704195,
            38.8726358
          ],
          [
            -105.0702723,
            38.8728918
          ],
          [
            -105.0701827,
            38.8733974
          ],
          [
            -105.0701955,
            38.8737238
          ],
          [
            -105.0701443,
            38.8740054
          ],
          [
            -105.0700995,
            38.8741654
          ],
          [
            -105.0699971,
            38.874351
          ],
          [
            -105.0698243,
            38.8745942
          ],
          [
            -105.0693491,
            38.8749998
          ],
          [
            -105.0689244,
            38.8752359
          ],
          [
            -105.0686437,
            38.8754113
          ],
          [
            -105.0682141,
            38.8755728
          ],
          [
            -105.0676354,
            38.8756642
          ],
          [
            -105.0672316,
            38.875708
          ],
          [
            -105.0666462,
            38.8756642
          ],
          [
            -105.0660963,
            38.8755444
          ],
          [
            -105.065649,
            38.8754012
          ],
          [
            -105.0654935,
            38.8753061
          ],
          [
            -105.0654532,
            38.8752042
          ],
          [
            -105.0654967,
            38.8751449
          ],
          [
            -105.0655986,
            38.875122
          ],
          [
            -105.0657364,
            38.8751448
          ],
          [
            -105.0659124,
            38.8752168
          ],
          [
            -105.0662645,
            38.8752568
          ],
          [
            -105.0665664,
            38.875212
          ],
          [
            -105.0669525,
            38.8751448
          ],
          [
            -105.0673605,
            38.8749528
          ],
          [
            -105.0678325,
            38.8746328
          ],
          [
            -105.0679365,
            38.8744968
          ],
          [
            -105.0680008,
            38.8743748
          ],
          [
            -105.0680164,
            38.8742553
          ],
          [
            -105.0678645,
            38.8736088
          ],
          [
            -105.0677124,
            38.8726134
          ],
          [
            -105.0676305,
            38.8720349
          ],
          [
            -105.0674104,
            38.8712822
          ],
          [
            -105.0672568,
            38.8709033
          ],
          [
            -105.0671748,
            38.8707036
          ],
          [
            -105.0671726,
            38.870497
          ],
          [
            -105.067225,
            38.8702873
          ],
          [
            -105.0673135,
            38.8701234
          ],
          [
            -105.0674085,
            38.8700284
          ],
          [
            -105.0676084,
            38.8699268
          ],
          [
            -105.0676764,
            38.8698437
          ],
          [
            -105.0676681,
            38.8697923
          ],
          [
            -105.0676163,
            38.869751
          ],
          [
            -105.067545,
            38.8697468
          ],
          [
            -105.0674773,
            38.8697761
          ],
          [
            -105.0670382,
            38.8700836
          ],
          [
            -105.0667054,
            38.8703908
          ],
          [
            -105.0666094,
            38.8705252
          ],
          [
            -105.066539,
            38.870794
          ],
          [
            -105.066475,
            38.8709668
          ],
          [
            -105.0663902,
            38.8710371
          ],
          [
            -105.0662645,
            38.8710546
          ],
          [
            -105.066155,
            38.8710052
          ],
          [
            -105.0660846,
            38.8709028
          ],
          [
            -105.0660782,
            38.8706852
          ],
          [
            -105.066251,
            38.8701924
          ],
          [
            -105.066539,
            38.8696804
          ],
          [
            -105.0667694,
            38.8694436
          ],
          [
            -105.0672686,
            38.8691492
          ],
          [
            -105.0673454,
            38.8690276
          ],
          [
            -105.0673335,
            38.8689675
          ],
          [
            -105.0672736,
            38.8689225
          ],
          [
            -105.0671918,
            38.8689188
          ],
          [
            -105.0670126,
            38.8690084
          ],
          [
            -105.0667374,
            38.8691236
          ],
          [
            -105.0664494,
            38.8691748
          ],
          [
            -105.0661358,
            38.8691428
          ],
          [
            -105.0658734,
            38.8690212
          ],
          [
            -105.0645038,
            38.8682083
          ],
          [
            -105.0642413,
            38.8680419
          ],
          [
            -105.0637165,
            38.8674915
          ],
          [
            -105.0633069,
            38.8671139
          ],
          [
            -105.0630189,
            38.8669027
          ],
          [
            -105.0629747,
            38.8668326
          ],
          [
            -105.0629714,
            38.8667671
          ],
          [
            -105.0630205,
            38.8667082
          ],
          [
            -105.0631229,
            38.8666872
          ],
          [
            -105.0632429,
            38.8667043
          ],
          [
            -105.0635629,
            38.8669155
          ],
          [
            -105.0641133,
            38.8672099
          ],
          [
            -105.064619,
            38.8674659
          ],
          [
            -105.0652078,
            38.8676387
          ],
          [
            -105.0658708,
            38.8677297
          ],
          [
            -105.0661264,
            38.8677395
          ],
          [
            -105.0662542,
            38.8676871
          ],
          [
            -105.0662673,
            38.8676183
          ],
          [
            -105.0662161,
            38.8675735
          ],
          [
            -105.0660497,
            38.8675735
          ],
          [
            -105.0658577,
            38.8675415
          ],
          [
            -105.0656017,
            38.8674839
          ],
          [
            -105.0652817,
            38.8673367
          ],
          [
            -105.0650449,
            38.8671575
          ],
          [
            -105.064328,
            38.8664471
          ],
          [
            -105.0642064,
            38.8662999
          ],
          [
            -105.0641972,
            38.8662392
          ],
          [
            -105.064251,
            38.8661878
          ],
          [
            -105.064334,
            38.8661743
          ],
          [
            -105.0644752,
            38.8662359
          ],
          [
            -105.0648144,
            38.8665175
          ],
          [
            -105.0652241,
            38.8667095
          ],
          [
            -105.0655313,
            38.8668183
          ],
          [
            -105.0658129,
            38.8668183
          ],
          [
            -105.0659921,
            38.8667671
          ],
          [
            -105.0661651,
            38.8666177
          ],
          [
            -105.0664913,
            38.8662743
          ],
          [
            -105.0667386,
            38.8660646
          ],
          [
            -105.0669895,
            38.8659519
          ],
          [
            -105.0674964,
            38.8658341
          ],
          [
            -105.0681313,
            38.8656826
          ],
          [
            -105.0684039,
            38.8656118
          ],
          [
            -105.0688548,
            38.8654309
          ],
          [
            -105.0692061,
            38.8652972
          ],
          [
            -105.0693345,
            38.8652238
          ],
          [
            -105.0693528,
            38.8651656
          ],
          [
            -105.0693236,
            38.865111
          ],
          [
            -105.069248,
            38.8650796
          ],
          [
            -105.0690645,
            38.8651085
          ],
          [
            -105.0686162,
            38.865216
          ],
          [
            -105.0683017,
            38.8652631
          ],
          [
            -105.0679923,
            38.8652972
          ],
          [
            -105.0676568,
            38.8653575
          ],
          [
            -105.0675336,
            38.8653601
          ],
          [
            -105.0674339,
            38.8653365
          ],
          [
            -105.067392,
            38.865271
          ],
          [
            -105.0674051,
            38.8651793
          ],
          [
            -105.0674549,
            38.8651137
          ],
          [
            -105.0677774,
            38.8649328
          ],
          [
            -105.0680107,
            38.8647493
          ],
          [
            -105.0681155,
            38.8644924
          ],
          [
            -105.068126,
            38.8643168
          ],
          [
            -105.0680788,
            38.864094
          ],
          [
            -105.0679965,
            38.8638856
          ],
          [
            -105.0679058,
            38.8636881
          ],
          [
            -105.0675474,
            38.8628241
          ],
          [
            -105.0674258,
            38.8625233
          ],
          [
            -105.0673938,
            38.8623121
          ],
          [
            -105.0674194,
            38.8620433
          ],
          [
            -105.0676818,
            38.8609937
          ],
          [
            -105.0678866,
            38.8603152
          ],
          [
            -105.0679506,
            38.8599824
          ],
          [
            -105.0679698,
            38.8597584
          ],
          [
            -105.0679378,
            38.859496
          ],
          [
            -105.067861,
            38.8592784
          ],
          [
            -105.0672786,
            38.8585616
          ],
          [
            -105.0668754,
            38.8581968
          ],
          [
            -105.0663378,
            38.8578896
          ],
          [
            -105.0656593,
            38.857672
          ],
          [
            -105.0645009,
            38.8573904
          ],
          [
            -105.0638097,
            38.8572432
          ],
          [
            -105.0635025,
            38.85716
          ],
          [
            -105.0632721,
            38.857
          ],
          [
            -105.0631633,
            38.8568143
          ],
          [
            -105.0630993,
            38.8565455
          ],
          [
            -105.0630545,
            38.8556751
          ],
          [
            -105.0630737,
            38.8552591
          ],
          [
            -105.0631505,
            38.8548239
          ],
          [
            -105.0633617,
            38.8539087
          ],
          [
            -105.0634129,
            38.8535759
          ],
          [
            -105.0634193,
            38.8533326
          ],
          [
            -105.0633553,
            38.853051
          ],
          [
            -105.0632209,
            38.8528398
          ],
          [
            -105.0630225,
            38.8526222
          ],
          [
            -105.0625105,
            38.8522766
          ],
          [
            -105.0618448,
            38.8517518
          ],
          [
            -105.061608,
            38.8515086
          ],
          [
            -105.0614928,
            38.8512398
          ],
          [
            -105.0614544,
            38.8510542
          ],
          [
            -105.0614992,
            38.8508046
          ],
          [
            -105.0617424,
            38.8503822
          ],
          [
            -105.0620496,
            38.8499022
          ],
          [
            -105.0621904,
            38.8495949
          ],
          [
            -105.0622352,
            38.8493325
          ],
          [
            -105.0621904,
            38.8490701
          ],
          [
            -105.062088,
            38.8488909
          ],
          [
            -105.061864,
            38.8486989
          ],
          [
            -105.06164,
            38.8485709
          ],
          [
            -105.06068,
            38.8481293
          ],
          [
            -105.060232,
            38.8479309
          ],
          [
            -105.0599204,
            38.8478691
          ],
          [
            -105.0596177,
            38.8478526
          ],
          [
            -105.0592741,
            38.8478835
          ],
          [
            -105.0590124,
            38.8479421
          ],
          [
            -105.0587451,
            38.8480322
          ],
          [
            -105.0584195,
            38.8481916
          ],
          [
            -105.0578539,
            38.848474
          ],
          [
            -105.0574834,
            38.8486659
          ],
          [
            -105.0572995,
            38.8487672
          ],
          [
            -105.057191,
            38.8488324
          ],
          [
            -105.0570902,
            38.8489005
          ],
          [
            -105.0570141,
            38.8489487
          ],
          [
            -105.056933,
            38.8489962
          ],
          [
            -105.0568493,
            38.8490356
          ],
          [
            -105.0567671,
            38.8490694
          ],
          [
            -105.0566923,
            38.8490971
          ],
          [
            -105.0566228,
            38.8491169
          ],
          [
            -105.0565517,
            38.8491331
          ],
          [
            -105.0564667,
            38.8491495
          ],
          [
            -105.05638,
            38.8491649
          ],
          [
            -105.056314,
            38.8491725
          ],
          [
            -105.0562576,
            38.8491768
          ],
          [
            -105.0561982,
            38.8491788
          ],
          [
            -105.0561102,
            38.8491787
          ],
          [
            -105.0560373,
            38.8491777
          ],
          [
            -105.0559592,
            38.849174
          ],
          [
            -105.0558829,
            38.8491669
          ],
          [
            -105.0558106,
            38.849158
          ],
          [
            -105.055752,
            38.849148
          ],
          [
            -105.055677,
            38.8491307
          ],
          [
            -105.0555436,
            38.8490945
          ],
          [
            -105.0552279,
            38.8490073
          ],
          [
            -105.0547008,
            38.8488642
          ],
          [
            -105.0542045,
            38.848731
          ],
          [
            -105.0538859,
            38.8486485
          ],
          [
            -105.0534953,
            38.848545
          ],
          [
            -105.0532664,
            38.8484848
          ],
          [
            -105.0531765,
            38.8484553
          ],
          [
            -105.0531331,
            38.8484295
          ],
          [
            -105.0531063,
            38.8484027
          ],
          [
            -105.0530896,
            38.8483712
          ],
          [
            -105.053086,
            38.8483333
          ],
          [
            -105.0530969,
            38.8482967
          ],
          [
            -105.0531205,
            38.8482597
          ],
          [
            -105.0531574,
            38.8482323
          ],
          [
            -105.0531878,
            38.8482104
          ],
          [
            -105.0532413,
            38.8481852
          ],
          [
            -105.0534762,
            38.8481466
          ],
          [
            -105.0535974,
            38.848129
          ],
          [
            -105.0536811,
            38.8481063
          ],
          [
            -105.0537617,
            38.8480758
          ],
          [
            -105.0538468,
            38.8480333
          ],
          [
            -105.0539222,
            38.8479889
          ],
          [
            -105.0539919,
            38.8479354
          ],
          [
            -105.05405,
            38.8478845
          ],
          [
            -105.0541112,
            38.8478233
          ],
          [
            -105.0543421,
            38.847557
          ],
          [
            -105.0545052,
            38.847375
          ],
          [
            -105.0545652,
            38.8473182
          ],
          [
            -105.0546601,
            38.8471991
          ],
          [
            -105.0547137,
            38.8471181
          ],
          [
            -105.0547545,
            38.8470271
          ],
          [
            -105.0547678,
            38.846977
          ],
          [
            -105.0547719,
            38.8469253
          ],
          [
            -105.0547618,
            38.8468611
          ],
          [
            -105.0547407,
            38.8468182
          ],
          [
            -105.0547109,
            38.8467772
          ],
          [
            -105.0546752,
            38.8467399
          ],
          [
            -105.0546401,
            38.846701
          ],
          [
            -105.0545945,
            38.846661
          ],
          [
            -105.0545516,
            38.8466333
          ],
          [
            -105.0544963,
            38.8466095
          ],
          [
            -105.0544236,
            38.8465853
          ],
          [
            -105.0543257,
            38.8465622
          ],
          [
            -105.0542255,
            38.8465424
          ],
          [
            -105.0541317,
            38.8465237
          ],
          [
            -105.0540492,
            38.8465045
          ],
          [
            -105.0539695,
            38.8464811
          ],
          [
            -105.0538982,
            38.8464567
          ],
          [
            -105.0538254,
            38.8464227
          ],
          [
            -105.053767,
            38.8463922
          ],
          [
            -105.0537167,
            38.8463613
          ],
          [
            -105.0536678,
            38.8463236
          ],
          [
            -105.0536457,
            38.8463001
          ],
          [
            -105.0536056,
            38.8462592
          ],
          [
            -105.0535675,
            38.846214
          ],
          [
            -105.0535182,
            38.8461536
          ],
          [
            -105.0534497,
            38.8460557
          ],
          [
            -105.0533719,
            38.8459331
          ],
          [
            -105.053295,
            38.8457955
          ],
          [
            -105.0532408,
            38.8457161
          ],
          [
            -105.0531785,
            38.8456581
          ],
          [
            -105.0531482,
            38.8456357
          ],
          [
            -105.0531026,
            38.8456079
          ],
          [
            -105.0530503,
            38.8455951
          ],
          [
            -105.0529938,
            38.8455898
          ],
          [
            -105.0529148,
            38.8455954
          ],
          [
            -105.0528846,
            38.8456018
          ],
          [
            -105.0528135,
            38.8456327
          ],
          [
            -105.052705,
            38.8456897
          ],
          [
            -105.0522944,
            38.8459387
          ],
          [
            -105.052199,
            38.8459926
          ],
          [
            -105.0520684,
            38.846035
          ],
          [
            -105.0520024,
            38.8460862
          ],
          [
            -105.0518937,
            38.8461086
          ],
          [
            -105.0517961,
            38.8461122
          ],
          [
            -105.0517226,
            38.8461087
          ],
          [
            -105.0516495,
            38.8460911
          ],
          [
            -105.0515563,
            38.8460629
          ],
          [
            -105.0515043,
            38.846029
          ],
          [
            -105.0514393,
            38.8459906
          ],
          [
            -105.0513852,
            38.8459489
          ],
          [
            -105.0513145,
            38.8458758
          ],
          [
            -105.0511976,
            38.8457623
          ],
          [
            -105.0511171,
            38.8456807
          ],
          [
            -105.0510239,
            38.8455868
          ],
          [
            -105.0509654,
            38.8455143
          ],
          [
            -105.0509107,
            38.8454404
          ],
          [
            -105.0508602,
            38.845371
          ],
          [
            -105.0508285,
            38.845309
          ],
          [
            -105.0507929,
            38.8452097
          ],
          [
            -105.0507608,
            38.8450346
          ],
          [
            -105.0507181,
            38.8447834
          ],
          [
            -105.0506908,
            38.8446304
          ],
          [
            -105.0506603,
            38.8444564
          ],
          [
            -105.050648,
            38.8443781
          ],
          [
            -105.0506152,
            38.8442357
          ],
          [
            -105.050578,
            38.8441195
          ],
          [
            -105.0505434,
            38.8440396
          ],
          [
            -105.0504966,
            38.8439694
          ],
          [
            -105.0504576,
            38.8438991
          ],
          [
            -105.0503846,
            38.8437919
          ],
          [
            -105.0502789,
            38.8436533
          ],
          [
            -105.0501848,
            38.8435282
          ],
          [
            -105.0500629,
            38.8433588
          ],
          [
            -105.049965,
            38.8432162
          ],
          [
            -105.0498691,
            38.8430625
          ],
          [
            -105.0498309,
            38.8429638
          ],
          [
            -105.049786,
            38.8428721
          ],
          [
            -105.0497595,
            38.8427888
          ],
          [
            -105.0497486,
            38.8427326
          ],
          [
            -105.0497478,
            38.8426614
          ],
          [
            -105.0497527,
            38.8426139
          ],
          [
            -105.0497923,
            38.8424189
          ],
          [
            -105.0498234,
            38.8422604
          ],
          [
            -105.0498374,
            38.8421284
          ],
          [
            -105.0498331,
            38.8420001
          ],
          [
            -105.0498171,
            38.8418695
          ],
          [
            -105.0497921,
            38.8416995
          ],
          [
            -105.049748,
            38.8414255
          ],
          [
            -105.0497,
            38.8410971
          ],
          [
            -105.0496128,
            38.8404286
          ],
          [
            -105.0495571,
            38.8400742
          ],
          [
            -105.049521,
            38.8397501
          ],
          [
            -105.0495094,
            38.8395014
          ],
          [
            -105.0495054,
            38.839391
          ],
          [
            -105.0494703,
            38.8390666
          ],
          [
            -105.0494488,
            38.8389466
          ],
          [
            -105.0494187,
            38.8388596
          ],
          [
            -105.049358,
            38.8387816
          ],
          [
            -105.0493183,
            38.8387237
          ],
          [
            -105.0492694,
            38.8386627
          ],
          [
            -105.0492221,
            38.8386063
          ],
          [
            -105.04916,
            38.8385517
          ],
          [
            -105.0490761,
            38.8384915
          ],
          [
            -105.0489798,
            38.838426
          ],
          [
            -105.0489084,
            38.838381
          ],
          [
            -105.0488397,
            38.8383433
          ],
          [
            -105.0487619,
            38.8383079
          ],
          [
            -105.0486909,
            38.8382784
          ],
          [
            -105.0485585,
            38.8382377
          ],
          [
            -105.048461,
            38.8382221
          ],
          [
            -105.048185,
            38.8381924
          ],
          [
            -105.0480505,
            38.8381766
          ],
          [
            -105.0479441,
            38.8381555
          ],
          [
            -105.0478673,
            38.8381388
          ],
          [
            -105.0477398,
            38.8381015
          ],
          [
            -105.047612,
            38.8380593
          ],
          [
            -105.0474717,
            38.8380126
          ],
          [
            -105.0473512,
            38.8379794
          ],
          [
            -105.0470714,
            38.8379264
          ],
          [
            -105.0466382,
            38.8378579
          ],
          [
            -105.046124,
            38.8377468
          ],
          [
            -105.0459811,
            38.8377223
          ],
          [
            -105.0458152,
            38.8376916
          ],
          [
            -105.0457048,
            38.8376684
          ],
          [
            -105.0456013,
            38.8376412
          ],
          [
            -105.0454631,
            38.8376011
          ],
          [
            -105.0453308,
            38.8375607
          ],
          [
            -105.0452119,
            38.8375219
          ],
          [
            -105.0450265,
            38.8374599
          ],
          [
            -105.0449058,
            38.8374172
          ],
          [
            -105.0448182,
            38.8373892
          ],
          [
            -105.0446802,
            38.8373522
          ],
          [
            -105.0444411,
            38.8372978
          ],
          [
            -105.0443008,
            38.8372663
          ],
          [
            -105.0441974,
            38.8372396
          ],
          [
            -105.0440706,
            38.8372019
          ],
          [
            -105.0439543,
            38.8371695
          ],
          [
            -105.0437729,
            38.837117
          ],
          [
            -105.0436916,
            38.8370922
          ],
          [
            -105.0436067,
            38.8370789
          ],
          [
            -105.0435355,
            38.8370751
          ],
          [
            -105.0434814,
            38.837104
          ],
          [
            -105.043452,
            38.8371661
          ],
          [
            -105.0434625,
            38.8372075
          ],
          [
            -105.0434956,
            38.8372403
          ],
          [
            -105.0435349,
            38.837282
          ],
          [
            -105.0436303,
            38.8373458
          ],
          [
            -105.0438384,
            38.8374849
          ],
          [
            -105.0439266,
            38.8375351
          ],
          [
            -105.0440364,
            38.8376111
          ],
          [
            -105.044148,
            38.8376999
          ],
          [
            -105.0443679,
            38.8379119
          ],
          [
            -105.0445732,
            38.8381104
          ],
          [
            -105.0446616,
            38.8381721
          ],
          [
            -105.0447509,
            38.8382157
          ],
          [
            -105.0448818,
            38.8382722
          ],
          [
            -105.0450291,
            38.8383488
          ],
          [
            -105.0451782,
            38.8384362
          ],
          [
            -105.0454219,
            38.8385812
          ],
          [
            -105.0456944,
            38.8387438
          ],
          [
            -105.046105,
            38.839003
          ],
          [
            -105.0463467,
            38.8391502
          ],
          [
            -105.0464629,
            38.8392433
          ],
          [
            -105.046535,
            38.8393143
          ],
          [
            -105.0466239,
            38.8394112
          ],
          [
            -105.0467462,
            38.8395731
          ],
          [
            -105.0468715,
            38.8397948
          ],
          [
            -105.0469252,
            38.8399142
          ],
          [
            -105.0469527,
            38.8400007
          ],
          [
            -105.0469699,
            38.8400724
          ],
          [
            -105.0469776,
            38.8401369
          ],
          [
            -105.0469772,
            38.8402279
          ],
          [
            -105.0469701,
            38.840334
          ],
          [
            -105.0469478,
            38.8404549
          ],
          [
            -105.0469077,
            38.8405804
          ],
          [
            -105.0468698,
            38.8406743
          ],
          [
            -105.0468036,
            38.8408087
          ],
          [
            -105.0467358,
            38.8409712
          ],
          [
            -105.0466792,
            38.8411234
          ],
          [
            -105.0466016,
            38.8413774
          ],
          [
            -105.0465758,
            38.8414464
          ],
          [
            -105.0465401,
            38.8414971
          ],
          [
            -105.0464852,
            38.8415297
          ],
          [
            -105.0464146,
            38.8415601
          ],
          [
            -105.046331,
            38.8415549
          ],
          [
            -105.0462882,
            38.8415298
          ],
          [
            -105.0462665,
            38.84149
          ],
          [
            -105.0462612,
            38.8414556
          ],
          [
            -105.0462643,
            38.841419
          ],
          [
            -105.0462826,
            38.8413817
          ],
          [
            -105.0463361,
            38.8412936
          ],
          [
            -105.046379,
            38.8412048
          ],
          [
            -105.0464069,
            38.8411212
          ],
          [
            -105.0464187,
            38.8410485
          ],
          [
            -105.046424,
            38.8409448
          ],
          [
            -105.0464293,
            38.8407995
          ],
          [
            -105.0464144,
            38.8406354
          ],
          [
            -105.0463971,
            38.8405335
          ],
          [
            -105.0463448,
            38.8403886
          ],
          [
            -105.0462863,
            38.8402714
          ],
          [
            -105.0462384,
            38.8402013
          ],
          [
            -105.0461633,
            38.8401206
          ],
          [
            -105.0460799,
            38.8400524
          ],
          [
            -105.0460063,
            38.8400055
          ],
          [
            -105.045843,
            38.8399331
          ],
          [
            -105.0457151,
            38.8398877
          ],
          [
            -105.0456096,
            38.8398584
          ],
          [
            -105.0455156,
            38.8398418
          ],
          [
            -105.0453977,
            38.8398369
          ],
          [
            -105.0450814,
            38.8398216
          ],
          [
            -105.0448509,
            38.8398224
          ]
        ]
      }
    }
  ]
}
