{
  "type": "FeatureCollection",
  "bbox": [
    55.2320933,
    25.0472924,
    55.2455104,
    25.0529095
  ],
  "metadata": {
    "schemaVersion": 1,
    "trackId": "ae-dubai-autodrome-87272771",
    "layoutId": "dubai-autodrome-international",
    "license": "ODbL-1.0",
    "attribution": "© OpenStreetMap contributors",
    "closed": true,
    "geometryStatus": "draft",
    "timingStatus": "missing",
    "timingMode": "shared",
    "lengthM": 4368,
    "reviewedAt": null,
    "notes": [
      "Draft route hypothesis: the source cycle is the unique closest nominal-distance match within conservative timing and distance checks. Approximate OSM trace length 4368 m. Difference from the supplied layout distance 19.0 m. Course configuration still requires visual review."
    ]
  },
  "features": [
    {
      "type": "Feature",
      "id": "trace",
      "properties": {
        "role": "trace",
        "sourceIds": [
          "osm-network-87272771"
        ]
      },
      "geometry": {
        "type": "LineString",
        "coordinates": [
          [
            55.2381062,
            25.0499225
          ],
          [
            55.2380689,
            25.0498927
          ],
          [
            55.2380377,
            25.0498601
          ],
          [
            55.2380146,
            25.0498197
          ],
          [
            55.2379976,
            25.0497678
          ],
          [
            55.2379901,
            25.0497126
          ],
          [
            55.2379864,
            25.0496533
          ],
          [
            55.2379918,
            25.0495971
          ],
          [
            55.2380043,
            25.0495427
          ],
          [
            55.2380236,
            25.0494984
          ],
          [
            55.2380487,
            25.0494511
          ],
          [
            55.2380878,
            25.0493877
          ],
          [
            55.2381342,
            25.0493262
          ],
          [
            55.2381751,
            25.0492833
          ],
          [
            55.2382209,
            25.0492474
          ],
          [
            55.2382667,
            25.0492334
          ],
          [
            55.2383312,
            25.04922
          ],
          [
            55.2384097,
            25.0492178
          ],
          [
            55.2384806,
            25.0492342
          ],
          [
            55.2385526,
            25.0492664
          ],
          [
            55.2386445,
            25.0493266
          ],
          [
            55.2390435,
            25.0496256
          ],
          [
            55.2391131,
            25.0496783
          ],
          [
            55.2391784,
            25.0497274
          ],
          [
            55.2392507,
            25.0497766
          ],
          [
            55.239314,
            25.0498137
          ],
          [
            55.2393743,
            25.0498394
          ],
          [
            55.2394509,
            25.0498633
          ],
          [
            55.239506,
            25.0498734
          ],
          [
            55.2395573,
            25.0498811
          ],
          [
            55.2396097,
            25.0498833
          ],
          [
            55.2396796,
            25.0498777
          ],
          [
            55.2397545,
            25.0498652
          ],
          [
            55.2398314,
            25.0498433
          ],
          [
            55.2399042,
            25.049816
          ],
          [
            55.2399894,
            25.0497785
          ],
          [
            55.2400426,
            25.0497506
          ],
          [
            55.2400878,
            25.0497175
          ],
          [
            55.2401409,
            25.0496759
          ],
          [
            55.240289,
            25.0495397
          ],
          [
            55.2419941,
            25.0480883
          ],
          [
            55.242055,
            25.0480202
          ],
          [
            55.2420902,
            25.0479642
          ],
          [
            55.2421135,
            25.0479111
          ],
          [
            55.2421245,
            25.0478507
          ],
          [
            55.2421297,
            25.0477873
          ],
          [
            55.2421289,
            25.0477319
          ],
          [
            55.2421203,
            25.0476702
          ],
          [
            55.2421013,
            25.0475998
          ],
          [
            55.2420743,
            25.0475454
          ],
          [
            55.2420306,
            25.0474873
          ],
          [
            55.2420003,
            25.0474481
          ],
          [
            55.2419626,
            25.0474088
          ],
          [
            55.2419164,
            25.0473763
          ],
          [
            55.2418632,
            25.0473451
          ],
          [
            55.2418081,
            25.0473217
          ],
          [
            55.2417306,
            25.0473012
          ],
          [
            55.2416181,
            25.0472924
          ],
          [
            55.2415081,
            25.0472944
          ],
          [
            55.236873,
            25.0475586
          ],
          [
            55.2330187,
            25.0477655
          ],
          [
            55.2324955,
            25.047776
          ],
          [
            55.2324738,
            25.047791
          ],
          [
            55.2324135,
            25.0478105
          ],
          [
            55.2323543,
            25.0478402
          ],
          [
            55.2323021,
            25.047878
          ],
          [
            55.2322503,
            25.0479255
          ],
          [
            55.2321999,
            25.0479825
          ],
          [
            55.232159,
            25.0480399
          ],
          [
            55.2321292,
            25.048099
          ],
          [
            55.2321074,
            25.0481561
          ],
          [
            55.2320957,
            25.0482112
          ],
          [
            55.2320933,
            25.0482615
          ],
          [
            55.2321047,
            25.0483192
          ],
          [
            55.232127,
            25.048375
          ],
          [
            55.2321495,
            25.0484172
          ],
          [
            55.2322975,
            25.0487879
          ],
          [
            55.2324613,
            25.048972
          ],
          [
            55.2326148,
            25.0490473
          ],
          [
            55.2328841,
            25.0491687
          ],
          [
            55.2332156,
            25.0492619
          ],
          [
            55.2335128,
            25.0492878
          ],
          [
            55.2350834,
            25.0492781
          ],
          [
            55.2352129,
            25.0492981
          ],
          [
            55.2353643,
            25.0494043
          ],
          [
            55.2354301,
            25.0495544
          ],
          [
            55.2355577,
            25.0503287
          ],
          [
            55.2357259,
            25.0504644
          ],
          [
            55.2375271,
            25.051057
          ],
          [
            55.2391979,
            25.0516004
          ],
          [
            55.24237,
            25.052631
          ],
          [
            55.2433146,
            25.0528946
          ],
          [
            55.2433636,
            25.0529041
          ],
          [
            55.2434117,
            25.0529095
          ],
          [
            55.2434597,
            25.0529053
          ],
          [
            55.2434992,
            25.0528951
          ],
          [
            55.2435299,
            25.0528781
          ],
          [
            55.2435647,
            25.0528498
          ],
          [
            55.2435972,
            25.0528178
          ],
          [
            55.2436174,
            25.0527894
          ],
          [
            55.2436314,
            25.052755
          ],
          [
            55.2436388,
            25.0527124
          ],
          [
            55.2436405,
            25.0526695
          ],
          [
            55.2436305,
            25.0526236
          ],
          [
            55.2436078,
            25.0525787
          ],
          [
            55.2432928,
            25.0522256
          ],
          [
            55.2428313,
            25.051794
          ],
          [
            55.2428038,
            25.0517554
          ],
          [
            55.2427836,
            25.0517138
          ],
          [
            55.242774,
            25.0516692
          ],
          [
            55.2427684,
            25.0516188
          ],
          [
            55.2427699,
            25.0515701
          ],
          [
            55.2427802,
            25.0515162
          ],
          [
            55.2427958,
            25.0514783
          ],
          [
            55.2428143,
            25.051434
          ],
          [
            55.2428457,
            25.0513864
          ],
          [
            55.2428925,
            25.0513378
          ],
          [
            55.2429686,
            25.0512716
          ],
          [
            55.2430492,
            25.0512073
          ],
          [
            55.2431312,
            25.0511431
          ],
          [
            55.2432299,
            25.0510696
          ],
          [
            55.2433437,
            25.0509912
          ],
          [
            55.2434514,
            25.0509239
          ],
          [
            55.2435971,
            25.0508509
          ],
          [
            55.2438045,
            25.0507549
          ],
          [
            55.2439832,
            25.0506893
          ],
          [
            55.2441092,
            25.0506407
          ],
          [
            55.2442267,
            25.0505847
          ],
          [
            55.2443783,
            25.0505146
          ],
          [
            55.2445235,
            25.0504395
          ],
          [
            55.2447483,
            25.0503102
          ],
          [
            55.2451261,
            25.050101
          ],
          [
            55.2454007,
            25.0499496
          ],
          [
            55.2454423,
            25.0499244
          ],
          [
            55.2454756,
            25.0498917
          ],
          [
            55.2454968,
            25.0498525
          ],
          [
            55.2455056,
            25.0498048
          ],
          [
            55.2455104,
            25.0497616
          ],
          [
            55.2455095,
            25.0497155
          ],
          [
            55.2455009,
            25.049667
          ],
          [
            55.2454872,
            25.0496269
          ],
          [
            55.245461,
            25.0495784
          ],
          [
            55.2454227,
            25.0495304
          ],
          [
            55.2453723,
            25.0494808
          ],
          [
            55.2453246,
            25.0494471
          ],
          [
            55.2452751,
            25.0494263
          ],
          [
            55.2452243,
            25.0494141
          ],
          [
            55.2451557,
            25.0494081
          ],
          [
            55.2443325,
            25.0494535
          ],
          [
            55.2442346,
            25.0494565
          ],
          [
            55.2441589,
            25.0494623
          ],
          [
            55.2440576,
            25.0494786
          ],
          [
            55.2439302,
            25.0494979
          ],
          [
            55.2437787,
            25.0495328
          ],
          [
            55.2435944,
            25.0495775
          ],
          [
            55.2433514,
            25.0496404
          ],
          [
            55.2429806,
            25.0497525
          ],
          [
            55.2426983,
            25.0498524
          ],
          [
            55.2411585,
            25.0503859
          ],
          [
            55.2410527,
            25.0504219
          ],
          [
            55.2409646,
            25.0504505
          ],
          [
            55.2408824,
            25.0504762
          ],
          [
            55.2408088,
            25.0504926
          ],
          [
            55.2407016,
            25.0505086
          ],
          [
            55.2406033,
            25.0505167
          ],
          [
            55.2404967,
            25.0505209
          ],
          [
            55.2403779,
            25.0505242
          ],
          [
            55.2402981,
            25.0505285
          ],
          [
            55.2401908,
            25.050525
          ],
          [
            55.2400796,
            25.0505169
          ],
          [
            55.2400056,
            25.0505019
          ],
          [
            55.2399286,
            25.0504788
          ],
          [
            55.2384715,
            25.0501118
          ],
          [
            55.2383859,
            25.0500843
          ],
          [
            55.2383351,
            25.0500639
          ],
          [
            55.2382766,
            25.0500364
          ],
          [
            55.238223,
            25.0500074
          ],
          [
            55.2381608,
            25.049965
          ],
          [
            55.2381062,
            25.0499225
          ]
        ]
      }
    }
  ]
}
