{
  "type": "FeatureCollection",
  "bbox": [
    9.6900667,
    53.4469014,
    9.6935735,
    53.4498089
  ],
  "metadata": {
    "schemaVersion": 1,
    "trackId": "de-estering-f9d6a5de",
    "layoutId": "estering-joker",
    "license": "ODbL-1.0",
    "attribution": "© OpenStreetMap contributors",
    "closed": true,
    "geometryStatus": "draft",
    "timingStatus": "missing",
    "timingMode": "shared",
    "lengthM": 905.4,
    "reviewedAt": null,
    "notes": [
      "The operator plan names the Joker branch inside the northern final complex. Independently named OSM Joker way 282853377 reconnects exact source nodes to the main raceway. The source lap measures 905.4 m; no paddock or venue perimeter edges are included. Exact source coordinates are unchanged; historical alignment and direction remain provisional."
    ]
  },
  "features": [
    {
      "type": "Feature",
      "id": "trace",
      "properties": {
        "role": "trace",
        "sourceIds": [
          "osm-components-267094190"
        ]
      },
      "geometry": {
        "type": "LineString",
        "coordinates": [
          [
            9.6933357,
            53.447716
          ],
          [
            9.6933852,
            53.4475923
          ],
          [
            9.6934192,
            53.4470461
          ],
          [
            9.6934076,
            53.4469889
          ],
          [
            9.6933802,
            53.4469427
          ],
          [
            9.693321,
            53.4469174
          ],
          [
            9.6932451,
            53.4469038
          ],
          [
            9.6931692,
            53.4469014
          ],
          [
            9.6930957,
            53.4469141
          ],
          [
            9.6929995,
            53.4469493
          ],
          [
            9.6927344,
            53.4472254
          ],
          [
            9.6921551,
            53.44783
          ],
          [
            9.6919843,
            53.4480583
          ],
          [
            9.6916869,
            53.4483479
          ],
          [
            9.6911778,
            53.4486859
          ],
          [
            9.6904009,
            53.449207
          ],
          [
            9.6902045,
            53.4493559
          ],
          [
            9.6900884,
            53.4494942
          ],
          [
            9.6900667,
            53.4495738
          ],
          [
            9.6900705,
            53.4496484
          ],
          [
            9.6900943,
            53.449699
          ],
          [
            9.6901436,
            53.4497471
          ],
          [
            9.69021,
            53.4497845
          ],
          [
            9.6903031,
            53.4498073
          ],
          [
            9.6903795,
            53.4498089
          ],
          [
            9.6904517,
            53.4498003
          ],
          [
            9.6905352,
            53.4497834
          ],
          [
            9.690608,
            53.4497577
          ],
          [
            9.6908446,
            53.4496274
          ],
          [
            9.6910366,
            53.449545
          ],
          [
            9.6912866,
            53.4494812
          ],
          [
            9.6915719,
            53.4495045
          ],
          [
            9.6918119,
            53.4495384
          ],
          [
            9.6920392,
            53.4495572
          ],
          [
            9.6922854,
            53.4495384
          ],
          [
            9.692538,
            53.4494669
          ],
          [
            9.6929926,
            53.4492564
          ],
          [
            9.6933525,
            53.4490608
          ],
          [
            9.693504,
            53.4489555
          ],
          [
            9.6935735,
            53.4488352
          ],
          [
            9.6935609,
            53.44876
          ],
          [
            9.6935395,
            53.4485792
          ],
          [
            9.6935135,
            53.4485395
          ],
          [
            9.6934586,
            53.4485045
          ],
          [
            9.6931997,
            53.4484274
          ],
          [
            9.6931826,
            53.4484016
          ],
          [
            9.693181,
            53.4483758
          ],
          [
            9.6932042,
            53.448339
          ],
          [
            9.6932511,
            53.4483222
          ],
          [
            9.6933127,
            53.4482888
          ],
          [
            9.6933665,
            53.4482521
          ],
          [
            9.6933767,
            53.4482142
          ],
          [
            9.6933606,
            53.4481424
          ],
          [
            9.6933416,
            53.448001
          ],
          [
            9.6933357,
            53.447716
          ]
        ]
      }
    }
  ]
}
