{
  "type": "FeatureCollection",
  "bbox": [
    152.0346878,
    -28.2645131,
    152.0366285,
    -28.2601502
  ],
  "metadata": {
    "schemaVersion": 1,
    "trackId": "au-morgan-park-b-circuit-346f4b2d",
    "layoutId": "morgan-park-b-circuit",
    "license": "ODbL-1.0",
    "attribution": "© OpenStreetMap contributors",
    "closed": true,
    "geometryStatus": "draft",
    "timingStatus": "missing",
    "timingMode": "shared",
    "lengthM": 1206.4,
    "reviewedAt": null,
    "notes": [
      "Draft route hypothesis: the source cycle is the unique closest nominal-distance match within conservative timing and distance checks. Approximate OSM trace length 1206.4 m. Difference from the supplied layout distance 3.4 m. Course configuration still requires visual review."
    ]
  },
  "features": [
    {
      "type": "Feature",
      "id": "trace",
      "properties": {
        "role": "trace",
        "sourceIds": [
          "osm-network-677545751"
        ]
      },
      "geometry": {
        "type": "LineString",
        "coordinates": [
          [
            152.0364517,
            -28.2619672
          ],
          [
            152.0362947,
            -28.2628256
          ],
          [
            152.0361457,
            -28.2636408
          ],
          [
            152.0360825,
            -28.2639863
          ],
          [
            152.0360638,
            -28.2640785
          ],
          [
            152.0360525,
            -28.2640944
          ],
          [
            152.0359967,
            -28.264173
          ],
          [
            152.0359109,
            -28.264232
          ],
          [
            152.0353449,
            -28.2644824
          ],
          [
            152.0352269,
            -28.2645084
          ],
          [
            152.0351384,
            -28.2645131
          ],
          [
            152.0350687,
            -28.2644895
          ],
          [
            152.0349909,
            -28.2644328
          ],
          [
            152.0349748,
            -28.2644077
          ],
          [
            152.0349603,
            -28.26429
          ],
          [
            152.0349816,
            -28.2642308
          ],
          [
            152.0350453,
            -28.2641715
          ],
          [
            152.0351337,
            -28.2640905
          ],
          [
            152.035516,
            -28.2638567
          ],
          [
            152.0356044,
            -28.2637912
          ],
          [
            152.0357106,
            -28.2636478
          ],
          [
            152.0357566,
            -28.2635076
          ],
          [
            152.0357743,
            -28.2633579
          ],
          [
            152.0357637,
            -28.2632114
          ],
          [
            152.0357071,
            -28.2630524
          ],
          [
            152.0356257,
            -28.2629246
          ],
          [
            152.0350205,
            -28.2621827
          ],
          [
            152.0348895,
            -28.2619895
          ],
          [
            152.0347904,
            -28.2618055
          ],
          [
            152.0347232,
            -28.2616029
          ],
          [
            152.0346878,
            -28.2613473
          ],
          [
            152.0346984,
            -28.2612257
          ],
          [
            152.0347196,
            -28.2611073
          ],
          [
            152.0348011,
            -28.260942
          ],
          [
            152.0349532,
            -28.2607051
          ],
          [
            152.0349957,
            -28.2605835
          ],
          [
            152.0350665,
            -28.2602812
          ],
          [
            152.0351054,
            -28.2602282
          ],
          [
            152.0351727,
            -28.2601689
          ],
          [
            152.0352364,
            -28.2601502
          ],
          [
            152.0353396,
            -28.2601538
          ],
          [
            152.0355549,
            -28.2604152
          ],
          [
            152.0356398,
            -28.2604994
          ],
          [
            152.0357177,
            -28.2605461
          ],
          [
            152.0358062,
            -28.2605773
          ],
          [
            152.0360467,
            -28.2606136
          ],
          [
            152.0363441,
            -28.2606584
          ],
          [
            152.0364432,
            -28.2606864
          ],
          [
            152.0365317,
            -28.2607456
          ],
          [
            152.0365919,
            -28.2608298
          ],
          [
            152.0366285,
            -28.2609998
          ],
          [
            152.0364989,
            -28.2617084
          ],
          [
            152.0364517,
            -28.2619672
          ]
        ]
      }
    }
  ]
}
