{
  "type": "FeatureCollection",
  "bbox": [
    4.7435269,
    46.3672665,
    4.7459674,
    46.3701654
  ],
  "metadata": {
    "schemaVersion": 1,
    "trackId": "fr-verze-reference",
    "layoutId": "main",
    "license": "ODbL-1.0",
    "attribution": "© OpenStreetMap contributors",
    "closed": true,
    "geometryStatus": "draft",
    "timingStatus": "missing",
    "timingMode": "shared",
    "lengthM": 919.9,
    "reviewedAt": null,
    "notes": [
      "Single reference course at a unique connected OSM source cycle, with private timing proximity. Draft geometry; course identity and operating status require review. Timing coordinates remain private.",
      "Travel direction is provisional."
    ]
  },
  "features": [
    {
      "type": "Feature",
      "id": "trace",
      "properties": {
        "role": "trace",
        "sourceIds": [
          "osm-snapshot"
        ]
      },
      "geometry": {
        "type": "LineString",
        "coordinates": [
          [
            4.7441334,
            46.3681621
          ],
          [
            4.744374,
            46.3683879
          ],
          [
            4.744703,
            46.3685648
          ],
          [
            4.7450408,
            46.3687122
          ],
          [
            4.7451963,
            46.3688188
          ],
          [
            4.7452564,
            46.3688642
          ],
          [
            4.7453005,
            46.3689578
          ],
          [
            4.7452562,
            46.3690385
          ],
          [
            4.7451476,
            46.3691304
          ],
          [
            4.7447864,
            46.3692454
          ],
          [
            4.744748,
            46.3693027
          ],
          [
            4.7447449,
            46.3693388
          ],
          [
            4.7447794,
            46.3693749
          ],
          [
            4.7449114,
            46.3693893
          ],
          [
            4.7451865,
            46.3693567
          ],
          [
            4.7452842,
            46.3693606
          ],
          [
            4.7453444,
            46.3693866
          ],
          [
            4.7454325,
            46.3694516
          ],
          [
            4.7455271,
            46.369566
          ],
          [
            4.7456687,
            46.3700651
          ],
          [
            4.7457005,
            46.3701301
          ],
          [
            4.7458182,
            46.3701654
          ],
          [
            4.7459272,
            46.3701369
          ],
          [
            4.7459674,
            46.3700651
          ],
          [
            4.7457995,
            46.3693769
          ],
          [
            4.7455297,
            46.3687517
          ],
          [
            4.7454512,
            46.3686691
          ],
          [
            4.7453352,
            46.3685791
          ],
          [
            4.7450365,
            46.3684881
          ],
          [
            4.7447655,
            46.368421
          ],
          [
            4.7446336,
            46.3683395
          ],
          [
            4.7445502,
            46.36821
          ],
          [
            4.7445432,
            46.3680423
          ],
          [
            4.744446,
            46.3679128
          ],
          [
            4.7443279,
            46.3678457
          ],
          [
            4.744182,
            46.3677259
          ],
          [
            4.7442028,
            46.3676636
          ],
          [
            4.7442934,
            46.3675723
          ],
          [
            4.7445586,
            46.3674859
          ],
          [
            4.7446442,
            46.3674013
          ],
          [
            4.7446127,
            46.3672993
          ],
          [
            4.7444943,
            46.3672665
          ],
          [
            4.7440644,
            46.3672739
          ],
          [
            4.7438277,
            46.3673184
          ],
          [
            4.743649,
            46.3673782
          ],
          [
            4.7435615,
            46.3674362
          ],
          [
            4.7435269,
            46.367542
          ],
          [
            4.7435846,
            46.36763
          ],
          [
            4.7439319,
            46.3679656
          ],
          [
            4.7441334,
            46.3681621
          ]
        ]
      }
    }
  ]
}
