{
  "type": "FeatureCollection",
  "bbox": [
    0.2074582,
    47.9134279,
    0.2438741,
    47.9618722
  ],
  "metadata": {
    "schemaVersion": 1,
    "trackId": "fr-le-mans-bugatti",
    "layoutId": "le-mans-full",
    "license": "ODbL-1.0",
    "attribution": "© OpenStreetMap contributors",
    "closed": true,
    "geometryStatus": "draft",
    "timingStatus": "missing",
    "timingMode": "shared",
    "lengthM": 13612.4,
    "reviewedAt": null,
    "notes": [
      "Draft course from an independently named OSM circuit relation. Timing variants retain separate catalogue entries; private start/finish GPS is displayed locally."
    ]
  },
  "features": [
    {
      "type": "Feature",
      "id": "trace",
      "properties": {
        "role": "trace",
        "sourceIds": [
          "osm-relation-2126739"
        ]
      },
      "geometry": {
        "type": "LineString",
        "coordinates": [
          [
            0.2076815,
            47.9526555
          ],
          [
            0.2076921,
            47.9527758
          ],
          [
            0.2077073,
            47.9528953
          ],
          [
            0.2077164,
            47.9529642
          ],
          [
            0.2077314,
            47.9530494
          ],
          [
            0.207747,
            47.9531409
          ],
          [
            0.2077702,
            47.9532565
          ],
          [
            0.2077942,
            47.9533572
          ],
          [
            0.20783,
            47.9534978
          ],
          [
            0.2078759,
            47.9536546
          ],
          [
            0.2079667,
            47.953945
          ],
          [
            0.207997,
            47.9540314
          ],
          [
            0.2080424,
            47.9541588
          ],
          [
            0.2080976,
            47.9542951
          ],
          [
            0.2081687,
            47.9544572
          ],
          [
            0.2082516,
            47.9546283
          ],
          [
            0.2083361,
            47.9547879
          ],
          [
            0.208419,
            47.9549259
          ],
          [
            0.2085027,
            47.9550693
          ],
          [
            0.208572,
            47.9551805
          ],
          [
            0.2086052,
            47.9552277
          ],
          [
            0.2086372,
            47.9552688
          ],
          [
            0.2086658,
            47.9553039
          ],
          [
            0.2086963,
            47.9553393
          ],
          [
            0.2087245,
            47.9553703
          ],
          [
            0.2087638,
            47.9554103
          ],
          [
            0.2088059,
            47.9554507
          ],
          [
            0.208856,
            47.9554968
          ],
          [
            0.2089127,
            47.9555439
          ],
          [
            0.208972,
            47.9555891
          ],
          [
            0.2090177,
            47.9556209
          ],
          [
            0.2090552,
            47.9556466
          ],
          [
            0.2090936,
            47.9556716
          ],
          [
            0.2091283,
            47.9556922
          ],
          [
            0.209193,
            47.9557278
          ],
          [
            0.2092523,
            47.9557578
          ],
          [
            0.2093975,
            47.955823
          ],
          [
            0.2109034,
            47.95644
          ],
          [
            0.2109231,
            47.9564488
          ],
          [
            0.2109384,
            47.956456
          ],
          [
            0.2109485,
            47.9564611
          ],
          [
            0.2109579,
            47.9564664
          ],
          [
            0.2109666,
            47.9564715
          ],
          [
            0.2109764,
            47.956478
          ],
          [
            0.2109863,
            47.9564853
          ],
          [
            0.2109943,
            47.9564916
          ],
          [
            0.2110013,
            47.9564982
          ],
          [
            0.211008,
            47.9565052
          ],
          [
            0.2110133,
            47.9565123
          ],
          [
            0.2110184,
            47.9565196
          ],
          [
            0.2110229,
            47.9565262
          ],
          [
            0.2110266,
            47.9565323
          ],
          [
            0.2110301,
            47.9565385
          ],
          [
            0.2110333,
            47.9565454
          ],
          [
            0.2110361,
            47.9565523
          ],
          [
            0.2110381,
            47.9565585
          ],
          [
            0.21104,
            47.9565646
          ],
          [
            0.2110417,
            47.9565711
          ],
          [
            0.2110432,
            47.9565781
          ],
          [
            0.2110443,
            47.9565858
          ],
          [
            0.211045,
            47.9565933
          ],
          [
            0.2110455,
            47.9566007
          ],
          [
            0.2110454,
            47.9566093
          ],
          [
            0.2110446,
            47.9566174
          ],
          [
            0.2110436,
            47.9566241
          ],
          [
            0.2110417,
            47.9566322
          ],
          [
            0.2110392,
            47.9566404
          ],
          [
            0.2110353,
            47.9566512
          ],
          [
            0.2110286,
            47.9566701
          ],
          [
            0.2109329,
            47.9569452
          ],
          [
            0.2109302,
            47.9569543
          ],
          [
            0.210928,
            47.9569629
          ],
          [
            0.2109264,
            47.9569701
          ],
          [
            0.2109248,
            47.9569787
          ],
          [
            0.2109237,
            47.9569877
          ],
          [
            0.2109231,
            47.9569977
          ],
          [
            0.2109229,
            47.9570056
          ],
          [
            0.210923,
            47.9570116
          ],
          [
            0.2109233,
            47.9570197
          ],
          [
            0.2109242,
            47.9570277
          ],
          [
            0.2109255,
            47.9570365
          ],
          [
            0.210927,
            47.9570439
          ],
          [
            0.2109286,
            47.95705
          ],
          [
            0.210931,
            47.9570568
          ],
          [
            0.2109339,
            47.9570629
          ],
          [
            0.2109373,
            47.9570691
          ],
          [
            0.2109405,
            47.957075
          ],
          [
            0.2109443,
            47.9570812
          ],
          [
            0.2109496,
            47.9570891
          ],
          [
            0.210955,
            47.9570972
          ],
          [
            0.2109599,
            47.9571038
          ],
          [
            0.2109655,
            47.9571103
          ],
          [
            0.2109714,
            47.9571166
          ],
          [
            0.2109781,
            47.9571234
          ],
          [
            0.2109855,
            47.9571308
          ],
          [
            0.210993,
            47.9571377
          ],
          [
            0.2110003,
            47.9571438
          ],
          [
            0.2110075,
            47.9571497
          ],
          [
            0.2110143,
            47.9571548
          ],
          [
            0.2110208,
            47.9571597
          ],
          [
            0.2110294,
            47.9571655
          ],
          [
            0.2110362,
            47.9571699
          ],
          [
            0.2110431,
            47.9571739
          ],
          [
            0.2110495,
            47.9571775
          ],
          [
            0.211059,
            47.9571824
          ],
          [
            0.2110742,
            47.9571893
          ],
          [
            0.2123152,
            47.9577202
          ],
          [
            0.2125102,
            47.9578028
          ],
          [
            0.2127024,
            47.9578848
          ],
          [
            0.2128319,
            47.9579416
          ],
          [
            0.2129219,
            47.9579848
          ],
          [
            0.2129969,
            47.9580246
          ],
          [
            0.21307,
            47.9580671
          ],
          [
            0.21313,
            47.9581048
          ],
          [
            0.2131887,
            47.9581453
          ],
          [
            0.2132459,
            47.958188
          ],
          [
            0.2132896,
            47.9582243
          ],
          [
            0.2133349,
            47.9582649
          ],
          [
            0.2133816,
            47.9583095
          ],
          [
            0.2135691,
            47.9584908
          ],
          [
            0.2137648,
            47.9586823
          ],
          [
            0.2138306,
            47.958742
          ],
          [
            0.213892,
            47.9587894
          ],
          [
            0.2139483,
            47.9588295
          ],
          [
            0.2140161,
            47.9588748
          ],
          [
            0.2140718,
            47.9589094
          ],
          [
            0.2141415,
            47.9589504
          ],
          [
            0.2141814,
            47.9589722
          ],
          [
            0.2142119,
            47.9589879
          ],
          [
            0.2142446,
            47.9590024
          ],
          [
            0.2142785,
            47.9590164
          ],
          [
            0.2143079,
            47.9590288
          ],
          [
            0.2143303,
            47.9590377
          ],
          [
            0.2143518,
            47.9590456
          ],
          [
            0.2143649,
            47.9590498
          ],
          [
            0.2145186,
            47.9591013
          ],
          [
            0.214674,
            47.9591487
          ],
          [
            0.2147547,
            47.9591714
          ],
          [
            0.2148272,
            47.9591918
          ],
          [
            0.2148771,
            47.9592046
          ],
          [
            0.2149422,
            47.9592209
          ],
          [
            0.2149931,
            47.9592321
          ],
          [
            0.2150415,
            47.9592419
          ],
          [
            0.2151033,
            47.9592527
          ],
          [
            0.2151685,
            47.9592624
          ],
          [
            0.2152264,
            47.9592697
          ],
          [
            0.215283,
            47.9592744
          ],
          [
            0.2154316,
            47.9592837
          ],
          [
            0.2156372,
            47.9592918
          ],
          [
            0.2160412,
            47.9593026
          ],
          [
            0.2163361,
            47.9593099
          ],
          [
            0.2164766,
            47.9593134
          ],
          [
            0.2166316,
            47.9593173
          ],
          [
            0.2167286,
            47.9593246
          ],
          [
            0.2167824,
            47.9593293
          ],
          [
            0.2168328,
            47.9593347
          ],
          [
            0.216877,
            47.9593407
          ],
          [
            0.2169146,
            47.9593472
          ],
          [
            0.2169488,
            47.9593541
          ],
          [
            0.2169776,
            47.9593607
          ],
          [
            0.2170071,
            47.9593691
          ],
          [
            0.2170386,
            47.9593795
          ],
          [
            0.2170748,
            47.959393
          ],
          [
            0.2171124,
            47.9594087
          ],
          [
            0.217154,
            47.9594281
          ],
          [
            0.2171897,
            47.9594456
          ],
          [
            0.217225,
            47.9594644
          ],
          [
            0.2172617,
            47.959486
          ],
          [
            0.2173015,
            47.9595111
          ],
          [
            0.217331,
            47.9595307
          ],
          [
            0.2173584,
            47.9595527
          ],
          [
            0.2173838,
            47.9595737
          ],
          [
            0.2174099,
            47.9595962
          ],
          [
            0.217434,
            47.9596207
          ],
          [
            0.2174568,
            47.9596469
          ],
          [
            0.2174761,
            47.95967
          ],
          [
            0.2174966,
            47.959697
          ],
          [
            0.2175168,
            47.9597275
          ],
          [
            0.2175352,
            47.9597566
          ],
          [
            0.2175528,
            47.9597849
          ],
          [
            0.2175704,
            47.9598154
          ],
          [
            0.2175831,
            47.9598399
          ],
          [
            0.217594,
            47.9598635
          ],
          [
            0.2176005,
            47.9598823
          ],
          [
            0.2176052,
            47.9598998
          ],
          [
            0.2176093,
            47.9599165
          ],
          [
            0.217611,
            47.9599277
          ],
          [
            0.2176119,
            47.9599374
          ],
          [
            0.2176127,
            47.9599574
          ],
          [
            0.2176135,
            47.9599872
          ],
          [
            0.2176146,
            47.9600232
          ],
          [
            0.2176157,
            47.9601161
          ],
          [
            0.2176166,
            47.9601416
          ],
          [
            0.2176186,
            47.9601658
          ],
          [
            0.2176213,
            47.9601926
          ],
          [
            0.217624,
            47.9602155
          ],
          [
            0.2176271,
            47.9602366
          ],
          [
            0.2176319,
            47.9602602
          ],
          [
            0.2176376,
            47.9602863
          ],
          [
            0.2176441,
            47.9603115
          ],
          [
            0.2176508,
            47.9603333
          ],
          [
            0.2176604,
            47.9603618
          ],
          [
            0.2176699,
            47.9603846
          ],
          [
            0.217681,
            47.9604084
          ],
          [
            0.217694,
            47.9604348
          ],
          [
            0.2177058,
            47.9604581
          ],
          [
            0.2177192,
            47.9604834
          ],
          [
            0.2177304,
            47.9605025
          ],
          [
            0.2177424,
            47.9605224
          ],
          [
            0.2177559,
            47.960543
          ],
          [
            0.2177677,
            47.9605598
          ],
          [
            0.2177824,
            47.9605787
          ],
          [
            0.2177977,
            47.9605959
          ],
          [
            0.2178165,
            47.9606155
          ],
          [
            0.2178338,
            47.960632
          ],
          [
            0.2178513,
            47.9606469
          ],
          [
            0.2178677,
            47.9606593
          ],
          [
            0.2178865,
            47.9606724
          ],
          [
            0.2179139,
            47.9606901
          ],
          [
            0.217939,
            47.9607053
          ],
          [
            0.2179577,
            47.9607166
          ],
          [
            0.217975,
            47.9607271
          ],
          [
            0.2179989,
            47.960741
          ],
          [
            0.2180223,
            47.9607544
          ],
          [
            0.2180482,
            47.9607688
          ],
          [
            0.2180813,
            47.9607869
          ],
          [
            0.2184487,
            47.9609775
          ],
          [
            0.2186728,
            47.9610906
          ],
          [
            0.2187784,
            47.9611425
          ],
          [
            0.2188778,
            47.9611901
          ],
          [
            0.2189441,
            47.9612202
          ],
          [
            0.2190078,
            47.9612458
          ],
          [
            0.2190562,
            47.9612644
          ],
          [
            0.2190985,
            47.96128
          ],
          [
            0.2191357,
            47.9612933
          ],
          [
            0.219202,
            47.961316
          ],
          [
            0.2193274,
            47.9613592
          ],
          [
            0.2194282,
            47.9613917
          ],
          [
            0.2195449,
            47.961426
          ],
          [
            0.219644,
            47.9614537
          ],
          [
            0.2197922,
            47.9614919
          ],
          [
            0.2211776,
            47.9618414
          ],
          [
            0.2212401,
            47.9618552
          ],
          [
            0.221306,
            47.961866
          ],
          [
            0.2213732,
            47.9618719
          ],
          [
            0.2214309,
            47.9618722
          ],
          [
            0.2214975,
            47.9618672
          ],
          [
            0.2215553,
            47.9618594
          ],
          [
            0.2216173,
            47.9618462
          ],
          [
            0.2216998,
            47.9618231
          ],
          [
            0.2218015,
            47.9617856
          ],
          [
            0.2219795,
            47.9617189
          ],
          [
            0.2221559,
            47.9616537
          ],
          [
            0.2223014,
            47.9615962
          ],
          [
            0.2224436,
            47.9615356
          ],
          [
            0.2225857,
            47.9614759
          ],
          [
            0.2227165,
            47.9614193
          ],
          [
            0.2228593,
            47.9613556
          ],
          [
            0.2230122,
            47.9612858
          ],
          [
            0.2231141,
            47.9612406
          ],
          [
            0.2231307,
            47.9612327
          ],
          [
            0.2232107,
            47.9611945
          ],
          [
            0.2233842,
            47.9611101
          ],
          [
            0.223473,
            47.9610632
          ],
          [
            0.2235588,
            47.9610149
          ],
          [
            0.2236526,
            47.9609577
          ],
          [
            0.2237471,
            47.9608993
          ],
          [
            0.2238705,
            47.9608221
          ],
          [
            0.2239289,
            47.9607853
          ],
          [
            0.2239508,
            47.9607699
          ],
          [
            0.2239858,
            47.9607471
          ],
          [
            0.2240194,
            47.960724
          ],
          [
            0.2241132,
            47.9606648
          ],
          [
            0.2241863,
            47.9606134
          ],
          [
            0.2242856,
            47.9605342
          ],
          [
            0.2243855,
            47.9604503
          ],
          [
            0.2244793,
            47.9603695
          ],
          [
            0.2245813,
            47.9602851
          ],
          [
            0.2246919,
            47.9601884
          ],
          [
            0.2251184,
            47.959737
          ],
          [
            0.2260264,
            47.9587716
          ],
          [
            0.2265375,
            47.9582366
          ],
          [
            0.2268118,
            47.957933
          ],
          [
            0.2269347,
            47.9577869
          ],
          [
            0.2270244,
            47.9576767
          ],
          [
            0.2271075,
            47.9575726
          ],
          [
            0.2271909,
            47.9574614
          ],
          [
            0.2272979,
            47.9573105
          ],
          [
            0.2274013,
            47.9571571
          ],
          [
            0.2275149,
            47.9569696
          ],
          [
            0.2276793,
            47.956667
          ],
          [
            0.2284678,
            47.9550347
          ],
          [
            0.228501,
            47.954966
          ],
          [
            0.2294196,
            47.9530353
          ],
          [
            0.2300759,
            47.9516723
          ],
          [
            0.2305373,
            47.9507139
          ],
          [
            0.2307774,
            47.9502138
          ],
          [
            0.2315967,
            47.948507
          ],
          [
            0.2317767,
            47.9481411
          ],
          [
            0.2318228,
            47.9480454
          ],
          [
            0.2325625,
            47.946505
          ],
          [
            0.2332311,
            47.9451051
          ],
          [
            0.2332383,
            47.9450637
          ],
          [
            0.2332448,
            47.9450322
          ],
          [
            0.2332481,
            47.945011
          ],
          [
            0.2332508,
            47.9449898
          ],
          [
            0.2332522,
            47.9449735
          ],
          [
            0.2332529,
            47.9449606
          ],
          [
            0.2332533,
            47.9449504
          ],
          [
            0.2332531,
            47.9449418
          ],
          [
            0.2332518,
            47.9449307
          ],
          [
            0.2332504,
            47.9449205
          ],
          [
            0.2332487,
            47.9449111
          ],
          [
            0.2332461,
            47.9448997
          ],
          [
            0.2332424,
            47.9448887
          ],
          [
            0.2332383,
            47.9448784
          ],
          [
            0.2332296,
            47.9448592
          ],
          [
            0.2332198,
            47.9448412
          ],
          [
            0.2332104,
            47.9448244
          ],
          [
            0.2331999,
            47.9448083
          ],
          [
            0.2331872,
            47.9447906
          ],
          [
            0.2331758,
            47.9447752
          ],
          [
            0.233163,
            47.9447599
          ],
          [
            0.2331583,
            47.944755
          ],
          [
            0.2331495,
            47.944746
          ],
          [
            0.2331358,
            47.9447328
          ],
          [
            0.2331251,
            47.944723
          ],
          [
            0.2331183,
            47.944717
          ],
          [
            0.2329985,
            47.9446209
          ],
          [
            0.2329936,
            47.9446169
          ],
          [
            0.2329893,
            47.944613
          ],
          [
            0.2329849,
            47.944609
          ],
          [
            0.2329802,
            47.9446039
          ],
          [
            0.2329753,
            47.9445987
          ],
          [
            0.2329703,
            47.9445931
          ],
          [
            0.2329651,
            47.9445874
          ],
          [
            0.2329604,
            47.944582
          ],
          [
            0.2329555,
            47.9445764
          ],
          [
            0.2329508,
            47.9445704
          ],
          [
            0.2329457,
            47.9445639
          ],
          [
            0.2329411,
            47.9445575
          ],
          [
            0.2329371,
            47.9445513
          ],
          [
            0.2329329,
            47.9445439
          ],
          [
            0.2329291,
            47.9445367
          ],
          [
            0.2329257,
            47.9445294
          ],
          [
            0.2329224,
            47.9445213
          ],
          [
            0.2329192,
            47.944513
          ],
          [
            0.2329161,
            47.944504
          ],
          [
            0.2329138,
            47.9444965
          ],
          [
            0.2329116,
            47.9444885
          ],
          [
            0.2329099,
            47.9444821
          ],
          [
            0.2329083,
            47.944475
          ],
          [
            0.2329064,
            47.9444667
          ],
          [
            0.2329046,
            47.9444584
          ],
          [
            0.2329031,
            47.9444512
          ],
          [
            0.2329016,
            47.9444434
          ],
          [
            0.2329001,
            47.9444353
          ],
          [
            0.2328987,
            47.9444272
          ],
          [
            0.2328979,
            47.9444195
          ],
          [
            0.2328974,
            47.9444113
          ],
          [
            0.232897,
            47.9444042
          ],
          [
            0.232897,
            47.9443968
          ],
          [
            0.2328972,
            47.9443896
          ],
          [
            0.2328975,
            47.9443812
          ],
          [
            0.2328982,
            47.9443714
          ],
          [
            0.2328992,
            47.944362
          ],
          [
            0.2329004,
            47.9443529
          ],
          [
            0.2329019,
            47.944344
          ],
          [
            0.2329036,
            47.9443349
          ],
          [
            0.2329057,
            47.9443241
          ],
          [
            0.2329076,
            47.9443143
          ],
          [
            0.2329102,
            47.944303
          ],
          [
            0.232913,
            47.9442912
          ],
          [
            0.2329161,
            47.9442799
          ],
          [
            0.2329192,
            47.9442707
          ],
          [
            0.2329229,
            47.9442612
          ],
          [
            0.2329271,
            47.9442513
          ],
          [
            0.2329309,
            47.9442424
          ],
          [
            0.2329358,
            47.944233
          ],
          [
            0.2329414,
            47.9442232
          ],
          [
            0.2329471,
            47.9442143
          ],
          [
            0.2329529,
            47.9442055
          ],
          [
            0.2329587,
            47.9441977
          ],
          [
            0.2329633,
            47.9441914
          ],
          [
            0.2329677,
            47.9441857
          ],
          [
            0.2329738,
            47.944178
          ],
          [
            0.2329805,
            47.9441703
          ],
          [
            0.2329866,
            47.9441639
          ],
          [
            0.2329938,
            47.9441573
          ],
          [
            0.233002,
            47.9441503
          ],
          [
            0.2330114,
            47.9441425
          ],
          [
            0.2330231,
            47.944133
          ],
          [
            0.2330342,
            47.9441247
          ],
          [
            0.2330501,
            47.9441137
          ],
          [
            0.2330732,
            47.9440984
          ],
          [
            0.2330925,
            47.9440862
          ],
          [
            0.2331059,
            47.9440779
          ],
          [
            0.2332408,
            47.9439976
          ],
          [
            0.2335599,
            47.943812
          ],
          [
            0.2336577,
            47.9437547
          ],
          [
            0.2336859,
            47.9437376
          ],
          [
            0.2337195,
            47.9437164
          ],
          [
            0.2337562,
            47.9436921
          ],
          [
            0.2337959,
            47.9436647
          ],
          [
            0.2338274,
            47.9436407
          ],
          [
            0.2338589,
            47.9436168
          ],
          [
            0.2338871,
            47.9435918
          ],
          [
            0.2339077,
            47.9435715
          ],
          [
            0.2339314,
            47.9435462
          ],
          [
            0.2339542,
            47.94352
          ],
          [
            0.2339771,
            47.9434914
          ],
          [
            0.2340091,
            47.9434479
          ],
          [
            0.2340351,
            47.9434091
          ],
          [
            0.2340652,
            47.9433588
          ],
          [
            0.2341138,
            47.9432732
          ],
          [
            0.2344274,
            47.9426304
          ],
          [
            0.2352013,
            47.94101
          ],
          [
            0.2352415,
            47.9409377
          ],
          [
            0.2363559,
            47.9386357
          ],
          [
            0.2372929,
            47.9366862
          ],
          [
            0.2374729,
            47.9363089
          ],
          [
            0.2386937,
            47.9337498
          ],
          [
            0.2409418,
            47.9290747
          ],
          [
            0.2410589,
            47.9288311
          ],
          [
            0.2412308,
            47.9284765
          ],
          [
            0.2412426,
            47.9284611
          ],
          [
            0.2412526,
            47.9284489
          ],
          [
            0.2412625,
            47.9284385
          ],
          [
            0.2412721,
            47.9284294
          ],
          [
            0.241284,
            47.928419
          ],
          [
            0.2412919,
            47.9284127
          ],
          [
            0.241298,
            47.9284085
          ],
          [
            0.2413033,
            47.9284048
          ],
          [
            0.2413126,
            47.9283993
          ],
          [
            0.2413254,
            47.9283917
          ],
          [
            0.2413376,
            47.9283846
          ],
          [
            0.2413515,
            47.9283769
          ],
          [
            0.2413729,
            47.9283647
          ],
          [
            0.241398,
            47.9283507
          ],
          [
            0.24143,
            47.9283339
          ],
          [
            0.2414574,
            47.9283206
          ],
          [
            0.2414871,
            47.9283077
          ],
          [
            0.2415174,
            47.9282954
          ],
          [
            0.2415445,
            47.9282847
          ],
          [
            0.2415678,
            47.9282768
          ],
          [
            0.2415944,
            47.9282686
          ],
          [
            0.2416308,
            47.9282599
          ],
          [
            0.2416981,
            47.9282452
          ],
          [
            0.2418369,
            47.9282163
          ],
          [
            0.2418654,
            47.9282108
          ],
          [
            0.2418973,
            47.9282033
          ],
          [
            0.2419253,
            47.9281957
          ],
          [
            0.2419512,
            47.9281878
          ],
          [
            0.2419772,
            47.9281791
          ],
          [
            0.2420006,
            47.9281703
          ],
          [
            0.2420199,
            47.928162
          ],
          [
            0.2420419,
            47.9281511
          ],
          [
            0.2420627,
            47.9281397
          ],
          [
            0.2420859,
            47.9281246
          ],
          [
            0.2421101,
            47.9281074
          ],
          [
            0.2421297,
            47.9280933
          ],
          [
            0.2421496,
            47.9280781
          ],
          [
            0.2421678,
            47.9280612
          ],
          [
            0.2421848,
            47.9280452
          ],
          [
            0.2422,
            47.9280302
          ],
          [
            0.2422134,
            47.9280146
          ],
          [
            0.2422244,
            47.9279991
          ],
          [
            0.2422337,
            47.9279834
          ],
          [
            0.2422439,
            47.9279633
          ],
          [
            0.2422536,
            47.9279415
          ],
          [
            0.2422618,
            47.9279181
          ],
          [
            0.2422665,
            47.9278994
          ],
          [
            0.2422701,
            47.9278793
          ],
          [
            0.2422722,
            47.9278564
          ],
          [
            0.2422726,
            47.9278342
          ],
          [
            0.242272,
            47.9278183
          ],
          [
            0.2422699,
            47.9278032
          ],
          [
            0.2422675,
            47.9277879
          ],
          [
            0.242263,
            47.9277647
          ],
          [
            0.2422583,
            47.9277435
          ],
          [
            0.2422524,
            47.9277228
          ],
          [
            0.2422451,
            47.9277013
          ],
          [
            0.2421062,
            47.9273767
          ],
          [
            0.2420823,
            47.9273186
          ],
          [
            0.2420625,
            47.9272623
          ],
          [
            0.2420543,
            47.9272387
          ],
          [
            0.2420491,
            47.9272201
          ],
          [
            0.2420446,
            47.9272022
          ],
          [
            0.2420404,
            47.9271837
          ],
          [
            0.2420357,
            47.9271621
          ],
          [
            0.2420328,
            47.9271421
          ],
          [
            0.2420308,
            47.9271222
          ],
          [
            0.2420285,
            47.9270993
          ],
          [
            0.2420259,
            47.927075
          ],
          [
            0.2420233,
            47.9270505
          ],
          [
            0.2420217,
            47.9270271
          ],
          [
            0.242021,
            47.927005
          ],
          [
            0.242021,
            47.9269812
          ],
          [
            0.2420202,
            47.9269518
          ],
          [
            0.2420215,
            47.9269184
          ],
          [
            0.2420244,
            47.9268923
          ],
          [
            0.2420277,
            47.9268698
          ],
          [
            0.2420318,
            47.9268482
          ],
          [
            0.2420371,
            47.9268276
          ],
          [
            0.2420432,
            47.9268078
          ],
          [
            0.2420512,
            47.9267849
          ],
          [
            0.2420913,
            47.9266899
          ],
          [
            0.2428002,
            47.9252216
          ],
          [
            0.2428669,
            47.9250738
          ],
          [
            0.2429008,
            47.9249851
          ],
          [
            0.2429366,
            47.9248844
          ],
          [
            0.2429688,
            47.9247898
          ],
          [
            0.2429963,
            47.9246825
          ],
          [
            0.2430201,
            47.9245815
          ],
          [
            0.2430454,
            47.9244656
          ],
          [
            0.243066,
            47.9243407
          ],
          [
            0.2430794,
            47.9242209
          ],
          [
            0.2431736,
            47.9232464
          ],
          [
            0.2435767,
            47.9187062
          ],
          [
            0.2438741,
            47.9149906
          ],
          [
            0.2438717,
            47.9149101
          ],
          [
            0.2438664,
            47.9148396
          ],
          [
            0.2438577,
            47.9147645
          ],
          [
            0.243851,
            47.9147164
          ],
          [
            0.2438429,
            47.9146634
          ],
          [
            0.2438349,
            47.9146185
          ],
          [
            0.2438262,
            47.9145798
          ],
          [
            0.2438154,
            47.914543
          ],
          [
            0.2438013,
            47.9145039
          ],
          [
            0.2437779,
            47.9144473
          ],
          [
            0.2437473,
            47.9143707
          ],
          [
            0.2434183,
            47.9135689
          ],
          [
            0.2433932,
            47.9135188
          ],
          [
            0.2433736,
            47.9134949
          ],
          [
            0.2433512,
            47.9134781
          ],
          [
            0.2433169,
            47.9134618
          ],
          [
            0.2432827,
            47.9134488
          ],
          [
            0.2432468,
            47.9134385
          ],
          [
            0.2432106,
            47.9134327
          ],
          [
            0.2431739,
            47.9134284
          ],
          [
            0.2431367,
            47.9134279
          ],
          [
            0.2430967,
            47.9134322
          ],
          [
            0.2430499,
            47.9134402
          ],
          [
            0.2425749,
            47.9135308
          ],
          [
            0.2419784,
            47.9136401
          ],
          [
            0.2416432,
            47.9137015
          ],
          [
            0.2342976,
            47.9150431
          ],
          [
            0.233976,
            47.9151072
          ],
          [
            0.2337964,
            47.9151477
          ],
          [
            0.2336456,
            47.9151849
          ],
          [
            0.233488,
            47.9152273
          ],
          [
            0.2333271,
            47.9152739
          ],
          [
            0.2329628,
            47.9153931
          ],
          [
            0.2304023,
            47.9162716
          ],
          [
            0.2280071,
            47.9170933
          ],
          [
            0.2277287,
            47.9171891
          ],
          [
            0.2272134,
            47.9173683
          ],
          [
            0.2270603,
            47.9174266
          ],
          [
            0.2269134,
            47.917487
          ],
          [
            0.2267689,
            47.9175505
          ],
          [
            0.2266258,
            47.9176175
          ],
          [
            0.2259409,
            47.9179561
          ],
          [
            0.2257567,
            47.9180459
          ],
          [
            0.2242406,
            47.9187978
          ],
          [
            0.2236104,
            47.9191102
          ],
          [
            0.2230009,
            47.9194134
          ],
          [
            0.2225963,
            47.919617
          ],
          [
            0.2219715,
            47.919951
          ],
          [
            0.2210005,
            47.920484
          ],
          [
            0.2209379,
            47.9205204
          ],
          [
            0.2208583,
            47.9205666
          ],
          [
            0.2207564,
            47.9206348
          ],
          [
            0.2206726,
            47.9206927
          ],
          [
            0.2205948,
            47.9207559
          ],
          [
            0.2205224,
            47.9208285
          ],
          [
            0.2204596,
            47.9209107
          ],
          [
            0.2204131,
            47.9209799
          ],
          [
            0.2203613,
            47.9210839
          ],
          [
            0.2202198,
            47.9213973
          ],
          [
            0.2200564,
            47.9217436
          ],
          [
            0.2199109,
            47.9220521
          ],
          [
            0.2198725,
            47.9221245
          ],
          [
            0.219852,
            47.9221579
          ],
          [
            0.2198267,
            47.9221905
          ],
          [
            0.2198013,
            47.9222175
          ],
          [
            0.2197744,
            47.9222425
          ],
          [
            0.2197409,
            47.9222672
          ],
          [
            0.2197007,
            47.9222899
          ],
          [
            0.2196566,
            47.9223104
          ],
          [
            0.2196093,
            47.9223277
          ],
          [
            0.219564,
            47.9223409
          ],
          [
            0.2195211,
            47.9223496
          ],
          [
            0.2194711,
            47.9223566
          ],
          [
            0.2194128,
            47.9223605
          ],
          [
            0.2193477,
            47.9223581
          ],
          [
            0.2192803,
            47.9223525
          ],
          [
            0.219216,
            47.9223432
          ],
          [
            0.2191249,
            47.9223246
          ],
          [
            0.2190391,
            47.9223045
          ],
          [
            0.2178976,
            47.92201
          ],
          [
            0.2158056,
            47.9214609
          ],
          [
            0.2157752,
            47.9214544
          ],
          [
            0.2157529,
            47.9214508
          ],
          [
            0.2157277,
            47.9214482
          ],
          [
            0.2157055,
            47.9214483
          ],
          [
            0.2156806,
            47.9214502
          ],
          [
            0.2156624,
            47.9214523
          ],
          [
            0.2156478,
            47.9214543
          ],
          [
            0.2156314,
            47.9214576
          ],
          [
            0.2156153,
            47.921461
          ],
          [
            0.2156019,
            47.9214649
          ],
          [
            0.2155878,
            47.9214693
          ],
          [
            0.2155734,
            47.9214744
          ],
          [
            0.2155596,
            47.9214809
          ],
          [
            0.2155472,
            47.9214887
          ],
          [
            0.2155355,
            47.9214967
          ],
          [
            0.2155228,
            47.9215074
          ],
          [
            0.2155138,
            47.9215168
          ],
          [
            0.2155044,
            47.9215277
          ],
          [
            0.2154937,
            47.921542
          ],
          [
            0.2154755,
            47.9215721
          ],
          [
            0.2154438,
            47.9216584
          ],
          [
            0.2153837,
            47.9218212
          ],
          [
            0.2139097,
            47.9260093
          ],
          [
            0.2138255,
            47.926221
          ],
          [
            0.2137775,
            47.9263301
          ],
          [
            0.2137269,
            47.9264407
          ],
          [
            0.2136682,
            47.9265544
          ],
          [
            0.2136082,
            47.9266615
          ],
          [
            0.2135413,
            47.9267707
          ],
          [
            0.2134695,
            47.9268773
          ],
          [
            0.2133944,
            47.9269838
          ],
          [
            0.2133136,
            47.9270932
          ],
          [
            0.2120577,
            47.9287512
          ],
          [
            0.2119071,
            47.9289562
          ],
          [
            0.2117465,
            47.9291802
          ],
          [
            0.2115357,
            47.9294804
          ],
          [
            0.211179,
            47.9299829
          ],
          [
            0.2110687,
            47.9301259
          ],
          [
            0.2109885,
            47.9302293
          ],
          [
            0.2108888,
            47.9303475
          ],
          [
            0.2108017,
            47.9304446
          ],
          [
            0.2107169,
            47.9305314
          ],
          [
            0.2105946,
            47.9306537
          ],
          [
            0.2104184,
            47.9308279
          ],
          [
            0.2102632,
            47.9309644
          ],
          [
            0.2100685,
            47.931142
          ],
          [
            0.2099065,
            47.9312869
          ],
          [
            0.2097304,
            47.9314656
          ],
          [
            0.2095919,
            47.9316138
          ],
          [
            0.2094962,
            47.9317203
          ],
          [
            0.2094178,
            47.9318137
          ],
          [
            0.209337,
            47.9319155
          ],
          [
            0.2092226,
            47.9320658
          ],
          [
            0.2090683,
            47.9322813
          ],
          [
            0.2090281,
            47.9323748
          ],
          [
            0.2090076,
            47.9324508
          ],
          [
            0.2089929,
            47.9325374
          ],
          [
            0.2089887,
            47.9326245
          ],
          [
            0.2089882,
            47.9327222
          ],
          [
            0.2089965,
            47.9328155
          ],
          [
            0.2090088,
            47.9328918
          ],
          [
            0.20903,
            47.9329682
          ],
          [
            0.2090582,
            47.9330412
          ],
          [
            0.2090939,
            47.9331092
          ],
          [
            0.2091337,
            47.9331787
          ],
          [
            0.2091785,
            47.9332434
          ],
          [
            0.2092216,
            47.9332997
          ],
          [
            0.2092827,
            47.933375
          ],
          [
            0.2093358,
            47.9334283
          ],
          [
            0.2094045,
            47.9334901
          ],
          [
            0.2094567,
            47.9335287
          ],
          [
            0.2095184,
            47.9335765
          ],
          [
            0.2095819,
            47.9336234
          ],
          [
            0.2104279,
            47.9342349
          ],
          [
            0.2104884,
            47.9342841
          ],
          [
            0.2105369,
            47.934327
          ],
          [
            0.2105884,
            47.9343757
          ],
          [
            0.2106211,
            47.9344082
          ],
          [
            0.2106512,
            47.9344415
          ],
          [
            0.2106732,
            47.9344674
          ],
          [
            0.2107092,
            47.9345167
          ],
          [
            0.2107406,
            47.9345614
          ],
          [
            0.210772,
            47.9346116
          ],
          [
            0.2108027,
            47.9346702
          ],
          [
            0.2108297,
            47.934732
          ],
          [
            0.2108507,
            47.9347879
          ],
          [
            0.210868,
            47.9348431
          ],
          [
            0.2108799,
            47.9348977
          ],
          [
            0.2108891,
            47.9349531
          ],
          [
            0.2108956,
            47.9350007
          ],
          [
            0.21089,
            47.9351349
          ],
          [
            0.2108712,
            47.9352922
          ],
          [
            0.2108203,
            47.9356983
          ],
          [
            0.2107801,
            47.9359723
          ],
          [
            0.2107546,
            47.9360909
          ],
          [
            0.2107277,
            47.9361889
          ],
          [
            0.2106929,
            47.9362751
          ],
          [
            0.2106433,
            47.9363808
          ],
          [
            0.2106084,
            47.936428
          ],
          [
            0.2105711,
            47.9364749
          ],
          [
            0.2105356,
            47.9365128
          ],
          [
            0.2105063,
            47.9365405
          ],
          [
            0.2104762,
            47.936566
          ],
          [
            0.2104434,
            47.9365941
          ],
          [
            0.2104106,
            47.9366208
          ],
          [
            0.2103415,
            47.936674
          ],
          [
            0.2102315,
            47.9367486
          ],
          [
            0.2101444,
            47.9368034
          ],
          [
            0.209783,
            47.9370055
          ],
          [
            0.2097062,
            47.9370526
          ],
          [
            0.209627,
            47.9370966
          ],
          [
            0.2095704,
            47.9371308
          ],
          [
            0.2095217,
            47.9371634
          ],
          [
            0.2094793,
            47.9371954
          ],
          [
            0.2094456,
            47.9372227
          ],
          [
            0.2094104,
            47.9372529
          ],
          [
            0.2093768,
            47.9372848
          ],
          [
            0.2093381,
            47.9373225
          ],
          [
            0.209303,
            47.9373575
          ],
          [
            0.2092733,
            47.9373892
          ],
          [
            0.2092426,
            47.9374239
          ],
          [
            0.2092097,
            47.9374616
          ],
          [
            0.209179,
            47.9374992
          ],
          [
            0.2091535,
            47.9375328
          ],
          [
            0.209132,
            47.9375651
          ],
          [
            0.2091114,
            47.9375974
          ],
          [
            0.2090918,
            47.9376315
          ],
          [
            0.209072,
            47.9376705
          ],
          [
            0.2090555,
            47.9377123
          ],
          [
            0.2090419,
            47.9377515
          ],
          [
            0.2090282,
            47.937797
          ],
          [
            0.2090163,
            47.9378486
          ],
          [
            0.2090066,
            47.937897
          ],
          [
            0.2089993,
            47.9379446
          ],
          [
            0.208995,
            47.9379848
          ],
          [
            0.2089906,
            47.9380301
          ],
          [
            0.2089876,
            47.938078
          ],
          [
            0.2089867,
            47.9381163
          ],
          [
            0.2089879,
            47.938153
          ],
          [
            0.2089907,
            47.9381922
          ],
          [
            0.2089957,
            47.9382306
          ],
          [
            0.2090022,
            47.9382694
          ],
          [
            0.2090101,
            47.9383093
          ],
          [
            0.2090204,
            47.93835
          ],
          [
            0.2090325,
            47.9383907
          ],
          [
            0.2090465,
            47.9384329
          ],
          [
            0.2090613,
            47.9384706
          ],
          [
            0.2090791,
            47.9385079
          ],
          [
            0.2090994,
            47.9385469
          ],
          [
            0.2091277,
            47.938595
          ],
          [
            0.2091527,
            47.9386336
          ],
          [
            0.2091785,
            47.9386695
          ],
          [
            0.2092093,
            47.9387087
          ],
          [
            0.209239,
            47.9387439
          ],
          [
            0.2092745,
            47.9387833
          ],
          [
            0.2093105,
            47.9388208
          ],
          [
            0.2093439,
            47.9388538
          ],
          [
            0.209376,
            47.9388835
          ],
          [
            0.2094086,
            47.9389106
          ],
          [
            0.2094439,
            47.9389398
          ],
          [
            0.2094751,
            47.9389639
          ],
          [
            0.2095055,
            47.9389865
          ],
          [
            0.2095461,
            47.9390165
          ],
          [
            0.2095844,
            47.939042
          ],
          [
            0.2096247,
            47.9390677
          ],
          [
            0.2096724,
            47.9390959
          ],
          [
            0.2097578,
            47.9391431
          ],
          [
            0.2100998,
            47.9393413
          ],
          [
            0.2101703,
            47.9393848
          ],
          [
            0.210232,
            47.9394271
          ],
          [
            0.2102717,
            47.9394584
          ],
          [
            0.210309,
            47.9394918
          ],
          [
            0.2103492,
            47.9395319
          ],
          [
            0.2103855,
            47.9395732
          ],
          [
            0.2104187,
            47.9396151
          ],
          [
            0.210452,
            47.9396613
          ],
          [
            0.2104825,
            47.9397133
          ],
          [
            0.2105058,
            47.9397597
          ],
          [
            0.2105284,
            47.9398111
          ],
          [
            0.2105446,
            47.9398512
          ],
          [
            0.2105564,
            47.9398881
          ],
          [
            0.2105658,
            47.9399211
          ],
          [
            0.2105728,
            47.9399551
          ],
          [
            0.2105765,
            47.9399874
          ],
          [
            0.2105779,
            47.940024
          ],
          [
            0.2105758,
            47.9400733
          ],
          [
            0.2105708,
            47.940133
          ],
          [
            0.2105626,
            47.9401937
          ],
          [
            0.2105509,
            47.9402666
          ],
          [
            0.2105369,
            47.9403403
          ],
          [
            0.210481,
            47.9406059
          ],
          [
            0.2103771,
            47.9410901
          ],
          [
            0.2102422,
            47.9416698
          ],
          [
            0.210228,
            47.9417423
          ],
          [
            0.2102204,
            47.941789
          ],
          [
            0.2102168,
            47.9418275
          ],
          [
            0.2102136,
            47.9418694
          ],
          [
            0.2102137,
            47.9419387
          ],
          [
            0.2102167,
            47.9419993
          ],
          [
            0.2102217,
            47.9420512
          ],
          [
            0.2102305,
            47.9421033
          ],
          [
            0.2102513,
            47.9422004
          ],
          [
            0.2103264,
            47.9425186
          ],
          [
            0.2103371,
            47.942569
          ],
          [
            0.2103475,
            47.9426236
          ],
          [
            0.2103578,
            47.9426911
          ],
          [
            0.2103647,
            47.9427554
          ],
          [
            0.2103712,
            47.9428508
          ],
          [
            0.2103713,
            47.9428975
          ],
          [
            0.2103681,
            47.9429485
          ],
          [
            0.210363,
            47.9429823
          ],
          [
            0.210355,
            47.9430226
          ],
          [
            0.2103403,
            47.943074
          ],
          [
            0.2103252,
            47.9431228
          ],
          [
            0.2102831,
            47.9432332
          ],
          [
            0.210139,
            47.9436107
          ],
          [
            0.2095768,
            47.9449898
          ],
          [
            0.2093815,
            47.9454687
          ],
          [
            0.2089944,
            47.9464183
          ],
          [
            0.2088489,
            47.9467803
          ],
          [
            0.2088368,
            47.946806
          ],
          [
            0.2088248,
            47.9468302
          ],
          [
            0.2088144,
            47.94685
          ],
          [
            0.2088032,
            47.9468694
          ],
          [
            0.2087944,
            47.9468824
          ],
          [
            0.2087862,
            47.9468931
          ],
          [
            0.2087775,
            47.9469038
          ],
          [
            0.2087672,
            47.9469153
          ],
          [
            0.2087554,
            47.9469274
          ],
          [
            0.2087453,
            47.9469373
          ],
          [
            0.2087352,
            47.9469472
          ],
          [
            0.208727,
            47.9469547
          ],
          [
            0.2087168,
            47.9469631
          ],
          [
            0.2087059,
            47.9469714
          ],
          [
            0.2086948,
            47.9469792
          ],
          [
            0.2086825,
            47.9469871
          ],
          [
            0.2086701,
            47.9469949
          ],
          [
            0.2086615,
            47.9469999
          ],
          [
            0.2086524,
            47.9470049
          ],
          [
            0.208643,
            47.9470097
          ],
          [
            0.208635,
            47.9470136
          ],
          [
            0.208626,
            47.9470177
          ],
          [
            0.2086142,
            47.9470222
          ],
          [
            0.208599,
            47.9470272
          ],
          [
            0.2085811,
            47.9470329
          ],
          [
            0.2085603,
            47.947039
          ],
          [
            0.2085499,
            47.9470416
          ],
          [
            0.2084195,
            47.9470774
          ],
          [
            0.2084023,
            47.9470824
          ],
          [
            0.2083898,
            47.9470866
          ],
          [
            0.2083751,
            47.9470919
          ],
          [
            0.2083609,
            47.9470975
          ],
          [
            0.2083473,
            47.9471034
          ],
          [
            0.2083347,
            47.9471092
          ],
          [
            0.2083218,
            47.9471156
          ],
          [
            0.2083106,
            47.9471217
          ],
          [
            0.2083003,
            47.9471276
          ],
          [
            0.2082871,
            47.947135
          ],
          [
            0.2082756,
            47.9471421
          ],
          [
            0.2082649,
            47.947149
          ],
          [
            0.2082533,
            47.9471576
          ],
          [
            0.2082415,
            47.9471667
          ],
          [
            0.2082289,
            47.9471769
          ],
          [
            0.208217,
            47.947188
          ],
          [
            0.208204,
            47.9472007
          ],
          [
            0.2081914,
            47.947214
          ],
          [
            0.20818,
            47.9472281
          ],
          [
            0.2081692,
            47.947242
          ],
          [
            0.2081605,
            47.9472539
          ],
          [
            0.208153,
            47.9472655
          ],
          [
            0.2081458,
            47.9472777
          ],
          [
            0.2081395,
            47.9472898
          ],
          [
            0.2081344,
            47.9473018
          ],
          [
            0.2081299,
            47.9473132
          ],
          [
            0.2081232,
            47.947332
          ],
          [
            0.2081143,
            47.947357
          ],
          [
            0.2081089,
            47.9473738
          ],
          [
            0.2079323,
            47.9480082
          ],
          [
            0.2079286,
            47.9480192
          ],
          [
            0.2079247,
            47.9480283
          ],
          [
            0.2079202,
            47.9480366
          ],
          [
            0.2079149,
            47.9480452
          ],
          [
            0.2079088,
            47.9480531
          ],
          [
            0.2079015,
            47.9480612
          ],
          [
            0.2078944,
            47.9480685
          ],
          [
            0.2078857,
            47.9480767
          ],
          [
            0.2078786,
            47.9480828
          ],
          [
            0.2078705,
            47.9480899
          ],
          [
            0.207861,
            47.9480973
          ],
          [
            0.2078514,
            47.9481044
          ],
          [
            0.2078435,
            47.9481099
          ],
          [
            0.2078327,
            47.9481164
          ],
          [
            0.2078229,
            47.948122
          ],
          [
            0.2078133,
            47.948127
          ],
          [
            0.2078016,
            47.9481322
          ],
          [
            0.2077895,
            47.9481369
          ],
          [
            0.2077785,
            47.9481409
          ],
          [
            0.2077674,
            47.9481445
          ],
          [
            0.2077592,
            47.9481468
          ],
          [
            0.2077462,
            47.94815
          ],
          [
            0.2076311,
            47.9481699
          ],
          [
            0.2076084,
            47.9481744
          ],
          [
            0.2075943,
            47.9481776
          ],
          [
            0.2075811,
            47.948181
          ],
          [
            0.2075699,
            47.9481845
          ],
          [
            0.2075582,
            47.9481886
          ],
          [
            0.2075467,
            47.9481934
          ],
          [
            0.2075355,
            47.9481993
          ],
          [
            0.2075229,
            47.9482064
          ],
          [
            0.2075115,
            47.9482139
          ],
          [
            0.2074997,
            47.9482228
          ],
          [
            0.2074896,
            47.9482318
          ],
          [
            0.2074821,
            47.9482404
          ],
          [
            0.2074754,
            47.9482489
          ],
          [
            0.2074689,
            47.9482589
          ],
          [
            0.207464,
            47.9482685
          ],
          [
            0.2074612,
            47.9482775
          ],
          [
            0.2074595,
            47.9482863
          ],
          [
            0.2074586,
            47.9482941
          ],
          [
            0.2074582,
            47.9483033
          ],
          [
            0.2074591,
            47.9483686
          ],
          [
            0.2074677,
            47.9484811
          ],
          [
            0.2074825,
            47.9486604
          ],
          [
            0.2074958,
            47.9488452
          ],
          [
            0.2075171,
            47.9493358
          ],
          [
            0.2075404,
            47.9498718
          ],
          [
            0.2075631,
            47.9503976
          ],
          [
            0.2076063,
            47.9511663
          ],
          [
            0.2076815,
            47.9526555
          ]
        ]
      }
    }
  ]
}
