{
  "type": "FeatureCollection",
  "bbox": [
    0.2074582,
    47.9480621,
    0.2185247,
    47.9591208
  ],
  "metadata": {
    "schemaVersion": 1,
    "trackId": "fr-le-mans-bugatti",
    "layoutId": "main",
    "license": "ODbL-1.0",
    "attribution": "© OpenStreetMap contributors",
    "closed": true,
    "geometryStatus": "draft",
    "timingStatus": "missing",
    "timingMode": "shared",
    "lengthM": 4163.5,
    "reviewedAt": null,
    "notes": [
      "Closed Bugatti course through Dunlop, La Chapelle, Musée, Garage Vert, Chemin aux Bœufs, Garage Bleu and Raccordement. The 24-hour circuit branches, Porsche Center roads, pit entries/exits and long-lap penalty detour are excluded.",
      "Approximate OSM raceway trace; geometry is a draft pending independent layout review."
    ]
  },
  "features": [
    {
      "type": "Feature",
      "id": "trace",
      "properties": {
        "role": "trace",
        "sourceIds": [
          "osm-snapshot"
        ]
      },
      "geometry": {
        "type": "LineString",
        "coordinates": [
          [
            0.2129403,
            47.9520228
          ],
          [
            0.2125699,
            47.9511884
          ],
          [
            0.2122759,
            47.9505456
          ],
          [
            0.2119584,
            47.9498229
          ],
          [
            0.211898,
            47.9497073
          ],
          [
            0.2118834,
            47.949681
          ],
          [
            0.211868,
            47.9496552
          ],
          [
            0.2118543,
            47.9496336
          ],
          [
            0.2118378,
            47.949612
          ],
          [
            0.2118197,
            47.9495918
          ],
          [
            0.2117976,
            47.9495707
          ],
          [
            0.211777,
            47.9495513
          ],
          [
            0.2117539,
            47.9495309
          ],
          [
            0.2117285,
            47.9495115
          ],
          [
            0.2117036,
            47.9494955
          ],
          [
            0.2116765,
            47.9494803
          ],
          [
            0.2116468,
            47.949467
          ],
          [
            0.2116154,
            47.9494544
          ],
          [
            0.2115792,
            47.949443
          ],
          [
            0.2115439,
            47.9494331
          ],
          [
            0.2115129,
            47.9494255
          ],
          [
            0.2114786,
            47.9494188
          ],
          [
            0.21144,
            47.9494124
          ],
          [
            0.2113979,
            47.9494071
          ],
          [
            0.2113603,
            47.9494033
          ],
          [
            0.2113207,
            47.9494004
          ],
          [
            0.2112868,
            47.9493991
          ],
          [
            0.2112501,
            47.9493987
          ],
          [
            0.2112153,
            47.9493995
          ],
          [
            0.2111778,
            47.9494008
          ],
          [
            0.2111375,
            47.9494022
          ],
          [
            0.2111044,
            47.9494042
          ],
          [
            0.2110738,
            47.9494065
          ],
          [
            0.2110484,
            47.949409
          ],
          [
            0.2110281,
            47.9494113
          ],
          [
            0.2110057,
            47.9494145
          ],
          [
            0.2109861,
            47.9494182
          ],
          [
            0.2109589,
            47.9494247
          ],
          [
            0.2109319,
            47.949432
          ],
          [
            0.2109176,
            47.9494362
          ],
          [
            0.2109005,
            47.9494421
          ],
          [
            0.2108822,
            47.9494499
          ],
          [
            0.2108636,
            47.9494586
          ],
          [
            0.2108418,
            47.9494694
          ],
          [
            0.2108087,
            47.9494866
          ],
          [
            0.2104399,
            47.9496941
          ],
          [
            0.2102499,
            47.9498011
          ],
          [
            0.2102225,
            47.949814
          ],
          [
            0.2101994,
            47.9498231
          ],
          [
            0.210177,
            47.9498309
          ],
          [
            0.2101554,
            47.9498375
          ],
          [
            0.2101327,
            47.9498445
          ],
          [
            0.2101086,
            47.9498515
          ],
          [
            0.2100851,
            47.9498577
          ],
          [
            0.2100596,
            47.9498637
          ],
          [
            0.2100344,
            47.9498682
          ],
          [
            0.2100036,
            47.9498727
          ],
          [
            0.2099732,
            47.9498764
          ],
          [
            0.2099394,
            47.9498795
          ],
          [
            0.2099082,
            47.9498816
          ],
          [
            0.209877,
            47.9498829
          ],
          [
            0.209849,
            47.9498835
          ],
          [
            0.2098191,
            47.9498834
          ],
          [
            0.2097897,
            47.9498829
          ],
          [
            0.20976,
            47.9498813
          ],
          [
            0.2097302,
            47.9498789
          ],
          [
            0.2096995,
            47.9498756
          ],
          [
            0.2096734,
            47.9498722
          ],
          [
            0.2096466,
            47.9498682
          ],
          [
            0.2096177,
            47.9498628
          ],
          [
            0.2095866,
            47.9498553
          ],
          [
            0.2095568,
            47.9498467
          ],
          [
            0.2095311,
            47.9498388
          ],
          [
            0.209505,
            47.9498299
          ],
          [
            0.209476,
            47.9498189
          ],
          [
            0.2094477,
            47.9498074
          ],
          [
            0.2094177,
            47.9497939
          ],
          [
            0.2093862,
            47.9497798
          ],
          [
            0.2093591,
            47.9497662
          ],
          [
            0.209331,
            47.9497503
          ],
          [
            0.2092998,
            47.9497317
          ],
          [
            0.2092758,
            47.949716
          ],
          [
            0.2092616,
            47.9497063
          ],
          [
            0.2092418,
            47.9496906
          ],
          [
            0.2092254,
            47.9496768
          ],
          [
            0.2092041,
            47.9496583
          ],
          [
            0.2091847,
            47.9496392
          ],
          [
            0.2091672,
            47.9496192
          ],
          [
            0.2091516,
            47.9495987
          ],
          [
            0.209136,
            47.9495768
          ],
          [
            0.2091201,
            47.9495541
          ],
          [
            0.2091,
            47.9495231
          ],
          [
            0.2090774,
            47.9494862
          ],
          [
            0.2090521,
            47.94944
          ],
          [
            0.2090203,
            47.9493758
          ],
          [
            0.2089437,
            47.9492011
          ],
          [
            0.208841,
            47.948968
          ],
          [
            0.208815,
            47.9489036
          ],
          [
            0.2087444,
            47.9487288
          ],
          [
            0.2087274,
            47.9486867
          ],
          [
            0.2085196,
            47.9481681
          ],
          [
            0.2085134,
            47.9481539
          ],
          [
            0.2085066,
            47.9481409
          ],
          [
            0.2085006,
            47.9481317
          ],
          [
            0.2084934,
            47.9481222
          ],
          [
            0.2084857,
            47.9481141
          ],
          [
            0.2084763,
            47.9481055
          ],
          [
            0.2084661,
            47.9480976
          ],
          [
            0.2084558,
            47.9480908
          ],
          [
            0.2084455,
            47.9480852
          ],
          [
            0.2084329,
            47.9480798
          ],
          [
            0.2084189,
            47.9480747
          ],
          [
            0.2084057,
            47.9480706
          ],
          [
            0.208393,
            47.9480673
          ],
          [
            0.2083789,
            47.9480649
          ],
          [
            0.2083642,
            47.9480633
          ],
          [
            0.2083497,
            47.9480624
          ],
          [
            0.2083396,
            47.9480621
          ],
          [
            0.2083313,
            47.9480623
          ],
          [
            0.2083216,
            47.9480632
          ],
          [
            0.2083088,
            47.9480651
          ],
          [
            0.2082867,
            47.9480686
          ],
          [
            0.2081849,
            47.9480837
          ],
          [
            0.2077854,
            47.9481432
          ],
          [
            0.2077462,
            47.94815
          ],
          [
            0.2076311,
            47.9481699
          ],
          [
            0.2076084,
            47.9481744
          ],
          [
            0.2075943,
            47.9481776
          ],
          [
            0.2075811,
            47.948181
          ],
          [
            0.2075699,
            47.9481845
          ],
          [
            0.2075582,
            47.9481886
          ],
          [
            0.2075467,
            47.9481934
          ],
          [
            0.2075355,
            47.9481993
          ],
          [
            0.2075229,
            47.9482064
          ],
          [
            0.2075115,
            47.9482139
          ],
          [
            0.2074997,
            47.9482228
          ],
          [
            0.2074896,
            47.9482318
          ],
          [
            0.2074821,
            47.9482404
          ],
          [
            0.2074754,
            47.9482489
          ],
          [
            0.2074689,
            47.9482589
          ],
          [
            0.207464,
            47.9482685
          ],
          [
            0.2074612,
            47.9482775
          ],
          [
            0.2074595,
            47.9482863
          ],
          [
            0.2074586,
            47.9482941
          ],
          [
            0.2074582,
            47.9483033
          ],
          [
            0.2074591,
            47.9483686
          ],
          [
            0.2074677,
            47.9484811
          ],
          [
            0.2074825,
            47.9486604
          ],
          [
            0.2074958,
            47.9488452
          ],
          [
            0.2075171,
            47.9493358
          ],
          [
            0.2075404,
            47.9498718
          ],
          [
            0.2075631,
            47.9503976
          ],
          [
            0.2076063,
            47.9511663
          ],
          [
            0.2076815,
            47.9526555
          ],
          [
            0.2076921,
            47.9527758
          ],
          [
            0.2077073,
            47.9528953
          ],
          [
            0.2077164,
            47.9529642
          ],
          [
            0.2077314,
            47.9530494
          ],
          [
            0.207747,
            47.9531409
          ],
          [
            0.2077702,
            47.9532565
          ],
          [
            0.2077942,
            47.9533572
          ],
          [
            0.20783,
            47.9534978
          ],
          [
            0.2078759,
            47.9536546
          ],
          [
            0.2079667,
            47.953945
          ],
          [
            0.207997,
            47.9540314
          ],
          [
            0.2080424,
            47.9541588
          ],
          [
            0.2080976,
            47.9542951
          ],
          [
            0.2081687,
            47.9544572
          ],
          [
            0.2082516,
            47.9546283
          ],
          [
            0.2083361,
            47.9547879
          ],
          [
            0.208419,
            47.9549259
          ],
          [
            0.2085027,
            47.9550693
          ],
          [
            0.208572,
            47.9551805
          ],
          [
            0.2086052,
            47.9552277
          ],
          [
            0.2086372,
            47.9552688
          ],
          [
            0.2086658,
            47.9553039
          ],
          [
            0.2086963,
            47.9553393
          ],
          [
            0.2087245,
            47.9553703
          ],
          [
            0.2087638,
            47.9554103
          ],
          [
            0.2088059,
            47.9554507
          ],
          [
            0.208856,
            47.9554968
          ],
          [
            0.2089127,
            47.9555439
          ],
          [
            0.208972,
            47.9555891
          ],
          [
            0.2090177,
            47.9556209
          ],
          [
            0.2090552,
            47.9556466
          ],
          [
            0.2090936,
            47.9556716
          ],
          [
            0.2091283,
            47.9556922
          ],
          [
            0.209193,
            47.9557278
          ],
          [
            0.2092523,
            47.9557578
          ],
          [
            0.2093975,
            47.955823
          ],
          [
            0.2109034,
            47.95644
          ],
          [
            0.2109231,
            47.9564488
          ],
          [
            0.2109384,
            47.956456
          ],
          [
            0.2109485,
            47.9564611
          ],
          [
            0.2109579,
            47.9564664
          ],
          [
            0.2109666,
            47.9564715
          ],
          [
            0.2109764,
            47.956478
          ],
          [
            0.2109863,
            47.9564853
          ],
          [
            0.2109943,
            47.9564916
          ],
          [
            0.2110013,
            47.9564982
          ],
          [
            0.211008,
            47.9565052
          ],
          [
            0.2110133,
            47.9565123
          ],
          [
            0.2110184,
            47.9565196
          ],
          [
            0.2110229,
            47.9565262
          ],
          [
            0.2110266,
            47.9565323
          ],
          [
            0.2110301,
            47.9565385
          ],
          [
            0.2110333,
            47.9565454
          ],
          [
            0.2110361,
            47.9565523
          ],
          [
            0.2110381,
            47.9565585
          ],
          [
            0.21104,
            47.9565646
          ],
          [
            0.2110417,
            47.9565711
          ],
          [
            0.2110432,
            47.9565781
          ],
          [
            0.2110443,
            47.9565858
          ],
          [
            0.211045,
            47.9565933
          ],
          [
            0.2110455,
            47.9566007
          ],
          [
            0.2110454,
            47.9566093
          ],
          [
            0.2110446,
            47.9566174
          ],
          [
            0.2110436,
            47.9566241
          ],
          [
            0.2110417,
            47.9566322
          ],
          [
            0.2110392,
            47.9566404
          ],
          [
            0.2110353,
            47.9566512
          ],
          [
            0.2110286,
            47.9566701
          ],
          [
            0.2109329,
            47.9569452
          ],
          [
            0.2109302,
            47.9569543
          ],
          [
            0.210928,
            47.9569629
          ],
          [
            0.2109264,
            47.9569701
          ],
          [
            0.2109248,
            47.9569787
          ],
          [
            0.2109237,
            47.9569877
          ],
          [
            0.2109231,
            47.9569977
          ],
          [
            0.2109229,
            47.9570056
          ],
          [
            0.210923,
            47.9570116
          ],
          [
            0.2109233,
            47.9570197
          ],
          [
            0.2109242,
            47.9570277
          ],
          [
            0.2109255,
            47.9570365
          ],
          [
            0.210927,
            47.9570439
          ],
          [
            0.2109286,
            47.95705
          ],
          [
            0.210931,
            47.9570568
          ],
          [
            0.2109339,
            47.9570629
          ],
          [
            0.2109373,
            47.9570691
          ],
          [
            0.2109405,
            47.957075
          ],
          [
            0.2109443,
            47.9570812
          ],
          [
            0.2109496,
            47.9570891
          ],
          [
            0.210955,
            47.9570972
          ],
          [
            0.2109599,
            47.9571038
          ],
          [
            0.2109655,
            47.9571103
          ],
          [
            0.2109714,
            47.9571166
          ],
          [
            0.2109781,
            47.9571234
          ],
          [
            0.2109855,
            47.9571308
          ],
          [
            0.210993,
            47.9571377
          ],
          [
            0.2110003,
            47.9571438
          ],
          [
            0.2110075,
            47.9571497
          ],
          [
            0.2110143,
            47.9571548
          ],
          [
            0.2110208,
            47.9571597
          ],
          [
            0.2110294,
            47.9571655
          ],
          [
            0.2110362,
            47.9571699
          ],
          [
            0.2110431,
            47.9571739
          ],
          [
            0.2110495,
            47.9571775
          ],
          [
            0.211059,
            47.9571824
          ],
          [
            0.2110742,
            47.9571893
          ],
          [
            0.2123152,
            47.9577202
          ],
          [
            0.2125102,
            47.9578028
          ],
          [
            0.2127024,
            47.9578848
          ],
          [
            0.2128319,
            47.9579416
          ],
          [
            0.2129219,
            47.9579848
          ],
          [
            0.2129969,
            47.9580246
          ],
          [
            0.21307,
            47.9580671
          ],
          [
            0.21313,
            47.9581048
          ],
          [
            0.2131887,
            47.9581453
          ],
          [
            0.2132459,
            47.958188
          ],
          [
            0.2132896,
            47.9582243
          ],
          [
            0.2133349,
            47.9582649
          ],
          [
            0.2133816,
            47.9583095
          ],
          [
            0.2135691,
            47.9584908
          ],
          [
            0.2137648,
            47.9586823
          ],
          [
            0.2138306,
            47.958742
          ],
          [
            0.213892,
            47.9587894
          ],
          [
            0.2139483,
            47.9588295
          ],
          [
            0.2140161,
            47.9588748
          ],
          [
            0.2140718,
            47.9589094
          ],
          [
            0.2141415,
            47.9589504
          ],
          [
            0.2141814,
            47.9589722
          ],
          [
            0.2142119,
            47.9589879
          ],
          [
            0.2142446,
            47.9590024
          ],
          [
            0.2142785,
            47.9590164
          ],
          [
            0.2143079,
            47.9590288
          ],
          [
            0.2143303,
            47.9590377
          ],
          [
            0.2143518,
            47.9590456
          ],
          [
            0.2143649,
            47.9590498
          ],
          [
            0.2144359,
            47.959071
          ],
          [
            0.2144814,
            47.959084
          ],
          [
            0.2145226,
            47.9590944
          ],
          [
            0.2145571,
            47.9591012
          ],
          [
            0.2145904,
            47.9591068
          ],
          [
            0.2146206,
            47.9591106
          ],
          [
            0.2146531,
            47.959114
          ],
          [
            0.2146881,
            47.9591166
          ],
          [
            0.2147268,
            47.9591189
          ],
          [
            0.2147656,
            47.9591204
          ],
          [
            0.2148031,
            47.9591208
          ],
          [
            0.2148408,
            47.9591199
          ],
          [
            0.2148792,
            47.9591186
          ],
          [
            0.2149187,
            47.9591167
          ],
          [
            0.2149471,
            47.9591153
          ],
          [
            0.2149725,
            47.959114
          ],
          [
            0.2149979,
            47.959112
          ],
          [
            0.2150212,
            47.9591099
          ],
          [
            0.215046,
            47.9591067
          ],
          [
            0.2150703,
            47.9591028
          ],
          [
            0.2150947,
            47.9590981
          ],
          [
            0.2151197,
            47.9590925
          ],
          [
            0.2151468,
            47.9590859
          ],
          [
            0.2151785,
            47.9590779
          ],
          [
            0.2152125,
            47.9590681
          ],
          [
            0.215244,
            47.9590578
          ],
          [
            0.2152941,
            47.9590385
          ],
          [
            0.2153155,
            47.9590284
          ],
          [
            0.2153425,
            47.9590144
          ],
          [
            0.215368,
            47.9589997
          ],
          [
            0.2153928,
            47.9589851
          ],
          [
            0.2154141,
            47.9589718
          ],
          [
            0.2154333,
            47.9589583
          ],
          [
            0.2154511,
            47.9589452
          ],
          [
            0.2154675,
            47.9589322
          ],
          [
            0.2154843,
            47.9589175
          ],
          [
            0.2155025,
            47.9589016
          ],
          [
            0.2155194,
            47.9588854
          ],
          [
            0.2155366,
            47.9588675
          ],
          [
            0.2155533,
            47.9588489
          ],
          [
            0.2155687,
            47.9588302
          ],
          [
            0.2155818,
            47.9588124
          ],
          [
            0.2155934,
            47.9587957
          ],
          [
            0.2156067,
            47.9587736
          ],
          [
            0.2156181,
            47.9587514
          ],
          [
            0.2156292,
            47.9587263
          ],
          [
            0.2156384,
            47.9587028
          ],
          [
            0.2156466,
            47.9586757
          ],
          [
            0.2156541,
            47.9586471
          ],
          [
            0.2156603,
            47.9586188
          ],
          [
            0.2156647,
            47.9585932
          ],
          [
            0.2156678,
            47.9585672
          ],
          [
            0.2156696,
            47.9585471
          ],
          [
            0.2156697,
            47.958528
          ],
          [
            0.2156692,
            47.9585139
          ],
          [
            0.215666,
            47.9584871
          ],
          [
            0.2156614,
            47.9584609
          ],
          [
            0.2156561,
            47.9584379
          ],
          [
            0.2156499,
            47.9584156
          ],
          [
            0.2156417,
            47.9583918
          ],
          [
            0.2156317,
            47.9583672
          ],
          [
            0.2156203,
            47.9583428
          ],
          [
            0.2156098,
            47.958322
          ],
          [
            0.2155965,
            47.9583006
          ],
          [
            0.2155802,
            47.9582786
          ],
          [
            0.2155615,
            47.9582556
          ],
          [
            0.2155434,
            47.9582368
          ],
          [
            0.2155208,
            47.958213
          ],
          [
            0.215439,
            47.9581373
          ],
          [
            0.2153188,
            47.9580331
          ],
          [
            0.2151931,
            47.9579293
          ],
          [
            0.2150909,
            47.9578472
          ],
          [
            0.2149606,
            47.9577499
          ],
          [
            0.2148399,
            47.9576623
          ],
          [
            0.2147089,
            47.9575743
          ],
          [
            0.2145498,
            47.9574679
          ],
          [
            0.214326,
            47.9573321
          ],
          [
            0.2140924,
            47.9571913
          ],
          [
            0.213909,
            47.9570886
          ],
          [
            0.213749,
            47.9570011
          ],
          [
            0.213627,
            47.9569364
          ],
          [
            0.2131742,
            47.956703
          ],
          [
            0.2130405,
            47.9566323
          ],
          [
            0.2129194,
            47.9565672
          ],
          [
            0.2126427,
            47.9563977
          ],
          [
            0.212583,
            47.9563564
          ],
          [
            0.2125409,
            47.9563256
          ],
          [
            0.2125186,
            47.9563044
          ],
          [
            0.2125054,
            47.9562903
          ],
          [
            0.2124944,
            47.9562765
          ],
          [
            0.2124819,
            47.9562594
          ],
          [
            0.2124696,
            47.9562404
          ],
          [
            0.2124604,
            47.9562244
          ],
          [
            0.2124518,
            47.9562085
          ],
          [
            0.2124424,
            47.9561894
          ],
          [
            0.2124341,
            47.9561686
          ],
          [
            0.2124264,
            47.9561473
          ],
          [
            0.2124201,
            47.9561242
          ],
          [
            0.212417,
            47.9561069
          ],
          [
            0.2124149,
            47.9560908
          ],
          [
            0.2124137,
            47.9560754
          ],
          [
            0.2124136,
            47.9560589
          ],
          [
            0.2124147,
            47.9560449
          ],
          [
            0.2124165,
            47.9560318
          ],
          [
            0.2124187,
            47.9560187
          ],
          [
            0.2124221,
            47.9560033
          ],
          [
            0.2124262,
            47.955989
          ],
          [
            0.2124314,
            47.9559743
          ],
          [
            0.2124369,
            47.9559594
          ],
          [
            0.2124428,
            47.9559463
          ],
          [
            0.2124498,
            47.9559323
          ],
          [
            0.2124557,
            47.955922
          ],
          [
            0.2124618,
            47.9559121
          ],
          [
            0.212468,
            47.9559031
          ],
          [
            0.212484,
            47.9558829
          ],
          [
            0.2125066,
            47.9558572
          ],
          [
            0.2125296,
            47.9558336
          ],
          [
            0.2125497,
            47.9558154
          ],
          [
            0.2125699,
            47.9557986
          ],
          [
            0.2125898,
            47.9557827
          ],
          [
            0.2126117,
            47.955769
          ],
          [
            0.2126341,
            47.9557565
          ],
          [
            0.2126578,
            47.9557448
          ],
          [
            0.2126897,
            47.9557302
          ],
          [
            0.2127255,
            47.9557163
          ],
          [
            0.2127626,
            47.9557044
          ],
          [
            0.2128013,
            47.955694
          ],
          [
            0.2128299,
            47.9556876
          ],
          [
            0.2128661,
            47.9556811
          ],
          [
            0.2129066,
            47.9556751
          ],
          [
            0.2129479,
            47.9556709
          ],
          [
            0.2129845,
            47.9556682
          ],
          [
            0.213032,
            47.9556662
          ],
          [
            0.2130873,
            47.955666
          ],
          [
            0.2131456,
            47.9556677
          ],
          [
            0.2132047,
            47.9556709
          ],
          [
            0.2132717,
            47.9556753
          ],
          [
            0.2133331,
            47.9556807
          ],
          [
            0.2134122,
            47.9556885
          ],
          [
            0.2134957,
            47.9556998
          ],
          [
            0.2136116,
            47.955719
          ],
          [
            0.2137113,
            47.9557398
          ],
          [
            0.2138214,
            47.9557677
          ],
          [
            0.2138919,
            47.9557887
          ],
          [
            0.2139713,
            47.9558142
          ],
          [
            0.2140332,
            47.955835
          ],
          [
            0.2140858,
            47.9558555
          ],
          [
            0.2141397,
            47.9558789
          ],
          [
            0.2142113,
            47.9559119
          ],
          [
            0.214311,
            47.9559604
          ],
          [
            0.2143955,
            47.956005
          ],
          [
            0.2144766,
            47.95605
          ],
          [
            0.2145703,
            47.9561048
          ],
          [
            0.2147773,
            47.9562343
          ],
          [
            0.2154882,
            47.9567119
          ],
          [
            0.2161121,
            47.9571367
          ],
          [
            0.2163768,
            47.9573237
          ],
          [
            0.2166468,
            47.9575229
          ],
          [
            0.2169926,
            47.9577881
          ],
          [
            0.2176472,
            47.9583002
          ],
          [
            0.2176689,
            47.9583159
          ],
          [
            0.2176809,
            47.9583232
          ],
          [
            0.2176948,
            47.9583311
          ],
          [
            0.217709,
            47.9583386
          ],
          [
            0.2177233,
            47.9583453
          ],
          [
            0.2177382,
            47.9583515
          ],
          [
            0.2177543,
            47.958358
          ],
          [
            0.2177703,
            47.9583631
          ],
          [
            0.2177899,
            47.9583679
          ],
          [
            0.2178114,
            47.9583716
          ],
          [
            0.2178303,
            47.9583743
          ],
          [
            0.2178531,
            47.9583765
          ],
          [
            0.217878,
            47.9583781
          ],
          [
            0.2179032,
            47.9583795
          ],
          [
            0.2179306,
            47.9583801
          ],
          [
            0.217955,
            47.9583795
          ],
          [
            0.2179786,
            47.9583788
          ],
          [
            0.2179942,
            47.9583777
          ],
          [
            0.2180079,
            47.9583765
          ],
          [
            0.2180197,
            47.9583751
          ],
          [
            0.2180385,
            47.9583722
          ],
          [
            0.2180547,
            47.9583692
          ],
          [
            0.2180643,
            47.958367
          ],
          [
            0.2180742,
            47.9583644
          ],
          [
            0.2180833,
            47.9583613
          ],
          [
            0.2180913,
            47.9583582
          ],
          [
            0.2181013,
            47.9583539
          ],
          [
            0.2181102,
            47.9583499
          ],
          [
            0.218121,
            47.9583443
          ],
          [
            0.2181344,
            47.9583372
          ],
          [
            0.218146,
            47.9583304
          ],
          [
            0.2183831,
            47.9581791
          ],
          [
            0.2184432,
            47.9581348
          ],
          [
            0.21846,
            47.9581218
          ],
          [
            0.2184726,
            47.9581111
          ],
          [
            0.218483,
            47.9581005
          ],
          [
            0.2184934,
            47.9580871
          ],
          [
            0.2185014,
            47.9580735
          ],
          [
            0.2185081,
            47.9580592
          ],
          [
            0.2185142,
            47.9580424
          ],
          [
            0.2185196,
            47.9580243
          ],
          [
            0.2185231,
            47.9580074
          ],
          [
            0.2185247,
            47.9579899
          ],
          [
            0.2185246,
            47.9579729
          ],
          [
            0.2185233,
            47.9579568
          ],
          [
            0.2185197,
            47.9579395
          ],
          [
            0.2185141,
            47.957923
          ],
          [
            0.2185067,
            47.9579097
          ],
          [
            0.2184933,
            47.9578936
          ],
          [
            0.2184732,
            47.9578739
          ],
          [
            0.2184434,
            47.9578458
          ],
          [
            0.2184048,
            47.9578116
          ],
          [
            0.2183751,
            47.9577854
          ],
          [
            0.217476,
            47.9570992
          ],
          [
            0.2170268,
            47.9567555
          ],
          [
            0.216612,
            47.9564311
          ],
          [
            0.2157158,
            47.9557301
          ],
          [
            0.2156807,
            47.9557028
          ],
          [
            0.2155936,
            47.9556352
          ],
          [
            0.2154797,
            47.9555402
          ],
          [
            0.2153062,
            47.9553907
          ],
          [
            0.2143909,
            47.9546163
          ],
          [
            0.2133772,
            47.9537546
          ],
          [
            0.2128295,
            47.9532843
          ],
          [
            0.2127272,
            47.9531913
          ],
          [
            0.2127139,
            47.9531789
          ],
          [
            0.2127007,
            47.953166
          ],
          [
            0.2126909,
            47.9531561
          ],
          [
            0.2126823,
            47.9531465
          ],
          [
            0.2126713,
            47.9531336
          ],
          [
            0.212663,
            47.9531238
          ],
          [
            0.2126557,
            47.9531135
          ],
          [
            0.2126492,
            47.9531034
          ],
          [
            0.2126411,
            47.9530902
          ],
          [
            0.2126321,
            47.9530765
          ],
          [
            0.212624,
            47.9530626
          ],
          [
            0.2126158,
            47.9530483
          ],
          [
            0.2126081,
            47.9530337
          ],
          [
            0.212601,
            47.9530191
          ],
          [
            0.2125943,
            47.9530056
          ],
          [
            0.2125882,
            47.9529918
          ],
          [
            0.2125826,
            47.9529773
          ],
          [
            0.2125781,
            47.9529656
          ],
          [
            0.2125741,
            47.9529531
          ],
          [
            0.2125704,
            47.9529398
          ],
          [
            0.2125682,
            47.9529284
          ],
          [
            0.2125662,
            47.9529163
          ],
          [
            0.2125649,
            47.9529022
          ],
          [
            0.2125646,
            47.9528879
          ],
          [
            0.2125647,
            47.952872
          ],
          [
            0.2125654,
            47.9528571
          ],
          [
            0.2125662,
            47.9528437
          ],
          [
            0.2125676,
            47.9528294
          ],
          [
            0.2125695,
            47.9528162
          ],
          [
            0.2125722,
            47.9528019
          ],
          [
            0.2125755,
            47.9527881
          ],
          [
            0.2125795,
            47.9527757
          ],
          [
            0.2125846,
            47.9527634
          ],
          [
            0.2125906,
            47.9527503
          ],
          [
            0.2125966,
            47.9527379
          ],
          [
            0.2126042,
            47.9527241
          ],
          [
            0.2126138,
            47.9527102
          ],
          [
            0.2126229,
            47.9526976
          ],
          [
            0.2126323,
            47.9526856
          ],
          [
            0.2126428,
            47.9526736
          ],
          [
            0.2126532,
            47.9526618
          ],
          [
            0.2126649,
            47.9526498
          ],
          [
            0.2126755,
            47.9526404
          ],
          [
            0.212789,
            47.9525567
          ],
          [
            0.2128023,
            47.9525469
          ],
          [
            0.2128154,
            47.9525371
          ],
          [
            0.2128272,
            47.952527
          ],
          [
            0.21284,
            47.9525159
          ],
          [
            0.2128528,
            47.9525034
          ],
          [
            0.2128649,
            47.952491
          ],
          [
            0.2128786,
            47.9524755
          ],
          [
            0.212892,
            47.9524596
          ],
          [
            0.2129038,
            47.9524441
          ],
          [
            0.2129145,
            47.952429
          ],
          [
            0.2129256,
            47.9524118
          ],
          [
            0.2129354,
            47.9523941
          ],
          [
            0.2129432,
            47.9523777
          ],
          [
            0.2129493,
            47.9523632
          ],
          [
            0.212955,
            47.952348
          ],
          [
            0.2129596,
            47.9523308
          ],
          [
            0.2129633,
            47.9523136
          ],
          [
            0.2129664,
            47.9522954
          ],
          [
            0.2129689,
            47.9522762
          ],
          [
            0.2129713,
            47.9522567
          ],
          [
            0.212973,
            47.9522355
          ],
          [
            0.2129739,
            47.9522139
          ],
          [
            0.2129734,
            47.9521919
          ],
          [
            0.2129721,
            47.9521694
          ],
          [
            0.2129701,
            47.9521508
          ],
          [
            0.2129679,
            47.9521324
          ],
          [
            0.2129646,
            47.9521128
          ],
          [
            0.2129612,
            47.9520935
          ],
          [
            0.2129564,
            47.952074
          ],
          [
            0.212952,
            47.9520587
          ],
          [
            0.2129467,
            47.9520418
          ],
          [
            0.2129403,
            47.9520228
          ]
        ]
      }
    }
  ]
}
