{
  "type": "FeatureCollection",
  "bbox": [
    -0.5384799,
    52.0415963,
    -0.5316671,
    52.0453244
  ],
  "metadata": {
    "schemaVersion": 1,
    "trackId": "gb-millbrook-handling-circuit-2df7aae5",
    "layoutId": "millbrook-handling-circuit",
    "license": "ODbL-1.0",
    "attribution": "© OpenStreetMap contributors",
    "closed": true,
    "geometryStatus": "draft",
    "timingStatus": "missing",
    "timingMode": "shared",
    "lengthM": 1384.8,
    "reviewedAt": null,
    "notes": [
      "Draft configuration: The independently named Handling Circuit is a complete source cycle matching the single catalogue perimeter, without facility access roads or hill-route branches. Its measured distance is 1384.8 m versus the catalogue distance of 1389 m. Branch identity was checked against catalogue layout facts and circuit identification references. Independent source distance 1384.8 m; no coordinates are changed to match a diagram or distance. Travel direction and historical alignment remain provisional."
    ]
  },
  "features": [
    {
      "type": "Feature",
      "id": "trace",
      "properties": {
        "role": "trace",
        "sourceIds": [
          "osm-selection-millbrook-handling-circuit-independent-roads-88702702"
        ]
      },
      "geometry": {
        "type": "LineString",
        "coordinates": [
          [
            -0.5377499,
            52.0438463
          ],
          [
            -0.5369559,
            52.0443082
          ],
          [
            -0.5367981,
            52.0444104
          ],
          [
            -0.5354753,
            52.045166
          ],
          [
            -0.5351964,
            52.045232
          ],
          [
            -0.5349389,
            52.0453112
          ],
          [
            -0.5347672,
            52.0453244
          ],
          [
            -0.5345527,
            52.0452848
          ],
          [
            -0.5343595,
            52.0452056
          ],
          [
            -0.5342093,
            52.0451792
          ],
          [
            -0.5340162,
            52.045166
          ],
          [
            -0.5331838,
            52.045141
          ],
          [
            -0.5331365,
            52.0451396
          ],
          [
            -0.5329004,
            52.0451
          ],
          [
            -0.5326858,
            52.0449945
          ],
          [
            -0.5325571,
            52.0448757
          ],
          [
            -0.5325142,
            52.0447041
          ],
          [
            -0.5324713,
            52.0445194
          ],
          [
            -0.5319777,
            52.0437539
          ],
          [
            -0.5319246,
            52.043675
          ],
          [
            -0.5318817,
            52.0435629
          ],
          [
            -0.5319032,
            52.0433187
          ],
          [
            -0.5318924,
            52.0430745
          ],
          [
            -0.5317637,
            52.0428238
          ],
          [
            -0.5316886,
            52.0426456
          ],
          [
            -0.5316671,
            52.0425136
          ],
          [
            -0.5317208,
            52.0423816
          ],
          [
            -0.5319354,
            52.0420847
          ],
          [
            -0.532017,
            52.0420201
          ],
          [
            -0.5321607,
            52.0419065
          ],
          [
            -0.5323645,
            52.0418141
          ],
          [
            -0.5333301,
            52.0416359
          ],
          [
            -0.5337056,
            52.0415963
          ],
          [
            -0.534124,
            52.0416029
          ],
          [
            -0.5346068,
            52.0416821
          ],
          [
            -0.5351004,
            52.0418207
          ],
          [
            -0.5353257,
            52.0418603
          ],
          [
            -0.5355402,
            52.0418471
          ],
          [
            -0.535905,
            52.0418207
          ],
          [
            -0.5362483,
            52.0418735
          ],
          [
            -0.5372247,
            52.0422101
          ],
          [
            -0.5375787,
            52.0423486
          ],
          [
            -0.5380079,
            52.0425664
          ],
          [
            -0.5382117,
            52.0427116
          ],
          [
            -0.5383941,
            52.0428898
          ],
          [
            -0.5384692,
            52.0430481
          ],
          [
            -0.5384799,
            52.0431471
          ],
          [
            -0.5383405,
            52.0433517
          ],
          [
            -0.5380937,
            52.0436156
          ],
          [
            -0.5377499,
            52.0438463
          ]
        ]
      }
    }
  ]
}
