{
  "type": "FeatureCollection",
  "bbox": [
    -84.9199313,
    38.7072479,
    -84.9114472,
    38.7143595
  ],
  "metadata": {
    "schemaVersion": 1,
    "trackId": "us-kentucky-speedway-80360722",
    "layoutId": "main",
    "license": "ODbL-1.0",
    "attribution": "© OpenStreetMap contributors",
    "closed": true,
    "geometryStatus": "draft",
    "timingStatus": "missing",
    "timingMode": "shared",
    "lengthM": 2356.5,
    "reviewedAt": null,
    "notes": [
      "Closed named OSM raceway retained as a course candidate. Named-layout association requires review.",
      "Source way order and shared node IDs are retained. No nearby endpoints are joined and no Racelogic boundaries are read."
    ]
  },
  "features": [
    {
      "type": "Feature",
      "id": "trace",
      "properties": {
        "role": "trace",
        "sourceIds": [
          "osm-snapshot"
        ]
      },
      "geometry": {
        "type": "LineString",
        "coordinates": [
          [
            -84.9182895,
            38.7128451
          ],
          [
            -84.9187622,
            38.7123811
          ],
          [
            -84.9189679,
            38.7121511
          ],
          [
            -84.9192082,
            38.7117966
          ],
          [
            -84.9193708,
            38.7114942
          ],
          [
            -84.9194828,
            38.7112323
          ],
          [
            -84.9195652,
            38.7109502
          ],
          [
            -84.9198728,
            38.7098675
          ],
          [
            -84.9199198,
            38.7096071
          ],
          [
            -84.9199313,
            38.7093549
          ],
          [
            -84.9199141,
            38.7090391
          ],
          [
            -84.9198924,
            38.7088899
          ],
          [
            -84.9198589,
            38.7087339
          ],
          [
            -84.9197733,
            38.7085138
          ],
          [
            -84.9196876,
            38.7083182
          ],
          [
            -84.9195822,
            38.7081796
          ],
          [
            -84.9194254,
            38.7080089
          ],
          [
            -84.9192192,
            38.7078235
          ],
          [
            -84.9190098,
            38.7076727
          ],
          [
            -84.9187833,
            38.7075478
          ],
          [
            -84.9185253,
            38.7074467
          ],
          [
            -84.9182753,
            38.707377
          ],
          [
            -84.9178183,
            38.7072925
          ],
          [
            -84.917498,
            38.7072581
          ],
          [
            -84.917192,
            38.7072479
          ],
          [
            -84.916898,
            38.7072567
          ],
          [
            -84.9166826,
            38.7072793
          ],
          [
            -84.916457,
            38.7073276
          ],
          [
            -84.9162382,
            38.7074009
          ],
          [
            -84.9160394,
            38.707484
          ],
          [
            -84.9158482,
            38.7075941
          ],
          [
            -84.9155496,
            38.7077958
          ],
          [
            -84.9152557,
            38.7080187
          ],
          [
            -84.9149609,
            38.7082747
          ],
          [
            -84.9143324,
            38.7088642
          ],
          [
            -84.9124443,
            38.710635
          ],
          [
            -84.9120845,
            38.7109724
          ],
          [
            -84.9118811,
            38.7112101
          ],
          [
            -84.911729,
            38.7114244
          ],
          [
            -84.9116071,
            38.7116402
          ],
          [
            -84.9115135,
            38.7118927
          ],
          [
            -84.9114483,
            38.7121545
          ],
          [
            -84.9114472,
            38.7124104
          ],
          [
            -84.9115041,
            38.7128096
          ],
          [
            -84.9115966,
            38.7130379
          ],
          [
            -84.9116838,
            38.7131894
          ],
          [
            -84.9118356,
            38.713415
          ],
          [
            -84.9120118,
            38.7136034
          ],
          [
            -84.9122232,
            38.7137777
          ],
          [
            -84.9125118,
            38.7139682
          ],
          [
            -84.9127833,
            38.7140978
          ],
          [
            -84.9131276,
            38.7142379
          ],
          [
            -84.9133684,
            38.7142956
          ],
          [
            -84.9138159,
            38.7143512
          ],
          [
            -84.9143432,
            38.7143595
          ],
          [
            -84.9147002,
            38.7143269
          ],
          [
            -84.9150955,
            38.7142472
          ],
          [
            -84.9154955,
            38.7141344
          ],
          [
            -84.9161564,
            38.7139359
          ],
          [
            -84.9167918,
            38.7136984
          ],
          [
            -84.9173752,
            38.7134406
          ],
          [
            -84.9178081,
            38.7131917
          ],
          [
            -84.9180352,
            38.7130519
          ],
          [
            -84.9182895,
            38.7128451
          ]
        ]
      }
    }
  ]
}
