{
  "type": "FeatureCollection",
  "bbox": [
    -71.8313778,
    41.9784484,
    -71.8220592,
    41.9828708
  ],
  "metadata": {
    "schemaVersion": 1,
    "trackId": "us-thompson-speedway-151397704",
    "layoutId": "main",
    "license": "ODbL-1.0",
    "attribution": "© OpenStreetMap contributors",
    "closed": true,
    "geometryStatus": "draft",
    "timingStatus": "missing",
    "timingMode": "shared",
    "lengthM": 2416.5,
    "reviewedAt": null,
    "notes": [
      "Connected OSM course candidate. The selected loop is the longest simple source-node cycle after explicit exclusions; its association with a named circuit configuration requires review.",
      "Source way order and shared node IDs are retained. No nearby endpoints are joined and no reference boundaries are read.",
      "Some source ways lack one-way direction tags. Travel direction is provisional."
    ]
  },
  "features": [
    {
      "type": "Feature",
      "id": "trace",
      "properties": {
        "role": "trace",
        "sourceIds": [
          "osm-snapshot"
        ]
      },
      "geometry": {
        "type": "LineString",
        "coordinates": [
          [
            -71.8256118,
            41.9810955
          ],
          [
            -71.8256786,
            41.9807336
          ],
          [
            -71.8256613,
            41.9805971
          ],
          [
            -71.8255747,
            41.9803988
          ],
          [
            -71.8254014,
            41.9802501
          ],
          [
            -71.8251277,
            41.9801357
          ],
          [
            -71.8247917,
            41.9801279
          ],
          [
            -71.8245893,
            41.9801699
          ],
          [
            -71.8243752,
            41.9802621
          ],
          [
            -71.8242501,
            41.9803502
          ],
          [
            -71.8241751,
            41.9804431
          ],
          [
            -71.8240918,
            41.9806538
          ],
          [
            -71.8240437,
            41.9811153
          ],
          [
            -71.8239762,
            41.9809402
          ],
          [
            -71.8239075,
            41.980827
          ],
          [
            -71.8237352,
            41.9805796
          ],
          [
            -71.8236105,
            41.9804064
          ],
          [
            -71.823449,
            41.9802879
          ],
          [
            -71.8232561,
            41.980251
          ],
          [
            -71.8229948,
            41.9802595
          ],
          [
            -71.8225218,
            41.9803433
          ],
          [
            -71.8223054,
            41.9803106
          ],
          [
            -71.8221951,
            41.9802406
          ],
          [
            -71.8221051,
            41.9801247
          ],
          [
            -71.8220634,
            41.97999
          ],
          [
            -71.8220592,
            41.9795394
          ],
          [
            -71.8220829,
            41.9790186
          ],
          [
            -71.8221644,
            41.978834
          ],
          [
            -71.8223006,
            41.9786833
          ],
          [
            -71.8224421,
            41.9786031
          ],
          [
            -71.8226033,
            41.9785558
          ],
          [
            -71.8229393,
            41.978476
          ],
          [
            -71.8231985,
            41.9784484
          ],
          [
            -71.8234372,
            41.9784498
          ],
          [
            -71.8238612,
            41.978472
          ],
          [
            -71.824166,
            41.9785168
          ],
          [
            -71.8246011,
            41.9786538
          ],
          [
            -71.8253949,
            41.97897
          ],
          [
            -71.8255276,
            41.9790229
          ],
          [
            -71.8258562,
            41.979147
          ],
          [
            -71.827092,
            41.9796942
          ],
          [
            -71.828071,
            41.980169
          ],
          [
            -71.828432,
            41.9802467
          ],
          [
            -71.8296575,
            41.9806458
          ],
          [
            -71.8310764,
            41.9810805
          ],
          [
            -71.8312444,
            41.981141
          ],
          [
            -71.8313375,
            41.9811988
          ],
          [
            -71.8313778,
            41.9812584
          ],
          [
            -71.831359,
            41.9813373
          ],
          [
            -71.8312799,
            41.9814476
          ],
          [
            -71.8311743,
            41.9815551
          ],
          [
            -71.8309795,
            41.9816707
          ],
          [
            -71.8308225,
            41.9817468
          ],
          [
            -71.8306027,
            41.9818299
          ],
          [
            -71.8304244,
            41.9818581
          ],
          [
            -71.8302279,
            41.9818371
          ],
          [
            -71.8300983,
            41.9817906
          ],
          [
            -71.8299635,
            41.9817215
          ],
          [
            -71.8290228,
            41.9812008
          ],
          [
            -71.8288447,
            41.9811171
          ],
          [
            -71.8286941,
            41.9810815
          ],
          [
            -71.8285349,
            41.9810928
          ],
          [
            -71.8284027,
            41.981126
          ],
          [
            -71.8282901,
            41.9811921
          ],
          [
            -71.8281645,
            41.9812941
          ],
          [
            -71.8279666,
            41.9815027
          ],
          [
            -71.8278167,
            41.98168
          ],
          [
            -71.8277856,
            41.9817226
          ],
          [
            -71.8277561,
            41.9817656
          ],
          [
            -71.8275658,
            41.9820802
          ],
          [
            -71.8273919,
            41.9823702
          ],
          [
            -71.8272373,
            41.982618
          ],
          [
            -71.8271389,
            41.9827575
          ],
          [
            -71.8270439,
            41.9828365
          ],
          [
            -71.826947,
            41.9828708
          ],
          [
            -71.8268225,
            41.9828661
          ],
          [
            -71.8267094,
            41.9828242
          ],
          [
            -71.8266338,
            41.9827568
          ],
          [
            -71.8265975,
            41.982688
          ],
          [
            -71.8265798,
            41.9825791
          ],
          [
            -71.8268001,
            41.9824232
          ],
          [
            -71.8270952,
            41.9822437
          ],
          [
            -71.827181,
            41.9821081
          ],
          [
            -71.827181,
            41.9819646
          ],
          [
            -71.8270903,
            41.9818498
          ],
          [
            -71.827016,
            41.9817872
          ],
          [
            -71.8269544,
            41.9817351
          ],
          [
            -71.8269044,
            41.9816522
          ],
          [
            -71.8268766,
            41.981593
          ],
          [
            -71.8268873,
            41.9814317
          ],
          [
            -71.8268999,
            41.9813319
          ],
          [
            -71.8269044,
            41.9812041
          ],
          [
            -71.8268311,
            41.9811025
          ],
          [
            -71.826663,
            41.9809908
          ],
          [
            -71.8265225,
            41.9809373
          ],
          [
            -71.826372,
            41.9809102
          ],
          [
            -71.8262228,
            41.9809025
          ],
          [
            -71.826114,
            41.9809118
          ],
          [
            -71.825909,
            41.9809334
          ],
          [
            -71.825735,
            41.9810118
          ],
          [
            -71.8256118,
            41.9810955
          ]
        ]
      }
    }
  ]
}
