{
  "type": "FeatureCollection",
  "bbox": [
    -66.4003528,
    -33.3383297,
    -66.3881224,
    -33.3305709
  ],
  "metadata": {
    "schemaVersion": 1,
    "trackId": "ar-autodromo-rosendo-hernandez-193768834",
    "layoutId": "autodromo-rosendo-hernandez",
    "license": "ODbL-1.0",
    "attribution": "© OpenStreetMap contributors",
    "closed": true,
    "geometryStatus": "draft",
    "timingStatus": "missing",
    "timingMode": "shared",
    "lengthM": 4524.7,
    "reviewedAt": null,
    "notes": [
      "Draft configuration: Southern infield return with the outer northeastern sweeper; excludes the additional northwestern hairpin detour. Branch identity was checked against catalogue layout facts and circuit identification references. Independent source distance 4524.7 m; no coordinates are changed to match a diagram or distance. Travel direction and historical alignment remain provisional."
    ]
  },
  "features": [
    {
      "type": "Feature",
      "id": "trace",
      "properties": {
        "role": "trace",
        "sourceIds": [
          "osm-selection-193768834"
        ]
      },
      "geometry": {
        "type": "LineString",
        "coordinates": [
          [
            -66.3913712,
            -33.3340187
          ],
          [
            -66.3913826,
            -33.3337101
          ],
          [
            -66.391422,
            -33.3335749
          ],
          [
            -66.3914949,
            -33.3334713
          ],
          [
            -66.391574,
            -33.3333934
          ],
          [
            -66.3917256,
            -33.3333114
          ],
          [
            -66.3918502,
            -33.3332743
          ],
          [
            -66.3920055,
            -33.3332577
          ],
          [
            -66.3921345,
            -33.3332752
          ],
          [
            -66.3922388,
            -33.3333029
          ],
          [
            -66.392384,
            -33.3333572
          ],
          [
            -66.3924782,
            -33.3334451
          ],
          [
            -66.3925662,
            -33.3335484
          ],
          [
            -66.3928102,
            -33.3340118
          ],
          [
            -66.3935346,
            -33.3353324
          ],
          [
            -66.3939148,
            -33.3360018
          ],
          [
            -66.3940861,
            -33.3362675
          ],
          [
            -66.3942563,
            -33.3364158
          ],
          [
            -66.3944517,
            -33.3365249
          ],
          [
            -66.3947239,
            -33.3365725
          ],
          [
            -66.3950519,
            -33.3365876
          ],
          [
            -66.3964295,
            -33.3366448
          ],
          [
            -66.3989204,
            -33.3367486
          ],
          [
            -66.3992817,
            -33.3367116
          ],
          [
            -66.3995856,
            -33.3366231
          ],
          [
            -66.3998175,
            -33.3365066
          ],
          [
            -66.3999933,
            -33.3363901
          ],
          [
            -66.4001239,
            -33.3362416
          ],
          [
            -66.4002079,
            -33.3360853
          ],
          [
            -66.400313,
            -33.3357797
          ],
          [
            -66.4003528,
            -33.335533
          ],
          [
            -66.4003357,
            -33.3353004
          ],
          [
            -66.4002653,
            -33.335096
          ],
          [
            -66.4001221,
            -33.3349021
          ],
          [
            -66.3999661,
            -33.3347348
          ],
          [
            -66.399726,
            -33.334552
          ],
          [
            -66.3994584,
            -33.3344133
          ],
          [
            -66.3978422,
            -33.3337906
          ],
          [
            -66.3969396,
            -33.3334398
          ],
          [
            -66.3935891,
            -33.3321379
          ],
          [
            -66.3911864,
            -33.3311807
          ],
          [
            -66.3899506,
            -33.330679
          ],
          [
            -66.3898937,
            -33.3306606
          ],
          [
            -66.3897026,
            -33.3305986
          ],
          [
            -66.3894398,
            -33.3305709
          ],
          [
            -66.3890621,
            -33.3305895
          ],
          [
            -66.388835,
            -33.3306585
          ],
          [
            -66.3886312,
            -33.3307705
          ],
          [
            -66.3884967,
            -33.3308581
          ],
          [
            -66.3883295,
            -33.331037
          ],
          [
            -66.3881966,
            -33.3312735
          ],
          [
            -66.3881432,
            -33.3314374
          ],
          [
            -66.3881242,
            -33.3316407
          ],
          [
            -66.3881224,
            -33.3322954
          ],
          [
            -66.3881346,
            -33.3325249
          ],
          [
            -66.3882114,
            -33.3332275
          ],
          [
            -66.3883528,
            -33.3339866
          ],
          [
            -66.3884207,
            -33.3342985
          ],
          [
            -66.3884993,
            -33.3345567
          ],
          [
            -66.388601,
            -33.3348393
          ],
          [
            -66.3888913,
            -33.3355836
          ],
          [
            -66.3892099,
            -33.3362924
          ],
          [
            -66.3894872,
            -33.3367808
          ],
          [
            -66.3896614,
            -33.3370099
          ],
          [
            -66.3898436,
            -33.337178
          ],
          [
            -66.3900819,
            -33.3373305
          ],
          [
            -66.3904188,
            -33.3374429
          ],
          [
            -66.3908309,
            -33.3375374
          ],
          [
            -66.3914531,
            -33.3376543
          ],
          [
            -66.3949171,
            -33.338285
          ],
          [
            -66.3953058,
            -33.3383297
          ],
          [
            -66.395524,
            -33.3382666
          ],
          [
            -66.3956887,
            -33.3381267
          ],
          [
            -66.395764,
            -33.3379962
          ],
          [
            -66.3957849,
            -33.3378839
          ],
          [
            -66.3957541,
            -33.3377716
          ],
          [
            -66.3956745,
            -33.3376384
          ],
          [
            -66.3955365,
            -33.3375067
          ],
          [
            -66.3953003,
            -33.3374266
          ],
          [
            -66.3931408,
            -33.3372021
          ],
          [
            -66.3926525,
            -33.3371351
          ],
          [
            -66.392368,
            -33.3370664
          ],
          [
            -66.3921514,
            -33.3369524
          ],
          [
            -66.3919248,
            -33.3367944
          ],
          [
            -66.3917703,
            -33.3365959
          ],
          [
            -66.391685,
            -33.3363597
          ],
          [
            -66.3916463,
            -33.3361391
          ],
          [
            -66.3914664,
            -33.3346547
          ],
          [
            -66.3913712,
            -33.3340187
          ]
        ]
      }
    }
  ]
}
