{
  "type": "FeatureCollection",
  "bbox": [
    28.7478104,
    -26.0772484,
    28.7553206,
    -26.0718234
  ],
  "metadata": {
    "schemaVersion": 1,
    "trackId": "za-red-star-raceway-rl",
    "layoutId": "main",
    "license": "ODbL-1.0",
    "attribution": "© OpenStreetMap contributors",
    "closed": true,
    "geometryStatus": "draft",
    "timingStatus": "missing",
    "timingMode": "shared",
    "lengthM": 3985.8,
    "reviewedAt": null,
    "notes": [
      "Draft course identified by matching the expected reference name to uniquely connected OSM raceway ways. Private timing GPS supports the association. Geometry, travel convention and operating status need review.",
      "OSM does not establish travel direction for all selected ways."
    ]
  },
  "features": [
    {
      "type": "Feature",
      "id": "trace",
      "properties": {
        "role": "trace",
        "sourceIds": [
          "osm-snapshot"
        ]
      },
      "geometry": {
        "type": "LineString",
        "coordinates": [
          [
            28.7548799,
            -26.0725845
          ],
          [
            28.754958,
            -26.0727805
          ],
          [
            28.7550579,
            -26.0728882
          ],
          [
            28.7552211,
            -26.0731215
          ],
          [
            28.7553206,
            -26.0733868
          ],
          [
            28.7553112,
            -26.073511
          ],
          [
            28.7550662,
            -26.0767669
          ],
          [
            28.7550561,
            -26.0769001
          ],
          [
            28.755022,
            -26.0769842
          ],
          [
            28.7549675,
            -26.0770647
          ],
          [
            28.7547995,
            -26.0771782
          ],
          [
            28.7546091,
            -26.0772416
          ],
          [
            28.7544085,
            -26.0772484
          ],
          [
            28.7542024,
            -26.0771963
          ],
          [
            28.7540546,
            -26.0771066
          ],
          [
            28.7530139,
            -26.0756803
          ],
          [
            28.7529843,
            -26.0755596
          ],
          [
            28.7530034,
            -26.0754353
          ],
          [
            28.7530368,
            -26.0753621
          ],
          [
            28.7530905,
            -26.0752925
          ],
          [
            28.7532374,
            -26.0752264
          ],
          [
            28.7533681,
            -26.0752114
          ],
          [
            28.7535115,
            -26.0752508
          ],
          [
            28.7538633,
            -26.0754751
          ],
          [
            28.7541786,
            -26.0755734
          ],
          [
            28.7543416,
            -26.0755618
          ],
          [
            28.7544294,
            -26.0754854
          ],
          [
            28.7544583,
            -26.0754218
          ],
          [
            28.7544672,
            -26.0752872
          ],
          [
            28.7544118,
            -26.0751678
          ],
          [
            28.7526706,
            -26.0738397
          ],
          [
            28.7525953,
            -26.0736501
          ],
          [
            28.7526706,
            -26.0734349
          ],
          [
            28.752903,
            -26.0733427
          ],
          [
            28.7531603,
            -26.073357
          ],
          [
            28.7535795,
            -26.0735357
          ],
          [
            28.7537996,
            -26.0735334
          ],
          [
            28.754041,
            -26.0734786
          ],
          [
            28.7541896,
            -26.0733666
          ],
          [
            28.7542904,
            -26.0732331
          ],
          [
            28.7543197,
            -26.0730849
          ],
          [
            28.7543248,
            -26.0730592
          ],
          [
            28.7542799,
            -26.0729049
          ],
          [
            28.7541418,
            -26.0727566
          ],
          [
            28.7539694,
            -26.0726542
          ],
          [
            28.753728,
            -26.072597
          ],
          [
            28.7534972,
            -26.0725827
          ],
          [
            28.7491787,
            -26.0735929
          ],
          [
            28.7490806,
            -26.0736406
          ],
          [
            28.7490329,
            -26.0737049
          ],
          [
            28.7490488,
            -26.0738002
          ],
          [
            28.7490992,
            -26.0738836
          ],
          [
            28.7492318,
            -26.0739718
          ],
          [
            28.7493857,
            -26.0740575
          ],
          [
            28.7495528,
            -26.0741243
          ],
          [
            28.7497331,
            -26.0741767
          ],
          [
            28.7499188,
            -26.074191
          ],
          [
            28.7501178,
            -26.0741695
          ],
          [
            28.7504069,
            -26.0740409
          ],
          [
            28.7506934,
            -26.0738836
          ],
          [
            28.7509958,
            -26.073824
          ],
          [
            28.751139,
            -26.073824
          ],
          [
            28.7512876,
            -26.073855
          ],
          [
            28.7514361,
            -26.0739003
          ],
          [
            28.7515548,
            -26.0740035
          ],
          [
            28.7515847,
            -26.0741743
          ],
          [
            28.7515441,
            -26.0743601
          ],
          [
            28.7513672,
            -26.074465
          ],
          [
            28.7511762,
            -26.0745222
          ],
          [
            28.7509985,
            -26.0746199
          ],
          [
            28.7509111,
            -26.0747552
          ],
          [
            28.7508658,
            -26.0749344
          ],
          [
            28.7509218,
            -26.0751021
          ],
          [
            28.7510223,
            -26.0752274
          ],
          [
            28.7511788,
            -26.0753299
          ],
          [
            28.7513353,
            -26.0755157
          ],
          [
            28.7513566,
            -26.0756754
          ],
          [
            28.7513459,
            -26.0758421
          ],
          [
            28.7512717,
            -26.0759732
          ],
          [
            28.7511417,
            -26.076109
          ],
          [
            28.7509454,
            -26.0761662
          ],
          [
            28.7507305,
            -26.07619
          ],
          [
            28.7505369,
            -26.0761161
          ],
          [
            28.7503724,
            -26.0759946
          ],
          [
            28.7498275,
            -26.0750443
          ],
          [
            28.7495899,
            -26.0748748
          ],
          [
            28.7493339,
            -26.0747359
          ],
          [
            28.7484864,
            -26.0745126
          ],
          [
            28.748123,
            -26.0743887
          ],
          [
            28.7479585,
            -26.0742553
          ],
          [
            28.7478339,
            -26.0740504
          ],
          [
            28.7478104,
            -26.0737433
          ],
          [
            28.7479771,
            -26.0735048
          ],
          [
            28.748253,
            -26.0733308
          ],
          [
            28.7546779,
            -26.0718345
          ],
          [
            28.7548115,
            -26.0718234
          ],
          [
            28.754953,
            -26.0718668
          ],
          [
            28.7550346,
            -26.0719446
          ],
          [
            28.7550596,
            -26.0720433
          ],
          [
            28.755023,
            -26.0721719
          ],
          [
            28.7549497,
            -26.0723109
          ],
          [
            28.7548964,
            -26.0724396
          ],
          [
            28.7548799,
            -26.0725845
          ]
        ]
      }
    }
  ]
}
