{
  "type": "FeatureCollection",
  "bbox": [
    -92.8936869,
    38.2679697,
    -92.8829168,
    38.2802373
  ],
  "metadata": {
    "schemaVersion": 1,
    "trackId": "us-ozarks-international-raceway-1112103055",
    "layoutId": "ozarks-international-raceway",
    "license": "ODbL-1.0",
    "attribution": "© OpenStreetMap contributors",
    "closed": true,
    "geometryStatus": "draft",
    "timingStatus": "missing",
    "timingMode": "shared",
    "lengthM": 6155,
    "reviewedAt": null,
    "notes": [
      "Draft configuration: Full course with western outer lobe, central long return and eastern linked bends. Branch identity was checked against catalogue layout facts and circuit identification references. Independent source distance 6155.0 m; no coordinates are changed to match a diagram or distance. Travel direction and historical alignment remain provisional."
    ]
  },
  "features": [
    {
      "type": "Feature",
      "id": "trace",
      "properties": {
        "role": "trace",
        "sourceIds": [
          "osm-selection-1112103055"
        ]
      },
      "geometry": {
        "type": "LineString",
        "coordinates": [
          [
            -92.8871805,
            38.2785903
          ],
          [
            -92.8871226,
            38.2786117
          ],
          [
            -92.887062,
            38.2786299
          ],
          [
            -92.8870315,
            38.2786384
          ],
          [
            -92.8869984,
            38.2786459
          ],
          [
            -92.8869645,
            38.2786518
          ],
          [
            -92.8869294,
            38.2786556
          ],
          [
            -92.8868729,
            38.2786597
          ],
          [
            -92.8868164,
            38.2786617
          ],
          [
            -92.8867592,
            38.2786595
          ],
          [
            -92.8867021,
            38.2786541
          ],
          [
            -92.8866488,
            38.278647
          ],
          [
            -92.8865969,
            38.2786368
          ],
          [
            -92.8865456,
            38.2786234
          ],
          [
            -92.8864957,
            38.2786079
          ],
          [
            -92.886435,
            38.2785849
          ],
          [
            -92.8863769,
            38.2785556
          ],
          [
            -92.8863229,
            38.2785242
          ],
          [
            -92.8862742,
            38.2784886
          ],
          [
            -92.8862345,
            38.2784483
          ],
          [
            -92.8862028,
            38.2784071
          ],
          [
            -92.8861897,
            38.2783871
          ],
          [
            -92.8861779,
            38.2783671
          ],
          [
            -92.8861674,
            38.2783466
          ],
          [
            -92.8861596,
            38.2783261
          ],
          [
            -92.8861536,
            38.2783025
          ],
          [
            -92.8861503,
            38.2782779
          ],
          [
            -92.8861483,
            38.2782532
          ],
          [
            -92.8861491,
            38.2782286
          ],
          [
            -92.8861552,
            38.2781804
          ],
          [
            -92.8861653,
            38.2781343
          ],
          [
            -92.8861827,
            38.2780769
          ],
          [
            -92.8862054,
            38.2780175
          ],
          [
            -92.8862723,
            38.2778945
          ],
          [
            -92.8862977,
            38.2778433
          ],
          [
            -92.8863185,
            38.2777922
          ],
          [
            -92.8863347,
            38.2777417
          ],
          [
            -92.8863405,
            38.2777164
          ],
          [
            -92.8863448,
            38.2776912
          ],
          [
            -92.8863482,
            38.2776582
          ],
          [
            -92.8863486,
            38.2776252
          ],
          [
            -92.886349,
            38.2775922
          ],
          [
            -92.8863463,
            38.2775593
          ],
          [
            -92.8863432,
            38.2775275
          ],
          [
            -92.886337,
            38.2774958
          ],
          [
            -92.8863286,
            38.2774646
          ],
          [
            -92.886317,
            38.2774334
          ],
          [
            -92.8862974,
            38.2773879
          ],
          [
            -92.8862716,
            38.2773424
          ],
          [
            -92.8862443,
            38.2773016
          ],
          [
            -92.8862123,
            38.2772609
          ],
          [
            -92.886142,
            38.2771961
          ],
          [
            -92.886064,
            38.2771313
          ],
          [
            -92.8856164,
            38.2767793
          ],
          [
            -92.8854909,
            38.2766676
          ],
          [
            -92.8854335,
            38.2766123
          ],
          [
            -92.8853777,
            38.2765571
          ],
          [
            -92.8853242,
            38.2764989
          ],
          [
            -92.8852737,
            38.2764396
          ],
          [
            -92.8851713,
            38.2763064
          ],
          [
            -92.8849999,
            38.2760896
          ],
          [
            -92.8849207,
            38.2759807
          ],
          [
            -92.8848485,
            38.2758717
          ],
          [
            -92.8844299,
            38.275148
          ],
          [
            -92.8843607,
            38.2750009
          ],
          [
            -92.8843651,
            38.2749067
          ],
          [
            -92.8843905,
            38.2747583
          ],
          [
            -92.8844098,
            38.2746235
          ],
          [
            -92.8844147,
            38.274582
          ],
          [
            -92.8844169,
            38.2745405
          ],
          [
            -92.8844174,
            38.2745021
          ],
          [
            -92.8844139,
            38.2744647
          ],
          [
            -92.8844066,
            38.2744312
          ],
          [
            -92.8843966,
            38.2743977
          ],
          [
            -92.8843817,
            38.2743667
          ],
          [
            -92.8843641,
            38.2743378
          ],
          [
            -92.8843446,
            38.2743124
          ],
          [
            -92.8843224,
            38.2742891
          ],
          [
            -92.884239,
            38.2742149
          ],
          [
            -92.8841466,
            38.2741351
          ],
          [
            -92.8841049,
            38.2740897
          ],
          [
            -92.8840802,
            38.2740604
          ],
          [
            -92.8840694,
            38.2740463
          ],
          [
            -92.8840602,
            38.2740298
          ],
          [
            -92.8840276,
            38.2739596
          ],
          [
            -92.8839829,
            38.2738447
          ],
          [
            -92.8839575,
            38.2737745
          ],
          [
            -92.8839209,
            38.2736987
          ],
          [
            -92.8838833,
            38.2736468
          ],
          [
            -92.8838516,
            38.2736125
          ],
          [
            -92.8838152,
            38.273583
          ],
          [
            -92.8837359,
            38.2735239
          ],
          [
            -92.8836516,
            38.2734713
          ],
          [
            -92.8835418,
            38.2734114
          ],
          [
            -92.88343,
            38.2733564
          ],
          [
            -92.8833548,
            38.2733197
          ],
          [
            -92.8832639,
            38.2732785
          ],
          [
            -92.8831975,
            38.273181
          ],
          [
            -92.8831643,
            38.2731316
          ],
          [
            -92.8831346,
            38.2730822
          ],
          [
            -92.8830176,
            38.272886
          ],
          [
            -92.8829947,
            38.2728429
          ],
          [
            -92.8829753,
            38.2727998
          ],
          [
            -92.8829586,
            38.2727582
          ],
          [
            -92.8829437,
            38.2727137
          ],
          [
            -92.8829314,
            38.2726707
          ],
          [
            -92.8829227,
            38.2726276
          ],
          [
            -92.882918,
            38.2725877
          ],
          [
            -92.8829168,
            38.2725464
          ],
          [
            -92.88292,
            38.2724932
          ],
          [
            -92.8829267,
            38.2724399
          ],
          [
            -92.882942,
            38.2723335
          ],
          [
            -92.8829823,
            38.2721228
          ],
          [
            -92.8830425,
            38.2718853
          ],
          [
            -92.8830479,
            38.2718644
          ],
          [
            -92.8830554,
            38.2718436
          ],
          [
            -92.8830648,
            38.271822
          ],
          [
            -92.8830753,
            38.271802
          ],
          [
            -92.883086,
            38.2717825
          ],
          [
            -92.8830988,
            38.2717631
          ],
          [
            -92.883113,
            38.2717439
          ],
          [
            -92.8831293,
            38.2717256
          ],
          [
            -92.8831898,
            38.2716685
          ],
          [
            -92.8832538,
            38.2716128
          ],
          [
            -92.8833179,
            38.2715592
          ],
          [
            -92.8833855,
            38.2715056
          ],
          [
            -92.8836558,
            38.2713078
          ],
          [
            -92.8848248,
            38.2705409
          ],
          [
            -92.8848858,
            38.2705035
          ],
          [
            -92.8849489,
            38.2704677
          ],
          [
            -92.8852254,
            38.2703132
          ],
          [
            -92.8853273,
            38.2702514
          ],
          [
            -92.885447,
            38.2701689
          ],
          [
            -92.8855605,
            38.2700833
          ],
          [
            -92.8856546,
            38.2700109
          ],
          [
            -92.8857446,
            38.2699353
          ],
          [
            -92.8859226,
            38.2697825
          ],
          [
            -92.8862877,
            38.2694593
          ],
          [
            -92.8863818,
            38.2693813
          ],
          [
            -92.8864269,
            38.2693456
          ],
          [
            -92.8864759,
            38.2693082
          ],
          [
            -92.8865235,
            38.2692732
          ],
          [
            -92.8865772,
            38.2692382
          ],
          [
            -92.8866824,
            38.269173
          ],
          [
            -92.8868633,
            38.2690648
          ],
          [
            -92.8869528,
            38.2690131
          ],
          [
            -92.8870463,
            38.2689646
          ],
          [
            -92.8873328,
            38.2688168
          ],
          [
            -92.8875196,
            38.2687178
          ],
          [
            -92.8877043,
            38.2686172
          ],
          [
            -92.8882065,
            38.268334
          ],
          [
            -92.8883315,
            38.2682705
          ],
          [
            -92.8884535,
            38.2682127
          ],
          [
            -92.8885785,
            38.26816
          ],
          [
            -92.8887086,
            38.2681098
          ],
          [
            -92.8888188,
            38.2680687
          ],
          [
            -92.888931,
            38.2680308
          ],
          [
            -92.8890351,
            38.2680016
          ],
          [
            -92.8890907,
            38.2679883
          ],
          [
            -92.8891463,
            38.2679781
          ],
          [
            -92.8892198,
            38.2679723
          ],
          [
            -92.8892932,
            38.2679697
          ],
          [
            -92.8893671,
            38.2679747
          ],
          [
            -92.889441,
            38.2679813
          ],
          [
            -92.8895282,
            38.2679933
          ],
          [
            -92.8896093,
            38.2680101
          ],
          [
            -92.8896894,
            38.2680294
          ],
          [
            -92.8897716,
            38.2680517
          ],
          [
            -92.8898466,
            38.2680745
          ],
          [
            -92.8899236,
            38.2681005
          ],
          [
            -92.8900675,
            38.2681525
          ],
          [
            -92.8909488,
            38.2685242
          ],
          [
            -92.891043,
            38.2685688
          ],
          [
            -92.8911398,
            38.2686071
          ],
          [
            -92.8914302,
            38.2687164
          ],
          [
            -92.891529,
            38.2687593
          ],
          [
            -92.8916224,
            38.2688064
          ],
          [
            -92.8920129,
            38.2690158
          ],
          [
            -92.8923621,
            38.2691943
          ],
          [
            -92.8924512,
            38.2692398
          ],
          [
            -92.8928868,
            38.2694711
          ],
          [
            -92.8929852,
            38.2695249
          ],
          [
            -92.8930808,
            38.269585
          ],
          [
            -92.8932507,
            38.269703
          ],
          [
            -92.8932935,
            38.2697345
          ],
          [
            -92.8933328,
            38.2697673
          ],
          [
            -92.8933712,
            38.2698008
          ],
          [
            -92.8934079,
            38.2698385
          ],
          [
            -92.8934304,
            38.2698663
          ],
          [
            -92.8934547,
            38.2698995
          ],
          [
            -92.8934963,
            38.2699619
          ],
          [
            -92.8935352,
            38.2700278
          ],
          [
            -92.8935671,
            38.270095
          ],
          [
            -92.8935854,
            38.270136
          ],
          [
            -92.8936001,
            38.2701769
          ],
          [
            -92.8936166,
            38.2702207
          ],
          [
            -92.8936296,
            38.2702644
          ],
          [
            -92.8936454,
            38.2703159
          ],
          [
            -92.8936576,
            38.2703701
          ],
          [
            -92.8936681,
            38.2704237
          ],
          [
            -92.893675,
            38.27048
          ],
          [
            -92.8936819,
            38.270537
          ],
          [
            -92.8936853,
            38.2705941
          ],
          [
            -92.8936869,
            38.2706525
          ],
          [
            -92.8936868,
            38.2707137
          ],
          [
            -92.8936867,
            38.2709301
          ],
          [
            -92.8936849,
            38.2710403
          ],
          [
            -92.8936796,
            38.2711506
          ],
          [
            -92.8936716,
            38.2712318
          ],
          [
            -92.8936601,
            38.2713144
          ],
          [
            -92.8936459,
            38.2713963
          ],
          [
            -92.8936282,
            38.2714782
          ],
          [
            -92.8935897,
            38.271643
          ],
          [
            -92.8935459,
            38.2718078
          ],
          [
            -92.8934884,
            38.2719949
          ],
          [
            -92.8934273,
            38.2721821
          ],
          [
            -92.8933598,
            38.2723954
          ],
          [
            -92.893287,
            38.2726101
          ],
          [
            -92.8931801,
            38.2728962
          ],
          [
            -92.893067,
            38.2731796
          ],
          [
            -92.893028,
            38.2732895
          ],
          [
            -92.892996,
            38.2733993
          ],
          [
            -92.8929374,
            38.2736246
          ],
          [
            -92.8929185,
            38.273702
          ],
          [
            -92.8929045,
            38.2737414
          ],
          [
            -92.8928889,
            38.2737794
          ],
          [
            -92.8928726,
            38.2738105
          ],
          [
            -92.8928528,
            38.2738431
          ],
          [
            -92.8928322,
            38.2738736
          ],
          [
            -92.8928097,
            38.2739041
          ],
          [
            -92.8927864,
            38.2739325
          ],
          [
            -92.8927613,
            38.2739609
          ],
          [
            -92.8927076,
            38.2740163
          ],
          [
            -92.8926498,
            38.2740697
          ],
          [
            -92.8925849,
            38.2741231
          ],
          [
            -92.8925209,
            38.2741765
          ],
          [
            -92.8924533,
            38.2742285
          ],
          [
            -92.8923846,
            38.2742776
          ],
          [
            -92.8923124,
            38.2743253
          ],
          [
            -92.8922327,
            38.2743705
          ],
          [
            -92.8921494,
            38.2744157
          ],
          [
            -92.8920178,
            38.2744814
          ],
          [
            -92.8918791,
            38.2745429
          ],
          [
            -92.8917885,
            38.2745791
          ],
          [
            -92.8916962,
            38.2746139
          ],
          [
            -92.8916002,
            38.2746466
          ],
          [
            -92.8915008,
            38.2746737
          ],
          [
            -92.8913978,
            38.2746998
          ],
          [
            -92.891293,
            38.2747231
          ],
          [
            -92.8911865,
            38.2747457
          ],
          [
            -92.891079,
            38.2747663
          ],
          [
            -92.890883,
            38.2748047
          ],
          [
            -92.8907894,
            38.2748233
          ],
          [
            -92.8906887,
            38.274839
          ],
          [
            -92.8902582,
            38.2749025
          ],
          [
            -92.8901544,
            38.2749197
          ],
          [
            -92.8900542,
            38.2749417
          ],
          [
            -92.8899885,
            38.2749634
          ],
          [
            -92.8899255,
            38.2749887
          ],
          [
            -92.8898629,
            38.2750196
          ],
          [
            -92.8898049,
            38.2750524
          ],
          [
            -92.8897726,
            38.2750757
          ],
          [
            -92.8897456,
            38.2750991
          ],
          [
            -92.8897192,
            38.2751254
          ],
          [
            -92.8896945,
            38.2751531
          ],
          [
            -92.8896743,
            38.2751804
          ],
          [
            -92.8896576,
            38.2752076
          ],
          [
            -92.8896444,
            38.2752385
          ],
          [
            -92.8896347,
            38.2752694
          ],
          [
            -92.8896273,
            38.2753031
          ],
          [
            -92.8896234,
            38.2753368
          ],
          [
            -92.889623,
            38.2753705
          ],
          [
            -92.8896261,
            38.2754041
          ],
          [
            -92.8896335,
            38.2754399
          ],
          [
            -92.8896462,
            38.2754743
          ],
          [
            -92.8896612,
            38.2755069
          ],
          [
            -92.889678,
            38.2755408
          ],
          [
            -92.8896956,
            38.2755687
          ],
          [
            -92.8897133,
            38.2755952
          ],
          [
            -92.8897349,
            38.2756224
          ],
          [
            -92.8897601,
            38.2756495
          ],
          [
            -92.8898112,
            38.2756991
          ],
          [
            -92.8898681,
            38.2757455
          ],
          [
            -92.889926,
            38.2757889
          ],
          [
            -92.8899873,
            38.275831
          ],
          [
            -92.8900531,
            38.2758739
          ],
          [
            -92.8901188,
            38.275914
          ],
          [
            -92.8906791,
            38.2762097
          ],
          [
            -92.8908154,
            38.2762911
          ],
          [
            -92.8909498,
            38.2763767
          ],
          [
            -92.8910834,
            38.2764637
          ],
          [
            -92.8912117,
            38.2765562
          ],
          [
            -92.8915861,
            38.2768232
          ],
          [
            -92.8916489,
            38.2768833
          ],
          [
            -92.8917037,
            38.2769434
          ],
          [
            -92.8917604,
            38.2770071
          ],
          [
            -92.89181,
            38.2770707
          ],
          [
            -92.8918674,
            38.277149
          ],
          [
            -92.89192,
            38.2772291
          ],
          [
            -92.8919677,
            38.277313
          ],
          [
            -92.8920072,
            38.2773968
          ],
          [
            -92.8922058,
            38.27791
          ],
          [
            -92.8922457,
            38.2780063
          ],
          [
            -92.8922902,
            38.2781025
          ],
          [
            -92.8923348,
            38.2781978
          ],
          [
            -92.8923841,
            38.278293
          ],
          [
            -92.8925852,
            38.2786549
          ],
          [
            -92.8926508,
            38.2787961
          ],
          [
            -92.8927118,
            38.2789374
          ],
          [
            -92.8927336,
            38.2790048
          ],
          [
            -92.8927506,
            38.2790722
          ],
          [
            -92.8927583,
            38.2791396
          ],
          [
            -92.8927614,
            38.279207
          ],
          [
            -92.8927629,
            38.2792824
          ],
          [
            -92.8927598,
            38.2793579
          ],
          [
            -92.8927555,
            38.2794342
          ],
          [
            -92.8927465,
            38.2795106
          ],
          [
            -92.8927329,
            38.2795809
          ],
          [
            -92.8927124,
            38.2796513
          ],
          [
            -92.8926883,
            38.2797189
          ],
          [
            -92.8926734,
            38.2797532
          ],
          [
            -92.8926561,
            38.2797874
          ],
          [
            -92.8926353,
            38.2798206
          ],
          [
            -92.8926133,
            38.279851
          ],
          [
            -92.8925867,
            38.2798827
          ],
          [
            -92.8925554,
            38.2799145
          ],
          [
            -92.8924893,
            38.2799666
          ],
          [
            -92.8924139,
            38.2800168
          ],
          [
            -92.8923402,
            38.2800565
          ],
          [
            -92.8922572,
            38.2800943
          ],
          [
            -92.8921683,
            38.2801266
          ],
          [
            -92.8920748,
            38.2801571
          ],
          [
            -92.8919976,
            38.2801788
          ],
          [
            -92.8919181,
            38.2801969
          ],
          [
            -92.8918387,
            38.2802122
          ],
          [
            -92.8917592,
            38.2802239
          ],
          [
            -92.8916671,
            38.2802343
          ],
          [
            -92.8915775,
            38.2802373
          ],
          [
            -92.8914866,
            38.2802367
          ],
          [
            -92.8913935,
            38.2802306
          ],
          [
            -92.8912024,
            38.2802092
          ],
          [
            -92.8910114,
            38.2801842
          ],
          [
            -92.8907852,
            38.2801432
          ],
          [
            -92.8905612,
            38.2800912
          ],
          [
            -92.8904146,
            38.2800498
          ],
          [
            -92.8902702,
            38.2800011
          ],
          [
            -92.8901305,
            38.279945
          ],
          [
            -92.8899932,
            38.2798835
          ],
          [
            -92.8899324,
            38.2798618
          ],
          [
            -92.8898693,
            38.2798419
          ],
          [
            -92.8898063,
            38.2798276
          ],
          [
            -92.8897408,
            38.2798169
          ],
          [
            -92.8896814,
            38.2798139
          ],
          [
            -92.889622,
            38.2798129
          ],
          [
            -92.8895008,
            38.2798125
          ],
          [
            -92.8889669,
            38.279822
          ],
          [
            -92.8889371,
            38.2798212
          ],
          [
            -92.8889072,
            38.2798176
          ],
          [
            -92.8888803,
            38.2798126
          ],
          [
            -92.8888533,
            38.2798049
          ],
          [
            -92.8888299,
            38.279794
          ],
          [
            -92.8888087,
            38.2797803
          ],
          [
            -92.88879,
            38.2797648
          ],
          [
            -92.8887747,
            38.2797493
          ],
          [
            -92.8887152,
            38.2796871
          ],
          [
            -92.8887155,
            38.2795753
          ],
          [
            -92.888718,
            38.2795376
          ],
          [
            -92.8887245,
            38.2794999
          ],
          [
            -92.8887364,
            38.2794653
          ],
          [
            -92.8887523,
            38.2794308
          ],
          [
            -92.8888801,
            38.2791973
          ],
          [
            -92.8889483,
            38.2790721
          ],
          [
            -92.8889783,
            38.2790095
          ],
          [
            -92.889003,
            38.2789469
          ],
          [
            -92.8890457,
            38.2788227
          ],
          [
            -92.8890803,
            38.2786965
          ],
          [
            -92.8890961,
            38.2786196
          ],
          [
            -92.8891093,
            38.2785427
          ],
          [
            -92.8891224,
            38.2784659
          ],
          [
            -92.8891301,
            38.278389
          ],
          [
            -92.8891531,
            38.2780815
          ],
          [
            -92.8891972,
            38.277536
          ],
          [
            -92.8891972,
            38.2773002
          ],
          [
            -92.8891926,
            38.2771786
          ],
          [
            -92.8891815,
            38.2770626
          ],
          [
            -92.8891736,
            38.2770137
          ],
          [
            -92.889164,
            38.2769663
          ],
          [
            -92.8891508,
            38.2769195
          ],
          [
            -92.8891341,
            38.2768728
          ],
          [
            -92.8890998,
            38.2767744
          ],
          [
            -92.8890628,
            38.276685
          ],
          [
            -92.8890292,
            38.2766132
          ],
          [
            -92.8889903,
            38.2765399
          ],
          [
            -92.8889036,
            38.2764045
          ],
          [
            -92.8887262,
            38.2761409
          ],
          [
            -92.8885338,
            38.2759065
          ],
          [
            -92.8884694,
            38.2758314
          ],
          [
            -92.8883962,
            38.2757592
          ],
          [
            -92.8883212,
            38.275687
          ],
          [
            -92.8882409,
            38.275623
          ],
          [
            -92.8881427,
            38.27554
          ],
          [
            -92.8880515,
            38.2754514
          ],
          [
            -92.8879794,
            38.2753603
          ],
          [
            -92.8879478,
            38.2753133
          ],
          [
            -92.8879232,
            38.2752663
          ],
          [
            -92.887908,
            38.275224
          ],
          [
            -92.887898,
            38.2751818
          ],
          [
            -92.8878907,
            38.2751384
          ],
          [
            -92.8878869,
            38.2750951
          ],
          [
            -92.8878847,
            38.2750389
          ],
          [
            -92.8878861,
            38.2749842
          ],
          [
            -92.8878892,
            38.2749276
          ],
          [
            -92.8878958,
            38.2748711
          ],
          [
            -92.8879075,
            38.2748073
          ],
          [
            -92.8879228,
            38.2747435
          ],
          [
            -92.8879407,
            38.2746818
          ],
          [
            -92.8879622,
            38.2746215
          ],
          [
            -92.887999,
            38.2745461
          ],
          [
            -92.8880429,
            38.2744707
          ],
          [
            -92.888129,
            38.2743547
          ],
          [
            -92.8882598,
            38.2741869
          ],
          [
            -92.8883337,
            38.274097
          ],
          [
            -92.8884168,
            38.274012
          ],
          [
            -92.8886205,
            38.2738205
          ],
          [
            -92.8887138,
            38.2737299
          ],
          [
            -92.8887517,
            38.2736866
          ],
          [
            -92.8887904,
            38.273642
          ],
          [
            -92.8888137,
            38.2736112
          ],
          [
            -92.8888352,
            38.2735804
          ],
          [
            -92.8888554,
            38.2735489
          ],
          [
            -92.8888738,
            38.2735174
          ],
          [
            -92.8889143,
            38.2734457
          ],
          [
            -92.8889513,
            38.2733726
          ],
          [
            -92.8890967,
            38.2730526
          ],
          [
            -92.88918,
            38.272894
          ],
          [
            -92.8892634,
            38.2727423
          ],
          [
            -92.8894008,
            38.2726456
          ],
          [
            -92.8894653,
            38.2726121
          ],
          [
            -92.8894995,
            38.2725998
          ],
          [
            -92.8895372,
            38.2725917
          ],
          [
            -92.8895759,
            38.2725877
          ],
          [
            -92.8896145,
            38.2725866
          ],
          [
            -92.8896687,
            38.2725871
          ],
          [
            -92.8897247,
            38.2725932
          ],
          [
            -92.8897718,
            38.2726049
          ],
          [
            -92.8898189,
            38.2726235
          ],
          [
            -92.8901805,
            38.2728158
          ],
          [
            -92.8902219,
            38.2728369
          ],
          [
            -92.8902693,
            38.2728499
          ],
          [
            -92.8903107,
            38.2728558
          ],
          [
            -92.8903541,
            38.2728569
          ],
          [
            -92.8903851,
            38.2728542
          ],
          [
            -92.8904161,
            38.2728483
          ],
          [
            -92.8904461,
            38.2728392
          ],
          [
            -92.890472,
            38.2728253
          ],
          [
            -92.8904974,
            38.2728097
          ],
          [
            -92.8905207,
            38.2727925
          ],
          [
            -92.8905389,
            38.2727697
          ],
          [
            -92.890549,
            38.2727485
          ],
          [
            -92.8905577,
            38.2727188
          ],
          [
            -92.8905623,
            38.2726875
          ],
          [
            -92.8905583,
            38.2726473
          ],
          [
            -92.8905418,
            38.2725993
          ],
          [
            -92.890508,
            38.2725466
          ],
          [
            -92.8904032,
            38.2724063
          ],
          [
            -92.8903628,
            38.2723377
          ],
          [
            -92.8903304,
            38.2722671
          ],
          [
            -92.8902709,
            38.2721257
          ],
          [
            -92.890111,
            38.2717587
          ],
          [
            -92.890079,
            38.2716969
          ],
          [
            -92.8900418,
            38.2716393
          ],
          [
            -92.8899633,
            38.27152
          ],
          [
            -92.8898576,
            38.2713788
          ],
          [
            -92.8898072,
            38.2713311
          ],
          [
            -92.8897506,
            38.2712914
          ],
          [
            -92.8896899,
            38.2712509
          ],
          [
            -92.8896273,
            38.2712135
          ],
          [
            -92.889344,
            38.2710643
          ],
          [
            -92.8892551,
            38.2710234
          ],
          [
            -92.8891601,
            38.2709858
          ],
          [
            -92.8890681,
            38.2709521
          ],
          [
            -92.8889742,
            38.2709216
          ],
          [
            -92.8889202,
            38.2709052
          ],
          [
            -92.8888642,
            38.2708919
          ],
          [
            -92.8887542,
            38.2708718
          ],
          [
            -92.8886943,
            38.2708637
          ],
          [
            -92.8886344,
            38.2708571
          ],
          [
            -92.8885714,
            38.2708522
          ],
          [
            -92.8885085,
            38.2708504
          ],
          [
            -92.8884219,
            38.2708518
          ],
          [
            -92.8883353,
            38.2708624
          ],
          [
            -92.888251,
            38.2708785
          ],
          [
            -92.8881714,
            38.2708964
          ],
          [
            -92.8880975,
            38.2709163
          ],
          [
            -92.8880283,
            38.2709379
          ],
          [
            -92.8879555,
            38.2709642
          ],
          [
            -92.8878921,
            38.2709922
          ],
          [
            -92.8872491,
            38.2713351
          ],
          [
            -92.8871837,
            38.271375
          ],
          [
            -92.8871253,
            38.2714203
          ],
          [
            -92.8870704,
            38.2714712
          ],
          [
            -92.8870225,
            38.2715221
          ],
          [
            -92.8866054,
            38.2721067
          ],
          [
            -92.8865575,
            38.2721841
          ],
          [
            -92.8865167,
            38.2722614
          ],
          [
            -92.8864811,
            38.2723388
          ],
          [
            -92.8864526,
            38.272418
          ],
          [
            -92.8861169,
            38.2737442
          ],
          [
            -92.8859882,
            38.2742546
          ],
          [
            -92.885967,
            38.2743868
          ],
          [
            -92.8859631,
            38.2744212
          ],
          [
            -92.8859618,
            38.2744556
          ],
          [
            -92.8859645,
            38.2744905
          ],
          [
            -92.8859686,
            38.2745255
          ],
          [
            -92.8859758,
            38.2745578
          ],
          [
            -92.885987,
            38.274589
          ],
          [
            -92.8860012,
            38.2746205
          ],
          [
            -92.8860181,
            38.274652
          ],
          [
            -92.8860393,
            38.2746834
          ],
          [
            -92.8860632,
            38.2747148
          ],
          [
            -92.8861202,
            38.2747783
          ],
          [
            -92.8862065,
            38.2748638
          ],
          [
            -92.8862964,
            38.2749455
          ],
          [
            -92.8863995,
            38.2750237
          ],
          [
            -92.8865095,
            38.2750981
          ],
          [
            -92.8866861,
            38.2752056
          ],
          [
            -92.8869798,
            38.2753573
          ],
          [
            -92.8872694,
            38.2754981
          ],
          [
            -92.8873418,
            38.2755328
          ],
          [
            -92.8874142,
            38.2755731
          ],
          [
            -92.8874742,
            38.2756126
          ],
          [
            -92.8875272,
            38.2756522
          ],
          [
            -92.8875879,
            38.2756999
          ],
          [
            -92.8876452,
            38.2757504
          ],
          [
            -92.8876994,
            38.2758001
          ],
          [
            -92.8877482,
            38.275854
          ],
          [
            -92.8877828,
            38.2758956
          ],
          [
            -92.8878073,
            38.2759404
          ],
          [
            -92.8878306,
            38.2759901
          ],
          [
            -92.8878468,
            38.2760406
          ],
          [
            -92.8878529,
            38.2760768
          ],
          [
            -92.887854,
            38.276113
          ],
          [
            -92.8878469,
            38.2761854
          ],
          [
            -92.8878355,
            38.2762661
          ],
          [
            -92.8878169,
            38.2763468
          ],
          [
            -92.8877953,
            38.2764312
          ],
          [
            -92.8877836,
            38.2764733
          ],
          [
            -92.8877684,
            38.2765155
          ],
          [
            -92.8877518,
            38.276558
          ],
          [
            -92.8877317,
            38.2766006
          ],
          [
            -92.8876924,
            38.2766842
          ],
          [
            -92.8876162,
            38.2768258
          ],
          [
            -92.8875374,
            38.2769673
          ],
          [
            -92.8873438,
            38.2772704
          ],
          [
            -92.8872328,
            38.277437
          ],
          [
            -92.8871804,
            38.2775203
          ],
          [
            -92.8871572,
            38.277562
          ],
          [
            -92.8871381,
            38.2776037
          ],
          [
            -92.8871226,
            38.2776474
          ],
          [
            -92.8871111,
            38.2776911
          ],
          [
            -92.8871057,
            38.2777372
          ],
          [
            -92.8871085,
            38.2777849
          ],
          [
            -92.8871144,
            38.2778147
          ],
          [
            -92.8871244,
            38.2778446
          ],
          [
            -92.8871395,
            38.2778752
          ],
          [
            -92.8871566,
            38.2779042
          ],
          [
            -92.8873415,
            38.2781754
          ],
          [
            -92.8873557,
            38.2782013
          ],
          [
            -92.8873668,
            38.2782273
          ],
          [
            -92.887374,
            38.2782538
          ],
          [
            -92.8873798,
            38.2782815
          ],
          [
            -92.8873809,
            38.2783087
          ],
          [
            -92.8873804,
            38.2783358
          ],
          [
            -92.8873769,
            38.278362
          ],
          [
            -92.8873703,
            38.2783883
          ],
          [
            -92.8873582,
            38.2784164
          ],
          [
            -92.8873429,
            38.2784444
          ],
          [
            -92.8873216,
            38.2784713
          ],
          [
            -92.8872956,
            38.2784981
          ],
          [
            -92.8872718,
            38.2785212
          ],
          [
            -92.8872434,
            38.2785442
          ],
          [
            -92.8871805,
            38.2785903
          ]
        ]
      }
    }
  ]
}
