{
  "type": "FeatureCollection",
  "bbox": [
    -3.5836535,
    41.7888602,
    -3.5797026,
    41.7924651
  ],
  "metadata": {
    "schemaVersion": 1,
    "trackId": "es-circuito-kotarr-b46397b8",
    "layoutId": "circuito-kotarr",
    "license": "ODbL-1.0",
    "attribution": "© OpenStreetMap contributors",
    "closed": true,
    "geometryStatus": "draft",
    "timingStatus": "missing",
    "timingMode": "shared",
    "lengthM": 1772.9,
    "reviewedAt": null,
    "notes": [
      "Draft configuration: Both elongated northeastern and southwestern loops, central diagonal chicane and squared western shoulder. Branch identity was checked against catalogue layout facts and circuit identification references. Independent source distance 1772.9 m; no coordinates are changed to match a diagram or distance. Travel direction and historical alignment remain provisional."
    ]
  },
  "features": [
    {
      "type": "Feature",
      "id": "trace",
      "properties": {
        "role": "trace",
        "sourceIds": [
          "osm-selection-169981548"
        ]
      },
      "geometry": {
        "type": "LineString",
        "coordinates": [
          [
            -3.5815388,
            41.789627
          ],
          [
            -3.5818441,
            41.789506
          ],
          [
            -3.5819103,
            41.7894906
          ],
          [
            -3.5819641,
            41.7894927
          ],
          [
            -3.582011,
            41.7894999
          ],
          [
            -3.5820565,
            41.7895204
          ],
          [
            -3.5823611,
            41.7897578
          ],
          [
            -3.5826506,
            41.7899834
          ],
          [
            -3.5828283,
            41.7901218
          ],
          [
            -3.5828722,
            41.7901581
          ],
          [
            -3.5828965,
            41.7901843
          ],
          [
            -3.5830077,
            41.7903959
          ],
          [
            -3.5830272,
            41.7904163
          ],
          [
            -3.5830487,
            41.7904308
          ],
          [
            -3.5830809,
            41.7904425
          ],
          [
            -3.5831131,
            41.7904468
          ],
          [
            -3.5833072,
            41.7904381
          ],
          [
            -3.5833832,
            41.7904425
          ],
          [
            -3.5834291,
            41.7904512
          ],
          [
            -3.5834837,
            41.790473
          ],
          [
            -3.5835227,
            41.7905021
          ],
          [
            -3.5835412,
            41.790529
          ],
          [
            -3.5835539,
            41.7905705
          ],
          [
            -3.5835574,
            41.7906281
          ],
          [
            -3.583447,
            41.7918868
          ],
          [
            -3.5834566,
            41.7919355
          ],
          [
            -3.5834676,
            41.7919766
          ],
          [
            -3.5834828,
            41.7920177
          ],
          [
            -3.5835035,
            41.7920609
          ],
          [
            -3.5835697,
            41.7921339
          ],
          [
            -3.5836069,
            41.7921658
          ],
          [
            -3.5836304,
            41.7921997
          ],
          [
            -3.5836469,
            41.7922368
          ],
          [
            -3.5836535,
            41.7922794
          ],
          [
            -3.5836428,
            41.792316
          ],
          [
            -3.5836221,
            41.792353
          ],
          [
            -3.5835904,
            41.7923838
          ],
          [
            -3.583549,
            41.7924137
          ],
          [
            -3.5835159,
            41.7924342
          ],
          [
            -3.583469,
            41.7924517
          ],
          [
            -3.5834166,
            41.792463
          ],
          [
            -3.5833614,
            41.7924651
          ],
          [
            -3.58332,
            41.792461
          ],
          [
            -3.5832717,
            41.7924486
          ],
          [
            -3.5832262,
            41.7924322
          ],
          [
            -3.5831793,
            41.7924044
          ],
          [
            -3.5831457,
            41.7923685
          ],
          [
            -3.5825351,
            41.7916224
          ],
          [
            -3.5816573,
            41.790757
          ],
          [
            -3.5816284,
            41.790719
          ],
          [
            -3.5816118,
            41.790683
          ],
          [
            -3.5815994,
            41.7906418
          ],
          [
            -3.581598,
            41.7905997
          ],
          [
            -3.5816035,
            41.7905657
          ],
          [
            -3.5816201,
            41.7905246
          ],
          [
            -3.5816504,
            41.7904896
          ],
          [
            -3.5816918,
            41.7904536
          ],
          [
            -3.5817401,
            41.7904279
          ],
          [
            -3.5817828,
            41.7904084
          ],
          [
            -3.5818587,
            41.7904012
          ],
          [
            -3.5819318,
            41.7904043
          ],
          [
            -3.581987,
            41.7904166
          ],
          [
            -3.5820339,
            41.7904372
          ],
          [
            -3.582078,
            41.7904649
          ],
          [
            -3.582112,
            41.7904946
          ],
          [
            -3.5828505,
            41.7914147
          ],
          [
            -3.5829022,
            41.7914631
          ],
          [
            -3.5829305,
            41.7914811
          ],
          [
            -3.5829581,
            41.7914898
          ],
          [
            -3.5829836,
            41.7914924
          ],
          [
            -3.5830284,
            41.7914893
          ],
          [
            -3.5830553,
            41.7914821
          ],
          [
            -3.5830802,
            41.7914656
          ],
          [
            -3.5830933,
            41.7914481
          ],
          [
            -3.5830995,
            41.7914245
          ],
          [
            -3.5831151,
            41.7909397
          ],
          [
            -3.5831096,
            41.7909047
          ],
          [
            -3.5830999,
            41.7908697
          ],
          [
            -3.5830779,
            41.7908358
          ],
          [
            -3.583053,
            41.790807
          ],
          [
            -3.5820594,
            41.7900327
          ],
          [
            -3.5820144,
            41.7899976
          ],
          [
            -3.5819689,
            41.7899781
          ],
          [
            -3.5819109,
            41.7899658
          ],
          [
            -3.5818406,
            41.7899668
          ],
          [
            -3.5817661,
            41.7899791
          ],
          [
            -3.5817544,
            41.7899818
          ],
          [
            -3.5817123,
            41.7899915
          ],
          [
            -3.5814102,
            41.7901169
          ],
          [
            -3.5813647,
            41.7901272
          ],
          [
            -3.5813054,
            41.7901354
          ],
          [
            -3.5812558,
            41.7901344
          ],
          [
            -3.5811964,
            41.7901262
          ],
          [
            -3.581089,
            41.7901044
          ],
          [
            -3.5805739,
            41.7899999
          ],
          [
            -3.5798681,
            41.7898567
          ],
          [
            -3.579824,
            41.7898434
          ],
          [
            -3.5797688,
            41.7898197
          ],
          [
            -3.5797412,
            41.7897909
          ],
          [
            -3.5797192,
            41.7897662
          ],
          [
            -3.579704,
            41.7897292
          ],
          [
            -3.5797026,
            41.7896891
          ],
          [
            -3.579715,
            41.78965
          ],
          [
            -3.579744,
            41.7896171
          ],
          [
            -3.580782,
            41.7889301
          ],
          [
            -3.5808303,
            41.7888982
          ],
          [
            -3.580884,
            41.7888746
          ],
          [
            -3.5809544,
            41.7888602
          ],
          [
            -3.5813158,
            41.7888684
          ],
          [
            -3.5814344,
            41.7888921
          ],
          [
            -3.5814827,
            41.7889188
          ],
          [
            -3.5815296,
            41.7889599
          ],
          [
            -3.5815723,
            41.7890093
          ],
          [
            -3.5815999,
            41.7890936
          ],
          [
            -3.5816013,
            41.7891461
          ],
          [
            -3.5815848,
            41.7891913
          ],
          [
            -3.5815572,
            41.7892407
          ],
          [
            -3.5815241,
            41.7892839
          ],
          [
            -3.581473,
            41.7893168
          ],
          [
            -3.5814192,
            41.7893394
          ],
          [
            -3.5813682,
            41.7893538
          ],
          [
            -3.580484,
            41.7895204
          ],
          [
            -3.5804496,
            41.7895348
          ],
          [
            -3.580422,
            41.7895585
          ],
          [
            -3.5804109,
            41.7895904
          ],
          [
            -3.5804054,
            41.7896079
          ],
          [
            -3.5804054,
            41.7896367
          ],
          [
            -3.5804123,
            41.7896675
          ],
          [
            -3.5804316,
            41.7896994
          ],
          [
            -3.5804661,
            41.7897241
          ],
          [
            -3.5805075,
            41.7897416
          ],
          [
            -3.5808413,
            41.7898125
          ],
          [
            -3.580924,
            41.7898249
          ],
          [
            -3.5809972,
            41.7898187
          ],
          [
            -3.5810397,
            41.7898122
          ],
          [
            -3.5810647,
            41.7898084
          ],
          [
            -3.5811172,
            41.789794
          ],
          [
            -3.5815388,
            41.789627
          ]
        ]
      }
    }
  ]
}
