{
  "type": "FeatureCollection",
  "bbox": [
    2.035161,
    49.1027345,
    2.0385499,
    49.105103
  ],
  "metadata": {
    "schemaVersion": 1,
    "trackId": "fr-rkc-karting-paris-308ba4b8",
    "layoutId": "rkc-karting-paris",
    "license": "ODbL-1.0",
    "attribution": "© OpenStreetMap contributors",
    "closed": true,
    "geometryStatus": "draft",
    "timingStatus": "missing",
    "timingMode": "shared",
    "lengthM": 1128.8,
    "reviewedAt": null,
    "notes": [
      "Draft route hypothesis: the source cycle is the unique closest nominal-distance match within conservative timing and distance checks. Approximate OSM trace length 1128.8 m. Difference from the supplied layout distance 3.8 m. Course configuration still requires visual review."
    ]
  },
  "features": [
    {
      "type": "Feature",
      "id": "trace",
      "properties": {
        "role": "trace",
        "sourceIds": [
          "osm-network-39759516"
        ]
      },
      "geometry": {
        "type": "LineString",
        "coordinates": [
          [
            2.0365113,
            49.1038262
          ],
          [
            2.036619,
            49.1038579
          ],
          [
            2.0367501,
            49.1038507
          ],
          [
            2.0371103,
            49.1037548
          ],
          [
            2.0371558,
            49.1037194
          ],
          [
            2.0371906,
            49.1036734
          ],
          [
            2.0371857,
            49.10361
          ],
          [
            2.0371836,
            49.1035447
          ],
          [
            2.0372283,
            49.1034898
          ],
          [
            2.0373052,
            49.1034354
          ],
          [
            2.0381801,
            49.102809
          ],
          [
            2.0382157,
            49.1027835
          ],
          [
            2.0382656,
            49.1027544
          ],
          [
            2.0383277,
            49.1027345
          ],
          [
            2.0384214,
            49.1027364
          ],
          [
            2.0384587,
            49.1027421
          ],
          [
            2.038496,
            49.1027609
          ],
          [
            2.0385312,
            49.1027877
          ],
          [
            2.038542,
            49.102821
          ],
          [
            2.0385499,
            49.1028492
          ],
          [
            2.0385379,
            49.1028873
          ],
          [
            2.0384758,
            49.1029276
          ],
          [
            2.0384286,
            49.1029604
          ],
          [
            2.0375397,
            49.1035778
          ],
          [
            2.0375173,
            49.1036187
          ],
          [
            2.0375021,
            49.1036481
          ],
          [
            2.0375313,
            49.1036848
          ],
          [
            2.0376434,
            49.1037634
          ],
          [
            2.0376681,
            49.1038047
          ],
          [
            2.0376476,
            49.1038488
          ],
          [
            2.0375909,
            49.1038838
          ],
          [
            2.0362438,
            49.1042004
          ],
          [
            2.036153,
            49.104211
          ],
          [
            2.0360739,
            49.1041839
          ],
          [
            2.0360443,
            49.1041322
          ],
          [
            2.0360529,
            49.1040655
          ],
          [
            2.0361103,
            49.1039686
          ],
          [
            2.0361438,
            49.103911
          ],
          [
            2.0361387,
            49.1038587
          ],
          [
            2.0361045,
            49.1038165
          ],
          [
            2.0360348,
            49.1037871
          ],
          [
            2.0359397,
            49.1037919
          ],
          [
            2.0355988,
            49.1039015
          ],
          [
            2.0355543,
            49.1039266
          ],
          [
            2.0355213,
            49.1039666
          ],
          [
            2.0355214,
            49.1040166
          ],
          [
            2.0357211,
            49.1043921
          ],
          [
            2.0357883,
            49.104464
          ],
          [
            2.0358832,
            49.104494
          ],
          [
            2.0360095,
            49.1044804
          ],
          [
            2.0363423,
            49.1043725
          ],
          [
            2.0364446,
            49.1043645
          ],
          [
            2.0365176,
            49.1043799
          ],
          [
            2.0365335,
            49.104418
          ],
          [
            2.0364995,
            49.1044717
          ],
          [
            2.0364531,
            49.1045095
          ],
          [
            2.0360732,
            49.1047589
          ],
          [
            2.0360188,
            49.1048103
          ],
          [
            2.0359853,
            49.1048631
          ],
          [
            2.0359773,
            49.1049259
          ],
          [
            2.0360026,
            49.1049763
          ],
          [
            2.0360006,
            49.1050288
          ],
          [
            2.0359911,
            49.1050556
          ],
          [
            2.0359609,
            49.1050778
          ],
          [
            2.0359294,
            49.105096
          ],
          [
            2.0358812,
            49.1051027
          ],
          [
            2.0358141,
            49.105103
          ],
          [
            2.0357576,
            49.1050809
          ],
          [
            2.0356839,
            49.1050038
          ],
          [
            2.0354699,
            49.1046095
          ],
          [
            2.0352109,
            49.1041323
          ],
          [
            2.0352176,
            49.1040729
          ],
          [
            2.0352274,
            49.103999
          ],
          [
            2.0352168,
            49.1039351
          ],
          [
            2.0351644,
            49.1038502
          ],
          [
            2.035161,
            49.1037933
          ],
          [
            2.0352234,
            49.1037546
          ],
          [
            2.0353061,
            49.1037175
          ],
          [
            2.0362547,
            49.1034066
          ],
          [
            2.036406,
            49.1033523
          ],
          [
            2.0365031,
            49.1033599
          ],
          [
            2.0365609,
            49.1033986
          ],
          [
            2.0365635,
            49.103462
          ],
          [
            2.0364316,
            49.1035996
          ],
          [
            2.0363881,
            49.103652
          ],
          [
            2.0363806,
            49.1037005
          ],
          [
            2.0364075,
            49.1037506
          ],
          [
            2.03646,
            49.1037984
          ],
          [
            2.0365113,
            49.1038262
          ]
        ]
      }
    }
  ]
}
