{
  "type": "FeatureCollection",
  "bbox": [
    23.5114482,
    41.0694767,
    23.5216802,
    41.0747717
  ],
  "metadata": {
    "schemaVersion": 1,
    "trackId": "gr-serres-racing-circuit-183478998",
    "layoutId": "main",
    "license": "ODbL-1.0",
    "attribution": "© OpenStreetMap contributors",
    "closed": true,
    "geometryStatus": "draft",
    "timingStatus": "missing",
    "timingMode": "shared",
    "lengthM": 3174.7,
    "reviewedAt": null,
    "notes": [
      "Connected OSM course candidate. The selected loop is the longest simple source-node cycle after explicit exclusions; its association with a named circuit configuration requires review.",
      "Source way order and shared node IDs are retained. No nearby endpoints are joined and no reference boundaries are read."
    ]
  },
  "features": [
    {
      "type": "Feature",
      "id": "trace",
      "properties": {
        "role": "trace",
        "sourceIds": [
          "osm-snapshot"
        ]
      },
      "geometry": {
        "type": "LineString",
        "coordinates": [
          [
            23.5133016,
            41.0742015
          ],
          [
            23.5134008,
            41.0743754
          ],
          [
            23.5134947,
            41.0745674
          ],
          [
            23.513602,
            41.0746685
          ],
          [
            23.513728,
            41.0747373
          ],
          [
            23.5138595,
            41.0747656
          ],
          [
            23.5140821,
            41.0747717
          ],
          [
            23.5143959,
            41.0747474
          ],
          [
            23.5146127,
            41.0747257
          ],
          [
            23.5151987,
            41.0746775
          ],
          [
            23.5153972,
            41.0746573
          ],
          [
            23.5155246,
            41.074637
          ],
          [
            23.5156935,
            41.0745774
          ],
          [
            23.51587,
            41.0744585
          ],
          [
            23.5168099,
            41.073785
          ],
          [
            23.5177949,
            41.0731378
          ],
          [
            23.5185882,
            41.072598
          ],
          [
            23.5189789,
            41.072336
          ],
          [
            23.5192936,
            41.0721249
          ],
          [
            23.5197898,
            41.0717811
          ],
          [
            23.520624,
            41.071219
          ],
          [
            23.5212462,
            41.0707963
          ],
          [
            23.5215561,
            41.070582
          ],
          [
            23.5216285,
            41.0705173
          ],
          [
            23.5216714,
            41.0704445
          ],
          [
            23.5216802,
            41.0703533
          ],
          [
            23.5216695,
            41.0702603
          ],
          [
            23.52164,
            41.0701481
          ],
          [
            23.5215676,
            41.0700288
          ],
          [
            23.5214576,
            41.0698923
          ],
          [
            23.5213289,
            41.0697578
          ],
          [
            23.5212028,
            41.0696597
          ],
          [
            23.5210767,
            41.0695889
          ],
          [
            23.5209118,
            41.0695252
          ],
          [
            23.52072,
            41.0694878
          ],
          [
            23.5205738,
            41.0694767
          ],
          [
            23.5204035,
            41.0694939
          ],
          [
            23.5201903,
            41.0695364
          ],
          [
            23.5200071,
            41.0696154
          ],
          [
            23.5198161,
            41.0697335
          ],
          [
            23.5196847,
            41.0698771
          ],
          [
            23.5193199,
            41.0703634
          ],
          [
            23.5191724,
            41.070506
          ],
          [
            23.5190584,
            41.0705899
          ],
          [
            23.5189511,
            41.0706506
          ],
          [
            23.5188156,
            41.0707052
          ],
          [
            23.51864,
            41.0707446
          ],
          [
            23.5182537,
            41.070779
          ],
          [
            23.5177872,
            41.0707955
          ],
          [
            23.5176877,
            41.0707951
          ],
          [
            23.5175799,
            41.0707882
          ],
          [
            23.5174923,
            41.0707679
          ],
          [
            23.5174079,
            41.0707415
          ],
          [
            23.5173114,
            41.0706963
          ],
          [
            23.5164773,
            41.0702605
          ],
          [
            23.5163163,
            41.0701776
          ],
          [
            23.5162072,
            41.0701235
          ],
          [
            23.5160489,
            41.0700904
          ],
          [
            23.5159384,
            41.0700936
          ],
          [
            23.5158045,
            41.0701211
          ],
          [
            23.5156926,
            41.0701727
          ],
          [
            23.5156136,
            41.0702302
          ],
          [
            23.5155587,
            41.0703183
          ],
          [
            23.5155327,
            41.0704204
          ],
          [
            23.5155361,
            41.0704882
          ],
          [
            23.5155479,
            41.0705567
          ],
          [
            23.5155975,
            41.0706447
          ],
          [
            23.5157102,
            41.0707579
          ],
          [
            23.5162707,
            41.0711846
          ],
          [
            23.5163953,
            41.0712817
          ],
          [
            23.5164365,
            41.0713239
          ],
          [
            23.5164632,
            41.0713728
          ],
          [
            23.5164815,
            41.071455
          ],
          [
            23.5164719,
            41.0715264
          ],
          [
            23.516457,
            41.0715898
          ],
          [
            23.5164219,
            41.0716492
          ],
          [
            23.5163301,
            41.0717879
          ],
          [
            23.5162803,
            41.071875
          ],
          [
            23.5162711,
            41.0719515
          ],
          [
            23.5162949,
            41.0720521
          ],
          [
            23.5164339,
            41.0723598
          ],
          [
            23.5164515,
            41.0724424
          ],
          [
            23.5164406,
            41.0725271
          ],
          [
            23.5163995,
            41.0726223
          ],
          [
            23.516319,
            41.0727153
          ],
          [
            23.5161822,
            41.0728155
          ],
          [
            23.5150834,
            41.0735088
          ],
          [
            23.5149251,
            41.0735836
          ],
          [
            23.5147588,
            41.0736179
          ],
          [
            23.5145563,
            41.0736281
          ],
          [
            23.5135348,
            41.0735666
          ],
          [
            23.5133927,
            41.0735423
          ],
          [
            23.5132774,
            41.0735059
          ],
          [
            23.5131862,
            41.0734453
          ],
          [
            23.5131245,
            41.0733745
          ],
          [
            23.5130762,
            41.0733017
          ],
          [
            23.513052,
            41.0732208
          ],
          [
            23.5130547,
            41.0731318
          ],
          [
            23.5130842,
            41.0730469
          ],
          [
            23.5131835,
            41.0729418
          ],
          [
            23.5133605,
            41.0728144
          ],
          [
            23.5140708,
            41.0723774
          ],
          [
            23.5147011,
            41.0719892
          ],
          [
            23.514972,
            41.0718375
          ],
          [
            23.515096,
            41.0717367
          ],
          [
            23.5151577,
            41.0716538
          ],
          [
            23.5151979,
            41.0715547
          ],
          [
            23.5152033,
            41.0714515
          ],
          [
            23.515163,
            41.0713383
          ],
          [
            23.5150906,
            41.071219
          ],
          [
            23.514978,
            41.07113
          ],
          [
            23.5148822,
            41.071061
          ],
          [
            23.5147875,
            41.0710107
          ],
          [
            23.5146722,
            41.0709642
          ],
          [
            23.5145488,
            41.0709359
          ],
          [
            23.5144147,
            41.0709238
          ],
          [
            23.5142645,
            41.0709258
          ],
          [
            23.514125,
            41.0709501
          ],
          [
            23.5139447,
            41.0710115
          ],
          [
            23.5137986,
            41.0710944
          ],
          [
            23.5125425,
            41.0718296
          ],
          [
            23.5121235,
            41.0720701
          ],
          [
            23.5117995,
            41.0722705
          ],
          [
            23.5116627,
            41.0723898
          ],
          [
            23.5115823,
            41.072505
          ],
          [
            23.5115233,
            41.0726082
          ],
          [
            23.5114723,
            41.0727173
          ],
          [
            23.5114482,
            41.0728488
          ],
          [
            23.5114482,
            41.0729944
          ],
          [
            23.5114803,
            41.0731521
          ],
          [
            23.5115662,
            41.0733017
          ],
          [
            23.5116949,
            41.0734372
          ],
          [
            23.5118237,
            41.0735524
          ],
          [
            23.5120007,
            41.0736535
          ],
          [
            23.512167,
            41.0737263
          ],
          [
            23.5127941,
            41.0739061
          ],
          [
            23.5130355,
            41.0740011
          ],
          [
            23.5131165,
            41.0740437
          ],
          [
            23.5132211,
            41.0741165
          ],
          [
            23.5133016,
            41.0742015
          ]
        ]
      }
    }
  ]
}
