{
  "type": "FeatureCollection",
  "bbox": [
    -2.9411104,
    53.4740904,
    -2.9294445,
    53.4780847
  ],
  "metadata": {
    "schemaVersion": 1,
    "trackId": "gb-aintree-motor-racing-circuit-121110221",
    "layoutId": "aintree-sprint",
    "license": "ODbL-1.0",
    "attribution": "© OpenStreetMap contributors",
    "closed": false,
    "geometryStatus": "draft",
    "timingStatus": "missing",
    "timingMode": "separate",
    "lengthM": 1762.3,
    "reviewedAt": null,
    "notes": [
      "Draft open course. Operator identifies the Aintree sprint on the Club Circuit. The connected open route is the only path close to the supplied sprint distance between the timing endpoints. Approximate planar OSM trace distance 1762.3 m. Both private timing positions agree with existing source endpoints. No artificial closure or missing connector is invented; one-way source tags remain unchanged and event direction remains provisional."
    ]
  },
  "features": [
    {
      "type": "Feature",
      "id": "trace",
      "properties": {
        "role": "trace",
        "sourceIds": [
          "osm-open-network-121110221"
        ]
      },
      "geometry": {
        "type": "LineString",
        "coordinates": [
          [
            -2.9411104,
            53.4752603
          ],
          [
            -2.9408653,
            53.475266
          ],
          [
            -2.9396439,
            53.4752944
          ],
          [
            -2.9382852,
            53.4753303
          ],
          [
            -2.9381548,
            53.4753407
          ],
          [
            -2.9380385,
            53.4753665
          ],
          [
            -2.9379347,
            53.4754097
          ],
          [
            -2.9378429,
            53.4754647
          ],
          [
            -2.9377754,
            53.4755322
          ],
          [
            -2.9377402,
            53.4756001
          ],
          [
            -2.9377277,
            53.4756601
          ],
          [
            -2.9377698,
            53.4771438
          ],
          [
            -2.9377665,
            53.4773185
          ],
          [
            -2.9377333,
            53.4774843
          ],
          [
            -2.9376812,
            53.4776002
          ],
          [
            -2.9376269,
            53.4776683
          ],
          [
            -2.9375101,
            53.4777806
          ],
          [
            -2.9374087,
            53.4778521
          ],
          [
            -2.9373141,
            53.4779028
          ],
          [
            -2.9371097,
            53.4779897
          ],
          [
            -2.9369477,
            53.4780359
          ],
          [
            -2.9368153,
            53.478063
          ],
          [
            -2.9366756,
            53.4780798
          ],
          [
            -2.9365522,
            53.4780847
          ],
          [
            -2.9364206,
            53.4780796
          ],
          [
            -2.936251,
            53.4780593
          ],
          [
            -2.9360863,
            53.4780323
          ],
          [
            -2.9359114,
            53.4779946
          ],
          [
            -2.9356507,
            53.4779279
          ],
          [
            -2.9305412,
            53.4766058
          ],
          [
            -2.929991,
            53.4764634
          ],
          [
            -2.9299015,
            53.4764356
          ],
          [
            -2.9298009,
            53.4763903
          ],
          [
            -2.9297165,
            53.4763364
          ],
          [
            -2.9296375,
            53.4762782
          ],
          [
            -2.9295642,
            53.4762085
          ],
          [
            -2.9295023,
            53.4761242
          ],
          [
            -2.9294683,
            53.4760466
          ],
          [
            -2.9294512,
            53.4759645
          ],
          [
            -2.9294445,
            53.4758672
          ],
          [
            -2.9294509,
            53.4757595
          ],
          [
            -2.9294718,
            53.475637
          ],
          [
            -2.9294958,
            53.475565
          ],
          [
            -2.9295574,
            53.4754479
          ],
          [
            -2.9296348,
            53.4753398
          ],
          [
            -2.9296879,
            53.4752842
          ],
          [
            -2.929777,
            53.4751898
          ],
          [
            -2.929935,
            53.4750662
          ],
          [
            -2.9300976,
            53.4749628
          ],
          [
            -2.9302408,
            53.474882
          ],
          [
            -2.9304088,
            53.4747997
          ],
          [
            -2.9305727,
            53.4747297
          ],
          [
            -2.9306945,
            53.4746843
          ],
          [
            -2.9310114,
            53.4745935
          ],
          [
            -2.9313461,
            53.4745111
          ],
          [
            -2.9317943,
            53.474411
          ],
          [
            -2.9320483,
            53.4743604
          ],
          [
            -2.9322251,
            53.4743297
          ],
          [
            -2.9325441,
            53.4742893
          ],
          [
            -2.9330361,
            53.4742416
          ],
          [
            -2.9333412,
            53.4742243
          ],
          [
            -2.9336681,
            53.4742097
          ],
          [
            -2.9338873,
            53.4742013
          ],
          [
            -2.9365005,
            53.4741292
          ],
          [
            -2.9379692,
            53.4740904
          ]
        ]
      }
    }
  ]
}
