{
  "type": "FeatureCollection",
  "bbox": [
    -73.7828271,
    42.9875253,
    -73.7814218,
    42.9894834
  ],
  "metadata": {
    "schemaVersion": 1,
    "trackId": "us-albany-saratoga-speedway-1164983896",
    "layoutId": "main",
    "license": "ODbL-1.0",
    "attribution": "© OpenStreetMap contributors",
    "closed": true,
    "geometryStatus": "draft",
    "timingStatus": "missing",
    "timingMode": "shared",
    "lengthM": 556.5,
    "reviewedAt": null,
    "notes": [
      "Connected OSM course candidate. The selected loop is the longest simple source-node cycle after explicit exclusions; its association with a named circuit configuration requires review.",
      "Source way order and shared node IDs are retained. No nearby endpoints are joined and no reference boundaries are read.",
      "Some source ways lack one-way direction tags. Travel direction is provisional."
    ]
  },
  "features": [
    {
      "type": "Feature",
      "id": "trace",
      "properties": {
        "role": "trace",
        "sourceIds": [
          "osm-snapshot"
        ]
      },
      "geometry": {
        "type": "LineString",
        "coordinates": [
          [
            -73.7828215,
            42.9890265
          ],
          [
            -73.7826877,
            42.9878639
          ],
          [
            -73.7825761,
            42.9877007
          ],
          [
            -73.7823865,
            42.9875824
          ],
          [
            -73.7821802,
            42.9875253
          ],
          [
            -73.781946,
            42.9875294
          ],
          [
            -73.7817396,
            42.9875906
          ],
          [
            -73.7815612,
            42.987717
          ],
          [
            -73.7814608,
            42.9878843
          ],
          [
            -73.7814218,
            42.9880679
          ],
          [
            -73.7815835,
            42.9891734
          ],
          [
            -73.7816671,
            42.9892998
          ],
          [
            -73.7818679,
            42.9894222
          ],
          [
            -73.7820798,
            42.9894793
          ],
          [
            -73.7823252,
            42.9894834
          ],
          [
            -73.782526,
            42.9894222
          ],
          [
            -73.7826821,
            42.9893406
          ],
          [
            -73.7827881,
            42.9892182
          ],
          [
            -73.7828271,
            42.9890999
          ],
          [
            -73.7828215,
            42.9890265
          ]
        ]
      }
    }
  ]
}
