{
  "type": "FeatureCollection",
  "bbox": [
    -94.2835422,
    46.4097021,
    -94.2666543,
    46.4224667
  ],
  "metadata": {
    "schemaVersion": 1,
    "trackId": "us-brainerd-international-raceway-137243010",
    "layoutId": "main",
    "license": "ODbL-1.0",
    "attribution": "© OpenStreetMap contributors",
    "closed": true,
    "geometryStatus": "draft",
    "timingStatus": "missing",
    "timingMode": "shared",
    "lengthM": 4804.1,
    "reviewedAt": null,
    "notes": [
      "Closed named OSM raceway retained as a course candidate. Named-layout association requires review.",
      "Source way order and shared node IDs are retained. No nearby endpoints are joined and no Racelogic boundaries are read."
    ]
  },
  "features": [
    {
      "type": "Feature",
      "id": "trace",
      "properties": {
        "role": "trace",
        "sourceIds": [
          "osm-snapshot"
        ]
      },
      "geometry": {
        "type": "LineString",
        "coordinates": [
          [
            -94.2729179,
            46.4188056
          ],
          [
            -94.2725307,
            46.4186718
          ],
          [
            -94.2710938,
            46.4181135
          ],
          [
            -94.2686957,
            46.4172173
          ],
          [
            -94.2681606,
            46.4169954
          ],
          [
            -94.2675342,
            46.4165713
          ],
          [
            -94.2671644,
            46.416082
          ],
          [
            -94.266792,
            46.4155127
          ],
          [
            -94.2666543,
            46.4147537
          ],
          [
            -94.2668081,
            46.412962
          ],
          [
            -94.2669863,
            46.4119126
          ],
          [
            -94.2672453,
            46.4112818
          ],
          [
            -94.2675772,
            46.4109246
          ],
          [
            -94.2681844,
            46.4104055
          ],
          [
            -94.2694393,
            46.4100259
          ],
          [
            -94.2714875,
            46.409864
          ],
          [
            -94.2736734,
            46.4097021
          ],
          [
            -94.2743454,
            46.4097635
          ],
          [
            -94.2746368,
            46.4100817
          ],
          [
            -94.2744992,
            46.4105618
          ],
          [
            -94.2726048,
            46.4128447
          ],
          [
            -94.2726048,
            46.413241
          ],
          [
            -94.2730986,
            46.4134811
          ],
          [
            -94.2744506,
            46.4136094
          ],
          [
            -94.2749363,
            46.4138104
          ],
          [
            -94.2750983,
            46.4141899
          ],
          [
            -94.274993,
            46.4158309
          ],
          [
            -94.2751792,
            46.4161379
          ],
          [
            -94.2756002,
            46.416322
          ],
          [
            -94.276936,
            46.416283
          ],
          [
            -94.27896,
            46.4161713
          ],
          [
            -94.2793638,
            46.4160883
          ],
          [
            -94.2801339,
            46.4156523
          ],
          [
            -94.2806126,
            46.415628
          ],
          [
            -94.2811054,
            46.4157806
          ],
          [
            -94.2829188,
            46.4163834
          ],
          [
            -94.2833155,
            46.4166904
          ],
          [
            -94.2835098,
            46.417109
          ],
          [
            -94.2835378,
            46.4179442
          ],
          [
            -94.2835422,
            46.4180746
          ],
          [
            -94.2835342,
            46.4210479
          ],
          [
            -94.2835341,
            46.4210939
          ],
          [
            -94.2835179,
            46.4220817
          ],
          [
            -94.2832346,
            46.422344
          ],
          [
            -94.2826517,
            46.4224667
          ],
          [
            -94.2818798,
            46.4222397
          ],
          [
            -94.280428,
            46.4216593
          ],
          [
            -94.2793783,
            46.4212575
          ],
          [
            -94.2783097,
            46.4208557
          ],
          [
            -94.2766824,
            46.4202343
          ],
          [
            -94.2758769,
            46.4199276
          ],
          [
            -94.2746316,
            46.4194437
          ],
          [
            -94.2729179,
            46.4188056
          ]
        ]
      }
    }
  ]
}
