{
  "type": "FeatureCollection",
  "bbox": [
    -1.6860367,
    51.8647536,
    -1.6823972,
    51.8670398
  ],
  "metadata": {
    "schemaVersion": 1,
    "trackId": "gb-rissington-kart-circuit-12acd2fe",
    "layoutId": "rissington-gearbox",
    "license": "ODbL-1.0",
    "attribution": "© OpenStreetMap contributors",
    "closed": true,
    "geometryStatus": "draft",
    "timingStatus": "missing",
    "timingMode": "shared",
    "lengthM": 868.2,
    "reviewedAt": null,
    "notes": [
      "The club Gearbox Circuit plan identifies the full northern hairpin and long outer southern return, bypassing the inner loop and eastern dog-leg. The pinned source loop measures 868.2 m, while the published plan states 970 m. This discrepancy remains recorded; coordinates are not adjusted. Exact source coordinates are unchanged; historical alignment and direction remain provisional."
    ]
  },
  "features": [
    {
      "type": "Feature",
      "id": "trace",
      "properties": {
        "role": "trace",
        "sourceIds": [
          "osm-components-1209543886"
        ]
      },
      "geometry": {
        "type": "LineString",
        "coordinates": [
          [
            -1.6854375,
            51.8653957
          ],
          [
            -1.6857789,
            51.8655335
          ],
          [
            -1.6858572,
            51.865569
          ],
          [
            -1.6859175,
            51.8656046
          ],
          [
            -1.6859674,
            51.8656463
          ],
          [
            -1.686007,
            51.8656885
          ],
          [
            -1.68603,
            51.8657299
          ],
          [
            -1.6860367,
            51.8657688
          ],
          [
            -1.6860241,
            51.8658129
          ],
          [
            -1.6860007,
            51.865854
          ],
          [
            -1.6859692,
            51.8658946
          ],
          [
            -1.6855998,
            51.8662576
          ],
          [
            -1.6855457,
            51.8662989
          ],
          [
            -1.6854856,
            51.8663324
          ],
          [
            -1.6854127,
            51.8663609
          ],
          [
            -1.6853418,
            51.8663804
          ],
          [
            -1.6852689,
            51.8663919
          ],
          [
            -1.685198,
            51.8663944
          ],
          [
            -1.6851271,
            51.8663889
          ],
          [
            -1.685068,
            51.8663786
          ],
          [
            -1.685009,
            51.8663579
          ],
          [
            -1.68462,
            51.8661542
          ],
          [
            -1.6845599,
            51.8661378
          ],
          [
            -1.6844841,
            51.8661299
          ],
          [
            -1.6844073,
            51.8661341
          ],
          [
            -1.6843452,
            51.8661493
          ],
          [
            -1.684297,
            51.866173
          ],
          [
            -1.6842674,
            51.8662059
          ],
          [
            -1.6842379,
            51.8662576
          ],
          [
            -1.6842231,
            51.8663044
          ],
          [
            -1.684229,
            51.8663561
          ],
          [
            -1.6842497,
            51.8663992
          ],
          [
            -1.6842803,
            51.8664357
          ],
          [
            -1.6843393,
            51.866471
          ],
          [
            -1.6844043,
            51.8665063
          ],
          [
            -1.6848071,
            51.8667015
          ],
          [
            -1.6848613,
            51.8667385
          ],
          [
            -1.6849134,
            51.8667866
          ],
          [
            -1.68494,
            51.8668419
          ],
          [
            -1.684939,
            51.8668954
          ],
          [
            -1.6849184,
            51.8669429
          ],
          [
            -1.6848701,
            51.8669824
          ],
          [
            -1.6848078,
            51.8670146
          ],
          [
            -1.6847244,
            51.8670353
          ],
          [
            -1.6846528,
            51.8670398
          ],
          [
            -1.6845657,
            51.8670312
          ],
          [
            -1.6844857,
            51.8670059
          ],
          [
            -1.6840158,
            51.8667675
          ],
          [
            -1.6839035,
            51.8667105
          ],
          [
            -1.6831241,
            51.866308
          ],
          [
            -1.683044,
            51.8662524
          ],
          [
            -1.6829602,
            51.8661782
          ],
          [
            -1.6828739,
            51.866084
          ],
          [
            -1.6827926,
            51.8659774
          ],
          [
            -1.6827191,
            51.8658788
          ],
          [
            -1.6824898,
            51.865571
          ],
          [
            -1.6824373,
            51.8654937
          ],
          [
            -1.6823972,
            51.8654157
          ],
          [
            -1.6823997,
            51.8653385
          ],
          [
            -1.6824348,
            51.8652612
          ],
          [
            -1.6824936,
            51.8652009
          ],
          [
            -1.6825586,
            51.8651546
          ],
          [
            -1.6826424,
            51.8651198
          ],
          [
            -1.6830133,
            51.8650169
          ],
          [
            -1.6832242,
            51.8649584
          ],
          [
            -1.683856,
            51.8647791
          ],
          [
            -1.6839611,
            51.8647598
          ],
          [
            -1.6840724,
            51.8647536
          ],
          [
            -1.6841588,
            51.864766
          ],
          [
            -1.6842438,
            51.8647946
          ],
          [
            -1.6843477,
            51.8648448
          ],
          [
            -1.6845137,
            51.8649362
          ],
          [
            -1.6851044,
            51.8652348
          ],
          [
            -1.6852561,
            51.865308
          ],
          [
            -1.6854375,
            51.8653957
          ]
        ]
      }
    }
  ]
}
