{
  "type": "FeatureCollection",
  "bbox": [
    -1.7976045,
    39.0030796,
    -1.7892665,
    39.0094934
  ],
  "metadata": {
    "schemaVersion": 1,
    "trackId": "es-circuito-de-albacete-42783924",
    "layoutId": "albacete-old",
    "license": "ODbL-1.0",
    "attribution": "© OpenStreetMap contributors",
    "closed": true,
    "geometryStatus": "draft",
    "timingStatus": "missing",
    "timingMode": "shared",
    "lengthM": 3587.8,
    "reviewedAt": null,
    "notes": [
      "Draft route hypothesis: the source cycle is the unique closest nominal-distance match within conservative timing and distance checks. Approximate OSM trace length 3587.8 m. Difference from the supplied layout distance 10.8 m. Course configuration still requires visual review."
    ]
  },
  "features": [
    {
      "type": "Feature",
      "id": "trace",
      "properties": {
        "role": "trace",
        "sourceIds": [
          "osm-network-42783924"
        ]
      },
      "geometry": {
        "type": "LineString",
        "coordinates": [
          [
            -1.7948105,
            39.003729
          ],
          [
            -1.797392,
            39.0083413
          ],
          [
            -1.7974437,
            39.0084334
          ],
          [
            -1.7975602,
            39.0086649
          ],
          [
            -1.7976045,
            39.0088066
          ],
          [
            -1.7975992,
            39.0089688
          ],
          [
            -1.7975054,
            39.0091077
          ],
          [
            -1.7973886,
            39.0091819
          ],
          [
            -1.7972364,
            39.0092411
          ],
          [
            -1.7970948,
            39.0092644
          ],
          [
            -1.7969727,
            39.0092631
          ],
          [
            -1.7967728,
            39.0092328
          ],
          [
            -1.7965498,
            39.0091916
          ],
          [
            -1.7963056,
            39.0091737
          ],
          [
            -1.796003,
            39.0091778
          ],
          [
            -1.7956455,
            39.0092273
          ],
          [
            -1.7953642,
            39.0092864
          ],
          [
            -1.7950999,
            39.0093655
          ],
          [
            -1.7950444,
            39.0093894
          ],
          [
            -1.7949438,
            39.0094279
          ],
          [
            -1.7948402,
            39.0094642
          ],
          [
            -1.7947467,
            39.0094811
          ],
          [
            -1.7946631,
            39.0094893
          ],
          [
            -1.7944915,
            39.0094934
          ],
          [
            -1.7943735,
            39.0094809
          ],
          [
            -1.7942313,
            39.0094469
          ],
          [
            -1.7941405,
            39.0094144
          ],
          [
            -1.7940596,
            39.0093761
          ],
          [
            -1.7939545,
            39.0093144
          ],
          [
            -1.7929268,
            39.0085234
          ],
          [
            -1.7928906,
            39.0084942
          ],
          [
            -1.7928594,
            39.0084584
          ],
          [
            -1.7928387,
            39.0084183
          ],
          [
            -1.7928262,
            39.0083858
          ],
          [
            -1.7928209,
            39.0083493
          ],
          [
            -1.7928182,
            39.0083149
          ],
          [
            -1.7928236,
            39.0082753
          ],
          [
            -1.7928383,
            39.0082326
          ],
          [
            -1.7928598,
            39.008193
          ],
          [
            -1.7928879,
            39.0081576
          ],
          [
            -1.7929241,
            39.0081232
          ],
          [
            -1.792963,
            39.0080982
          ],
          [
            -1.7930194,
            39.0080753
          ],
          [
            -1.7930811,
            39.0080607
          ],
          [
            -1.793136,
            39.0080555
          ],
          [
            -1.7931924,
            39.0080544
          ],
          [
            -1.7932433,
            39.0080575
          ],
          [
            -1.7932943,
            39.008068
          ],
          [
            -1.7933385,
            39.0080857
          ],
          [
            -1.7933774,
            39.0081065
          ],
          [
            -1.7942639,
            39.0086474
          ],
          [
            -1.7943256,
            39.0086818
          ],
          [
            -1.7943873,
            39.0087109
          ],
          [
            -1.7944208,
            39.0087193
          ],
          [
            -1.7944572,
            39.0087235
          ],
          [
            -1.7944964,
            39.0087225
          ],
          [
            -1.7945482,
            39.0087172
          ],
          [
            -1.7946058,
            39.0087027
          ],
          [
            -1.7954427,
            39.0084775
          ],
          [
            -1.7955111,
            39.0084525
          ],
          [
            -1.7955401,
            39.0084369
          ],
          [
            -1.7955621,
            39.0084171
          ],
          [
            -1.7955782,
            39.0083973
          ],
          [
            -1.7955943,
            39.0083691
          ],
          [
            -1.795605,
            39.0083473
          ],
          [
            -1.7956117,
            39.0083254
          ],
          [
            -1.7956171,
            39.0082972
          ],
          [
            -1.7956157,
            39.0082712
          ],
          [
            -1.7956077,
            39.0082472
          ],
          [
            -1.7955876,
            39.0082087
          ],
          [
            -1.7942183,
            39.0057576
          ],
          [
            -1.7941727,
            39.0056763
          ],
          [
            -1.7941419,
            39.0056294
          ],
          [
            -1.7941124,
            39.005596
          ],
          [
            -1.7940802,
            39.00557
          ],
          [
            -1.7940413,
            39.0055439
          ],
          [
            -1.7939957,
            39.005522
          ],
          [
            -1.7939233,
            39.0054991
          ],
          [
            -1.7931387,
            39.0053108
          ],
          [
            -1.7915908,
            39.0049377
          ],
          [
            -1.7913935,
            39.0048908
          ],
          [
            -1.7912219,
            39.0048908
          ],
          [
            -1.7910931,
            39.0049116
          ],
          [
            -1.7909376,
            39.004945
          ],
          [
            -1.7907605,
            39.0050367
          ],
          [
            -1.7906264,
            39.0051576
          ],
          [
            -1.7905352,
            39.0053243
          ],
          [
            -1.790503,
            39.0054619
          ],
          [
            -1.790503,
            39.0056453
          ],
          [
            -1.7905701,
            39.0057751
          ],
          [
            -1.7906935,
            39.0059169
          ],
          [
            -1.7908866,
            39.0060294
          ],
          [
            -1.791195,
            39.006108
          ],
          [
            -1.79182,
            39.0062545
          ],
          [
            -1.7919943,
            39.0063206
          ],
          [
            -1.7920802,
            39.0063915
          ],
          [
            -1.7921258,
            39.0064713
          ],
          [
            -1.7921472,
            39.0065755
          ],
          [
            -1.7921285,
            39.0067541
          ],
          [
            -1.7919222,
            39.0079614
          ],
          [
            -1.7918726,
            39.0080529
          ],
          [
            -1.7917905,
            39.0081381
          ],
          [
            -1.7916349,
            39.0082214
          ],
          [
            -1.7914123,
            39.0082387
          ],
          [
            -1.791223,
            39.0081997
          ],
          [
            -1.7910663,
            39.0081172
          ],
          [
            -1.7909215,
            39.0080005
          ],
          [
            -1.7908088,
            39.0078546
          ],
          [
            -1.789289,
            39.0051866
          ],
          [
            -1.7892665,
            39.0050998
          ],
          [
            -1.7892665,
            39.0050123
          ],
          [
            -1.7892665,
            39.0048956
          ],
          [
            -1.7893041,
            39.0047955
          ],
          [
            -1.7893899,
            39.0046621
          ],
          [
            -1.7895023,
            39.0045541
          ],
          [
            -1.7896394,
            39.0044822
          ],
          [
            -1.790634,
            39.0041474
          ],
          [
            -1.790706,
            39.0041291
          ],
          [
            -1.7908114,
            39.00412
          ],
          [
            -1.7910501,
            39.0041223
          ],
          [
            -1.7914871,
            39.0041318
          ],
          [
            -1.7920239,
            39.0041397
          ],
          [
            -1.792682,
            39.0041576
          ],
          [
            -1.7928031,
            39.0041548
          ],
          [
            -1.7928732,
            39.0041388
          ],
          [
            -1.7929287,
            39.004111
          ],
          [
            -1.7929787,
            39.0040731
          ],
          [
            -1.7930038,
            39.0040281
          ],
          [
            -1.7930254,
            39.0039522
          ],
          [
            -1.7930626,
            39.0036686
          ],
          [
            -1.7930778,
            39.0035753
          ],
          [
            -1.7930976,
            39.0035178
          ],
          [
            -1.7931324,
            39.0034541
          ],
          [
            -1.7931963,
            39.0033638
          ],
          [
            -1.7932679,
            39.0033031
          ],
          [
            -1.7933038,
            39.0032727
          ],
          [
            -1.7934188,
            39.0031948
          ],
          [
            -1.7935588,
            39.0031383
          ],
          [
            -1.7936918,
            39.003099
          ],
          [
            -1.7938087,
            39.0030837
          ],
          [
            -1.7939503,
            39.0030796
          ],
          [
            -1.7940992,
            39.0030958
          ],
          [
            -1.7942478,
            39.0031358
          ],
          [
            -1.794385,
            39.0031929
          ],
          [
            -1.7944925,
            39.0032602
          ],
          [
            -1.7946279,
            39.0033903
          ],
          [
            -1.7947035,
            39.003508
          ],
          [
            -1.7948105,
            39.003729
          ]
        ]
      }
    }
  ]
}
