{
  "type": "FeatureCollection",
  "bbox": [
    -84.2513474,
    9.9706057,
    -84.2480478,
    9.9764016
  ],
  "metadata": {
    "schemaVersion": 1,
    "trackId": "cr-parque-viva-a2145eb2",
    "layoutId": "parque-viva",
    "license": "ODbL-1.0",
    "attribution": "© OpenStreetMap contributors",
    "closed": true,
    "geometryStatus": "draft",
    "timingStatus": "missing",
    "timingMode": "shared",
    "lengthM": 2020.5,
    "reviewedAt": null,
    "notes": [
      "Draft configuration: Full course with northern loop and direct southeastern return; excludes the extra southern spur. Branch identity was checked against catalogue layout facts and circuit identification references. Independent source distance 2020.5 m; no coordinates are changed to match a diagram or distance. Travel direction and historical alignment remain provisional."
    ]
  },
  "features": [
    {
      "type": "Feature",
      "id": "trace",
      "properties": {
        "role": "trace",
        "sourceIds": [
          "osm-selection-633773593"
        ]
      },
      "geometry": {
        "type": "LineString",
        "coordinates": [
          [
            -84.2480478,
            9.9760562
          ],
          [
            -84.2480649,
            9.9761452
          ],
          [
            -84.2481068,
            9.9762411
          ],
          [
            -84.2481534,
            9.9762952
          ],
          [
            -84.2482141,
            9.9763494
          ],
          [
            -84.2483077,
            9.9763884
          ],
          [
            -84.2484218,
            9.9764016
          ],
          [
            -84.2485281,
            9.9763878
          ],
          [
            -84.24864,
            9.9763554
          ],
          [
            -84.2487627,
            9.976282
          ],
          [
            -84.24885,
            9.9762086
          ],
          [
            -84.2488928,
            9.9761399
          ],
          [
            -84.248923,
            9.9760734
          ],
          [
            -84.2489331,
            9.9760076
          ],
          [
            -84.2489259,
            9.9759182
          ],
          [
            -84.2488527,
            9.9756898
          ],
          [
            -84.2488122,
            9.9755974
          ],
          [
            -84.2487739,
            9.9755386
          ],
          [
            -84.2487345,
            9.9755094
          ],
          [
            -84.2486805,
            9.9754784
          ],
          [
            -84.2484253,
            9.9754107
          ],
          [
            -84.248344,
            9.9753759
          ],
          [
            -84.2482945,
            9.9753412
          ],
          [
            -84.2482513,
            9.9752802
          ],
          [
            -84.2482228,
            9.9752082
          ],
          [
            -84.2482126,
            9.9751408
          ],
          [
            -84.2483032,
            9.9721035
          ],
          [
            -84.2483151,
            9.97199
          ],
          [
            -84.2483539,
            9.971915
          ],
          [
            -84.248412,
            9.9718619
          ],
          [
            -84.2486612,
            9.9717765
          ],
          [
            -84.2495691,
            9.9714556
          ],
          [
            -84.2497246,
            9.9713993
          ],
          [
            -84.2499862,
            9.9713085
          ],
          [
            -84.2503158,
            9.9711963
          ],
          [
            -84.2505568,
            9.97118
          ],
          [
            -84.2506752,
            9.9712042
          ],
          [
            -84.2507635,
            9.9712514
          ],
          [
            -84.25082,
            9.9713126
          ],
          [
            -84.2508762,
            9.9713836
          ],
          [
            -84.2509182,
            9.971472
          ],
          [
            -84.2509533,
            9.9715728
          ],
          [
            -84.2509668,
            9.9717115
          ],
          [
            -84.2509741,
            9.9717648
          ],
          [
            -84.2510097,
            9.971825
          ],
          [
            -84.2510465,
            9.9718532
          ],
          [
            -84.2511116,
            9.9718779
          ],
          [
            -84.2511741,
            9.9718779
          ],
          [
            -84.2512298,
            9.9718633
          ],
          [
            -84.2512679,
            9.9718277
          ],
          [
            -84.2512969,
            9.9717934
          ],
          [
            -84.2513082,
            9.971759
          ],
          [
            -84.2513216,
            9.9715186
          ],
          [
            -84.2513474,
            9.9711591
          ],
          [
            -84.2513344,
            9.9710887
          ],
          [
            -84.2513072,
            9.9710217
          ],
          [
            -84.25127,
            9.9709468
          ],
          [
            -84.251208,
            9.9708685
          ],
          [
            -84.2511542,
            9.9708099
          ],
          [
            -84.2510606,
            9.9707411
          ],
          [
            -84.2508866,
            9.9706561
          ],
          [
            -84.2507821,
            9.9706172
          ],
          [
            -84.2506335,
            9.9706057
          ],
          [
            -84.2504851,
            9.9706199
          ],
          [
            -84.2496962,
            9.9707702
          ],
          [
            -84.2494977,
            9.970808
          ],
          [
            -84.2486736,
            9.9709507
          ],
          [
            -84.2485804,
            9.9709665
          ],
          [
            -84.2485138,
            9.9709802
          ],
          [
            -84.248438,
            9.9710122
          ],
          [
            -84.2483691,
            9.9710554
          ],
          [
            -84.2483065,
            9.9711132
          ],
          [
            -84.2482626,
            9.9711694
          ],
          [
            -84.2482199,
            9.9712484
          ],
          [
            -84.2481823,
            9.9713657
          ],
          [
            -84.2481752,
            9.9715151
          ],
          [
            -84.2480478,
            9.9760562
          ]
        ]
      }
    }
  ]
}
