{
  "type": "FeatureCollection",
  "bbox": [
    -0.4845273,
    52.2295998,
    -0.4642395,
    52.2369668
  ],
  "metadata": {
    "schemaVersion": 1,
    "trackId": "gb-bedford-autodrome-27782784",
    "layoutId": "bedford-autodrome-southwest",
    "license": "ODbL-1.0",
    "attribution": "© OpenStreetMap contributors",
    "closed": true,
    "geometryStatus": "draft",
    "timingStatus": "missing",
    "timingMode": "shared",
    "lengthM": 4603.5,
    "reviewedAt": null,
    "notes": [
      "Draft configuration: Southwestern configuration includes the western bends, central hairpin and direct northeastern turnaround; excludes the extended eastern loop. Branch identity was checked against catalogue layout facts and circuit identification references. Independent source distance 4603.5 m; no coordinates are changed to match a diagram or distance. Travel direction and historical alignment remain provisional."
    ]
  },
  "features": [
    {
      "type": "Feature",
      "id": "trace",
      "properties": {
        "role": "trace",
        "sourceIds": [
          "osm-selection-27782783"
        ]
      },
      "geometry": {
        "type": "LineString",
        "coordinates": [
          [
            -0.4755759,
            52.2326387
          ],
          [
            -0.4758992,
            52.2340404
          ],
          [
            -0.4758965,
            52.2341913
          ],
          [
            -0.4758401,
            52.2343309
          ],
          [
            -0.4757291,
            52.2344663
          ],
          [
            -0.4755687,
            52.2345748
          ],
          [
            -0.475183,
            52.2347486
          ],
          [
            -0.4742866,
            52.2351398
          ],
          [
            -0.4723994,
            52.2359774
          ],
          [
            -0.4712303,
            52.2365018
          ],
          [
            -0.4711696,
            52.2365656
          ],
          [
            -0.4711579,
            52.2366264
          ],
          [
            -0.4711756,
            52.2366801
          ],
          [
            -0.4712327,
            52.2367276
          ],
          [
            -0.4713308,
            52.2367606
          ],
          [
            -0.4721262,
            52.2368788
          ],
          [
            -0.4725819,
            52.2369444
          ],
          [
            -0.4729697,
            52.2369668
          ],
          [
            -0.4732808,
            52.2369582
          ],
          [
            -0.4733731,
            52.2369556
          ],
          [
            -0.4736584,
            52.2369214
          ],
          [
            -0.475485,
            52.2365587
          ],
          [
            -0.4769257,
            52.2362741
          ],
          [
            -0.4771161,
            52.2362511
          ],
          [
            -0.4773081,
            52.2361938
          ],
          [
            -0.4776043,
            52.2360655
          ],
          [
            -0.4778543,
            52.2358984
          ],
          [
            -0.4780336,
            52.235692
          ],
          [
            -0.4781273,
            52.235479
          ],
          [
            -0.4781514,
            52.235276
          ],
          [
            -0.478035,
            52.2346105
          ],
          [
            -0.4780409,
            52.2344881
          ],
          [
            -0.4780804,
            52.2343492
          ],
          [
            -0.4781806,
            52.2341889
          ],
          [
            -0.4783431,
            52.2340225
          ],
          [
            -0.4786081,
            52.2338693
          ],
          [
            -0.481589,
            52.2323877
          ],
          [
            -0.4816333,
            52.2323119
          ],
          [
            -0.4816507,
            52.232229
          ],
          [
            -0.4816449,
            52.232179
          ],
          [
            -0.4816386,
            52.2320787
          ],
          [
            -0.4816145,
            52.2319513
          ],
          [
            -0.481644,
            52.2318577
          ],
          [
            -0.4817164,
            52.2317895
          ],
          [
            -0.4818157,
            52.2317435
          ],
          [
            -0.4819471,
            52.2317115
          ],
          [
            -0.4821281,
            52.2316721
          ],
          [
            -0.4822596,
            52.2316285
          ],
          [
            -0.4824178,
            52.2315489
          ],
          [
            -0.4826364,
            52.2314092
          ],
          [
            -0.482796,
            52.2312819
          ],
          [
            -0.4829424,
            52.2311121
          ],
          [
            -0.4833329,
            52.2304534
          ],
          [
            -0.4834416,
            52.2303743
          ],
          [
            -0.4836309,
            52.2303385
          ],
          [
            -0.4839962,
            52.2303426
          ],
          [
            -0.4842276,
            52.2303069
          ],
          [
            -0.4843934,
            52.2302194
          ],
          [
            -0.4844798,
            52.2301311
          ],
          [
            -0.4845273,
            52.2300191
          ],
          [
            -0.48452,
            52.2299046
          ],
          [
            -0.4844529,
            52.2297911
          ],
          [
            -0.4843146,
            52.2296957
          ],
          [
            -0.4841326,
            52.2296367
          ],
          [
            -0.4839436,
            52.2296098
          ],
          [
            -0.4823654,
            52.2295998
          ],
          [
            -0.4820717,
            52.2296182
          ],
          [
            -0.4787393,
            52.2299583
          ],
          [
            -0.4763594,
            52.2301988
          ],
          [
            -0.4761744,
            52.2302085
          ],
          [
            -0.4747951,
            52.2303527
          ],
          [
            -0.4690295,
            52.2309412
          ],
          [
            -0.4688476,
            52.2309818
          ],
          [
            -0.4686876,
            52.2310552
          ],
          [
            -0.4686,
            52.2311213
          ],
          [
            -0.4685857,
            52.2312228
          ],
          [
            -0.4686071,
            52.2313131
          ],
          [
            -0.4685924,
            52.231378
          ],
          [
            -0.4685307,
            52.2314404
          ],
          [
            -0.4684395,
            52.2314823
          ],
          [
            -0.467782,
            52.2316307
          ],
          [
            -0.4656805,
            52.2321224
          ],
          [
            -0.4655306,
            52.2321895
          ],
          [
            -0.4654511,
            52.2322687
          ],
          [
            -0.4653767,
            52.232414
          ],
          [
            -0.4652865,
            52.2325526
          ],
          [
            -0.465138,
            52.2327158
          ],
          [
            -0.464273,
            52.2336333
          ],
          [
            -0.4642395,
            52.2337132
          ],
          [
            -0.4642562,
            52.2337882
          ],
          [
            -0.464344,
            52.2338875
          ],
          [
            -0.4657938,
            52.2350359
          ],
          [
            -0.4659976,
            52.2351899
          ],
          [
            -0.4661585,
            52.2352697
          ],
          [
            -0.4663329,
            52.2353157
          ],
          [
            -0.466569,
            52.2353407
          ],
          [
            -0.4667795,
            52.2353227
          ],
          [
            -0.4670123,
            52.2352596
          ],
          [
            -0.4713143,
            52.2332975
          ],
          [
            -0.4715549,
            52.2332286
          ],
          [
            -0.4717956,
            52.2331891
          ],
          [
            -0.4720115,
            52.2331735
          ],
          [
            -0.4722046,
            52.2331473
          ],
          [
            -0.4723585,
            52.2330981
          ],
          [
            -0.4724748,
            52.2330281
          ],
          [
            -0.4725522,
            52.2329363
          ],
          [
            -0.4726224,
            52.2328023
          ],
          [
            -0.4727082,
            52.2326955
          ],
          [
            -0.4728578,
            52.2325891
          ],
          [
            -0.4734238,
            52.2323329
          ],
          [
            -0.4742807,
            52.2319387
          ],
          [
            -0.4745137,
            52.2318893
          ],
          [
            -0.4747138,
            52.2318774
          ],
          [
            -0.4748972,
            52.2318942
          ],
          [
            -0.4750796,
            52.2319369
          ],
          [
            -0.4752352,
            52.2320092
          ],
          [
            -0.4753693,
            52.2321045
          ],
          [
            -0.4754776,
            52.2322377
          ],
          [
            -0.4755759,
            52.2326387
          ]
        ]
      }
    }
  ]
}
