{
  "type": "FeatureCollection",
  "bbox": [
    -0.4711435,
    52.2341453,
    -0.4632981,
    52.237699
  ],
  "metadata": {
    "schemaVersion": 1,
    "trackId": "gb-bedford-autodrome-27782784",
    "layoutId": "bedford-autodrome-north",
    "license": "ODbL-1.0",
    "attribution": "© OpenStreetMap contributors",
    "closed": true,
    "geometryStatus": "draft",
    "timingStatus": "missing",
    "timingMode": "shared",
    "lengthM": 1598.4,
    "reviewedAt": null,
    "notes": [
      "Draft identification from a uniquely connected OSM course with a matching layout name. Private Racelogic start/finish GPS supports the venue association. Named source geometry and configuration still require visual review."
    ]
  },
  "features": [
    {
      "type": "Feature",
      "id": "trace",
      "properties": {
        "role": "trace",
        "sourceIds": [
          "osm-snapshot"
        ]
      },
      "geometry": {
        "type": "LineString",
        "coordinates": [
          [
            -0.4694858,
            52.2365095
          ],
          [
            -0.4695083,
            52.2365769
          ],
          [
            -0.4694691,
            52.2366354
          ],
          [
            -0.46939,
            52.2366905
          ],
          [
            -0.4692558,
            52.2367366
          ],
          [
            -0.4689474,
            52.2367974
          ],
          [
            -0.4683305,
            52.2369204
          ],
          [
            -0.464446,
            52.2376822
          ],
          [
            -0.4642642,
            52.237699
          ],
          [
            -0.4641154,
            52.2376854
          ],
          [
            -0.4639796,
            52.2376472
          ],
          [
            -0.4638575,
            52.2375836
          ],
          [
            -0.4633385,
            52.2371564
          ],
          [
            -0.4632997,
            52.2370898
          ],
          [
            -0.4632981,
            52.2370201
          ],
          [
            -0.4633425,
            52.2369529
          ],
          [
            -0.4634342,
            52.236902
          ],
          [
            -0.4644247,
            52.2364517
          ],
          [
            -0.4645439,
            52.2364269
          ],
          [
            -0.4646518,
            52.2364308
          ],
          [
            -0.4647692,
            52.2364641
          ],
          [
            -0.4648279,
            52.2365081
          ],
          [
            -0.4649147,
            52.2365369
          ],
          [
            -0.4650059,
            52.2365393
          ],
          [
            -0.4651119,
            52.2365188
          ],
          [
            -0.4668931,
            52.2357037
          ],
          [
            -0.4701966,
            52.234192
          ],
          [
            -0.4704103,
            52.2341453
          ],
          [
            -0.470617,
            52.2341474
          ],
          [
            -0.4708505,
            52.2341978
          ],
          [
            -0.471017,
            52.2342901
          ],
          [
            -0.4711056,
            52.2343924
          ],
          [
            -0.4711435,
            52.2344932
          ],
          [
            -0.4711327,
            52.2346112
          ],
          [
            -0.4710701,
            52.2347048
          ],
          [
            -0.4709599,
            52.2347977
          ],
          [
            -0.4708083,
            52.2348673
          ],
          [
            -0.4680953,
            52.2356334
          ],
          [
            -0.4679197,
            52.2357213
          ],
          [
            -0.4678376,
            52.2358196
          ],
          [
            -0.4678155,
            52.2359283
          ],
          [
            -0.4678577,
            52.2360416
          ],
          [
            -0.4679349,
            52.236122
          ],
          [
            -0.4680523,
            52.2361655
          ],
          [
            -0.4692798,
            52.2364113
          ],
          [
            -0.4694195,
            52.2364589
          ],
          [
            -0.4694858,
            52.2365095
          ]
        ]
      }
    }
  ]
}
