{
  "type": "FeatureCollection",
  "bbox": [
    -0.4845273,
    52.2295998,
    -0.4711579,
    52.2369668
  ],
  "metadata": {
    "schemaVersion": 1,
    "trackId": "gb-bedford-autodrome-27782784",
    "layoutId": "main",
    "license": "ODbL-1.0",
    "attribution": "© OpenStreetMap contributors",
    "closed": true,
    "geometryStatus": "draft",
    "timingStatus": "missing",
    "timingMode": "shared",
    "lengthM": 2803.1,
    "reviewedAt": null,
    "notes": [
      "Closed named OSM raceway retained as a course candidate. Named-layout association requires review.",
      "Source way order and shared node IDs are retained. No nearby endpoints are joined and no Racelogic boundaries are read."
    ]
  },
  "features": [
    {
      "type": "Feature",
      "id": "trace",
      "properties": {
        "role": "trace",
        "sourceIds": [
          "osm-snapshot"
        ]
      },
      "geometry": {
        "type": "LineString",
        "coordinates": [
          [
            -0.4723994,
            52.2359774
          ],
          [
            -0.4712303,
            52.2365018
          ],
          [
            -0.4711696,
            52.2365656
          ],
          [
            -0.4711579,
            52.2366264
          ],
          [
            -0.4711756,
            52.2366801
          ],
          [
            -0.4712327,
            52.2367276
          ],
          [
            -0.4713308,
            52.2367606
          ],
          [
            -0.4721262,
            52.2368788
          ],
          [
            -0.4725819,
            52.2369444
          ],
          [
            -0.4729697,
            52.2369668
          ],
          [
            -0.4732808,
            52.2369582
          ],
          [
            -0.4733731,
            52.2369556
          ],
          [
            -0.4736584,
            52.2369214
          ],
          [
            -0.475485,
            52.2365587
          ],
          [
            -0.475657,
            52.2364983
          ],
          [
            -0.4757849,
            52.2364187
          ],
          [
            -0.4759169,
            52.2362844
          ],
          [
            -0.4760177,
            52.2362084
          ],
          [
            -0.4761304,
            52.2361673
          ],
          [
            -0.476231,
            52.2361574
          ],
          [
            -0.4763674,
            52.236164
          ],
          [
            -0.4764984,
            52.2361964
          ],
          [
            -0.4766387,
            52.236242
          ],
          [
            -0.4767674,
            52.2362675
          ],
          [
            -0.4769257,
            52.2362741
          ],
          [
            -0.4771161,
            52.2362511
          ],
          [
            -0.4773081,
            52.2361938
          ],
          [
            -0.4776043,
            52.2360655
          ],
          [
            -0.4778543,
            52.2358984
          ],
          [
            -0.4780336,
            52.235692
          ],
          [
            -0.4781273,
            52.235479
          ],
          [
            -0.4781514,
            52.235276
          ],
          [
            -0.478035,
            52.2346105
          ],
          [
            -0.4780409,
            52.2344881
          ],
          [
            -0.4780804,
            52.2343492
          ],
          [
            -0.4781806,
            52.2341889
          ],
          [
            -0.4783431,
            52.2340225
          ],
          [
            -0.4786081,
            52.2338693
          ],
          [
            -0.481589,
            52.2323877
          ],
          [
            -0.4819834,
            52.2321925
          ],
          [
            -0.4821788,
            52.2320771
          ],
          [
            -0.4824373,
            52.2318774
          ],
          [
            -0.482627,
            52.231644
          ],
          [
            -0.4829424,
            52.2311121
          ],
          [
            -0.4833329,
            52.2304534
          ],
          [
            -0.4834416,
            52.2303743
          ],
          [
            -0.4836309,
            52.2303385
          ],
          [
            -0.4839962,
            52.2303426
          ],
          [
            -0.4842276,
            52.2303069
          ],
          [
            -0.4843934,
            52.2302194
          ],
          [
            -0.4844798,
            52.2301311
          ],
          [
            -0.4845273,
            52.2300191
          ],
          [
            -0.48452,
            52.2299046
          ],
          [
            -0.4844529,
            52.2297911
          ],
          [
            -0.4843146,
            52.2296957
          ],
          [
            -0.4841326,
            52.2296367
          ],
          [
            -0.4839436,
            52.2296098
          ],
          [
            -0.4823654,
            52.2295998
          ],
          [
            -0.4820717,
            52.2296182
          ],
          [
            -0.4787393,
            52.2299583
          ],
          [
            -0.4786085,
            52.2300104
          ],
          [
            -0.4785414,
            52.2300974
          ],
          [
            -0.4785358,
            52.2302234
          ],
          [
            -0.4784797,
            52.2303365
          ],
          [
            -0.4783485,
            52.2304303
          ],
          [
            -0.4780099,
            52.2305851
          ],
          [
            -0.4757221,
            52.2316312
          ],
          [
            -0.4755755,
            52.2317304
          ],
          [
            -0.4754816,
            52.2318321
          ],
          [
            -0.4754338,
            52.2319391
          ],
          [
            -0.4754306,
            52.2320516
          ],
          [
            -0.4754776,
            52.2322377
          ],
          [
            -0.4755759,
            52.2326387
          ],
          [
            -0.4758992,
            52.2340404
          ],
          [
            -0.4758965,
            52.2341913
          ],
          [
            -0.4758401,
            52.2343309
          ],
          [
            -0.4757291,
            52.2344663
          ],
          [
            -0.4755687,
            52.2345748
          ],
          [
            -0.475183,
            52.2347486
          ],
          [
            -0.4742866,
            52.2351398
          ],
          [
            -0.4723994,
            52.2359774
          ]
        ]
      }
    }
  ]
}
