{
  "type": "FeatureCollection",
  "bbox": [
    128.285351,
    37.9967579,
    128.294703,
    38.0059042
  ],
  "metadata": {
    "schemaVersion": 1,
    "trackId": "kr-inje-speedium-651693293",
    "layoutId": "main",
    "license": "ODbL-1.0",
    "attribution": "© OpenStreetMap contributors",
    "closed": true,
    "geometryStatus": "draft",
    "timingStatus": "missing",
    "timingMode": "shared",
    "lengthM": 3973.4,
    "reviewedAt": null,
    "notes": [
      "Connected OSM course candidate. The selected loop is the longest simple source-node cycle after explicit exclusions; its association with a named circuit configuration requires review.",
      "Source way order and shared node IDs are retained. No nearby endpoints are joined and no reference boundaries are read."
    ]
  },
  "features": [
    {
      "type": "Feature",
      "id": "trace",
      "properties": {
        "role": "trace",
        "sourceIds": [
          "osm-snapshot"
        ]
      },
      "geometry": {
        "type": "LineString",
        "coordinates": [
          [
            128.2936098,
            38.0056691
          ],
          [
            128.2946504,
            38.0041884
          ],
          [
            128.2946938,
            38.0040588
          ],
          [
            128.294703,
            38.0039374
          ],
          [
            128.2946407,
            38.0038454
          ],
          [
            128.2945255,
            38.0037913
          ],
          [
            128.2943632,
            38.0037737
          ],
          [
            128.2942221,
            38.00383
          ],
          [
            128.2940868,
            38.0039772
          ],
          [
            128.2932955,
            38.0049542
          ],
          [
            128.2931959,
            38.0050215
          ],
          [
            128.2930987,
            38.0050498
          ],
          [
            128.2929825,
            38.0050497
          ],
          [
            128.2928778,
            38.0050468
          ],
          [
            128.2927056,
            38.0050167
          ],
          [
            128.2925612,
            38.0049558
          ],
          [
            128.2924586,
            38.004886
          ],
          [
            128.2922807,
            38.0046056
          ],
          [
            128.2922429,
            38.004472
          ],
          [
            128.2922577,
            38.0043405
          ],
          [
            128.2922953,
            38.0042151
          ],
          [
            128.2923752,
            38.0040796
          ],
          [
            128.2924814,
            38.0039628
          ],
          [
            128.2926989,
            38.0038477
          ],
          [
            128.2939751,
            38.0032459
          ],
          [
            128.2940912,
            38.0031614
          ],
          [
            128.2941751,
            38.0030567
          ],
          [
            128.2942131,
            38.0029734
          ],
          [
            128.2942387,
            38.0028687
          ],
          [
            128.2942338,
            38.0027664
          ],
          [
            128.2941634,
            38.0021513
          ],
          [
            128.2941199,
            38.0017052
          ],
          [
            128.2940594,
            38.000699
          ],
          [
            128.2940512,
            38.0006366
          ],
          [
            128.294037,
            38.0005863
          ],
          [
            128.2940162,
            38.0005404
          ],
          [
            128.2939768,
            38.0005017
          ],
          [
            128.2939245,
            38.0004633
          ],
          [
            128.2938599,
            38.0004351
          ],
          [
            128.293553,
            38.0003569
          ],
          [
            128.2933167,
            38.00026
          ],
          [
            128.2931302,
            38.0001739
          ],
          [
            128.2929917,
            38.0000881
          ],
          [
            128.2928399,
            37.9999732
          ],
          [
            128.2926961,
            37.9998371
          ],
          [
            128.2924176,
            37.9994602
          ],
          [
            128.2919721,
            37.9986585
          ],
          [
            128.2919457,
            37.9985471
          ],
          [
            128.2919613,
            37.9984391
          ],
          [
            128.292052,
            37.9983174
          ],
          [
            128.2922891,
            37.9980913
          ],
          [
            128.2923518,
            37.9980161
          ],
          [
            128.2924101,
            37.9978829
          ],
          [
            128.2924094,
            37.9977867
          ],
          [
            128.2923645,
            37.9976614
          ],
          [
            128.2922833,
            37.9975777
          ],
          [
            128.2921516,
            37.9975209
          ],
          [
            128.2919621,
            37.9975065
          ],
          [
            128.2917949,
            37.9975336
          ],
          [
            128.291561,
            37.9975715
          ],
          [
            128.2914083,
            37.9975809
          ],
          [
            128.2912682,
            37.9975536
          ],
          [
            128.2911883,
            37.9975119
          ],
          [
            128.2911219,
            37.997433
          ],
          [
            128.2910718,
            37.9973171
          ],
          [
            128.2910221,
            37.9970219
          ],
          [
            128.2909857,
            37.996949
          ],
          [
            128.2908978,
            37.9968726
          ],
          [
            128.2907815,
            37.9968326
          ],
          [
            128.2905854,
            37.9968228
          ],
          [
            128.2902329,
            37.9968141
          ],
          [
            128.2898822,
            37.9967978
          ],
          [
            128.2894025,
            37.9967579
          ],
          [
            128.2891812,
            37.996782
          ],
          [
            128.2890135,
            37.9968625
          ],
          [
            128.2888938,
            37.9969661
          ],
          [
            128.2888036,
            37.9970899
          ],
          [
            128.2887594,
            37.9972248
          ],
          [
            128.2886984,
            37.9977811
          ],
          [
            128.2886754,
            37.9978679
          ],
          [
            128.2886605,
            37.9979242
          ],
          [
            128.2885978,
            37.9980461
          ],
          [
            128.2885192,
            37.9981316
          ],
          [
            128.2884489,
            37.9981833
          ],
          [
            128.2884197,
            37.9982048
          ],
          [
            128.2871866,
            37.9989894
          ],
          [
            128.287062,
            37.9990486
          ],
          [
            128.2869028,
            37.9990941
          ],
          [
            128.286694,
            37.999126
          ],
          [
            128.2856637,
            37.9991378
          ],
          [
            128.2854674,
            37.9991769
          ],
          [
            128.2853888,
            37.9992418
          ],
          [
            128.285351,
            37.9993427
          ],
          [
            128.285361,
            37.9994569
          ],
          [
            128.2854055,
            37.9995961
          ],
          [
            128.2854936,
            37.9996698
          ],
          [
            128.2855817,
            37.9997207
          ],
          [
            128.2865217,
            37.9999458
          ],
          [
            128.2868868,
            38.0000047
          ],
          [
            128.286982,
            38.0000115
          ],
          [
            128.2872994,
            38.0000161
          ],
          [
            128.2873633,
            38.0000095
          ],
          [
            128.2874103,
            37.9999956
          ],
          [
            128.287505,
            37.9999427
          ],
          [
            128.2875663,
            37.9998956
          ],
          [
            128.2876146,
            37.9998447
          ],
          [
            128.2876477,
            37.9997905
          ],
          [
            128.2876746,
            37.9997334
          ],
          [
            128.287734,
            37.9996309
          ],
          [
            128.2877817,
            37.9995473
          ],
          [
            128.2878325,
            37.9994841
          ],
          [
            128.2879957,
            37.9993531
          ],
          [
            128.2886269,
            37.9988609
          ],
          [
            128.2886692,
            37.9988006
          ],
          [
            128.2889335,
            37.9984244
          ],
          [
            128.2895835,
            37.99794
          ],
          [
            128.2896917,
            37.9978937
          ],
          [
            128.2898615,
            37.997891
          ],
          [
            128.2901093,
            37.9979465
          ],
          [
            128.290195,
            37.9979657
          ],
          [
            128.2907178,
            37.9980834
          ],
          [
            128.2909229,
            37.9981848
          ],
          [
            128.2911214,
            37.9983429
          ],
          [
            128.2912004,
            37.9984426
          ],
          [
            128.2912795,
            37.9985695
          ],
          [
            128.291324,
            37.9987469
          ],
          [
            128.2913463,
            37.9989325
          ],
          [
            128.2913727,
            38.0014727
          ],
          [
            128.2914726,
            38.0047743
          ],
          [
            128.2914856,
            38.0049963
          ],
          [
            128.2915361,
            38.0051445
          ],
          [
            128.2916656,
            38.0053193
          ],
          [
            128.292273,
            38.005827
          ],
          [
            128.2923877,
            38.0058815
          ],
          [
            128.2924358,
            38.005898
          ],
          [
            128.2924979,
            38.0059042
          ],
          [
            128.292548,
            38.0059022
          ],
          [
            128.2927974,
            38.0058488
          ],
          [
            128.2931096,
            38.005796
          ],
          [
            128.2932305,
            38.0057754
          ],
          [
            128.2934332,
            38.0057557
          ],
          [
            128.2935198,
            38.005741
          ],
          [
            128.2935523,
            38.005728
          ],
          [
            128.2935812,
            38.0057039
          ],
          [
            128.2936098,
            38.0056691
          ]
        ]
      }
    }
  ]
}
