{
  "type": "FeatureCollection",
  "bbox": [
    138.9297989,
    35.3754987,
    138.9324409,
    35.3772453
  ],
  "metadata": {
    "schemaVersion": 1,
    "trackId": "jp-fuji-speedway-148622740",
    "layoutId": "fuji-driftcourse",
    "license": "ODbL-1.0",
    "attribution": "© OpenStreetMap contributors",
    "closed": true,
    "geometryStatus": "draft",
    "timingStatus": "missing",
    "timingMode": "shared",
    "lengthM": 641.8,
    "reviewedAt": null,
    "notes": [
      "Draft configuration: Drift loop including the southern inner kink; excludes the straight southern bypass. Branch identity was checked against catalogue layout facts and circuit identification references. Independent source distance 641.8 m; no coordinates are changed to match a diagram or distance. Travel direction and historical alignment remain provisional."
    ]
  },
  "features": [
    {
      "type": "Feature",
      "id": "trace",
      "properties": {
        "role": "trace",
        "sourceIds": [
          "osm-selection-148620277"
        ]
      },
      "geometry": {
        "type": "LineString",
        "coordinates": [
          [
            138.9308625,
            35.3765097
          ],
          [
            138.9298455,
            35.3758263
          ],
          [
            138.929812,
            35.3757696
          ],
          [
            138.9297989,
            35.3757099
          ],
          [
            138.9298117,
            35.3756351
          ],
          [
            138.9298434,
            35.3755764
          ],
          [
            138.9298938,
            35.3755365
          ],
          [
            138.9299621,
            35.3755124
          ],
          [
            138.9300471,
            35.3754987
          ],
          [
            138.9301155,
            35.3755104
          ],
          [
            138.9301839,
            35.3755426
          ],
          [
            138.9305937,
            35.375794
          ],
          [
            138.9306534,
            35.3758659
          ],
          [
            138.9306815,
            35.3759157
          ],
          [
            138.9306967,
            35.375959
          ],
          [
            138.9307128,
            35.3759993
          ],
          [
            138.9307312,
            35.3760377
          ],
          [
            138.9307621,
            35.3760717
          ],
          [
            138.930817,
            35.3760943
          ],
          [
            138.9308771,
            35.3760988
          ],
          [
            138.9309298,
            35.3760979
          ],
          [
            138.9309921,
            35.3760976
          ],
          [
            138.9310826,
            35.3761073
          ],
          [
            138.9316416,
            35.3764615
          ],
          [
            138.93234,
            35.3769444
          ],
          [
            138.9324006,
            35.3769995
          ],
          [
            138.9324312,
            35.3770426
          ],
          [
            138.9324409,
            35.3770858
          ],
          [
            138.9324382,
            35.377131
          ],
          [
            138.9324211,
            35.3771743
          ],
          [
            138.9323848,
            35.3772091
          ],
          [
            138.9323428,
            35.3772284
          ],
          [
            138.9322803,
            35.3772414
          ],
          [
            138.93222,
            35.3772453
          ],
          [
            138.9321455,
            35.3772425
          ],
          [
            138.9320754,
            35.3772302
          ],
          [
            138.9320083,
            35.3772158
          ],
          [
            138.9319416,
            35.3771946
          ],
          [
            138.9318677,
            35.3771669
          ],
          [
            138.9318108,
            35.3771443
          ],
          [
            138.9317433,
            35.3771127
          ],
          [
            138.9316715,
            35.3770737
          ],
          [
            138.9316147,
            35.3770393
          ],
          [
            138.931566,
            35.377008
          ],
          [
            138.9315238,
            35.3769775
          ],
          [
            138.9314899,
            35.3769442
          ],
          [
            138.9314451,
            35.3769045
          ],
          [
            138.9314102,
            35.3768717
          ],
          [
            138.9313885,
            35.3768498
          ],
          [
            138.9313626,
            35.3768279
          ],
          [
            138.9308625,
            35.3765097
          ]
        ]
      }
    }
  ]
}
