{
  "type": "FeatureCollection",
  "bbox": [
    152.0346878,
    -28.262535,
    152.0366285,
    -28.2601502
  ],
  "metadata": {
    "schemaVersion": 1,
    "trackId": "au-morgan-park-a-circuit-8f0a18f2",
    "layoutId": "morgan-park-a-circuit",
    "license": "ODbL-1.0",
    "attribution": "© OpenStreetMap contributors",
    "closed": true,
    "geometryStatus": "draft",
    "timingStatus": "missing",
    "timingMode": "shared",
    "lengthM": 723.2,
    "reviewedAt": null,
    "notes": [
      "Draft configuration: Compact southern oval with the rounded northern shoulder; excludes the sharp alternate connection and other loops. Branch identity was checked against catalogue layout facts and circuit identification references. Independent source distance 723.2 m; no coordinates are changed to match a diagram or distance. Travel direction and historical alignment remain provisional."
    ]
  },
  "features": [
    {
      "type": "Feature",
      "id": "trace",
      "properties": {
        "role": "trace",
        "sourceIds": [
          "osm-selection-677545751"
        ]
      },
      "geometry": {
        "type": "LineString",
        "coordinates": [
          [
            152.0366285,
            -28.2609998
          ],
          [
            152.0364989,
            -28.2617084
          ],
          [
            152.0364517,
            -28.2619672
          ],
          [
            152.0362946,
            -28.262242
          ],
          [
            152.0362344,
            -28.2623386
          ],
          [
            152.0361495,
            -28.2624196
          ],
          [
            152.0360433,
            -28.2624664
          ],
          [
            152.0358557,
            -28.262535
          ],
          [
            152.0357354,
            -28.2625287
          ],
          [
            152.0354629,
            -28.2624726
          ],
          [
            152.0352611,
            -28.2623791
          ],
          [
            152.0350806,
            -28.2622388
          ],
          [
            152.0350205,
            -28.2621827
          ],
          [
            152.0348895,
            -28.2619895
          ],
          [
            152.0347904,
            -28.2618055
          ],
          [
            152.0347232,
            -28.2616029
          ],
          [
            152.0346878,
            -28.2613473
          ],
          [
            152.0346984,
            -28.2612257
          ],
          [
            152.0347196,
            -28.2611073
          ],
          [
            152.0348011,
            -28.260942
          ],
          [
            152.0349532,
            -28.2607051
          ],
          [
            152.0349957,
            -28.2605835
          ],
          [
            152.0350665,
            -28.2602812
          ],
          [
            152.0351054,
            -28.2602282
          ],
          [
            152.0351727,
            -28.2601689
          ],
          [
            152.0352364,
            -28.2601502
          ],
          [
            152.0353396,
            -28.2601538
          ],
          [
            152.0355549,
            -28.2604152
          ],
          [
            152.0356398,
            -28.2604994
          ],
          [
            152.0357177,
            -28.2605461
          ],
          [
            152.0358062,
            -28.2605773
          ],
          [
            152.0360467,
            -28.2606136
          ],
          [
            152.0363441,
            -28.2606584
          ],
          [
            152.0364432,
            -28.2606864
          ],
          [
            152.0365317,
            -28.2607456
          ],
          [
            152.0365919,
            -28.2608298
          ],
          [
            152.0366285,
            -28.2609998
          ]
        ]
      }
    }
  ]
}
