{
  "type": "FeatureCollection",
  "bbox": [
    -1.1304942,
    52.7907173,
    -1.119639,
    52.7988957
  ],
  "metadata": {
    "schemaVersion": 1,
    "trackId": "gb-prestwold-hall-reference",
    "layoutId": "main",
    "license": "ODbL-1.0",
    "attribution": "© OpenStreetMap contributors",
    "closed": true,
    "geometryStatus": "draft",
    "timingStatus": "missing",
    "timingMode": "shared",
    "lengthM": 2569.3,
    "reviewedAt": null,
    "notes": [
      "Single reference course at a unique connected OSM source cycle, with private timing proximity. Draft geometry; course identity and operating status require review. Timing coordinates remain private.",
      "Travel direction is provisional."
    ]
  },
  "features": [
    {
      "type": "Feature",
      "id": "trace",
      "properties": {
        "role": "trace",
        "sourceIds": [
          "osm-snapshot"
        ]
      },
      "geometry": {
        "type": "LineString",
        "coordinates": [
          [
            -1.1304942,
            52.792149
          ],
          [
            -1.1304768,
            52.7919709
          ],
          [
            -1.1304062,
            52.7917725
          ],
          [
            -1.1302887,
            52.7915905
          ],
          [
            -1.1301358,
            52.791387
          ],
          [
            -1.1298948,
            52.7911772
          ],
          [
            -1.1295977,
            52.79099
          ],
          [
            -1.1293303,
            52.7908539
          ],
          [
            -1.1291809,
            52.7907957
          ],
          [
            -1.1289921,
            52.79075
          ],
          [
            -1.1288086,
            52.7907271
          ],
          [
            -1.1285556,
            52.7907173
          ],
          [
            -1.1282381,
            52.7907334
          ],
          [
            -1.1280564,
            52.7907691
          ],
          [
            -1.1279095,
            52.7908161
          ],
          [
            -1.1275033,
            52.7910076
          ],
          [
            -1.1265436,
            52.7914745
          ],
          [
            -1.126121,
            52.7916801
          ],
          [
            -1.1260014,
            52.7917576
          ],
          [
            -1.1258758,
            52.7918887
          ],
          [
            -1.1258322,
            52.7919921
          ],
          [
            -1.1257573,
            52.7921696
          ],
          [
            -1.1255332,
            52.7927972
          ],
          [
            -1.1247149,
            52.7956083
          ],
          [
            -1.124516,
            52.795893
          ],
          [
            -1.1241977,
            52.7961336
          ],
          [
            -1.1234952,
            52.7963934
          ],
          [
            -1.1201316,
            52.7977288
          ],
          [
            -1.1199467,
            52.79783
          ],
          [
            -1.1198156,
            52.7979297
          ],
          [
            -1.1197334,
            52.7980226
          ],
          [
            -1.1196885,
            52.7981183
          ],
          [
            -1.1196532,
            52.7982285
          ],
          [
            -1.119639,
            52.7983796
          ],
          [
            -1.1196587,
            52.7985406
          ],
          [
            -1.1197297,
            52.7986707
          ],
          [
            -1.1198465,
            52.7987553
          ],
          [
            -1.1200057,
            52.7988254
          ],
          [
            -1.1202304,
            52.7988844
          ],
          [
            -1.1204836,
            52.7988957
          ],
          [
            -1.1208913,
            52.7988512
          ],
          [
            -1.1214448,
            52.7987148
          ],
          [
            -1.1217876,
            52.7986154
          ],
          [
            -1.1222727,
            52.7984765
          ],
          [
            -1.1225545,
            52.7984188
          ],
          [
            -1.1237571,
            52.7981593
          ],
          [
            -1.1245885,
            52.797997
          ],
          [
            -1.1269923,
            52.7975607
          ],
          [
            -1.1273811,
            52.7974975
          ],
          [
            -1.1275807,
            52.7974259
          ],
          [
            -1.1277114,
            52.7973021
          ],
          [
            -1.1278415,
            52.7971083
          ],
          [
            -1.1284199,
            52.7960226
          ],
          [
            -1.1302248,
            52.7928315
          ],
          [
            -1.1304787,
            52.7923072
          ],
          [
            -1.1304942,
            52.792149
          ]
        ]
      }
    }
  ]
}
