{
  "type": "FeatureCollection",
  "bbox": [
    106.8554581,
    -6.5420246,
    106.8600607,
    -6.5271019
  ],
  "metadata": {
    "schemaVersion": 1,
    "trackId": "id-sentual-international-circuit-reference",
    "layoutId": "main",
    "license": "ODbL-1.0",
    "attribution": "© OpenStreetMap contributors",
    "closed": true,
    "geometryStatus": "draft",
    "timingStatus": "missing",
    "timingMode": "shared",
    "lengthM": 3974.5,
    "reviewedAt": null,
    "notes": [
      "Single reference course at a unique connected OSM source cycle, with private timing proximity. Draft geometry; course identity and operating status require review. Timing coordinates remain private."
    ]
  },
  "features": [
    {
      "type": "Feature",
      "id": "trace",
      "properties": {
        "role": "trace",
        "sourceIds": [
          "osm-snapshot"
        ]
      },
      "geometry": {
        "type": "LineString",
        "coordinates": [
          [
            106.8582046,
            -6.5381554
          ],
          [
            106.8580544,
            -6.538294
          ],
          [
            106.8580088,
            -6.5383686
          ],
          [
            106.857974,
            -6.5384539
          ],
          [
            106.8579686,
            -6.5385871
          ],
          [
            106.8580115,
            -6.538699
          ],
          [
            106.8581159,
            -6.5388615
          ],
          [
            106.8597598,
            -6.5414199
          ],
          [
            106.8598676,
            -6.5415876
          ],
          [
            106.8598837,
            -6.5416462
          ],
          [
            106.8598676,
            -6.5417155
          ],
          [
            106.8598247,
            -6.5418008
          ],
          [
            106.8597698,
            -6.5418683
          ],
          [
            106.8597149,
            -6.5419358
          ],
          [
            106.8596075,
            -6.541998
          ],
          [
            106.8594599,
            -6.5420246
          ],
          [
            106.8593419,
            -6.5420246
          ],
          [
            106.8592101,
            -6.5419929
          ],
          [
            106.8588384,
            -6.5419098
          ],
          [
            106.8586767,
            -6.5418648
          ],
          [
            106.8586043,
            -6.5418328
          ],
          [
            106.8585694,
            -6.5417902
          ],
          [
            106.8585051,
            -6.5416622
          ],
          [
            106.8584666,
            -6.5415654
          ],
          [
            106.8580032,
            -6.5404006
          ],
          [
            106.8577326,
            -6.5397223
          ],
          [
            106.8560917,
            -6.5356586
          ],
          [
            106.8555818,
            -6.5343958
          ],
          [
            106.8555332,
            -6.5342755
          ],
          [
            106.8554795,
            -6.5340836
          ],
          [
            106.8554581,
            -6.5338918
          ],
          [
            106.8554688,
            -6.5338092
          ],
          [
            106.855501,
            -6.5337212
          ],
          [
            106.8555653,
            -6.5335853
          ],
          [
            106.8556673,
            -6.5334707
          ],
          [
            106.8557585,
            -6.5334121
          ],
          [
            106.8558532,
            -6.5333728
          ],
          [
            106.8572561,
            -6.5327906
          ],
          [
            106.8574536,
            -6.5327086
          ],
          [
            106.8575394,
            -6.5326313
          ],
          [
            106.8575931,
            -6.5325594
          ],
          [
            106.8576789,
            -6.5323782
          ],
          [
            106.8577311,
            -6.5321693
          ],
          [
            106.8583549,
            -6.5296707
          ],
          [
            106.8589275,
            -6.5274419
          ],
          [
            106.8589744,
            -6.5272591
          ],
          [
            106.8590227,
            -6.5271791
          ],
          [
            106.8590804,
            -6.5271458
          ],
          [
            106.8591595,
            -6.5271232
          ],
          [
            106.8592441,
            -6.5271203
          ],
          [
            106.8597711,
            -6.5271019
          ],
          [
            106.859865,
            -6.5271179
          ],
          [
            106.8599213,
            -6.5271445
          ],
          [
            106.8600178,
            -6.5272298
          ],
          [
            106.8600473,
            -6.5273044
          ],
          [
            106.8600607,
            -6.527379
          ],
          [
            106.86005,
            -6.5275069
          ],
          [
            106.8600251,
            -6.5275593
          ],
          [
            106.8587398,
            -6.5302718
          ],
          [
            106.858666,
            -6.5304275
          ],
          [
            106.8586231,
            -6.5305341
          ],
          [
            106.8585909,
            -6.5306407
          ],
          [
            106.8585648,
            -6.5308082
          ],
          [
            106.8581927,
            -6.5332006
          ],
          [
            106.8581686,
            -6.5333019
          ],
          [
            106.8581337,
            -6.5333552
          ],
          [
            106.858072,
            -6.5334085
          ],
          [
            106.8579755,
            -6.5334404
          ],
          [
            106.857802,
            -6.5334099
          ],
          [
            106.857754,
            -6.5334015
          ],
          [
            106.857636,
            -6.5334015
          ],
          [
            106.8575502,
            -6.5334654
          ],
          [
            106.857518,
            -6.5335507
          ],
          [
            106.8575131,
            -6.5336435
          ],
          [
            106.8575862,
            -6.5338655
          ],
          [
            106.8588096,
            -6.5372684
          ],
          [
            106.8588587,
            -6.5374051
          ],
          [
            106.8588775,
            -6.5375383
          ],
          [
            106.8588507,
            -6.5376023
          ],
          [
            106.8588051,
            -6.5376609
          ],
          [
            106.858615,
            -6.5378174
          ],
          [
            106.8582046,
            -6.5381554
          ]
        ]
      }
    }
  ]
}
