{
  "type": "FeatureCollection",
  "bbox": [
    8.3429646,
    45.1499594,
    8.3509188,
    45.1548868
  ],
  "metadata": {
    "schemaVersion": 1,
    "trackId": "it-autodromo-di-morano-sul-po-117679849",
    "layoutId": "main",
    "license": "ODbL-1.0",
    "attribution": "© OpenStreetMap contributors",
    "closed": true,
    "geometryStatus": "draft",
    "timingStatus": "missing",
    "timingMode": "shared",
    "lengthM": 2324.9,
    "reviewedAt": null,
    "notes": [
      "Closed named OSM raceway retained as a course candidate. Named-layout association requires review.",
      "Source way order and shared node IDs are retained. No nearby endpoints are joined and no reference boundaries are read.",
      "Some source ways lack one-way direction tags. Travel direction is provisional."
    ]
  },
  "features": [
    {
      "type": "Feature",
      "id": "trace",
      "properties": {
        "role": "trace",
        "sourceIds": [
          "osm-snapshot"
        ]
      },
      "geometry": {
        "type": "LineString",
        "coordinates": [
          [
            8.3477645,
            45.1543116
          ],
          [
            8.3489547,
            45.1545808
          ],
          [
            8.3502403,
            45.1548715
          ],
          [
            8.3503846,
            45.1548868
          ],
          [
            8.3505434,
            45.1548817
          ],
          [
            8.3506878,
            45.1548308
          ],
          [
            8.3507961,
            45.1547646
          ],
          [
            8.3508755,
            45.154673
          ],
          [
            8.3509188,
            45.1545763
          ],
          [
            8.3509188,
            45.1544847
          ],
          [
            8.3507816,
            45.1540978
          ],
          [
            8.3507167,
            45.153991
          ],
          [
            8.3506301,
            45.1538993
          ],
          [
            8.3504857,
            45.1538179
          ],
          [
            8.3503125,
            45.1537619
          ],
          [
            8.3501392,
            45.1537466
          ],
          [
            8.3478728,
            45.1537466
          ],
          [
            8.3477068,
            45.1537212
          ],
          [
            8.347548,
            45.1536703
          ],
          [
            8.3474036,
            45.1535888
          ],
          [
            8.347317,
            45.1534819
          ],
          [
            8.3467061,
            45.1522884
          ],
          [
            8.3459961,
            45.1509012
          ],
          [
            8.3459312,
            45.1508248
          ],
          [
            8.3458301,
            45.1507739
          ],
          [
            8.3434626,
            45.1499747
          ],
          [
            8.3433255,
            45.1499594
          ],
          [
            8.3431884,
            45.1499849
          ],
          [
            8.3430801,
            45.150046
          ],
          [
            8.342979,
            45.1501478
          ],
          [
            8.3429646,
            45.1502394
          ],
          [
            8.3430079,
            45.1503412
          ],
          [
            8.3431234,
            45.150443
          ],
          [
            8.3460755,
            45.1526981
          ],
          [
            8.3461116,
            45.1527846
          ],
          [
            8.34609,
            45.1529017
          ],
          [
            8.3459961,
            45.1529933
          ],
          [
            8.3458951,
            45.1530289
          ],
          [
            8.3457435,
            45.153034
          ],
          [
            8.3456352,
            45.1530086
          ],
          [
            8.3455053,
            45.1529373
          ],
          [
            8.3442566,
            45.1519549
          ],
          [
            8.3441484,
            45.1519091
          ],
          [
            8.344004,
            45.1518887
          ],
          [
            8.3438452,
            45.1519091
          ],
          [
            8.3437441,
            45.1519549
          ],
          [
            8.3436575,
            45.1520363
          ],
          [
            8.3436214,
            45.1521432
          ],
          [
            8.3436431,
            45.1522756
          ],
          [
            8.3438979,
            45.1530038
          ],
          [
            8.3439174,
            45.1530595
          ],
          [
            8.3439968,
            45.1531867
          ],
          [
            8.3440906,
            45.1532885
          ],
          [
            8.3442061,
            45.1533903
          ],
          [
            8.3443505,
            45.153487
          ],
          [
            8.344502,
            45.1535532
          ],
          [
            8.3447041,
            45.1536092
          ],
          [
            8.3461495,
            45.1539409
          ],
          [
            8.3477645,
            45.1543116
          ]
        ]
      }
    }
  ]
}
