{
  "type": "FeatureCollection",
  "bbox": [
    77.6713945,
    13.1152315,
    77.6728232,
    13.1172605
  ],
  "metadata": {
    "schemaVersion": 1,
    "trackId": "in-meco-kartopia-10486e1c",
    "layoutId": "meco-kartopia",
    "license": "ODbL-1.0",
    "attribution": "© OpenStreetMap contributors",
    "closed": true,
    "geometryStatus": "draft",
    "timingStatus": "missing",
    "timingMode": "shared",
    "lengthM": 1165.2,
    "reviewedAt": null,
    "notes": [
      "Draft route hypothesis: the source cycle is the unique closest nominal-distance match within conservative timing and distance checks. Approximate OSM trace length 1165.2 m. Difference from the supplied layout distance 12.8 m. Course configuration still requires visual review."
    ]
  },
  "features": [
    {
      "type": "Feature",
      "id": "trace",
      "properties": {
        "role": "trace",
        "sourceIds": [
          "osm-network-778827200"
        ]
      },
      "geometry": {
        "type": "LineString",
        "coordinates": [
          [
            77.6720704,
            13.1159687
          ],
          [
            77.6721365,
            13.1159504
          ],
          [
            77.6722169,
            13.1159339
          ],
          [
            77.6723913,
            13.1158982
          ],
          [
            77.6726193,
            13.115859
          ],
          [
            77.6727078,
            13.1158485
          ],
          [
            77.6727668,
            13.1158329
          ],
          [
            77.6728017,
            13.1158093
          ],
          [
            77.6728205,
            13.1157728
          ],
          [
            77.6728232,
            13.1157153
          ],
          [
            77.6727776,
            13.1155638
          ],
          [
            77.6726837,
            13.1153156
          ],
          [
            77.6726531,
            13.1152677
          ],
          [
            77.6726283,
            13.1152435
          ],
          [
            77.6726053,
            13.1152315
          ],
          [
            77.6725664,
            13.1152332
          ],
          [
            77.6720992,
            13.1152935
          ],
          [
            77.6720603,
            13.1153073
          ],
          [
            77.6720391,
            13.1153228
          ],
          [
            77.6720284,
            13.1153504
          ],
          [
            77.6720196,
            13.1153831
          ],
          [
            77.6720338,
            13.1154193
          ],
          [
            77.6720479,
            13.1154486
          ],
          [
            77.6720727,
            13.115459
          ],
          [
            77.6721063,
            13.1154607
          ],
          [
            77.6722249,
            13.1154435
          ],
          [
            77.6723134,
            13.1154366
          ],
          [
            77.672439,
            13.1154211
          ],
          [
            77.6724885,
            13.1154228
          ],
          [
            77.6725222,
            13.1154366
          ],
          [
            77.6725452,
            13.115459
          ],
          [
            77.6725664,
            13.1155003
          ],
          [
            77.6725753,
            13.1155348
          ],
          [
            77.6725699,
            13.1155744
          ],
          [
            77.672554,
            13.1156106
          ],
          [
            77.6725346,
            13.115633
          ],
          [
            77.6724939,
            13.1156485
          ],
          [
            77.6721983,
            13.1156882
          ],
          [
            77.6721515,
            13.1156946
          ],
          [
            77.6720012,
            13.1157151
          ],
          [
            77.6719961,
            13.1156964
          ],
          [
            77.6719678,
            13.1156602
          ],
          [
            77.6719183,
            13.1156085
          ],
          [
            77.6718492,
            13.1155568
          ],
          [
            77.6717572,
            13.1155016
          ],
          [
            77.6716511,
            13.1154275
          ],
          [
            77.671605,
            13.1153931
          ],
          [
            77.6715732,
            13.115381
          ],
          [
            77.6715378,
            13.1153758
          ],
          [
            77.6714936,
            13.1153775
          ],
          [
            77.6714511,
            13.1153879
          ],
          [
            77.6714104,
            13.1154051
          ],
          [
            77.6713945,
            13.115431
          ],
          [
            77.6713952,
            13.115479
          ],
          [
            77.671532,
            13.1160563
          ],
          [
            77.6716177,
            13.1163671
          ],
          [
            77.6718485,
            13.1171717
          ],
          [
            77.6718726,
            13.1172083
          ],
          [
            77.6719128,
            13.117237
          ],
          [
            77.6719611,
            13.1172579
          ],
          [
            77.6720148,
            13.1172605
          ],
          [
            77.6721918,
            13.1172396
          ],
          [
            77.6723178,
            13.1172187
          ],
          [
            77.6723634,
            13.1171978
          ],
          [
            77.6723715,
            13.1171743
          ],
          [
            77.6723688,
            13.1171456
          ],
          [
            77.6723581,
            13.1171194
          ],
          [
            77.6723339,
            13.1171012
          ],
          [
            77.6723044,
            13.1170907
          ],
          [
            77.6722508,
            13.1170933
          ],
          [
            77.672122,
            13.1171142
          ],
          [
            77.6720872,
            13.1171168
          ],
          [
            77.672055,
            13.1171116
          ],
          [
            77.6720308,
            13.1170933
          ],
          [
            77.6720094,
            13.1170698
          ],
          [
            77.6719906,
            13.1170202
          ],
          [
            77.6718377,
            13.1164768
          ],
          [
            77.6716956,
            13.1159622
          ],
          [
            77.6716794,
            13.1158929
          ],
          [
            77.6716847,
            13.1158618
          ],
          [
            77.6717006,
            13.1158412
          ],
          [
            77.6717236,
            13.1158222
          ],
          [
            77.6717661,
            13.1158119
          ],
          [
            77.6717979,
            13.115817
          ],
          [
            77.6718262,
            13.1158377
          ],
          [
            77.6718439,
            13.1158653
          ],
          [
            77.6719749,
            13.1163116
          ],
          [
            77.6721111,
            13.1168304
          ],
          [
            77.6721253,
            13.1168735
          ],
          [
            77.6721448,
            13.1169148
          ],
          [
            77.6721713,
            13.1169338
          ],
          [
            77.6721996,
            13.1169476
          ],
          [
            77.6722297,
            13.1169493
          ],
          [
            77.6722616,
            13.1169355
          ],
          [
            77.6722881,
            13.116908
          ],
          [
            77.6722899,
            13.1168769
          ],
          [
            77.6722828,
            13.1168252
          ],
          [
            77.6721943,
            13.1164702
          ],
          [
            77.6720704,
            13.1159687
          ]
        ]
      }
    }
  ]
}
