{
  "type": "FeatureCollection",
  "bbox": [
    146.0832748,
    -36.5219471,
    146.0910422,
    -36.5150615
  ],
  "metadata": {
    "schemaVersion": 1,
    "trackId": "au-winton-motor-raceway-60238255",
    "layoutId": "main",
    "license": "ODbL-1.0",
    "attribution": "© OpenStreetMap contributors",
    "closed": true,
    "geometryStatus": "draft",
    "timingStatus": "missing",
    "timingMode": "shared",
    "lengthM": 3000.8,
    "reviewedAt": null,
    "notes": [
      "Closed named OSM raceway retained as a course candidate. Named-layout association requires review.",
      "Source way order and shared node IDs are retained. No nearby endpoints are joined and no reference boundaries are read."
    ]
  },
  "features": [
    {
      "type": "Feature",
      "id": "trace",
      "properties": {
        "role": "trace",
        "sourceIds": [
          "osm-snapshot"
        ]
      },
      "geometry": {
        "type": "LineString",
        "coordinates": [
          [
            146.087875,
            -36.5197629
          ],
          [
            146.0867899,
            -36.5186027
          ],
          [
            146.0866501,
            -36.5184533
          ],
          [
            146.0862939,
            -36.5180314
          ],
          [
            146.0862081,
            -36.5179468
          ],
          [
            146.0860863,
            -36.5178823
          ],
          [
            146.0859589,
            -36.5178556
          ],
          [
            146.0858139,
            -36.5178508
          ],
          [
            146.0856412,
            -36.5178806
          ],
          [
            146.0855239,
            -36.5179103
          ],
          [
            146.0854074,
            -36.517922
          ],
          [
            146.0852771,
            -36.5179103
          ],
          [
            146.085166,
            -36.5178657
          ],
          [
            146.0850395,
            -36.5177938
          ],
          [
            146.0849254,
            -36.5176971
          ],
          [
            146.0848008,
            -36.5175583
          ],
          [
            146.0846807,
            -36.5174245
          ],
          [
            146.083591,
            -36.5162104
          ],
          [
            146.0833824,
            -36.515978
          ],
          [
            146.083292,
            -36.51585
          ],
          [
            146.0832748,
            -36.5157843
          ],
          [
            146.0832748,
            -36.5157186
          ],
          [
            146.083292,
            -36.5156356
          ],
          [
            146.0833329,
            -36.5155664
          ],
          [
            146.0833867,
            -36.5155042
          ],
          [
            146.0834556,
            -36.515454
          ],
          [
            146.0840924,
            -36.5152465
          ],
          [
            146.084299,
            -36.5151756
          ],
          [
            146.0845055,
            -36.5150995
          ],
          [
            146.0846282,
            -36.5150632
          ],
          [
            146.0847702,
            -36.5150615
          ],
          [
            146.0848778,
            -36.515084
          ],
          [
            146.0849897,
            -36.5151341
          ],
          [
            146.0850822,
            -36.5152119
          ],
          [
            146.0863215,
            -36.5166921
          ],
          [
            146.0864528,
            -36.5168097
          ],
          [
            146.0866077,
            -36.5169031
          ],
          [
            146.086769,
            -36.516974
          ],
          [
            146.0869684,
            -36.5170296
          ],
          [
            146.0871499,
            -36.5170536
          ],
          [
            146.0873279,
            -36.5170511
          ],
          [
            146.0874877,
            -36.5170242
          ],
          [
            146.0876497,
            -36.5169908
          ],
          [
            146.0878233,
            -36.5169325
          ],
          [
            146.0879955,
            -36.5168633
          ],
          [
            146.0881654,
            -36.5167665
          ],
          [
            146.0883096,
            -36.5166459
          ],
          [
            146.0883655,
            -36.5165763
          ],
          [
            146.0884,
            -36.5165037
          ],
          [
            146.0884279,
            -36.5164137
          ],
          [
            146.0884387,
            -36.5163307
          ],
          [
            146.0884559,
            -36.5162062
          ],
          [
            146.0884919,
            -36.5160811
          ],
          [
            146.0885441,
            -36.515959
          ],
          [
            146.0886323,
            -36.5158448
          ],
          [
            146.0890046,
            -36.5156287
          ],
          [
            146.0893768,
            -36.5154488
          ],
          [
            146.0895102,
            -36.5154073
          ],
          [
            146.0896453,
            -36.5153956
          ],
          [
            146.0897533,
            -36.5154091
          ],
          [
            146.0898491,
            -36.5154473
          ],
          [
            146.0898996,
            -36.5155145
          ],
          [
            146.0899135,
            -36.5155896
          ],
          [
            146.0898781,
            -36.5156961
          ],
          [
            146.0897318,
            -36.5159261
          ],
          [
            146.0894522,
            -36.5163139
          ],
          [
            146.0894284,
            -36.5164137
          ],
          [
            146.0894306,
            -36.516514
          ],
          [
            146.0894564,
            -36.5166057
          ],
          [
            146.0895274,
            -36.5167008
          ],
          [
            146.0896264,
            -36.5167838
          ],
          [
            146.0897813,
            -36.5168305
          ],
          [
            146.089891,
            -36.5168443
          ],
          [
            146.0899986,
            -36.5168339
          ],
          [
            146.0900997,
            -36.5168045
          ],
          [
            146.0901817,
            -36.5167623
          ],
          [
            146.0903749,
            -36.5166459
          ],
          [
            146.0904655,
            -36.5166022
          ],
          [
            146.0906183,
            -36.5165676
          ],
          [
            146.0907065,
            -36.5165659
          ],
          [
            146.0907933,
            -36.5165812
          ],
          [
            146.0909045,
            -36.5166247
          ],
          [
            146.0909703,
            -36.5167019
          ],
          [
            146.0909884,
            -36.5167769
          ],
          [
            146.0909864,
            -36.5168485
          ],
          [
            146.0909496,
            -36.516936
          ],
          [
            146.0908743,
            -36.5169948
          ],
          [
            146.0906721,
            -36.5171106
          ],
          [
            146.0877892,
            -36.5182798
          ],
          [
            146.0877136,
            -36.5183418
          ],
          [
            146.0876819,
            -36.5184264
          ],
          [
            146.0876856,
            -36.5185078
          ],
          [
            146.0877195,
            -36.5185773
          ],
          [
            146.0878061,
            -36.5186634
          ],
          [
            146.0879008,
            -36.5187412
          ],
          [
            146.090855,
            -36.5210237
          ],
          [
            146.0909733,
            -36.5211309
          ],
          [
            146.0910142,
            -36.5211759
          ],
          [
            146.0910293,
            -36.5212286
          ],
          [
            146.0910422,
            -36.5212831
          ],
          [
            146.0910228,
            -36.5213419
          ],
          [
            146.0909798,
            -36.5214128
          ],
          [
            146.0909482,
            -36.5214454
          ],
          [
            146.0902461,
            -36.5218969
          ],
          [
            146.0901664,
            -36.5219402
          ],
          [
            146.0900804,
            -36.5219471
          ],
          [
            146.0900094,
            -36.5219384
          ],
          [
            146.089962,
            -36.5219142
          ],
          [
            146.0898781,
            -36.5218537
          ],
          [
            146.0898157,
            -36.5217828
          ],
          [
            146.087875,
            -36.5197629
          ]
        ]
      }
    }
  ]
}
