{
  "type": "FeatureCollection",
  "bbox": [
    13.596614,
    57.2605959,
    13.6099292,
    57.2691737
  ],
  "metadata": {
    "schemaVersion": 1,
    "trackId": "se-anderstorp-raceway-167798646",
    "layoutId": "main",
    "license": "ODbL-1.0",
    "attribution": "© OpenStreetMap contributors",
    "closed": true,
    "geometryStatus": "draft",
    "timingStatus": "missing",
    "timingMode": "shared",
    "lengthM": 4016.6,
    "reviewedAt": null,
    "notes": [
      "Connected OSM course candidate. The selected loop is the longest simple source-node cycle after explicit exclusions; its association with a named circuit configuration requires review.",
      "Source way order and shared node IDs are retained. No nearby endpoints are joined and no Racelogic boundaries are read."
    ]
  },
  "features": [
    {
      "type": "Feature",
      "id": "trace",
      "properties": {
        "role": "trace",
        "sourceIds": [
          "osm-snapshot"
        ]
      },
      "geometry": {
        "type": "LineString",
        "coordinates": [
          [
            13.6071942,
            57.2670653
          ],
          [
            13.6073251,
            57.2671623
          ],
          [
            13.6073908,
            57.2672217
          ],
          [
            13.6074364,
            57.2672811
          ],
          [
            13.6074764,
            57.2673442
          ],
          [
            13.6075032,
            57.2674022
          ],
          [
            13.6075169,
            57.2674595
          ],
          [
            13.6075193,
            57.2675197
          ],
          [
            13.6075059,
            57.2675835
          ],
          [
            13.6074793,
            57.2676466
          ],
          [
            13.6074418,
            57.2677046
          ],
          [
            13.6073935,
            57.2677583
          ],
          [
            13.6073371,
            57.2678134
          ],
          [
            13.6072728,
            57.2678627
          ],
          [
            13.6071682,
            57.2679236
          ],
          [
            13.607077,
            57.2679628
          ],
          [
            13.6069858,
            57.2679903
          ],
          [
            13.6068785,
            57.2680193
          ],
          [
            13.6067471,
            57.268044
          ],
          [
            13.606621,
            57.2680599
          ],
          [
            13.6064976,
            57.2680657
          ],
          [
            13.6063769,
            57.2680672
          ],
          [
            13.6062643,
            57.2680599
          ],
          [
            13.6061489,
            57.2680469
          ],
          [
            13.606047,
            57.268028
          ],
          [
            13.6059368,
            57.2679997
          ],
          [
            13.6058429,
            57.2679678
          ],
          [
            13.6057463,
            57.2679272
          ],
          [
            13.6056661,
            57.2678873
          ],
          [
            13.6055883,
            57.267838
          ],
          [
            13.6054607,
            57.2677373
          ],
          [
            13.6047411,
            57.2671276
          ],
          [
            13.6036853,
            57.2662228
          ],
          [
            13.6027667,
            57.2654422
          ],
          [
            13.601808,
            57.2646043
          ],
          [
            13.6016921,
            57.2645052
          ],
          [
            13.6016427,
            57.2644514
          ],
          [
            13.6016052,
            57.264405
          ],
          [
            13.6015784,
            57.2643615
          ],
          [
            13.601565,
            57.2643223
          ],
          [
            13.6015596,
            57.2642846
          ],
          [
            13.6015596,
            57.2642425
          ],
          [
            13.601565,
            57.2642034
          ],
          [
            13.6015784,
            57.2641613
          ],
          [
            13.6015998,
            57.2641192
          ],
          [
            13.6016267,
            57.2640743
          ],
          [
            13.6016619,
            57.2640347
          ],
          [
            13.6016991,
            57.2640018
          ],
          [
            13.6017558,
            57.2639636
          ],
          [
            13.6018225,
            57.2639263
          ],
          [
            13.6018868,
            57.2638988
          ],
          [
            13.6019865,
            57.2638621
          ],
          [
            13.6021068,
            57.2638292
          ],
          [
            13.6022532,
            57.2637976
          ],
          [
            13.6025703,
            57.2637341
          ],
          [
            13.6030245,
            57.2636547
          ],
          [
            13.6034371,
            57.2635855
          ],
          [
            13.6036441,
            57.2635517
          ],
          [
            13.603799,
            57.2635243
          ],
          [
            13.6039709,
            57.2634897
          ],
          [
            13.6040916,
            57.2634622
          ],
          [
            13.604202,
            57.2634313
          ],
          [
            13.6043089,
            57.263394
          ],
          [
            13.6044108,
            57.2633534
          ],
          [
            13.6044913,
            57.2633171
          ],
          [
            13.6045771,
            57.2632678
          ],
          [
            13.6046683,
            57.2632127
          ],
          [
            13.6047491,
            57.2631557
          ],
          [
            13.6048185,
            57.2630909
          ],
          [
            13.6048672,
            57.2630368
          ],
          [
            13.6049097,
            57.262985
          ],
          [
            13.6049423,
            57.2629265
          ],
          [
            13.6049714,
            57.2628573
          ],
          [
            13.6049875,
            57.2628008
          ],
          [
            13.6049982,
            57.2627413
          ],
          [
            13.6050009,
            57.262676
          ],
          [
            13.6049928,
            57.2626107
          ],
          [
            13.6049714,
            57.2625484
          ],
          [
            13.6049472,
            57.2624889
          ],
          [
            13.604907,
            57.2624222
          ],
          [
            13.6048507,
            57.2623482
          ],
          [
            13.6047836,
            57.2622757
          ],
          [
            13.6047219,
            57.2622264
          ],
          [
            13.6046499,
            57.2621737
          ],
          [
            13.604561,
            57.2621219
          ],
          [
            13.6044617,
            57.2620726
          ],
          [
            13.6043549,
            57.2620287
          ],
          [
            13.6042472,
            57.2619914
          ],
          [
            13.6041188,
            57.2619561
          ],
          [
            13.6039924,
            57.2619276
          ],
          [
            13.6038717,
            57.2619058
          ],
          [
            13.6037268,
            57.2618884
          ],
          [
            13.60359,
            57.2618782
          ],
          [
            13.6034532,
            57.2618739
          ],
          [
            13.6033191,
            57.2618739
          ],
          [
            13.6031904,
            57.2618811
          ],
          [
            13.6030697,
            57.2618971
          ],
          [
            13.6029383,
            57.2619203
          ],
          [
            13.6028367,
            57.2619416
          ],
          [
            13.6027375,
            57.2619677
          ],
          [
            13.6026513,
            57.2619928
          ],
          [
            13.602552,
            57.2620262
          ],
          [
            13.6024608,
            57.2620639
          ],
          [
            13.602383,
            57.262106
          ],
          [
            13.6023026,
            57.2621553
          ],
          [
            13.6022306,
            57.2622013
          ],
          [
            13.6021577,
            57.2622568
          ],
          [
            13.602083,
            57.2623231
          ],
          [
            13.60188,
            57.2625213
          ],
          [
            13.6016401,
            57.2627514
          ],
          [
            13.601573,
            57.2627964
          ],
          [
            13.601514,
            57.2628269
          ],
          [
            13.601455,
            57.2628501
          ],
          [
            13.6013772,
            57.2628718
          ],
          [
            13.6013102,
            57.2628834
          ],
          [
            13.6012351,
            57.2628878
          ],
          [
            13.6011546,
            57.2628834
          ],
          [
            13.6010822,
            57.2628762
          ],
          [
            13.6010101,
            57.2628642
          ],
          [
            13.6009485,
            57.2628496
          ],
          [
            13.6008837,
            57.2628269
          ],
          [
            13.6008278,
            57.2627989
          ],
          [
            13.6007795,
            57.2627655
          ],
          [
            13.6007071,
            57.2627052
          ],
          [
            13.6005087,
            57.2625355
          ],
          [
            13.599322,
            57.2615151
          ],
          [
            13.5991814,
            57.2613938
          ],
          [
            13.598572,
            57.2608681
          ],
          [
            13.598494,
            57.2608031
          ],
          [
            13.598435,
            57.2607657
          ],
          [
            13.5983733,
            57.2607323
          ],
          [
            13.5982982,
            57.2607018
          ],
          [
            13.5982177,
            57.2606743
          ],
          [
            13.5981131,
            57.2606467
          ],
          [
            13.5979951,
            57.2606206
          ],
          [
            13.5978851,
            57.2606046
          ],
          [
            13.5977805,
            57.2605974
          ],
          [
            13.5976598,
            57.2605959
          ],
          [
            13.5975606,
            57.2606003
          ],
          [
            13.5974667,
            57.2606075
          ],
          [
            13.5973728,
            57.2606206
          ],
          [
            13.597274,
            57.2606381
          ],
          [
            13.5971884,
            57.2606584
          ],
          [
            13.5970995,
            57.260684
          ],
          [
            13.5970214,
            57.260712
          ],
          [
            13.5969491,
            57.260744
          ],
          [
            13.596882,
            57.260786
          ],
          [
            13.596823,
            57.2608295
          ],
          [
            13.5967666,
            57.2608788
          ],
          [
            13.5967293,
            57.2609219
          ],
          [
            13.5966942,
            57.2609702
          ],
          [
            13.5966569,
            57.2610263
          ],
          [
            13.5966328,
            57.2610858
          ],
          [
            13.5966194,
            57.261138
          ],
          [
            13.596614,
            57.2611989
          ],
          [
            13.5966194,
            57.2612483
          ],
          [
            13.5966352,
            57.2613038
          ],
          [
            13.596662,
            57.2613589
          ],
          [
            13.5967103,
            57.26143
          ],
          [
            13.597063,
            57.2618327
          ],
          [
            13.5972683,
            57.2620686
          ],
          [
            13.5977643,
            57.2626661
          ],
          [
            13.5983544,
            57.2632985
          ],
          [
            13.5986106,
            57.2635458
          ],
          [
            13.599137,
            57.2640603
          ],
          [
            13.6018675,
            57.2663937
          ],
          [
            13.602217,
            57.266623
          ],
          [
            13.6025493,
            57.2668607
          ],
          [
            13.6035332,
            57.2675157
          ],
          [
            13.604723,
            57.2682144
          ],
          [
            13.6050836,
            57.2684056
          ],
          [
            13.6063317,
            57.2690937
          ],
          [
            13.6064045,
            57.2691298
          ],
          [
            13.6064669,
            57.2691528
          ],
          [
            13.6065271,
            57.2691664
          ],
          [
            13.606578,
            57.2691737
          ],
          [
            13.606637,
            57.2691737
          ],
          [
            13.6066934,
            57.2691664
          ],
          [
            13.6067926,
            57.2691447
          ],
          [
            13.6072325,
            57.2690156
          ],
          [
            13.607417,
            57.2689605
          ],
          [
            13.6079945,
            57.268764
          ],
          [
            13.608925,
            57.2684474
          ],
          [
            13.6093358,
            57.2683076
          ],
          [
            13.6096197,
            57.2681963
          ],
          [
            13.6097297,
            57.2681455
          ],
          [
            13.6098048,
            57.2681034
          ],
          [
            13.6098504,
            57.268073
          ],
          [
            13.6098852,
            57.268044
          ],
          [
            13.6099067,
            57.2680179
          ],
          [
            13.6099201,
            57.2679845
          ],
          [
            13.6099292,
            57.2679402
          ],
          [
            13.6099282,
            57.267899
          ],
          [
            13.6099172,
            57.2678504
          ],
          [
            13.6098879,
            57.2677844
          ],
          [
            13.6098639,
            57.2677454
          ],
          [
            13.6098262,
            57.2677017
          ],
          [
            13.6096839,
            57.2675756
          ],
          [
            13.6094711,
            57.2673923
          ],
          [
            13.6089037,
            57.2668932
          ],
          [
            13.608341,
            57.2664112
          ],
          [
            13.6071497,
            57.2653907
          ],
          [
            13.6062317,
            57.2646308
          ],
          [
            13.6060372,
            57.2644709
          ],
          [
            13.60598,
            57.2644311
          ],
          [
            13.6059209,
            57.2643963
          ],
          [
            13.6058485,
            57.2643586
          ],
          [
            13.6057681,
            57.2643267
          ],
          [
            13.6056715,
            57.2642962
          ],
          [
            13.6055723,
            57.2642716
          ],
          [
            13.6054569,
            57.2642527
          ],
          [
            13.6053335,
            57.2642411
          ],
          [
            13.6051994,
            57.2642368
          ],
          [
            13.605068,
            57.2642426
          ],
          [
            13.6049285,
            57.2642527
          ],
          [
            13.6047807,
            57.2642737
          ],
          [
            13.6046574,
            57.2643013
          ],
          [
            13.604545,
            57.2643354
          ],
          [
            13.6044481,
            57.2643767
          ],
          [
            13.6043599,
            57.2644297
          ],
          [
            13.604266,
            57.2644906
          ],
          [
            13.6041936,
            57.2645515
          ],
          [
            13.6041424,
            57.2646117
          ],
          [
            13.6041115,
            57.2646768
          ],
          [
            13.6040968,
            57.2647422
          ],
          [
            13.6040917,
            57.2647995
          ],
          [
            13.6040917,
            57.2648619
          ],
          [
            13.6041048,
            57.2649279
          ],
          [
            13.6041292,
            57.2649924
          ],
          [
            13.6041748,
            57.2650606
          ],
          [
            13.6042336,
            57.2651193
          ],
          [
            13.6042982,
            57.265165
          ],
          [
            13.6044233,
            57.2652443
          ],
          [
            13.6071942,
            57.2670653
          ]
        ]
      }
    }
  ]
}
