{
  "type": "FeatureCollection",
  "bbox": [
    -80.6859433,
    35.3474866,
    -80.6798789,
    35.3558193
  ],
  "metadata": {
    "schemaVersion": 1,
    "trackId": "us-charlotte-motor-speedway-116034341",
    "layoutId": "charlotte-motor-speedway-full",
    "license": "ODbL-1.0",
    "attribution": "© OpenStreetMap contributors",
    "closed": true,
    "geometryStatus": "draft",
    "timingStatus": "missing",
    "timingMode": "shared",
    "lengthM": 2365.1,
    "reviewedAt": null,
    "notes": [
      "Draft configuration: The operator identifies the complete 1.5-mile superspeedway oval. The catalogue Full configuration follows the whole outer oval; its depicted parallel pit access is excluded from the driving course. The independently mapped oval uses neither the frontstretch nor backstretch ROVAL chicane and excludes the infield road course. Its exact source-node distance is 2365.1 m against the catalogue scalar of 2322 m; centreline and advertised race distances remain separate. Branch identity was checked against catalogue layout facts and circuit identification references. Independent source distance 2365.1 m; no coordinates are changed to match a diagram or distance. Travel direction and historical alignment remain provisional."
    ]
  },
  "features": [
    {
      "type": "Feature",
      "id": "trace",
      "properties": {
        "role": "trace",
        "sourceIds": [
          "osm-selection-116034341"
        ]
      },
      "geometry": {
        "type": "LineString",
        "coordinates": [
          [
            -80.6806407,
            35.3512319
          ],
          [
            -80.6805142,
            35.3516289
          ],
          [
            -80.6804052,
            35.3519712
          ],
          [
            -80.6803563,
            35.3521245
          ],
          [
            -80.6801612,
            35.3527562
          ],
          [
            -80.6801263,
            35.3528693
          ],
          [
            -80.6800935,
            35.3529755
          ],
          [
            -80.6799621,
            35.3533736
          ],
          [
            -80.6799218,
            35.3535486
          ],
          [
            -80.6798816,
            35.3538658
          ],
          [
            -80.6798789,
            35.3540627
          ],
          [
            -80.6798923,
            35.3542924
          ],
          [
            -80.6799326,
            35.3544827
          ],
          [
            -80.680005,
            35.3546993
          ],
          [
            -80.6800774,
            35.3548306
          ],
          [
            -80.6801713,
            35.3549815
          ],
          [
            -80.6803,
            35.3551303
          ],
          [
            -80.6803993,
            35.3552309
          ],
          [
            -80.6805548,
            35.3553665
          ],
          [
            -80.6806916,
            35.3554606
          ],
          [
            -80.6808526,
            35.3555503
          ],
          [
            -80.6810671,
            35.3556487
          ],
          [
            -80.6813219,
            35.3557318
          ],
          [
            -80.6815365,
            35.35578
          ],
          [
            -80.6817055,
            35.3558018
          ],
          [
            -80.6819013,
            35.355815
          ],
          [
            -80.6820998,
            35.3558193
          ],
          [
            -80.6822902,
            35.3558062
          ],
          [
            -80.6825584,
            35.3557581
          ],
          [
            -80.6827221,
            35.3557187
          ],
          [
            -80.6829152,
            35.3556597
          ],
          [
            -80.6830573,
            35.3555962
          ],
          [
            -80.6832317,
            35.3555153
          ],
          [
            -80.6834141,
            35.3554015
          ],
          [
            -80.6835562,
            35.35529
          ],
          [
            -80.6837332,
            35.3551368
          ],
          [
            -80.6839156,
            35.3549509
          ],
          [
            -80.6840497,
            35.3548062
          ],
          [
            -80.6842098,
            35.3546146
          ],
          [
            -80.6845112,
            35.3542407
          ],
          [
            -80.6845889,
            35.3541524
          ],
          [
            -80.6848303,
            35.3538658
          ],
          [
            -80.6849537,
            35.3537258
          ],
          [
            -80.6850635,
            35.3535902
          ],
          [
            -80.685097,
            35.3535424
          ],
          [
            -80.6851322,
            35.3534944
          ],
          [
            -80.6851767,
            35.3534233
          ],
          [
            -80.6852215,
            35.3533392
          ],
          [
            -80.6852566,
            35.3532555
          ],
          [
            -80.6852843,
            35.3531722
          ],
          [
            -80.685385,
            35.3528733
          ],
          [
            -80.6855926,
            35.3522551
          ],
          [
            -80.6857497,
            35.3517875
          ],
          [
            -80.6857999,
            35.3516382
          ],
          [
            -80.6858842,
            35.3513873
          ],
          [
            -80.6859003,
            35.3513129
          ],
          [
            -80.6859218,
            35.3512254
          ],
          [
            -80.6859379,
            35.3511204
          ],
          [
            -80.6859433,
            35.3510372
          ],
          [
            -80.6859387,
            35.3508923
          ],
          [
            -80.6859284,
            35.3507573
          ],
          [
            -80.6859073,
            35.3504562
          ],
          [
            -80.6859057,
            35.3504334
          ],
          [
            -80.6859039,
            35.3504049
          ],
          [
            -80.6858628,
            35.3500003
          ],
          [
            -80.6858038,
            35.3493877
          ],
          [
            -80.6857609,
            35.3491383
          ],
          [
            -80.685734,
            35.3490114
          ],
          [
            -80.6856804,
            35.3488233
          ],
          [
            -80.6856053,
            35.3486483
          ],
          [
            -80.6855903,
            35.3486171
          ],
          [
            -80.6855473,
            35.3485277
          ],
          [
            -80.685498,
            35.3484251
          ],
          [
            -80.6853532,
            35.3482238
          ],
          [
            -80.6852271,
            35.3480904
          ],
          [
            -80.6850393,
            35.3479351
          ],
          [
            -80.6848812,
            35.3478322
          ],
          [
            -80.6847391,
            35.3477513
          ],
          [
            -80.6845996,
            35.3476835
          ],
          [
            -80.6844011,
            35.3476047
          ],
          [
            -80.6842134,
            35.3475544
          ],
          [
            -80.6839586,
            35.3475106
          ],
          [
            -80.6836796,
            35.3474866
          ],
          [
            -80.6834489,
            35.3474888
          ],
          [
            -80.6832478,
            35.3475041
          ],
          [
            -80.6830198,
            35.3475413
          ],
          [
            -80.6827489,
            35.3476135
          ],
          [
            -80.6825477,
            35.3476878
          ],
          [
            -80.6823331,
            35.347795
          ],
          [
            -80.682132,
            35.3479132
          ],
          [
            -80.6819737,
            35.3480357
          ],
          [
            -80.6818316,
            35.3481735
          ],
          [
            -80.6817484,
            35.3482807
          ],
          [
            -80.6816223,
            35.3484579
          ],
          [
            -80.6815177,
            35.3486351
          ],
          [
            -80.6814239,
            35.3488189
          ],
          [
            -80.6813541,
            35.3489764
          ],
          [
            -80.6812871,
            35.3491361
          ],
          [
            -80.68122,
            35.3493396
          ],
          [
            -80.6811235,
            35.3496699
          ],
          [
            -80.6809572,
            35.3502169
          ],
          [
            -80.6806407,
            35.3512319
          ]
        ]
      }
    }
  ]
}
