{
  "type": "FeatureCollection",
  "bbox": [
    -80.6837687,
    35.3485314,
    -80.68118,
    35.3518949
  ],
  "metadata": {
    "schemaVersion": 1,
    "trackId": "us-charlotte-motor-speedway-116034341",
    "layoutId": "main",
    "license": "ODbL-1.0",
    "attribution": "© OpenStreetMap contributors",
    "closed": true,
    "geometryStatus": "draft",
    "timingStatus": "missing",
    "timingMode": "shared",
    "lengthM": 1262.3,
    "reviewedAt": null,
    "notes": [
      "Closed named OSM raceway retained as a course candidate. Named-layout association requires review.",
      "Source way order and shared node IDs are retained. No nearby endpoints are joined and no reference boundaries are read."
    ]
  },
  "features": [
    {
      "type": "Feature",
      "id": "trace",
      "properties": {
        "role": "trace",
        "sourceIds": [
          "osm-snapshot"
        ]
      },
      "geometry": {
        "type": "LineString",
        "coordinates": [
          [
            -80.6815322,
            35.3502902
          ],
          [
            -80.6816172,
            35.3500462
          ],
          [
            -80.6816819,
            35.3499609
          ],
          [
            -80.6817537,
            35.3499088
          ],
          [
            -80.6818759,
            35.3498744
          ],
          [
            -80.6820028,
            35.3498495
          ],
          [
            -80.6821364,
            35.3498472
          ],
          [
            -80.6830706,
            35.3498946
          ],
          [
            -80.6832874,
            35.3498755
          ],
          [
            -80.6833939,
            35.3497883
          ],
          [
            -80.6834418,
            35.349678
          ],
          [
            -80.6834402,
            35.3495812
          ],
          [
            -80.6833692,
            35.3493403
          ],
          [
            -80.6832791,
            35.3492503
          ],
          [
            -80.6831588,
            35.3491902
          ],
          [
            -80.6830546,
            35.3491766
          ],
          [
            -80.682964,
            35.3491765
          ],
          [
            -80.6828789,
            35.3492039
          ],
          [
            -80.6824553,
            35.34942
          ],
          [
            -80.6823893,
            35.3494379
          ],
          [
            -80.6823184,
            35.3494402
          ],
          [
            -80.6822563,
            35.3494353
          ],
          [
            -80.6821284,
            35.3493838
          ],
          [
            -80.682039,
            35.3493217
          ],
          [
            -80.6819751,
            35.3492178
          ],
          [
            -80.681975,
            35.3490098
          ],
          [
            -80.682026,
            35.3489042
          ],
          [
            -80.6821027,
            35.3488321
          ],
          [
            -80.6822272,
            35.3487609
          ],
          [
            -80.6829996,
            35.3485553
          ],
          [
            -80.6831018,
            35.348539
          ],
          [
            -80.6832708,
            35.3485314
          ],
          [
            -80.683402,
            35.3485673
          ],
          [
            -80.6834934,
            35.3486035
          ],
          [
            -80.6835723,
            35.3486723
          ],
          [
            -80.683649,
            35.3487545
          ],
          [
            -80.6837024,
            35.3488298
          ],
          [
            -80.6837442,
            35.3489459
          ],
          [
            -80.6837671,
            35.3492915
          ],
          [
            -80.6837687,
            35.349392
          ],
          [
            -80.6837635,
            35.3494541
          ],
          [
            -80.6836955,
            35.3499487
          ],
          [
            -80.68368,
            35.3500805
          ],
          [
            -80.6836484,
            35.3501707
          ],
          [
            -80.6835598,
            35.3502782
          ],
          [
            -80.6834232,
            35.3504259
          ],
          [
            -80.6832674,
            35.350735
          ],
          [
            -80.683016,
            35.3512354
          ],
          [
            -80.682843,
            35.3515799
          ],
          [
            -80.682743,
            35.3517426
          ],
          [
            -80.6825963,
            35.3518336
          ],
          [
            -80.682328,
            35.3518949
          ],
          [
            -80.6821564,
            35.3518949
          ],
          [
            -80.681963,
            35.351873
          ],
          [
            -80.681577,
            35.3517811
          ],
          [
            -80.6814054,
            35.3517199
          ],
          [
            -80.6812551,
            35.3516324
          ],
          [
            -80.68118,
            35.3514661
          ],
          [
            -80.68118,
            35.3512999
          ],
          [
            -80.6812968,
            35.3509649
          ],
          [
            -80.6815322,
            35.3502902
          ]
        ]
      }
    }
  ]
}
