{
  "type": "FeatureCollection",
  "bbox": [
    -122.4634222,
    38.1585708,
    -122.4518685,
    38.1668462
  ],
  "metadata": {
    "schemaVersion": 1,
    "trackId": "us-sonoma-raceway-2020-28825444",
    "layoutId": "sonoma-raceway",
    "license": "ODbL-1.0",
    "attribution": "© OpenStreetMap contributors",
    "closed": true,
    "geometryStatus": "draft",
    "timingStatus": "missing",
    "timingMode": "shared",
    "lengthM": 4048.9,
    "reviewedAt": null,
    "notes": [
      "Draft configuration: Full road course with rounded Turn 7 return and direct eastern connector, without the extra eastern chicane. Branch identity was checked against catalogue layout facts and circuit identification references. Independent source distance 4048.9 m; no coordinates are changed to match a diagram or distance. Travel direction and historical alignment remain provisional."
    ]
  },
  "features": [
    {
      "type": "Feature",
      "id": "trace",
      "properties": {
        "role": "trace",
        "sourceIds": [
          "osm-selection-28825444"
        ]
      },
      "geometry": {
        "type": "LineString",
        "coordinates": [
          [
            -122.4633944,
            38.1639378
          ],
          [
            -122.4634204,
            38.1640311
          ],
          [
            -122.4634222,
            38.1640716
          ],
          [
            -122.4634219,
            38.1641184
          ],
          [
            -122.4634036,
            38.1641545
          ],
          [
            -122.4633823,
            38.1641815
          ],
          [
            -122.463319,
            38.1642398
          ],
          [
            -122.4632498,
            38.164278
          ],
          [
            -122.4631849,
            38.1643016
          ],
          [
            -122.4631284,
            38.1643135
          ],
          [
            -122.4625048,
            38.1644463
          ],
          [
            -122.4620834,
            38.1645243
          ],
          [
            -122.4619839,
            38.1645378
          ],
          [
            -122.4618883,
            38.1645449
          ],
          [
            -122.4618003,
            38.1645466
          ],
          [
            -122.4617124,
            38.1645452
          ],
          [
            -122.4616311,
            38.1645343
          ],
          [
            -122.4615686,
            38.1645273
          ],
          [
            -122.4614858,
            38.1645111
          ],
          [
            -122.4613917,
            38.164492
          ],
          [
            -122.4613179,
            38.1644727
          ],
          [
            -122.4612465,
            38.1644463
          ],
          [
            -122.4611456,
            38.1644058
          ],
          [
            -122.4610361,
            38.1643551
          ],
          [
            -122.460931,
            38.1642979
          ],
          [
            -122.4608195,
            38.1642304
          ],
          [
            -122.4607081,
            38.1641376
          ],
          [
            -122.4606354,
            38.1640659
          ],
          [
            -122.4605535,
            38.1639687
          ],
          [
            -122.4604793,
            38.1638773
          ],
          [
            -122.4596693,
            38.1629009
          ],
          [
            -122.4595921,
            38.16282
          ],
          [
            -122.4595433,
            38.1627848
          ],
          [
            -122.4594891,
            38.1627457
          ],
          [
            -122.4593947,
            38.1626917
          ],
          [
            -122.4592898,
            38.1626473
          ],
          [
            -122.4591549,
            38.1626124
          ],
          [
            -122.459062,
            38.1625973
          ],
          [
            -122.45894,
            38.1625886
          ],
          [
            -122.4588303,
            38.1625928
          ],
          [
            -122.4587174,
            38.1626078
          ],
          [
            -122.4586238,
            38.1626333
          ],
          [
            -122.4585242,
            38.1626692
          ],
          [
            -122.4584231,
            38.1627122
          ],
          [
            -122.4583285,
            38.1627721
          ],
          [
            -122.4582458,
            38.162831
          ],
          [
            -122.4581818,
            38.1628902
          ],
          [
            -122.458133,
            38.1629528
          ],
          [
            -122.4580882,
            38.1630246
          ],
          [
            -122.4580565,
            38.1630966
          ],
          [
            -122.458035,
            38.1631685
          ],
          [
            -122.4580161,
            38.1632437
          ],
          [
            -122.4580053,
            38.1633124
          ],
          [
            -122.4579991,
            38.1633647
          ],
          [
            -122.4580054,
            38.1634436
          ],
          [
            -122.4580216,
            38.1635051
          ],
          [
            -122.4580474,
            38.1635882
          ],
          [
            -122.4580729,
            38.163653
          ],
          [
            -122.4581263,
            38.1637365
          ],
          [
            -122.4582089,
            38.1638394
          ],
          [
            -122.4583178,
            38.1639557
          ],
          [
            -122.4584216,
            38.1640273
          ],
          [
            -122.4597723,
            38.164858
          ],
          [
            -122.4604349,
            38.1652706
          ],
          [
            -122.462162,
            38.1663462
          ],
          [
            -122.462373,
            38.1664776
          ],
          [
            -122.4622179,
            38.1666562
          ],
          [
            -122.4621707,
            38.1667017
          ],
          [
            -122.4620924,
            38.1667739
          ],
          [
            -122.4620451,
            38.1668102
          ],
          [
            -122.4620106,
            38.1668277
          ],
          [
            -122.4619637,
            38.1668388
          ],
          [
            -122.4619136,
            38.1668459
          ],
          [
            -122.4618638,
            38.1668462
          ],
          [
            -122.4618199,
            38.1668412
          ],
          [
            -122.4617712,
            38.1668251
          ],
          [
            -122.461729,
            38.166801
          ],
          [
            -122.4616985,
            38.1667821
          ],
          [
            -122.4616606,
            38.1667449
          ],
          [
            -122.461636,
            38.1667104
          ],
          [
            -122.4615729,
            38.1665505
          ],
          [
            -122.4615285,
            38.1664355
          ],
          [
            -122.4615024,
            38.1663597
          ],
          [
            -122.4614795,
            38.1663137
          ],
          [
            -122.4614634,
            38.1662836
          ],
          [
            -122.4614427,
            38.1662531
          ],
          [
            -122.4613863,
            38.1661987
          ],
          [
            -122.4608452,
            38.165823
          ],
          [
            -122.4606993,
            38.1657488
          ],
          [
            -122.4605877,
            38.1657083
          ],
          [
            -122.4604332,
            38.1656745
          ],
          [
            -122.4602444,
            38.1656475
          ],
          [
            -122.4601619,
            38.1656325
          ],
          [
            -122.4600962,
            38.1656136
          ],
          [
            -122.4600255,
            38.165583
          ],
          [
            -122.4599228,
            38.1655235
          ],
          [
            -122.4598238,
            38.1654518
          ],
          [
            -122.4596693,
            38.1653371
          ],
          [
            -122.4595326,
            38.1652034
          ],
          [
            -122.4593997,
            38.165087
          ],
          [
            -122.4592699,
            38.1650062
          ],
          [
            -122.459152,
            38.1649588
          ],
          [
            -122.459035,
            38.1649194
          ],
          [
            -122.4589415,
            38.1648987
          ],
          [
            -122.4588389,
            38.1648805
          ],
          [
            -122.458703,
            38.1648698
          ],
          [
            -122.4585675,
            38.164874
          ],
          [
            -122.4584238,
            38.1648807
          ],
          [
            -122.4582853,
            38.164889
          ],
          [
            -122.4581771,
            38.1648871
          ],
          [
            -122.4580699,
            38.1648728
          ],
          [
            -122.4579652,
            38.1648481
          ],
          [
            -122.4578599,
            38.1648118
          ],
          [
            -122.4577694,
            38.16477
          ],
          [
            -122.4576232,
            38.1646909
          ],
          [
            -122.4574578,
            38.1645834
          ],
          [
            -122.4573376,
            38.1644779
          ],
          [
            -122.4572623,
            38.1643879
          ],
          [
            -122.4572101,
            38.1643282
          ],
          [
            -122.457165,
            38.1642649
          ],
          [
            -122.4570804,
            38.16415
          ],
          [
            -122.4567425,
            38.1636905
          ],
          [
            -122.4566395,
            38.1635421
          ],
          [
            -122.4565365,
            38.1634138
          ],
          [
            -122.4564507,
            38.1633261
          ],
          [
            -122.4563305,
            38.1632181
          ],
          [
            -122.4561846,
            38.1631236
          ],
          [
            -122.4559099,
            38.1629414
          ],
          [
            -122.4557211,
            38.1628402
          ],
          [
            -122.4555065,
            38.1627187
          ],
          [
            -122.4553091,
            38.1626243
          ],
          [
            -122.4551975,
            38.1625703
          ],
          [
            -122.4550938,
            38.162531
          ],
          [
            -122.45495,
            38.1624906
          ],
          [
            -122.4548244,
            38.1624583
          ],
          [
            -122.454698,
            38.1624291
          ],
          [
            -122.4545683,
            38.1624009
          ],
          [
            -122.4544283,
            38.1623805
          ],
          [
            -122.4543013,
            38.1623648
          ],
          [
            -122.4541496,
            38.1623484
          ],
          [
            -122.4539875,
            38.1623353
          ],
          [
            -122.4538862,
            38.1623235
          ],
          [
            -122.4537997,
            38.1623079
          ],
          [
            -122.4537221,
            38.1622887
          ],
          [
            -122.4536146,
            38.162252
          ],
          [
            -122.4535328,
            38.162213
          ],
          [
            -122.4534209,
            38.1621516
          ],
          [
            -122.4533415,
            38.1621032
          ],
          [
            -122.4532807,
            38.1620517
          ],
          [
            -122.4531998,
            38.1619794
          ],
          [
            -122.4531251,
            38.1619083
          ],
          [
            -122.4530591,
            38.161822
          ],
          [
            -122.4529933,
            38.1617218
          ],
          [
            -122.4529364,
            38.1616293
          ],
          [
            -122.452873,
            38.161497
          ],
          [
            -122.4528203,
            38.161362
          ],
          [
            -122.452739,
            38.1611581
          ],
          [
            -122.4525471,
            38.1606777
          ],
          [
            -122.4523629,
            38.1601927
          ],
          [
            -122.4520654,
            38.1594297
          ],
          [
            -122.4518931,
            38.1589597
          ],
          [
            -122.4518716,
            38.1588705
          ],
          [
            -122.4518685,
            38.1588176
          ],
          [
            -122.4518716,
            38.1587704
          ],
          [
            -122.4518912,
            38.1587138
          ],
          [
            -122.4519221,
            38.1586636
          ],
          [
            -122.4519537,
            38.1586326
          ],
          [
            -122.4519986,
            38.1586056
          ],
          [
            -122.4520476,
            38.1585873
          ],
          [
            -122.4520992,
            38.1585792
          ],
          [
            -122.4521676,
            38.1585708
          ],
          [
            -122.4522239,
            38.1585761
          ],
          [
            -122.4522807,
            38.1585945
          ],
          [
            -122.4523553,
            38.1586225
          ],
          [
            -122.4524153,
            38.1586632
          ],
          [
            -122.4524626,
            38.1587047
          ],
          [
            -122.4524853,
            38.158737
          ],
          [
            -122.452515,
            38.1587918
          ],
          [
            -122.4528785,
            38.1597011
          ],
          [
            -122.4531558,
            38.1603595
          ],
          [
            -122.4531788,
            38.1604236
          ],
          [
            -122.453219,
            38.16049
          ],
          [
            -122.4532693,
            38.1605624
          ],
          [
            -122.4533357,
            38.1606313
          ],
          [
            -122.4534054,
            38.1606893
          ],
          [
            -122.4535011,
            38.1607621
          ],
          [
            -122.4546997,
            38.161504
          ],
          [
            -122.4553005,
            38.1618887
          ],
          [
            -122.455455,
            38.1619831
          ],
          [
            -122.4556026,
            38.162042
          ],
          [
            -122.455692,
            38.1620664
          ],
          [
            -122.455771,
            38.162086
          ],
          [
            -122.4558677,
            38.1620981
          ],
          [
            -122.455955,
            38.1621053
          ],
          [
            -122.4561323,
            38.1621074
          ],
          [
            -122.4562392,
            38.1621068
          ],
          [
            -122.4571156,
            38.1621101
          ],
          [
            -122.457277,
            38.1621021
          ],
          [
            -122.4573724,
            38.1620886
          ],
          [
            -122.4574503,
            38.1620694
          ],
          [
            -122.4575306,
            38.1620411
          ],
          [
            -122.4576351,
            38.1619959
          ],
          [
            -122.457742,
            38.161944
          ],
          [
            -122.4578534,
            38.1618746
          ],
          [
            -122.4579616,
            38.1618098
          ],
          [
            -122.4580396,
            38.1617509
          ],
          [
            -122.4581204,
            38.1616843
          ],
          [
            -122.4581702,
            38.1616363
          ],
          [
            -122.4582276,
            38.1615683
          ],
          [
            -122.4582416,
            38.1615481
          ],
          [
            -122.458278,
            38.1614953
          ],
          [
            -122.4583219,
            38.1614163
          ],
          [
            -122.4583658,
            38.1613366
          ],
          [
            -122.4584076,
            38.1612606
          ],
          [
            -122.4584612,
            38.1611985
          ],
          [
            -122.4585053,
            38.1611457
          ],
          [
            -122.458556,
            38.1610991
          ],
          [
            -122.4586044,
            38.1610681
          ],
          [
            -122.4586743,
            38.1610411
          ],
          [
            -122.4587675,
            38.1610151
          ],
          [
            -122.4588518,
            38.1610038
          ],
          [
            -122.4589308,
            38.1609951
          ],
          [
            -122.4589926,
            38.1609953
          ],
          [
            -122.4590754,
            38.161002
          ],
          [
            -122.4591541,
            38.1610265
          ],
          [
            -122.4592498,
            38.1610623
          ],
          [
            -122.459326,
            38.1611058
          ],
          [
            -122.4594393,
            38.1611695
          ],
          [
            -122.4596092,
            38.1612813
          ],
          [
            -122.4596925,
            38.1613431
          ],
          [
            -122.4597637,
            38.161396
          ],
          [
            -122.4599354,
            38.161531
          ],
          [
            -122.4600985,
            38.1616592
          ],
          [
            -122.4603302,
            38.1618617
          ],
          [
            -122.4604763,
            38.1619818
          ],
          [
            -122.4605534,
            38.1620574
          ],
          [
            -122.4606162,
            38.1621279
          ],
          [
            -122.4606601,
            38.1621927
          ],
          [
            -122.4607185,
            38.1622699
          ],
          [
            -122.4607735,
            38.1623328
          ],
          [
            -122.4608622,
            38.1624258
          ],
          [
            -122.4609129,
            38.1624724
          ],
          [
            -122.4609823,
            38.162522
          ],
          [
            -122.4610667,
            38.1625688
          ],
          [
            -122.4611683,
            38.1626047
          ],
          [
            -122.461267,
            38.1626211
          ],
          [
            -122.4613444,
            38.162624
          ],
          [
            -122.461445,
            38.1626251
          ],
          [
            -122.4617317,
            38.1626042
          ],
          [
            -122.4619232,
            38.1625949
          ],
          [
            -122.4620188,
            38.1625932
          ],
          [
            -122.4620981,
            38.1625979
          ],
          [
            -122.4621569,
            38.1626129
          ],
          [
            -122.4621842,
            38.1626243
          ],
          [
            -122.4622236,
            38.1626432
          ],
          [
            -122.4622579,
            38.162662
          ],
          [
            -122.4623025,
            38.162687
          ],
          [
            -122.4623387,
            38.162712
          ],
          [
            -122.4623712,
            38.1627343
          ],
          [
            -122.462397,
            38.1627592
          ],
          [
            -122.4624408,
            38.162797
          ],
          [
            -122.4624846,
            38.1628402
          ],
          [
            -122.4633171,
            38.163839
          ],
          [
            -122.4633944,
            38.1639378
          ]
        ]
      }
    }
  ]
}
