{
  "type": "FeatureCollection",
  "bbox": [
    -86.4794569,
    35.2982587,
    -86.4689059,
    35.3034481
  ],
  "metadata": {
    "schemaVersion": 1,
    "trackId": "us-polecat-driving-academy-rl",
    "layoutId": "main",
    "license": "ODbL-1.0",
    "attribution": "© OpenStreetMap contributors",
    "closed": true,
    "geometryStatus": "draft",
    "timingStatus": "missing",
    "timingMode": "shared",
    "lengthM": 3227.1,
    "reviewedAt": null,
    "notes": [
      "Draft course identified by matching the expected Racelogic name to uniquely connected OSM raceway ways. Private timing GPS supports the association. Geometry, travel convention and operating status need review.",
      "OSM does not establish travel direction for all selected ways."
    ]
  },
  "features": [
    {
      "type": "Feature",
      "id": "trace",
      "properties": {
        "role": "trace",
        "sourceIds": [
          "osm-snapshot"
        ]
      },
      "geometry": {
        "type": "LineString",
        "coordinates": [
          [
            -86.4751558,
            35.2995197
          ],
          [
            -86.4765765,
            35.2996401
          ],
          [
            -86.4769163,
            35.2996645
          ],
          [
            -86.4774577,
            35.2997034
          ],
          [
            -86.4784321,
            35.2997795
          ],
          [
            -86.4788629,
            35.2998143
          ],
          [
            -86.479158,
            35.2998302
          ],
          [
            -86.4794103,
            35.2999157
          ],
          [
            -86.4794569,
            35.3000456
          ],
          [
            -86.4794181,
            35.3002293
          ],
          [
            -86.4793055,
            35.3003561
          ],
          [
            -86.4789988,
            35.300619
          ],
          [
            -86.4787814,
            35.3007553
          ],
          [
            -86.4786378,
            35.3008281
          ],
          [
            -86.4784631,
            35.3008598
          ],
          [
            -86.4781564,
            35.300901
          ],
          [
            -86.4778692,
            35.3008535
          ],
          [
            -86.4773296,
            35.3007648
          ],
          [
            -86.4771316,
            35.3007458
          ],
          [
            -86.4770385,
            35.3007616
          ],
          [
            -86.4769375,
            35.3007964
          ],
          [
            -86.476856,
            35.3008471
          ],
          [
            -86.4768094,
            35.3008978
          ],
          [
            -86.4767861,
            35.3009485
          ],
          [
            -86.4767473,
            35.3010087
          ],
          [
            -86.4768172,
            35.301693
          ],
          [
            -86.4768211,
            35.3017627
          ],
          [
            -86.47679,
            35.3018292
          ],
          [
            -86.4767202,
            35.3019179
          ],
          [
            -86.4765998,
            35.3019972
          ],
          [
            -86.4763087,
            35.3021302
          ],
          [
            -86.4762699,
            35.3021841
          ],
          [
            -86.476231,
            35.3022221
          ],
          [
            -86.4761961,
            35.3023361
          ],
          [
            -86.476165,
            35.303296
          ],
          [
            -86.4761146,
            35.3033499
          ],
          [
            -86.4760602,
            35.3033879
          ],
          [
            -86.4759826,
            35.3034164
          ],
          [
            -86.4758972,
            35.3034354
          ],
          [
            -86.4758234,
            35.3034481
          ],
          [
            -86.4757342,
            35.3034291
          ],
          [
            -86.4752179,
            35.3027797
          ],
          [
            -86.4751363,
            35.3027258
          ],
          [
            -86.4750315,
            35.3026783
          ],
          [
            -86.4748607,
            35.3026593
          ],
          [
            -86.4747132,
            35.3026719
          ],
          [
            -86.4736651,
            35.3028937
          ],
          [
            -86.4734827,
            35.3028969
          ],
          [
            -86.473374,
            35.3028779
          ],
          [
            -86.4732769,
            35.3028399
          ],
          [
            -86.4731721,
            35.3027955
          ],
          [
            -86.4731022,
            35.3027131
          ],
          [
            -86.4730052,
            35.3026054
          ],
          [
            -86.4729353,
            35.3022094
          ],
          [
            -86.4729353,
            35.3020985
          ],
          [
            -86.4729741,
            35.3020225
          ],
          [
            -86.4730906,
            35.3019021
          ],
          [
            -86.4732575,
            35.3018641
          ],
          [
            -86.4747249,
            35.3018736
          ],
          [
            -86.4748996,
            35.3018863
          ],
          [
            -86.4750587,
            35.3019084
          ],
          [
            -86.475245,
            35.3020098
          ],
          [
            -86.4754469,
            35.3020922
          ],
          [
            -86.4756255,
            35.3021112
          ],
          [
            -86.4757419,
            35.3020732
          ],
          [
            -86.4758778,
            35.3020035
          ],
          [
            -86.4759282,
            35.3018958
          ],
          [
            -86.4759399,
            35.3017564
          ],
          [
            -86.4759399,
            35.3016328
          ],
          [
            -86.4758467,
            35.3015853
          ],
          [
            -86.4757574,
            35.3015378
          ],
          [
            -86.4755362,
            35.3015409
          ],
          [
            -86.4747598,
            35.3015251
          ],
          [
            -86.4739058,
            35.3014016
          ],
          [
            -86.4731022,
            35.301297
          ],
          [
            -86.4729431,
            35.301278
          ],
          [
            -86.4728771,
            35.3012558
          ],
          [
            -86.4728189,
            35.3012178
          ],
          [
            -86.4727684,
            35.3011544
          ],
          [
            -86.4727141,
            35.300619
          ],
          [
            -86.4723957,
            35.3001723
          ],
          [
            -86.4722327,
            35.3000424
          ],
          [
            -86.4720968,
            35.3000424
          ],
          [
            -86.4719687,
            35.3000614
          ],
          [
            -86.4718794,
            35.3001311
          ],
          [
            -86.4717203,
            35.3002293
          ],
          [
            -86.471468,
            35.3003022
          ],
          [
            -86.4712234,
            35.3002642
          ],
          [
            -86.471041,
            35.3001755
          ],
          [
            -86.4709245,
            35.3000266
          ],
          [
            -86.4707925,
            35.2997795
          ],
          [
            -86.4706916,
            35.2997066
          ],
          [
            -86.4705053,
            35.2996496
          ],
          [
            -86.4702995,
            35.2996559
          ],
          [
            -86.4700666,
            35.2996654
          ],
          [
            -86.4699385,
            35.2996718
          ],
          [
            -86.4691311,
            35.2995102
          ],
          [
            -86.4690496,
            35.2994595
          ],
          [
            -86.4689797,
            35.2993739
          ],
          [
            -86.4689176,
            35.2992599
          ],
          [
            -86.4689059,
            35.2991744
          ],
          [
            -86.4692126,
            35.2983633
          ],
          [
            -86.4692941,
            35.2983031
          ],
          [
            -86.4694106,
            35.2982587
          ],
          [
            -86.4695231,
            35.2982587
          ],
          [
            -86.4696357,
            35.2982587
          ],
          [
            -86.4706023,
            35.2986991
          ],
          [
            -86.4707304,
            35.2988924
          ],
          [
            -86.4708663,
            35.2990793
          ],
          [
            -86.4709905,
            35.2991902
          ],
          [
            -86.4711846,
            35.2992631
          ],
          [
            -86.4715029,
            35.2992916
          ],
          [
            -86.4717009,
            35.2992282
          ],
          [
            -86.4717746,
            35.299206
          ],
          [
            -86.472027,
            35.2991553
          ],
          [
            -86.4722793,
            35.2991458
          ],
          [
            -86.4725316,
            35.299187
          ],
          [
            -86.4731838,
            35.2992947
          ],
          [
            -86.4735681,
            35.2993803
          ],
          [
            -86.473933,
            35.299431
          ],
          [
            -86.4751558,
            35.2995197
          ]
        ]
      }
    }
  ]
}
