{
  "type": "FeatureCollection",
  "bbox": [
    -88.002753,
    43.7941419,
    -87.9924039,
    43.8050074
  ],
  "metadata": {
    "schemaVersion": 1,
    "trackId": "us-road-america-110527567",
    "layoutId": "road-america-short",
    "license": "ODbL-1.0",
    "attribution": "© OpenStreetMap contributors",
    "closed": true,
    "geometryStatus": "draft",
    "timingStatus": "missing",
    "timingMode": "shared",
    "lengthM": 3498.6,
    "reviewedAt": null,
    "notes": [
      "Draft configuration: The historical school short course retains turns 5 through 13, Carousel, Kink, Canada Corner and Thunder Valley, closing through the independently mapped internal return before turn 14. The operator fan map identifies the named corners and internal return; the supplied layout identity selects this historical short-course connection. The main front straight and turns 1 through 4 are excluded. Source direction follows the published main-course arrows; historical barrier placement remains draft. The measured 3498.6 m route is unscaled. Branch identity was checked against catalogue layout facts and circuit identification references. Independent source distance 3498.6 m; no coordinates are changed to match a diagram or distance. Travel direction and historical alignment remain provisional."
    ]
  },
  "features": [
    {
      "type": "Feature",
      "id": "trace",
      "properties": {
        "role": "trace",
        "sourceIds": [
          "osm-selection-road-america-short-current-independent-roads-21587309"
        ]
      },
      "geometry": {
        "type": "LineString",
        "coordinates": [
          [
            -87.9925291,
            43.8018148
          ],
          [
            -87.9926481,
            43.801856
          ],
          [
            -87.9927425,
            43.8018687
          ],
          [
            -87.9928406,
            43.8018778
          ],
          [
            -87.9929889,
            43.8018742
          ],
          [
            -87.9955853,
            43.8017929
          ],
          [
            -87.9957248,
            43.801789
          ],
          [
            -87.9958589,
            43.8017774
          ],
          [
            -87.9959769,
            43.8017425
          ],
          [
            -87.9960681,
            43.8016999
          ],
          [
            -87.9961465,
            43.8016249
          ],
          [
            -87.9961915,
            43.8015606
          ],
          [
            -87.996215,
            43.8015204
          ],
          [
            -87.9962236,
            43.8014754
          ],
          [
            -87.9962214,
            43.8013547
          ],
          [
            -87.9961003,
            43.7999151
          ],
          [
            -87.9961003,
            43.7998492
          ],
          [
            -87.9961056,
            43.7997757
          ],
          [
            -87.9961217,
            43.799706
          ],
          [
            -87.9961485,
            43.7996247
          ],
          [
            -87.9961861,
            43.7995472
          ],
          [
            -87.9962397,
            43.7994775
          ],
          [
            -87.9963202,
            43.7993962
          ],
          [
            -87.9964382,
            43.7993149
          ],
          [
            -87.9998451,
            43.7973343
          ],
          [
            -87.9999087,
            43.7972705
          ],
          [
            -87.9999624,
            43.7972125
          ],
          [
            -87.9999892,
            43.797166
          ],
          [
            -87.9999999,
            43.7971195
          ],
          [
            -88.0000053,
            43.7970731
          ],
          [
            -87.9999946,
            43.7970305
          ],
          [
            -87.9999731,
            43.7969801
          ],
          [
            -87.9999195,
            43.7969104
          ],
          [
            -87.9998551,
            43.7968369
          ],
          [
            -87.9989368,
            43.7959414
          ],
          [
            -87.9988861,
            43.7958807
          ],
          [
            -87.9988147,
            43.7957953
          ],
          [
            -87.9987449,
            43.7956752
          ],
          [
            -87.998702,
            43.7955707
          ],
          [
            -87.9986805,
            43.7954584
          ],
          [
            -87.9986698,
            43.7953655
          ],
          [
            -87.9986752,
            43.795288
          ],
          [
            -87.9986805,
            43.7952029
          ],
          [
            -87.9986966,
            43.7951138
          ],
          [
            -87.9987288,
            43.795017
          ],
          [
            -87.9987771,
            43.7949086
          ],
          [
            -87.9988308,
            43.7948079
          ],
          [
            -87.9989005,
            43.794715
          ],
          [
            -87.9989702,
            43.7946298
          ],
          [
            -87.9990507,
            43.7945562
          ],
          [
            -87.9991363,
            43.7944865
          ],
          [
            -87.9992382,
            43.7944129
          ],
          [
            -87.9993508,
            43.794351
          ],
          [
            -87.9994796,
            43.7942851
          ],
          [
            -87.9995998,
            43.7942394
          ],
          [
            -87.9997585,
            43.7941961
          ],
          [
            -87.9999248,
            43.7941651
          ],
          [
            -88.0001072,
            43.7941496
          ],
          [
            -88.0003272,
            43.7941419
          ],
          [
            -88.0005095,
            43.7941496
          ],
          [
            -88.0006758,
            43.794169
          ],
          [
            -88.000869,
            43.7942154
          ],
          [
            -88.0010889,
            43.7942813
          ],
          [
            -88.0012498,
            43.7943548
          ],
          [
            -88.0013679,
            43.7944207
          ],
          [
            -88.0014912,
            43.7945175
          ],
          [
            -88.0016253,
            43.7946491
          ],
          [
            -88.0017756,
            43.7948389
          ],
          [
            -88.0018614,
            43.7950131
          ],
          [
            -88.0020553,
            43.7956222
          ],
          [
            -88.0022232,
            43.7961597
          ],
          [
            -88.0024604,
            43.7969734
          ],
          [
            -88.0026821,
            43.797801
          ],
          [
            -88.0027252,
            43.7979485
          ],
          [
            -88.0027484,
            43.7980905
          ],
          [
            -88.0027493,
            43.798137
          ],
          [
            -88.002753,
            43.7983189
          ],
          [
            -88.0027365,
            43.7984158
          ],
          [
            -88.00272,
            43.7984911
          ],
          [
            -88.002691,
            43.7986077
          ],
          [
            -88.0025452,
            43.7988004
          ],
          [
            -88.0024259,
            43.7989415
          ],
          [
            -88.0023317,
            43.7990439
          ],
          [
            -88.0021752,
            43.7991959
          ],
          [
            -88.0018972,
            43.799466
          ],
          [
            -88.00155,
            43.7997794
          ],
          [
            -88.0012758,
            43.8000301
          ],
          [
            -88.0010671,
            43.8002177
          ],
          [
            -88.0008779,
            43.800376
          ],
          [
            -88.0007476,
            43.8004775
          ],
          [
            -88.0004306,
            43.8006936
          ],
          [
            -88.00025,
            43.800823
          ],
          [
            -88.0001088,
            43.8009265
          ],
          [
            -87.9998984,
            43.8010964
          ],
          [
            -87.9997543,
            43.8012413
          ],
          [
            -87.9995927,
            43.8014031
          ],
          [
            -87.999492,
            43.8015133
          ],
          [
            -87.9993617,
            43.8016758
          ],
          [
            -87.9992242,
            43.8018719
          ],
          [
            -87.9988987,
            43.8023435
          ],
          [
            -87.9987108,
            43.8026074
          ],
          [
            -87.9985486,
            43.8028561
          ],
          [
            -87.9984335,
            43.8030398
          ],
          [
            -87.9983435,
            43.8031977
          ],
          [
            -87.9982697,
            43.803354
          ],
          [
            -87.9981719,
            43.803587
          ],
          [
            -87.9980578,
            43.8038724
          ],
          [
            -87.9977472,
            43.8046808
          ],
          [
            -87.9977185,
            43.8047493
          ],
          [
            -87.9976836,
            43.8048067
          ],
          [
            -87.9976344,
            43.8048603
          ],
          [
            -87.9975505,
            43.804921
          ],
          [
            -87.9974575,
            43.8049673
          ],
          [
            -87.9973639,
            43.8049926
          ],
          [
            -87.9972875,
            43.8050036
          ],
          [
            -87.9971875,
            43.8050074
          ],
          [
            -87.9970837,
            43.8049984
          ],
          [
            -87.9968045,
            43.8049456
          ],
          [
            -87.9963033,
            43.8048402
          ],
          [
            -87.9960091,
            43.8047699
          ],
          [
            -87.9957588,
            43.8046925
          ],
          [
            -87.9955907,
            43.8046318
          ],
          [
            -87.9953886,
            43.8045454
          ],
          [
            -87.9952303,
            43.8044609
          ],
          [
            -87.9951078,
            43.8043828
          ],
          [
            -87.9949237,
            43.8042512
          ],
          [
            -87.994786,
            43.8041505
          ],
          [
            -87.9945375,
            43.8039866
          ],
          [
            -87.994435,
            43.8039222
          ],
          [
            -87.9943432,
            43.803872
          ],
          [
            -87.9942402,
            43.8038284
          ],
          [
            -87.9941228,
            43.80379
          ],
          [
            -87.9940244,
            43.803767
          ],
          [
            -87.9939295,
            43.8037478
          ],
          [
            -87.9938025,
            43.803731
          ],
          [
            -87.9936505,
            43.8037297
          ],
          [
            -87.9934994,
            43.8037349
          ],
          [
            -87.9933662,
            43.8037491
          ],
          [
            -87.9932285,
            43.8037737
          ],
          [
            -87.9924256,
            43.8039466
          ],
          [
            -87.992419,
            43.8034928
          ],
          [
            -87.9924931,
            43.8034415
          ],
          [
            -87.9924921,
            43.8031635
          ],
          [
            -87.992492,
            43.8031218
          ],
          [
            -87.9924542,
            43.8030633
          ],
          [
            -87.9924131,
            43.8029995
          ],
          [
            -87.9924104,
            43.8028859
          ],
          [
            -87.9925325,
            43.8027659
          ],
          [
            -87.992534,
            43.8026688
          ],
          [
            -87.9924039,
            43.802611
          ],
          [
            -87.9924047,
            43.8025139
          ],
          [
            -87.9925369,
            43.8024139
          ],
          [
            -87.9925302,
            43.8018975
          ],
          [
            -87.9925291,
            43.8018148
          ]
        ]
      }
    }
  ]
}
