{
  "type": "FeatureCollection",
  "bbox": [
    12.3670975,
    42.1552045,
    12.3734016,
    42.1664068
  ],
  "metadata": {
    "schemaVersion": 1,
    "trackId": "it-vallelunga-circuit-piero-taruffi-48683097",
    "layoutId": "main",
    "license": "ODbL-1.0",
    "attribution": "© OpenStreetMap contributors",
    "closed": true,
    "geometryStatus": "draft",
    "timingStatus": "missing",
    "timingMode": "shared",
    "lengthM": 4781.2,
    "reviewedAt": null,
    "notes": [
      "Connected OSM course candidate. The selected loop is the longest simple source-node cycle after explicit exclusions; its association with a named circuit configuration requires review.",
      "Source way order and shared node IDs are retained. No nearby endpoints are joined and no Racelogic boundaries are read.",
      "Some source ways lack one-way direction tags. Travel direction is provisional."
    ]
  },
  "features": [
    {
      "type": "Feature",
      "id": "trace",
      "properties": {
        "role": "trace",
        "sourceIds": [
          "osm-snapshot"
        ]
      },
      "geometry": {
        "type": "LineString",
        "coordinates": [
          [
            12.3677862,
            42.1628997
          ],
          [
            12.3678339,
            42.1629517
          ],
          [
            12.3678853,
            42.1630187
          ],
          [
            12.3679339,
            42.1630869
          ],
          [
            12.3679794,
            42.1631562
          ],
          [
            12.3680219,
            42.1632266
          ],
          [
            12.3680613,
            42.1632979
          ],
          [
            12.3680976,
            42.1633702
          ],
          [
            12.3681307,
            42.1634433
          ],
          [
            12.3681606,
            42.1635171
          ],
          [
            12.3681873,
            42.1635917
          ],
          [
            12.3683717,
            42.1642654
          ],
          [
            12.3688721,
            42.1660761
          ],
          [
            12.3688957,
            42.1661451
          ],
          [
            12.3689282,
            42.1662078
          ],
          [
            12.3689648,
            42.1662631
          ],
          [
            12.3690207,
            42.1663152
          ],
          [
            12.3690789,
            42.1663515
          ],
          [
            12.3691396,
            42.1663782
          ],
          [
            12.3692067,
            42.1663974
          ],
          [
            12.3693044,
            42.1664068
          ],
          [
            12.3693741,
            42.1664026
          ],
          [
            12.3694438,
            42.1663934
          ],
          [
            12.3695229,
            42.1663814
          ],
          [
            12.3697637,
            42.1663316
          ],
          [
            12.3700319,
            42.1662659
          ],
          [
            12.3701115,
            42.1662387
          ],
          [
            12.3701857,
            42.1662042
          ],
          [
            12.3702533,
            42.1661628
          ],
          [
            12.3703131,
            42.1661154
          ],
          [
            12.3703643,
            42.1660627
          ],
          [
            12.3704059,
            42.1660055
          ],
          [
            12.3704372,
            42.1659449
          ],
          [
            12.3704578,
            42.1658817
          ],
          [
            12.3704672,
            42.1658172
          ],
          [
            12.3704654,
            42.165759
          ],
          [
            12.3704229,
            42.1657257
          ],
          [
            12.3703735,
            42.1656943
          ],
          [
            12.3703173,
            42.1656675
          ],
          [
            12.3702582,
            42.1656449
          ],
          [
            12.3701868,
            42.165625
          ],
          [
            12.3701099,
            42.165616
          ],
          [
            12.3700258,
            42.1656192
          ],
          [
            12.369966,
            42.1656275
          ],
          [
            12.3699099,
            42.1656395
          ],
          [
            12.3698521,
            42.1656586
          ],
          [
            12.3698261,
            42.1657031
          ],
          [
            12.369776,
            42.1657462
          ],
          [
            12.3697073,
            42.1657712
          ],
          [
            12.3696226,
            42.1657853
          ],
          [
            12.3695398,
            42.1657802
          ],
          [
            12.3694695,
            42.1657594
          ],
          [
            12.36941,
            42.1657278
          ],
          [
            12.3693645,
            42.1656804
          ],
          [
            12.3693371,
            42.1656246
          ],
          [
            12.3693231,
            42.1655688
          ],
          [
            12.3693075,
            42.1654793
          ],
          [
            12.3692937,
            42.1653184
          ],
          [
            12.3693181,
            42.1652267
          ],
          [
            12.3693416,
            42.1651812
          ],
          [
            12.3693847,
            42.1651343
          ],
          [
            12.3694301,
            42.1650951
          ],
          [
            12.3694751,
            42.1650547
          ],
          [
            12.3695064,
            42.1649976
          ],
          [
            12.3695159,
            42.1649372
          ],
          [
            12.3695001,
            42.1648753
          ],
          [
            12.3694699,
            42.1648339
          ],
          [
            12.3694204,
            42.1647941
          ],
          [
            12.3693721,
            42.1647666
          ],
          [
            12.3693147,
            42.1647428
          ],
          [
            12.3692726,
            42.1647144
          ],
          [
            12.3692145,
            42.1646512
          ],
          [
            12.3692008,
            42.1645403
          ],
          [
            12.3691749,
            42.164461
          ],
          [
            12.3691331,
            42.1643916
          ],
          [
            12.3690779,
            42.1643403
          ],
          [
            12.3690098,
            42.1643093
          ],
          [
            12.3688474,
            42.1642463
          ],
          [
            12.3687853,
            42.1642159
          ],
          [
            12.3687351,
            42.1641759
          ],
          [
            12.3686942,
            42.1641217
          ],
          [
            12.3686736,
            42.1640603
          ],
          [
            12.3686584,
            42.1639905
          ],
          [
            12.3686537,
            42.1639129
          ],
          [
            12.3686562,
            42.163826
          ],
          [
            12.3686885,
            42.1637664
          ],
          [
            12.3687522,
            42.1637003
          ],
          [
            12.3688356,
            42.163651
          ],
          [
            12.3689345,
            42.1636046
          ],
          [
            12.3690558,
            42.1635776
          ],
          [
            12.3692061,
            42.1635702
          ],
          [
            12.3693474,
            42.1635847
          ],
          [
            12.3694691,
            42.1636235
          ],
          [
            12.3695788,
            42.1636775
          ],
          [
            12.3696545,
            42.1637354
          ],
          [
            12.3697223,
            42.1638074
          ],
          [
            12.3697747,
            42.1638997
          ],
          [
            12.3697991,
            42.1639946
          ],
          [
            12.3698115,
            42.1640922
          ],
          [
            12.3698171,
            42.1641909
          ],
          [
            12.3698281,
            42.1644994
          ],
          [
            12.3698489,
            42.1650381
          ],
          [
            12.3698682,
            42.1655006
          ],
          [
            12.3699258,
            42.1655279
          ],
          [
            12.3699685,
            42.1655374
          ],
          [
            12.3700274,
            42.1655424
          ],
          [
            12.3700869,
            42.1655376
          ],
          [
            12.3701507,
            42.1655252
          ],
          [
            12.3702058,
            42.1655063
          ],
          [
            12.3702605,
            42.1654733
          ],
          [
            12.3703158,
            42.165435
          ],
          [
            12.370376,
            42.1653892
          ],
          [
            12.3704437,
            42.1653325
          ],
          [
            12.3704313,
            42.1651082
          ],
          [
            12.3704268,
            42.1649782
          ],
          [
            12.3704403,
            42.1648467
          ],
          [
            12.3704521,
            42.1647554
          ],
          [
            12.3704701,
            42.1646704
          ],
          [
            12.370494,
            42.1645822
          ],
          [
            12.3705201,
            42.1644948
          ],
          [
            12.3705521,
            42.1644085
          ],
          [
            12.37059,
            42.1643236
          ],
          [
            12.3706336,
            42.1642401
          ],
          [
            12.3706806,
            42.1641585
          ],
          [
            12.3733038,
            42.1597606
          ],
          [
            12.373335,
            42.1597098
          ],
          [
            12.3733634,
            42.1596619
          ],
          [
            12.3733841,
            42.1596118
          ],
          [
            12.3733969,
            42.1595604
          ],
          [
            12.3734016,
            42.1595082
          ],
          [
            12.3733981,
            42.1594559
          ],
          [
            12.3733865,
            42.1594043
          ],
          [
            12.3733668,
            42.159354
          ],
          [
            12.3733395,
            42.1593058
          ],
          [
            12.3733047,
            42.1592602
          ],
          [
            12.3732631,
            42.1592179
          ],
          [
            12.3732152,
            42.1591795
          ],
          [
            12.3731616,
            42.1591454
          ],
          [
            12.373103,
            42.1591162
          ],
          [
            12.3730403,
            42.1590922
          ],
          [
            12.3729742,
            42.1590738
          ],
          [
            12.3729057,
            42.1590611
          ],
          [
            12.3728357,
            42.1590544
          ],
          [
            12.3727651,
            42.1590538
          ],
          [
            12.3726949,
            42.1590592
          ],
          [
            12.372626,
            42.1590706
          ],
          [
            12.3725594,
            42.1590879
          ],
          [
            12.3724959,
            42.1591107
          ],
          [
            12.3724364,
            42.1591389
          ],
          [
            12.3723817,
            42.159172
          ],
          [
            12.3723325,
            42.1592095
          ],
          [
            12.3722895,
            42.159251
          ],
          [
            12.3722533,
            42.159296
          ],
          [
            12.3722244,
            42.1593437
          ],
          [
            12.3721985,
            42.1593993
          ],
          [
            12.3719749,
            42.1598813
          ],
          [
            12.3709945,
            42.1619943
          ],
          [
            12.37095,
            42.1620875
          ],
          [
            12.3709383,
            42.1621075
          ],
          [
            12.3709235,
            42.1621264
          ],
          [
            12.3709059,
            42.1621439
          ],
          [
            12.3708857,
            42.1621598
          ],
          [
            12.3708631,
            42.1621738
          ],
          [
            12.3708385,
            42.1621858
          ],
          [
            12.3708122,
            42.1621956
          ],
          [
            12.3707845,
            42.1622031
          ],
          [
            12.3707559,
            42.1622082
          ],
          [
            12.3707266,
            42.1622107
          ],
          [
            12.3706972,
            42.1622108
          ],
          [
            12.3706679,
            42.1622083
          ],
          [
            12.3706392,
            42.1622033
          ],
          [
            12.3706115,
            42.1621959
          ],
          [
            12.3705851,
            42.1621861
          ],
          [
            12.3705605,
            42.1621742
          ],
          [
            12.3705378,
            42.1621602
          ],
          [
            12.3705175,
            42.1621444
          ],
          [
            12.3704998,
            42.1621269
          ],
          [
            12.3704665,
            42.1620933
          ],
          [
            12.3703902,
            42.1620084
          ],
          [
            12.3701412,
            42.1617265
          ],
          [
            12.3700424,
            42.1616095
          ],
          [
            12.3699621,
            42.1615132
          ],
          [
            12.3699175,
            42.1614632
          ],
          [
            12.3692466,
            42.1608609
          ],
          [
            12.3692347,
            42.1608476
          ],
          [
            12.3692253,
            42.1608326
          ],
          [
            12.3692185,
            42.1608168
          ],
          [
            12.3692145,
            42.1608005
          ],
          [
            12.3692134,
            42.1607839
          ],
          [
            12.3692151,
            42.1607674
          ],
          [
            12.3692197,
            42.1607512
          ],
          [
            12.369227,
            42.1607355
          ],
          [
            12.3692369,
            42.1607207
          ],
          [
            12.3692493,
            42.1607069
          ],
          [
            12.369264,
            42.1606944
          ],
          [
            12.3692807,
            42.1606834
          ],
          [
            12.3695452,
            42.1605529
          ],
          [
            12.3695571,
            42.1605102
          ],
          [
            12.3695734,
            42.1604684
          ],
          [
            12.3695927,
            42.1604273
          ],
          [
            12.3696148,
            42.160387
          ],
          [
            12.3696357,
            42.1603475
          ],
          [
            12.3696822,
            42.1602629
          ],
          [
            12.3697381,
            42.1601666
          ],
          [
            12.3697826,
            42.160092
          ],
          [
            12.3698247,
            42.1600167
          ],
          [
            12.3698646,
            42.1599407
          ],
          [
            12.3699022,
            42.1598641
          ],
          [
            12.3699374,
            42.1597869
          ],
          [
            12.3699703,
            42.159709
          ],
          [
            12.3700289,
            42.1595519
          ],
          [
            12.3700512,
            42.1594725
          ],
          [
            12.3700965,
            42.1593227
          ],
          [
            12.3701387,
            42.159161
          ],
          [
            12.3701766,
            42.1590058
          ],
          [
            12.3702115,
            42.1588385
          ],
          [
            12.3702197,
            42.1587905
          ],
          [
            12.3702228,
            42.1587436
          ],
          [
            12.3702233,
            42.1587108
          ],
          [
            12.3702197,
            42.1586782
          ],
          [
            12.370212,
            42.1586459
          ],
          [
            12.3702003,
            42.1586142
          ],
          [
            12.3701848,
            42.1585835
          ],
          [
            12.3701654,
            42.158554
          ],
          [
            12.3701424,
            42.158526
          ],
          [
            12.3701161,
            42.1584996
          ],
          [
            12.3700865,
            42.1584752
          ],
          [
            12.370054,
            42.1584529
          ],
          [
            12.3700189,
            42.158433
          ],
          [
            12.3699815,
            42.1584155
          ],
          [
            12.369942,
            42.1584007
          ],
          [
            12.3699008,
            42.1583887
          ],
          [
            12.3698583,
            42.1583795
          ],
          [
            12.3698149,
            42.1583733
          ],
          [
            12.3697708,
            42.1583702
          ],
          [
            12.3697266,
            42.15837
          ],
          [
            12.3696825,
            42.1583729
          ],
          [
            12.369639,
            42.1583788
          ],
          [
            12.3695964,
            42.1583877
          ],
          [
            12.3695551,
            42.1583995
          ],
          [
            12.3695154,
            42.158414
          ],
          [
            12.3694778,
            42.1584313
          ],
          [
            12.3694424,
            42.158451
          ],
          [
            12.3694097,
            42.1584731
          ],
          [
            12.3693798,
            42.1584973
          ],
          [
            12.3693532,
            42.1585235
          ],
          [
            12.3693299,
            42.1585514
          ],
          [
            12.3693102,
            42.1585807
          ],
          [
            12.3692942,
            42.1586113
          ],
          [
            12.3692822,
            42.1586429
          ],
          [
            12.3692741,
            42.1586751
          ],
          [
            12.3692702,
            42.1587078
          ],
          [
            12.3692703,
            42.1587406
          ],
          [
            12.3692722,
            42.158775
          ],
          [
            12.3693342,
            42.1597393
          ],
          [
            12.3693362,
            42.1597649
          ],
          [
            12.3693361,
            42.1597925
          ],
          [
            12.3693328,
            42.159826
          ],
          [
            12.3693244,
            42.1598623
          ],
          [
            12.3693093,
            42.1598986
          ],
          [
            12.3692854,
            42.1599319
          ],
          [
            12.3692511,
            42.1599592
          ],
          [
            12.3692045,
            42.1599775
          ],
          [
            12.3691437,
            42.1599839
          ],
          [
            12.3690819,
            42.1599778
          ],
          [
            12.3690325,
            42.1599622
          ],
          [
            12.3689939,
            42.1599396
          ],
          [
            12.368965,
            42.1599123
          ],
          [
            12.3689442,
            42.1598827
          ],
          [
            12.3689303,
            42.1598532
          ],
          [
            12.3689219,
            42.159826
          ],
          [
            12.3689174,
            42.1597984
          ],
          [
            12.3689166,
            42.1597701
          ],
          [
            12.3690118,
            42.1586132
          ],
          [
            12.3690176,
            42.1585752
          ],
          [
            12.3690238,
            42.1585413
          ],
          [
            12.3690315,
            42.1585081
          ],
          [
            12.3690406,
            42.1584752
          ],
          [
            12.369051,
            42.1584455
          ],
          [
            12.3690614,
            42.1584164
          ],
          [
            12.3690786,
            42.1583888
          ],
          [
            12.3690969,
            42.1583594
          ],
          [
            12.36912,
            42.1583312
          ],
          [
            12.3691487,
            42.1583058
          ],
          [
            12.3691789,
            42.1582805
          ],
          [
            12.3692114,
            42.1582597
          ],
          [
            12.3692451,
            42.1582429
          ],
          [
            12.3692797,
            42.1582272
          ],
          [
            12.369321,
            42.1582127
          ],
          [
            12.3693589,
            42.1582003
          ],
          [
            12.3693952,
            42.1581908
          ],
          [
            12.3694365,
            42.1581828
          ],
          [
            12.3694789,
            42.1581763
          ],
          [
            12.3699446,
            42.1581267
          ],
          [
            12.3699896,
            42.1581203
          ],
          [
            12.3700339,
            42.1581116
          ],
          [
            12.3700773,
            42.1581007
          ],
          [
            12.3701195,
            42.1580875
          ],
          [
            12.3701604,
            42.1580721
          ],
          [
            12.3701997,
            42.1580547
          ],
          [
            12.3702373,
            42.1580353
          ],
          [
            12.370273,
            42.158014
          ],
          [
            12.3703066,
            42.1579909
          ],
          [
            12.3703379,
            42.1579661
          ],
          [
            12.3703668,
            42.1579397
          ],
          [
            12.3703932,
            42.157912
          ],
          [
            12.3704169,
            42.1578829
          ],
          [
            12.3704377,
            42.1578526
          ],
          [
            12.3704557,
            42.1578214
          ],
          [
            12.3704707,
            42.1577893
          ],
          [
            12.3704826,
            42.1577565
          ],
          [
            12.3704914,
            42.1577232
          ],
          [
            12.3704986,
            42.1576906
          ],
          [
            12.3706531,
            42.1570422
          ],
          [
            12.370929,
            42.1558955
          ],
          [
            12.3709419,
            42.1558385
          ],
          [
            12.3709504,
            42.1557805
          ],
          [
            12.3709509,
            42.1557222
          ],
          [
            12.3709434,
            42.1556641
          ],
          [
            12.3709279,
            42.1556069
          ],
          [
            12.3709047,
            42.1555512
          ],
          [
            12.3708739,
            42.1554975
          ],
          [
            12.3708359,
            42.1554465
          ],
          [
            12.3707911,
            42.1553986
          ],
          [
            12.3707399,
            42.1553543
          ],
          [
            12.3706829,
            42.1553141
          ],
          [
            12.3706158,
            42.1552796
          ],
          [
            12.3705617,
            42.1552587
          ],
          [
            12.3705011,
            42.1552414
          ],
          [
            12.3704507,
            42.1552274
          ],
          [
            12.3703969,
            42.1552156
          ],
          [
            12.3703332,
            42.1552072
          ],
          [
            12.3702692,
            42.1552045
          ],
          [
            12.3702118,
            42.1552058
          ],
          [
            12.3701622,
            42.1552104
          ],
          [
            12.3701115,
            42.1552182
          ],
          [
            12.3700559,
            42.1552284
          ],
          [
            12.3699843,
            42.155246
          ],
          [
            12.3699203,
            42.1552663
          ],
          [
            12.369852,
            42.1552912
          ],
          [
            12.3697911,
            42.1553189
          ],
          [
            12.3697273,
            42.1553521
          ],
          [
            12.3696757,
            42.1553846
          ],
          [
            12.3696289,
            42.1554214
          ],
          [
            12.3695819,
            42.1554664
          ],
          [
            12.3695427,
            42.1555101
          ],
          [
            12.3695092,
            42.1555571
          ],
          [
            12.3694811,
            42.1556039
          ],
          [
            12.3694553,
            42.1556505
          ],
          [
            12.3694316,
            42.1556993
          ],
          [
            12.3694102,
            42.1557502
          ],
          [
            12.369323,
            42.1560216
          ],
          [
            12.3692784,
            42.1562105
          ],
          [
            12.3689667,
            42.1576874
          ],
          [
            12.3689491,
            42.1577647
          ],
          [
            12.3689259,
            42.1578655
          ],
          [
            12.3688526,
            42.1581874
          ],
          [
            12.3687794,
            42.1585014
          ],
          [
            12.3687481,
            42.1586169
          ],
          [
            12.3687122,
            42.1587317
          ],
          [
            12.368659,
            42.1588735
          ],
          [
            12.368627,
            42.1589586
          ],
          [
            12.3685777,
            42.1590706
          ],
          [
            12.3685241,
            42.1591814
          ],
          [
            12.368466,
            42.1592911
          ],
          [
            12.3684037,
            42.1593994
          ],
          [
            12.3683371,
            42.1595064
          ],
          [
            12.3682664,
            42.1596119
          ],
          [
            12.368083,
            42.1598788
          ],
          [
            12.3677341,
            42.1603868
          ],
          [
            12.3677309,
            42.1604339
          ],
          [
            12.3677339,
            42.1604731
          ],
          [
            12.3677429,
            42.1605128
          ],
          [
            12.3677565,
            42.1605517
          ],
          [
            12.3678124,
            42.160687
          ],
          [
            12.3678204,
            42.1607131
          ],
          [
            12.3678243,
            42.1607397
          ],
          [
            12.3678242,
            42.1607665
          ],
          [
            12.3678199,
            42.1607931
          ],
          [
            12.3678116,
            42.1608191
          ],
          [
            12.3677995,
            42.1608443
          ],
          [
            12.3677835,
            42.1608683
          ],
          [
            12.367764,
            42.1608908
          ],
          [
            12.3677411,
            42.1609116
          ],
          [
            12.3677145,
            42.1609297
          ],
          [
            12.3674029,
            42.161146
          ],
          [
            12.3673222,
            42.1612041
          ],
          [
            12.3672498,
            42.1612607
          ],
          [
            12.3671925,
            42.1613137
          ],
          [
            12.36714,
            42.1613773
          ],
          [
            12.3671271,
            42.1614268
          ],
          [
            12.3671165,
            42.1614766
          ],
          [
            12.3671083,
            42.1615267
          ],
          [
            12.3671024,
            42.1615769
          ],
          [
            12.3670988,
            42.1616273
          ],
          [
            12.3670975,
            42.1616777
          ],
          [
            12.3670986,
            42.1617281
          ],
          [
            12.367102,
            42.1617785
          ],
          [
            12.3671078,
            42.1618287
          ],
          [
            12.3671159,
            42.1618788
          ],
          [
            12.3671263,
            42.1619286
          ],
          [
            12.367139,
            42.1619782
          ],
          [
            12.367154,
            42.1620273
          ],
          [
            12.3671713,
            42.1620761
          ],
          [
            12.3671908,
            42.1621244
          ],
          [
            12.3672126,
            42.1621722
          ],
          [
            12.3672366,
            42.1622194
          ],
          [
            12.3672627,
            42.1622659
          ],
          [
            12.367291,
            42.1623118
          ],
          [
            12.3673214,
            42.1623569
          ],
          [
            12.3673538,
            42.1624012
          ],
          [
            12.3677862,
            42.1628997
          ]
        ]
      }
    }
  ]
}
