{
  "type": "FeatureCollection",
  "bbox": [
    17.5606227,
    48.0497254,
    17.5733494,
    48.0594625
  ],
  "metadata": {
    "schemaVersion": 1,
    "trackId": "sk-slovakia-ring-47361993",
    "layoutId": "main",
    "license": "ODbL-1.0",
    "attribution": "© OpenStreetMap contributors",
    "closed": true,
    "geometryStatus": "draft",
    "timingStatus": "missing",
    "timingMode": "shared",
    "lengthM": 6172.8,
    "reviewedAt": null,
    "notes": [
      "Connected OSM course candidate. The selected loop is the longest simple source-node cycle after explicit exclusions; its association with a named circuit configuration requires review.",
      "Source way order and shared node IDs are retained. No nearby endpoints are joined and no Racelogic boundaries are read.",
      "Some source ways lack one-way direction tags. Travel direction is provisional."
    ]
  },
  "features": [
    {
      "type": "Feature",
      "id": "trace",
      "properties": {
        "role": "trace",
        "sourceIds": [
          "osm-snapshot"
        ]
      },
      "geometry": {
        "type": "LineString",
        "coordinates": [
          [
            17.5615507,
            48.0528232
          ],
          [
            17.5611665,
            48.0532521
          ],
          [
            17.5609332,
            48.0535072
          ],
          [
            17.5608285,
            48.053649
          ],
          [
            17.5607463,
            48.0537983
          ],
          [
            17.5606852,
            48.0539525
          ],
          [
            17.5606426,
            48.0541218
          ],
          [
            17.5606227,
            48.0543138
          ],
          [
            17.5606277,
            48.0544344
          ],
          [
            17.5606552,
            48.054555
          ],
          [
            17.5607124,
            48.0547379
          ],
          [
            17.5608013,
            48.0549111
          ],
          [
            17.560902,
            48.0550621
          ],
          [
            17.5610367,
            48.0552131
          ],
          [
            17.5612275,
            48.0553848
          ],
          [
            17.5613745,
            48.0554865
          ],
          [
            17.561516,
            48.0555769
          ],
          [
            17.5617702,
            48.0557042
          ],
          [
            17.562126,
            48.0558541
          ],
          [
            17.5638695,
            48.0565902
          ],
          [
            17.5650781,
            48.0570593
          ],
          [
            17.5659209,
            48.0573843
          ],
          [
            17.5675087,
            48.0580088
          ],
          [
            17.5684572,
            48.058353
          ],
          [
            17.5696961,
            48.0587791
          ],
          [
            17.5695397,
            48.0586603
          ],
          [
            17.569451,
            48.0585643
          ],
          [
            17.5693498,
            48.0584345
          ],
          [
            17.569305,
            48.0583274
          ],
          [
            17.5692633,
            48.0581732
          ],
          [
            17.5692554,
            48.0580266
          ],
          [
            17.5693129,
            48.0579212
          ],
          [
            17.5693565,
            48.0578179
          ],
          [
            17.5693756,
            48.0577327
          ],
          [
            17.5693717,
            48.0576443
          ],
          [
            17.5693373,
            48.0575386
          ],
          [
            17.5692803,
            48.0574594
          ],
          [
            17.5691859,
            48.0573788
          ],
          [
            17.5690575,
            48.0572983
          ],
          [
            17.5686733,
            48.0571308
          ],
          [
            17.5673801,
            48.056548
          ],
          [
            17.5672646,
            48.0564677
          ],
          [
            17.567166,
            48.0563837
          ],
          [
            17.5671031,
            48.0563113
          ],
          [
            17.5670223,
            48.0562254
          ],
          [
            17.5669529,
            48.0561245
          ],
          [
            17.5668713,
            48.056006
          ],
          [
            17.5668235,
            48.0558875
          ],
          [
            17.5667636,
            48.0555394
          ],
          [
            17.5666795,
            48.0546086
          ],
          [
            17.5666558,
            48.0545128
          ],
          [
            17.5666209,
            48.0544247
          ],
          [
            17.5665482,
            48.0542858
          ],
          [
            17.5664312,
            48.0541389
          ],
          [
            17.566272,
            48.0540093
          ],
          [
            17.5661008,
            48.0538861
          ],
          [
            17.5658259,
            48.0537313
          ],
          [
            17.5654353,
            48.0535587
          ],
          [
            17.5650881,
            48.0534443
          ],
          [
            17.5648372,
            48.0533718
          ],
          [
            17.5646299,
            48.0533175
          ],
          [
            17.5643941,
            48.0532742
          ],
          [
            17.5642121,
            48.0532596
          ],
          [
            17.5640578,
            48.0532597
          ],
          [
            17.5638922,
            48.0532825
          ],
          [
            17.5637354,
            48.0533209
          ],
          [
            17.563588,
            48.0533768
          ],
          [
            17.5634576,
            48.0534478
          ],
          [
            17.5633457,
            48.0535396
          ],
          [
            17.5632636,
            48.0536391
          ],
          [
            17.5632097,
            48.0537462
          ],
          [
            17.5631824,
            48.0538736
          ],
          [
            17.5631994,
            48.0540091
          ],
          [
            17.563239,
            48.0541296
          ],
          [
            17.5633292,
            48.0542479
          ],
          [
            17.5634476,
            48.0543436
          ],
          [
            17.5636088,
            48.0544283
          ],
          [
            17.5637871,
            48.054494
          ],
          [
            17.564277,
            48.0546171
          ],
          [
            17.5645071,
            48.0547003
          ],
          [
            17.5646538,
            48.0547737
          ],
          [
            17.5647731,
            48.0548733
          ],
          [
            17.5649534,
            48.0550932
          ],
          [
            17.5651823,
            48.05542
          ],
          [
            17.5653998,
            48.0557619
          ],
          [
            17.5654379,
            48.0558565
          ],
          [
            17.565459,
            48.0559511
          ],
          [
            17.5654323,
            48.0560268
          ],
          [
            17.5653726,
            48.0560914
          ],
          [
            17.5652677,
            48.0561486
          ],
          [
            17.565158,
            48.0561858
          ],
          [
            17.5650286,
            48.0561978
          ],
          [
            17.5648879,
            48.0561797
          ],
          [
            17.5647468,
            48.0561277
          ],
          [
            17.5644279,
            48.055978
          ],
          [
            17.5638853,
            48.0557269
          ],
          [
            17.5624613,
            48.0550467
          ],
          [
            17.5622823,
            48.0549382
          ],
          [
            17.5621502,
            48.0548292
          ],
          [
            17.5620321,
            48.0546881
          ],
          [
            17.5619367,
            48.0545395
          ],
          [
            17.5618718,
            48.0543847
          ],
          [
            17.5618456,
            48.0542276
          ],
          [
            17.561859,
            48.0540525
          ],
          [
            17.5619283,
            48.0538338
          ],
          [
            17.5620591,
            48.0536241
          ],
          [
            17.5622454,
            48.0534107
          ],
          [
            17.5625799,
            48.0531078
          ],
          [
            17.5634586,
            48.0523396
          ],
          [
            17.5641484,
            48.051777
          ],
          [
            17.5648836,
            48.0511676
          ],
          [
            17.564972,
            48.0510361
          ],
          [
            17.5650079,
            48.0509466
          ],
          [
            17.5650292,
            48.0508511
          ],
          [
            17.5650187,
            48.0507523
          ],
          [
            17.5650049,
            48.0506547
          ],
          [
            17.5650991,
            48.0507275
          ],
          [
            17.5651977,
            48.0508103
          ],
          [
            17.5653247,
            48.0508873
          ],
          [
            17.565514,
            48.0509941
          ],
          [
            17.5656353,
            48.0510239
          ],
          [
            17.5657433,
            48.0510805
          ],
          [
            17.5658425,
            48.0511711
          ],
          [
            17.5658935,
            48.0512547
          ],
          [
            17.5659085,
            48.0513346
          ],
          [
            17.5658921,
            48.0514286
          ],
          [
            17.5658141,
            48.0515522
          ],
          [
            17.5656755,
            48.0517556
          ],
          [
            17.5656338,
            48.0518411
          ],
          [
            17.5656025,
            48.0519475
          ],
          [
            17.5656077,
            48.0520411
          ],
          [
            17.5656338,
            48.0521417
          ],
          [
            17.5656821,
            48.0522445
          ],
          [
            17.5657591,
            48.0523361
          ],
          [
            17.5658571,
            48.0524207
          ],
          [
            17.5659837,
            48.0524953
          ],
          [
            17.5661732,
            48.0525629
          ],
          [
            17.5664949,
            48.0526512
          ],
          [
            17.5667403,
            48.0527201
          ],
          [
            17.566928,
            48.0527891
          ],
          [
            17.5670648,
            48.0528627
          ],
          [
            17.5671754,
            48.0529398
          ],
          [
            17.5673125,
            48.0530812
          ],
          [
            17.5675897,
            48.0534323
          ],
          [
            17.56802,
            48.0539855
          ],
          [
            17.5687899,
            48.0549301
          ],
          [
            17.5690266,
            48.0552249
          ],
          [
            17.5691968,
            48.0554768
          ],
          [
            17.5693061,
            48.0556386
          ],
          [
            17.5695847,
            48.0560509
          ],
          [
            17.5698916,
            48.0565729
          ],
          [
            17.5700211,
            48.0568178
          ],
          [
            17.5703985,
            48.0575456
          ],
          [
            17.5710957,
            48.0588327
          ],
          [
            17.571053,
            48.0589383
          ],
          [
            17.5709893,
            48.0590054
          ],
          [
            17.5708423,
            48.0590551
          ],
          [
            17.570744,
            48.0590659
          ],
          [
            17.5705472,
            48.0590642
          ],
          [
            17.5715427,
            48.0593422
          ],
          [
            17.5716848,
            48.0593935
          ],
          [
            17.5718259,
            48.0594269
          ],
          [
            17.572008,
            48.0594517
          ],
          [
            17.5722139,
            48.0594625
          ],
          [
            17.5723994,
            48.0594499
          ],
          [
            17.5725218,
            48.059437
          ],
          [
            17.5726983,
            48.0594041
          ],
          [
            17.57281,
            48.0593536
          ],
          [
            17.5729383,
            48.0592961
          ],
          [
            17.5730628,
            48.0592194
          ],
          [
            17.5731575,
            48.0591347
          ],
          [
            17.5732313,
            48.05905
          ],
          [
            17.5733038,
            48.0589157
          ],
          [
            17.5733344,
            48.0587885
          ],
          [
            17.5733494,
            48.0586883
          ],
          [
            17.573341,
            48.0585805
          ],
          [
            17.5733221,
            48.0584973
          ],
          [
            17.5732568,
            48.0583426
          ],
          [
            17.5731495,
            48.058188
          ],
          [
            17.5729577,
            48.0580307
          ],
          [
            17.5727553,
            48.0578945
          ],
          [
            17.5725403,
            48.0577664
          ],
          [
            17.5718109,
            48.057415
          ],
          [
            17.5714551,
            48.0572492
          ],
          [
            17.5713361,
            48.057186
          ],
          [
            17.5712244,
            48.0571043
          ],
          [
            17.5710146,
            48.0568923
          ],
          [
            17.5705305,
            48.0561884
          ],
          [
            17.5698685,
            48.0552228
          ],
          [
            17.5697416,
            48.0550332
          ],
          [
            17.5691446,
            48.0541411
          ],
          [
            17.5679624,
            48.052401
          ],
          [
            17.5674826,
            48.0516875
          ],
          [
            17.5671497,
            48.0511925
          ],
          [
            17.5666141,
            48.0503959
          ],
          [
            17.5664842,
            48.0502028
          ],
          [
            17.5662262,
            48.0499314
          ],
          [
            17.5660689,
            48.0498375
          ],
          [
            17.565936,
            48.0497791
          ],
          [
            17.5658218,
            48.0497498
          ],
          [
            17.5656908,
            48.04973
          ],
          [
            17.5655409,
            48.0497254
          ],
          [
            17.565424,
            48.0497371
          ],
          [
            17.5653123,
            48.0497524
          ],
          [
            17.5651061,
            48.049802
          ],
          [
            17.5649437,
            48.0498701
          ],
          [
            17.5648123,
            48.049939
          ],
          [
            17.5646941,
            48.0500115
          ],
          [
            17.5635858,
            48.0509132
          ],
          [
            17.5631051,
            48.0513167
          ],
          [
            17.56268,
            48.0516657
          ],
          [
            17.5622775,
            48.0520449
          ],
          [
            17.5615507,
            48.0528232
          ]
        ]
      }
    }
  ]
}
