{
  "type": "FeatureCollection",
  "bbox": [
    30.4491337,
    59.7800951,
    30.4668817,
    59.788422
  ],
  "metadata": {
    "schemaVersion": 1,
    "trackId": "ru-autodrome-st-petersburg-8be75fd5",
    "layoutId": "autodrome-st-petersburg",
    "license": "ODbL-1.0",
    "attribution": "© OpenStreetMap contributors",
    "closed": true,
    "geometryStatus": "draft",
    "timingStatus": "missing",
    "timingMode": "shared",
    "lengthM": 3067.2,
    "reviewedAt": null,
    "notes": [
      "Draft configuration: Full course including the southern rounded turnaround, central kink and northern hooked corner. Branch identity was checked against catalogue layout facts and circuit identification references. Independent source distance 3067.2 m; no coordinates are changed to match a diagram or distance. Travel direction and historical alignment remain provisional."
    ]
  },
  "features": [
    {
      "type": "Feature",
      "id": "trace",
      "properties": {
        "role": "trace",
        "sourceIds": [
          "osm-selection-83675991"
        ]
      },
      "geometry": {
        "type": "LineString",
        "coordinates": [
          [
            30.4576428,
            59.7839171
          ],
          [
            30.4627435,
            59.7870439
          ],
          [
            30.4628654,
            59.7870745
          ],
          [
            30.4629953,
            59.7870673
          ],
          [
            30.4631012,
            59.7870188
          ],
          [
            30.4632263,
            59.7869559
          ],
          [
            30.4635931,
            59.7867293
          ],
          [
            30.4637585,
            59.7866465
          ],
          [
            30.4639385,
            59.7865999
          ],
          [
            30.4641454,
            59.7865902
          ],
          [
            30.4643571,
            59.7866144
          ],
          [
            30.4644715,
            59.786655
          ],
          [
            30.4666332,
            59.7876196
          ],
          [
            30.4667683,
            59.7877058
          ],
          [
            30.4668563,
            59.7878006
          ],
          [
            30.4668817,
            59.7879033
          ],
          [
            30.4668701,
            59.7880134
          ],
          [
            30.4668007,
            59.7881109
          ],
          [
            30.4666647,
            59.7882001
          ],
          [
            30.4664905,
            59.7882735
          ],
          [
            30.4662663,
            59.788337
          ],
          [
            30.4660378,
            59.7883819
          ],
          [
            30.4657139,
            59.7884124
          ],
          [
            30.4654733,
            59.788422
          ],
          [
            30.4652278,
            59.7884148
          ],
          [
            30.4649518,
            59.7883803
          ],
          [
            30.4646985,
            59.7883259
          ],
          [
            30.4645032,
            59.7882629
          ],
          [
            30.4572069,
            59.7851399
          ],
          [
            30.4571395,
            59.7850958
          ],
          [
            30.457089,
            59.785047
          ],
          [
            30.4570826,
            59.7849978
          ],
          [
            30.4570963,
            59.7849439
          ],
          [
            30.4572589,
            59.7845102
          ],
          [
            30.4572718,
            59.784471
          ],
          [
            30.4572766,
            59.7844371
          ],
          [
            30.4572237,
            59.784408
          ],
          [
            30.455445,
            59.7838588
          ],
          [
            30.4541125,
            59.7834287
          ],
          [
            30.4537844,
            59.7833225
          ],
          [
            30.4536148,
            59.7832497
          ],
          [
            30.4535161,
            59.7831952
          ],
          [
            30.453451,
            59.7831332
          ],
          [
            30.4534088,
            59.7830731
          ],
          [
            30.4533972,
            59.7830106
          ],
          [
            30.453407,
            59.7824959
          ],
          [
            30.4534029,
            59.7823952
          ],
          [
            30.4533526,
            59.7822889
          ],
          [
            30.4532949,
            59.7822114
          ],
          [
            30.4532034,
            59.7821363
          ],
          [
            30.4530687,
            59.7820564
          ],
          [
            30.452924,
            59.7819921
          ],
          [
            30.4527727,
            59.7819375
          ],
          [
            30.452608,
            59.7819075
          ],
          [
            30.4503887,
            59.7816528
          ],
          [
            30.4501403,
            59.7816093
          ],
          [
            30.4499169,
            59.7815527
          ],
          [
            30.4497313,
            59.781476
          ],
          [
            30.4495192,
            59.7813566
          ],
          [
            30.4493769,
            59.7812573
          ],
          [
            30.4492749,
            59.7811398
          ],
          [
            30.4491944,
            59.7810236
          ],
          [
            30.4491487,
            59.7809039
          ],
          [
            30.4491337,
            59.7807819
          ],
          [
            30.4491497,
            59.7806807
          ],
          [
            30.4491944,
            59.7805709
          ],
          [
            30.4492359,
            59.7804823
          ],
          [
            30.4493221,
            59.78038
          ],
          [
            30.4494173,
            59.780293
          ],
          [
            30.449599,
            59.7801984
          ],
          [
            30.4498115,
            59.7801318
          ],
          [
            30.4500806,
            59.7800951
          ],
          [
            30.4503917,
            59.7801051
          ],
          [
            30.4506027,
            59.7801496
          ],
          [
            30.450767,
            59.7802069
          ],
          [
            30.4508717,
            59.7802565
          ],
          [
            30.4509764,
            59.7803402
          ],
          [
            30.451038,
            59.7804223
          ],
          [
            30.451078,
            59.7805416
          ],
          [
            30.4510732,
            59.7806194
          ],
          [
            30.451036,
            59.7806801
          ],
          [
            30.4509947,
            59.7807558
          ],
          [
            30.4508937,
            59.7808311
          ],
          [
            30.4507377,
            59.7809081
          ],
          [
            30.4506846,
            59.7809273
          ],
          [
            30.4506216,
            59.7809625
          ],
          [
            30.4505338,
            59.7810392
          ],
          [
            30.4505261,
            59.7810895
          ],
          [
            30.4505733,
            59.7811388
          ],
          [
            30.4506221,
            59.7811825
          ],
          [
            30.4507258,
            59.7812227
          ],
          [
            30.4509893,
            59.7812504
          ],
          [
            30.4513471,
            59.781272
          ],
          [
            30.4519376,
            59.7813201
          ],
          [
            30.4524293,
            59.7813866
          ],
          [
            30.4529736,
            59.7814999
          ],
          [
            30.4533875,
            59.7816112
          ],
          [
            30.4537581,
            59.7817161
          ],
          [
            30.4542756,
            59.7818977
          ],
          [
            30.4558567,
            59.7828291
          ],
          [
            30.4558495,
            59.7829126
          ],
          [
            30.4558122,
            59.7829477
          ],
          [
            30.4557238,
            59.7829877
          ],
          [
            30.45561,
            59.782994
          ],
          [
            30.4555051,
            59.7829886
          ],
          [
            30.4553739,
            59.7830683
          ],
          [
            30.4553271,
            59.7831129
          ],
          [
            30.4552975,
            59.7831712
          ],
          [
            30.4553148,
            59.7832233
          ],
          [
            30.4553862,
            59.783289
          ],
          [
            30.4555082,
            59.7833428
          ],
          [
            30.4557552,
            59.7834184
          ],
          [
            30.4571152,
            59.7837751
          ],
          [
            30.4574179,
            59.7838565
          ],
          [
            30.4576428,
            59.7839171
          ]
        ]
      }
    }
  ]
}
