{
  "type": "FeatureCollection",
  "bbox": [
    172.4795731,
    -43.5330609,
    172.4846802,
    -43.5301028
  ],
  "metadata": {
    "schemaVersion": 1,
    "trackId": "nz-ruapuna-e0b8962a",
    "layoutId": "ruapuna-eastern-course",
    "license": "ODbL-1.0",
    "attribution": "© OpenStreetMap contributors",
    "closed": true,
    "geometryStatus": "draft",
    "timingStatus": "missing",
    "timingMode": "shared",
    "lengthM": 1180.2,
    "reviewedAt": null,
    "notes": [
      "A draft short Eastern course using the mapped Northern central return, shared straight and terminal Eastern bend. The source is tagged raceway and its same-node joins are preserved. Branch names are descriptive, not homologation labels; independently measured length is 1180.2 m. Exact source coordinates are unchanged; historical alignment and direction remain provisional."
    ]
  },
  "features": [
    {
      "type": "Feature",
      "id": "trace",
      "properties": {
        "role": "trace",
        "sourceIds": [
          "osm-components-33795438"
        ]
      },
      "geometry": {
        "type": "LineString",
        "coordinates": [
          [
            172.479888,
            -43.5301028
          ],
          [
            172.4845315,
            -43.5322617
          ],
          [
            172.4845668,
            -43.5322912
          ],
          [
            172.4846147,
            -43.5323478
          ],
          [
            172.4846475,
            -43.5324084
          ],
          [
            172.4846712,
            -43.5324675
          ],
          [
            172.4846802,
            -43.5325187
          ],
          [
            172.4846757,
            -43.5325749
          ],
          [
            172.4846513,
            -43.5326751
          ],
          [
            172.484621,
            -43.5327522
          ],
          [
            172.484584,
            -43.5328113
          ],
          [
            172.4844982,
            -43.5328985
          ],
          [
            172.4843694,
            -43.5329731
          ],
          [
            172.4842944,
            -43.5330027
          ],
          [
            172.4842149,
            -43.5330291
          ],
          [
            172.4841248,
            -43.5330491
          ],
          [
            172.4840347,
            -43.5330592
          ],
          [
            172.4839299,
            -43.5330609
          ],
          [
            172.4838115,
            -43.5330478
          ],
          [
            172.4824712,
            -43.5326771
          ],
          [
            172.4805946,
            -43.5321463
          ],
          [
            172.479829,
            -43.5319464
          ],
          [
            172.4797429,
            -43.531903
          ],
          [
            172.4796659,
            -43.5318531
          ],
          [
            172.4796227,
            -43.5317879
          ],
          [
            172.4795886,
            -43.5317162
          ],
          [
            172.4795763,
            -43.5316718
          ],
          [
            172.4795731,
            -43.5316274
          ],
          [
            172.4795801,
            -43.5315419
          ],
          [
            172.47968,
            -43.5307688
          ],
          [
            172.4798511,
            -43.5305541
          ],
          [
            172.4799284,
            -43.5304795
          ],
          [
            172.4800314,
            -43.5304172
          ],
          [
            172.4801344,
            -43.5303861
          ],
          [
            172.4802999,
            -43.5303617
          ],
          [
            172.479888,
            -43.5301028
          ]
        ]
      }
    }
  ]
}
