{
  "type": "FeatureCollection",
  "bbox": [
    -81.0749014,
    29.1786273,
    -81.0625033,
    29.191517
  ],
  "metadata": {
    "schemaVersion": 1,
    "trackId": "us-daytona-international-speedway-11371365",
    "layoutId": "main",
    "license": "ODbL-1.0",
    "attribution": "© OpenStreetMap contributors",
    "closed": true,
    "geometryStatus": "draft",
    "timingStatus": "missing",
    "timingMode": "shared",
    "lengthM": 5775.9,
    "reviewedAt": null,
    "notes": [
      "Connected OSM course candidate. The selected loop is the longest simple source-node cycle after explicit exclusions; its association with a named circuit configuration requires review.",
      "Source way order and shared node IDs are retained. No nearby endpoints are joined and no Racelogic boundaries are read.",
      "Some source ways lack one-way direction tags. Travel direction is provisional."
    ]
  },
  "features": [
    {
      "type": "Feature",
      "id": "trace",
      "properties": {
        "role": "trace",
        "sourceIds": [
          "osm-snapshot"
        ]
      },
      "geometry": {
        "type": "LineString",
        "coordinates": [
          [
            -81.0747238,
            29.1825517
          ],
          [
            -81.0747698,
            29.1823445
          ],
          [
            -81.0748258,
            29.1821004
          ],
          [
            -81.0748618,
            29.1818471
          ],
          [
            -81.0748963,
            29.1815288
          ],
          [
            -81.0749014,
            29.1813883
          ],
          [
            -81.074899,
            29.1812322
          ],
          [
            -81.0748905,
            29.1810751
          ],
          [
            -81.074881,
            29.1809679
          ],
          [
            -81.0748651,
            29.1808528
          ],
          [
            -81.0748333,
            29.1807184
          ],
          [
            -81.0747878,
            29.1805677
          ],
          [
            -81.0747199,
            29.1803934
          ],
          [
            -81.0746465,
            29.1802322
          ],
          [
            -81.074561,
            29.1800879
          ],
          [
            -81.0744358,
            29.1799121
          ],
          [
            -81.0743011,
            29.1797407
          ],
          [
            -81.0741744,
            29.1796059
          ],
          [
            -81.0740204,
            29.1794575
          ],
          [
            -81.0738594,
            29.1793229
          ],
          [
            -81.0736813,
            29.1791922
          ],
          [
            -81.0735107,
            29.1790872
          ],
          [
            -81.0733373,
            29.1789955
          ],
          [
            -81.0730866,
            29.1788809
          ],
          [
            -81.0729282,
            29.1788215
          ],
          [
            -81.0727343,
            29.178763
          ],
          [
            -81.0725024,
            29.1787037
          ],
          [
            -81.0722459,
            29.1786589
          ],
          [
            -81.0720385,
            29.1786354
          ],
          [
            -81.0718089,
            29.1786273
          ],
          [
            -81.0715842,
            29.1786346
          ],
          [
            -81.0713594,
            29.1786556
          ],
          [
            -81.0711387,
            29.1786919
          ],
          [
            -81.070926,
            29.178739
          ],
          [
            -81.0706624,
            29.1788158
          ],
          [
            -81.0704001,
            29.1789168
          ],
          [
            -81.0701737,
            29.1790277
          ],
          [
            -81.0700238,
            29.1791127
          ],
          [
            -81.069871,
            29.1792121
          ],
          [
            -81.069722,
            29.1793219
          ],
          [
            -81.0695509,
            29.1794633
          ],
          [
            -81.0693806,
            29.1796125
          ],
          [
            -81.0691687,
            29.179825
          ],
          [
            -81.068951,
            29.1800755
          ],
          [
            -81.0687344,
            29.180335
          ],
          [
            -81.0678648,
            29.181377
          ],
          [
            -81.0654823,
            29.184251
          ],
          [
            -81.0654626,
            29.1842924
          ],
          [
            -81.0654518,
            29.1843205
          ],
          [
            -81.0654384,
            29.1843603
          ],
          [
            -81.0654304,
            29.1844001
          ],
          [
            -81.065425,
            29.1844376
          ],
          [
            -81.065425,
            29.1844727
          ],
          [
            -81.0654277,
            29.1845125
          ],
          [
            -81.0654331,
            29.1845547
          ],
          [
            -81.0654411,
            29.1845992
          ],
          [
            -81.0654518,
            29.184653
          ],
          [
            -81.0654894,
            29.1847959
          ],
          [
            -81.0654952,
            29.1848278
          ],
          [
            -81.0654989,
            29.1848538
          ],
          [
            -81.0654964,
            29.1848805
          ],
          [
            -81.0654922,
            29.1849107
          ],
          [
            -81.065483,
            29.1849406
          ],
          [
            -81.0654702,
            29.1849696
          ],
          [
            -81.0654284,
            29.1850278
          ],
          [
            -81.0651353,
            29.1854586
          ],
          [
            -81.0651192,
            29.1854726
          ],
          [
            -81.0650982,
            29.1854882
          ],
          [
            -81.065071,
            29.1855031
          ],
          [
            -81.0650307,
            29.1855148
          ],
          [
            -81.0649882,
            29.1855233
          ],
          [
            -81.0648564,
            29.1855515
          ],
          [
            -81.0647039,
            29.1855842
          ],
          [
            -81.0646445,
            29.1855967
          ],
          [
            -81.0645913,
            29.18561
          ],
          [
            -81.0645215,
            29.1856381
          ],
          [
            -81.0644457,
            29.1856854
          ],
          [
            -81.0643713,
            29.1857501
          ],
          [
            -81.0643084,
            29.1858067
          ],
          [
            -81.0641735,
            29.1859347
          ],
          [
            -81.0639943,
            29.1860515
          ],
          [
            -81.0632394,
            29.1869508
          ],
          [
            -81.0630285,
            29.1872542
          ],
          [
            -81.0628573,
            29.1875201
          ],
          [
            -81.0627981,
            29.1876247
          ],
          [
            -81.0627346,
            29.1877691
          ],
          [
            -81.0626394,
            29.1880178
          ],
          [
            -81.0625823,
            29.1882128
          ],
          [
            -81.0625461,
            29.1883634
          ],
          [
            -81.0625249,
            29.1884768
          ],
          [
            -81.0625121,
            29.1885759
          ],
          [
            -81.0625045,
            29.188717
          ],
          [
            -81.0625033,
            29.1888743
          ],
          [
            -81.0625151,
            29.1890655
          ],
          [
            -81.0625486,
            29.1892696
          ],
          [
            -81.0625945,
            29.1894407
          ],
          [
            -81.0626806,
            29.1897071
          ],
          [
            -81.0627547,
            29.1898642
          ],
          [
            -81.062854,
            29.190039
          ],
          [
            -81.0629897,
            29.1902421
          ],
          [
            -81.0631226,
            29.190418
          ],
          [
            -81.0632575,
            29.1905718
          ],
          [
            -81.0634181,
            29.1907257
          ],
          [
            -81.0635628,
            29.1908381
          ],
          [
            -81.0637563,
            29.1909729
          ],
          [
            -81.0639747,
            29.1911048
          ],
          [
            -81.0641567,
            29.1912003
          ],
          [
            -81.0643242,
            29.19127
          ],
          [
            -81.0644892,
            29.1913346
          ],
          [
            -81.0647085,
            29.1913997
          ],
          [
            -81.0648973,
            29.1914447
          ],
          [
            -81.0651294,
            29.1914843
          ],
          [
            -81.0653389,
            29.1915076
          ],
          [
            -81.0654879,
            29.1915135
          ],
          [
            -81.0656421,
            29.191517
          ],
          [
            -81.0658548,
            29.191507
          ],
          [
            -81.0659861,
            29.1914925
          ],
          [
            -81.0661629,
            29.1914671
          ],
          [
            -81.0663351,
            29.1914346
          ],
          [
            -81.0664797,
            29.1913993
          ],
          [
            -81.0666486,
            29.1913492
          ],
          [
            -81.0668389,
            29.1912886
          ],
          [
            -81.0669878,
            29.1912357
          ],
          [
            -81.0671573,
            29.1911696
          ],
          [
            -81.0673428,
            29.1910853
          ],
          [
            -81.0680111,
            29.1907559
          ],
          [
            -81.0685731,
            29.1904447
          ],
          [
            -81.0690597,
            29.1898774
          ],
          [
            -81.0691087,
            29.1898602
          ],
          [
            -81.0691577,
            29.1898597
          ],
          [
            -81.0694111,
            29.1898892
          ],
          [
            -81.0696009,
            29.1898799
          ],
          [
            -81.0701882,
            29.1895545
          ],
          [
            -81.0709197,
            29.1891492
          ],
          [
            -81.0711951,
            29.1889904
          ],
          [
            -81.0714463,
            29.1888336
          ],
          [
            -81.0716499,
            29.1887236
          ],
          [
            -81.0717354,
            29.1886649
          ],
          [
            -81.0718138,
            29.1886099
          ],
          [
            -81.0719031,
            29.188544
          ],
          [
            -81.0719979,
            29.1884721
          ],
          [
            -81.0720904,
            29.1883981
          ],
          [
            -81.0721844,
            29.1883178
          ],
          [
            -81.0722772,
            29.1882378
          ],
          [
            -81.0723685,
            29.1881538
          ],
          [
            -81.0724637,
            29.1880629
          ],
          [
            -81.0725525,
            29.1879717
          ],
          [
            -81.0726526,
            29.1878667
          ],
          [
            -81.0727394,
            29.1877713
          ],
          [
            -81.0728143,
            29.1876815
          ],
          [
            -81.0728991,
            29.1875757
          ],
          [
            -81.0729747,
            29.1874773
          ],
          [
            -81.0730491,
            29.1873734
          ],
          [
            -81.0731063,
            29.187264
          ],
          [
            -81.0732123,
            29.1870976
          ],
          [
            -81.0733048,
            29.186951
          ],
          [
            -81.0734093,
            29.186764
          ],
          [
            -81.073509,
            29.186531
          ],
          [
            -81.073677,
            29.186066
          ],
          [
            -81.0738401,
            29.1856023
          ],
          [
            -81.0740035,
            29.1850845
          ],
          [
            -81.0739763,
            29.1847803
          ],
          [
            -81.0739715,
            29.1846901
          ],
          [
            -81.0739607,
            29.1846172
          ],
          [
            -81.07394,
            29.184533
          ],
          [
            -81.0738695,
            29.1843183
          ],
          [
            -81.0738194,
            29.1841781
          ],
          [
            -81.0737617,
            29.1840568
          ],
          [
            -81.0737063,
            29.1839654
          ],
          [
            -81.0736601,
            29.1839122
          ],
          [
            -81.0735887,
            29.1838566
          ],
          [
            -81.0735438,
            29.1838321
          ],
          [
            -81.0734726,
            29.1838059
          ],
          [
            -81.073401,
            29.1837885
          ],
          [
            -81.0733399,
            29.1837767
          ],
          [
            -81.0732867,
            29.183775
          ],
          [
            -81.0732361,
            29.1837782
          ],
          [
            -81.0731833,
            29.1837861
          ],
          [
            -81.0731246,
            29.1838029
          ],
          [
            -81.073059,
            29.1838246
          ],
          [
            -81.0729259,
            29.18388
          ],
          [
            -81.0727674,
            29.1839634
          ],
          [
            -81.0726693,
            29.1840249
          ],
          [
            -81.0725825,
            29.1840904
          ],
          [
            -81.0722813,
            29.1843664
          ],
          [
            -81.0721895,
            29.1844443
          ],
          [
            -81.0721206,
            29.1844943
          ],
          [
            -81.072068,
            29.1845228
          ],
          [
            -81.0719954,
            29.1845537
          ],
          [
            -81.071916,
            29.1845791
          ],
          [
            -81.071781,
            29.1846131
          ],
          [
            -81.0717125,
            29.1846323
          ],
          [
            -81.0716499,
            29.1846583
          ],
          [
            -81.0715835,
            29.184698
          ],
          [
            -81.0715225,
            29.184752
          ],
          [
            -81.0714681,
            29.184816
          ],
          [
            -81.0704856,
            29.1859446
          ],
          [
            -81.0702562,
            29.1862081
          ],
          [
            -81.0701786,
            29.1862873
          ],
          [
            -81.070088,
            29.1863582
          ],
          [
            -81.0700322,
            29.1863889
          ],
          [
            -81.0699789,
            29.1864078
          ],
          [
            -81.0699197,
            29.186422
          ],
          [
            -81.0698708,
            29.1864246
          ],
          [
            -81.0698139,
            29.1864209
          ],
          [
            -81.0697715,
            29.1864064
          ],
          [
            -81.069719,
            29.186382
          ],
          [
            -81.0696672,
            29.1863477
          ],
          [
            -81.0696095,
            29.1862871
          ],
          [
            -81.069581,
            29.1862451
          ],
          [
            -81.0695661,
            29.1861985
          ],
          [
            -81.0695583,
            29.1861426
          ],
          [
            -81.069559,
            29.1860843
          ],
          [
            -81.0695663,
            29.1860208
          ],
          [
            -81.0695842,
            29.185957
          ],
          [
            -81.069613,
            29.1858866
          ],
          [
            -81.0696652,
            29.1857596
          ],
          [
            -81.0697301,
            29.1856217
          ],
          [
            -81.0697714,
            29.1855506
          ],
          [
            -81.0698261,
            29.1854563
          ],
          [
            -81.0699354,
            29.1852949
          ],
          [
            -81.0700337,
            29.1851675
          ],
          [
            -81.070168,
            29.1849934
          ],
          [
            -81.0708925,
            29.1841226
          ],
          [
            -81.0716587,
            29.1832017
          ],
          [
            -81.0717525,
            29.1830889
          ],
          [
            -81.0718532,
            29.1829599
          ],
          [
            -81.0719282,
            29.1828459
          ],
          [
            -81.0719815,
            29.182746
          ],
          [
            -81.0720033,
            29.1826956
          ],
          [
            -81.0720204,
            29.1826398
          ],
          [
            -81.072035,
            29.1825686
          ],
          [
            -81.072045,
            29.1824973
          ],
          [
            -81.072056,
            29.1823977
          ],
          [
            -81.0720612,
            29.1822437
          ],
          [
            -81.0720478,
            29.1819533
          ],
          [
            -81.0720242,
            29.1817254
          ],
          [
            -81.071952,
            29.1812663
          ],
          [
            -81.0719311,
            29.1811413
          ],
          [
            -81.0718741,
            29.1807709
          ],
          [
            -81.071862,
            29.1806204
          ],
          [
            -81.0718625,
            29.1804979
          ],
          [
            -81.0718779,
            29.1803498
          ],
          [
            -81.0718965,
            29.1802893
          ],
          [
            -81.0719318,
            29.1802161
          ],
          [
            -81.0720195,
            29.1800889
          ],
          [
            -81.072084,
            29.1800289
          ],
          [
            -81.0721271,
            29.180004
          ],
          [
            -81.0721751,
            29.1799817
          ],
          [
            -81.0722224,
            29.1799656
          ],
          [
            -81.0722646,
            29.1799572
          ],
          [
            -81.0723133,
            29.1799556
          ],
          [
            -81.0723536,
            29.1799608
          ],
          [
            -81.0724173,
            29.1799727
          ],
          [
            -81.0724642,
            29.1799917
          ],
          [
            -81.0725207,
            29.1800182
          ],
          [
            -81.0725704,
            29.1800504
          ],
          [
            -81.0726288,
            29.1801002
          ],
          [
            -81.0726841,
            29.1801512
          ],
          [
            -81.0727401,
            29.1802033
          ],
          [
            -81.0727802,
            29.1802589
          ],
          [
            -81.0728227,
            29.180338
          ],
          [
            -81.0728643,
            29.1804605
          ],
          [
            -81.0728871,
            29.1805731
          ],
          [
            -81.0729834,
            29.1811674
          ],
          [
            -81.0731256,
            29.1820444
          ],
          [
            -81.0731609,
            29.1822621
          ],
          [
            -81.0732242,
            29.1826679
          ],
          [
            -81.0732756,
            29.1829079
          ],
          [
            -81.0732998,
            29.1830211
          ],
          [
            -81.0733247,
            29.1830739
          ],
          [
            -81.0733535,
            29.1831028
          ],
          [
            -81.0733858,
            29.1831268
          ],
          [
            -81.0734283,
            29.1831433
          ],
          [
            -81.0734855,
            29.1831568
          ],
          [
            -81.0735312,
            29.1831592
          ],
          [
            -81.0735764,
            29.1831582
          ],
          [
            -81.0736577,
            29.1831494
          ],
          [
            -81.0737613,
            29.1831331
          ],
          [
            -81.0738642,
            29.1831061
          ],
          [
            -81.0740086,
            29.1830598
          ],
          [
            -81.0742009,
            29.1829766
          ],
          [
            -81.0743955,
            29.1828754
          ],
          [
            -81.0745353,
            29.1827803
          ],
          [
            -81.0746312,
            29.1826842
          ],
          [
            -81.0747238,
            29.1825517
          ]
        ]
      }
    }
  ]
}
