{
  "type": "FeatureCollection",
  "bbox": [
    9.1040801,
    45.0684177,
    9.1068102,
    45.0719604
  ],
  "metadata": {
    "schemaVersion": 1,
    "trackId": "it-motodromo-castelletto-di-branduzzo-209135489",
    "layoutId": "main",
    "license": "ODbL-1.0",
    "attribution": "© OpenStreetMap contributors",
    "closed": true,
    "geometryStatus": "draft",
    "timingStatus": "missing",
    "timingMode": "shared",
    "lengthM": 1788.4,
    "reviewedAt": null,
    "notes": [
      "Closed named OSM raceway retained as a course candidate. Named-layout association requires review.",
      "Source way order and shared node IDs are retained. No nearby endpoints are joined and no reference boundaries are read."
    ]
  },
  "features": [
    {
      "type": "Feature",
      "id": "trace",
      "properties": {
        "role": "trace",
        "sourceIds": [
          "osm-snapshot"
        ]
      },
      "geometry": {
        "type": "LineString",
        "coordinates": [
          [
            9.105196,
            45.0702999
          ],
          [
            9.105253,
            45.0702619
          ],
          [
            9.1053402,
            45.0702214
          ],
          [
            9.1054731,
            45.0701714
          ],
          [
            9.1056096,
            45.0701265
          ],
          [
            9.1057468,
            45.0700918
          ],
          [
            9.1058054,
            45.0700636
          ],
          [
            9.1058558,
            45.0700196
          ],
          [
            9.1058848,
            45.0699634
          ],
          [
            9.1058974,
            45.0699113
          ],
          [
            9.1059075,
            45.0698507
          ],
          [
            9.1059116,
            45.0697247
          ],
          [
            9.1059182,
            45.0696613
          ],
          [
            9.1059137,
            45.069594
          ],
          [
            9.1058971,
            45.0695641
          ],
          [
            9.1058649,
            45.0695428
          ],
          [
            9.1058285,
            45.0695294
          ],
          [
            9.105764,
            45.0695277
          ],
          [
            9.1056942,
            45.0695355
          ],
          [
            9.1056679,
            45.0695437
          ],
          [
            9.1056339,
            45.0695609
          ],
          [
            9.1055616,
            45.0696035
          ],
          [
            9.105489,
            45.0696849
          ],
          [
            9.1054395,
            45.0697475
          ],
          [
            9.1053837,
            45.0698221
          ],
          [
            9.1053482,
            45.0698696
          ],
          [
            9.1052905,
            45.0699454
          ],
          [
            9.1052236,
            45.0700136
          ],
          [
            9.1051497,
            45.0700647
          ],
          [
            9.1050533,
            45.0700998
          ],
          [
            9.1049647,
            45.0701083
          ],
          [
            9.1048977,
            45.0701074
          ],
          [
            9.1048198,
            45.0701017
          ],
          [
            9.1047422,
            45.0700884
          ],
          [
            9.1046692,
            45.0700638
          ],
          [
            9.1046143,
            45.070031
          ],
          [
            9.104561,
            45.0699888
          ],
          [
            9.1045169,
            45.0699407
          ],
          [
            9.1044834,
            45.0698986
          ],
          [
            9.1044481,
            45.0698491
          ],
          [
            9.1044043,
            45.0697644
          ],
          [
            9.104318,
            45.0695469
          ],
          [
            9.1042544,
            45.0693756
          ],
          [
            9.1042272,
            45.0692928
          ],
          [
            9.1042217,
            45.0692218
          ],
          [
            9.1042297,
            45.0691536
          ],
          [
            9.1042646,
            45.0690721
          ],
          [
            9.1043345,
            45.0689935
          ],
          [
            9.1043761,
            45.0689637
          ],
          [
            9.1044243,
            45.0689376
          ],
          [
            9.1044926,
            45.0689149
          ],
          [
            9.1045229,
            45.0689073
          ],
          [
            9.1045651,
            45.0688988
          ],
          [
            9.1046067,
            45.068896
          ],
          [
            9.1046482,
            45.068896
          ],
          [
            9.1046978,
            45.0688974
          ],
          [
            9.1047507,
            45.0689044
          ],
          [
            9.1048788,
            45.0689367
          ],
          [
            9.1049486,
            45.0689689
          ],
          [
            9.1050104,
            45.0690087
          ],
          [
            9.1050679,
            45.069075
          ],
          [
            9.1050949,
            45.0691233
          ],
          [
            9.1051529,
            45.0692398
          ],
          [
            9.1051709,
            45.0692809
          ],
          [
            9.1052075,
            45.069362
          ],
          [
            9.1052342,
            45.0693965
          ],
          [
            9.1052664,
            45.0694164
          ],
          [
            9.1053113,
            45.0694264
          ],
          [
            9.1053575,
            45.0694273
          ],
          [
            9.1054079,
            45.0694213
          ],
          [
            9.1054582,
            45.0694107
          ],
          [
            9.1055259,
            45.0693866
          ],
          [
            9.1055522,
            45.0693718
          ],
          [
            9.1055785,
            45.0693504
          ],
          [
            9.1055923,
            45.0693184
          ],
          [
            9.105593,
            45.0692734
          ],
          [
            9.1055755,
            45.0692296
          ],
          [
            9.1055648,
            45.0692028
          ],
          [
            9.1055491,
            45.0691668
          ],
          [
            9.1054771,
            45.0690011
          ],
          [
            9.1053524,
            45.0687368
          ],
          [
            9.1053177,
            45.0686714
          ],
          [
            9.1052795,
            45.068579
          ],
          [
            9.1052768,
            45.0685426
          ],
          [
            9.105284,
            45.0685048
          ],
          [
            9.1053023,
            45.0684706
          ],
          [
            9.1053322,
            45.0684404
          ],
          [
            9.1053788,
            45.0684256
          ],
          [
            9.1054288,
            45.0684177
          ],
          [
            9.1054827,
            45.0684204
          ],
          [
            9.1055578,
            45.0684393
          ],
          [
            9.1056074,
            45.0684772
          ],
          [
            9.1056487,
            45.0685275
          ],
          [
            9.105862,
            45.0688657
          ],
          [
            9.1059082,
            45.0689446
          ],
          [
            9.1060833,
            45.0692436
          ],
          [
            9.1061645,
            45.0694229
          ],
          [
            9.1062925,
            45.0697058
          ],
          [
            9.1063942,
            45.0699737
          ],
          [
            9.1065392,
            45.0703688
          ],
          [
            9.1067262,
            45.0711136
          ],
          [
            9.1067961,
            45.0713549
          ],
          [
            9.1068102,
            45.0714399
          ],
          [
            9.1068054,
            45.0714913
          ],
          [
            9.1067967,
            45.0715357
          ],
          [
            9.1067738,
            45.0715815
          ],
          [
            9.1067431,
            45.071619
          ],
          [
            9.1066599,
            45.071675
          ],
          [
            9.1065768,
            45.0717213
          ],
          [
            9.1063287,
            45.071851
          ],
          [
            9.106277,
            45.0718744
          ],
          [
            9.1062254,
            45.0718947
          ],
          [
            9.1061423,
            45.0719221
          ],
          [
            9.106075,
            45.0719401
          ],
          [
            9.1060121,
            45.071951
          ],
          [
            9.1059678,
            45.0719583
          ],
          [
            9.1059249,
            45.0719604
          ],
          [
            9.1058921,
            45.0719591
          ],
          [
            9.1058601,
            45.0719538
          ],
          [
            9.1058307,
            45.0719415
          ],
          [
            9.1058109,
            45.0719282
          ],
          [
            9.105786,
            45.0719076
          ],
          [
            9.1057697,
            45.0718839
          ],
          [
            9.1057574,
            45.07186
          ],
          [
            9.1057466,
            45.0718371
          ],
          [
            9.1057279,
            45.0717791
          ],
          [
            9.105718,
            45.0717262
          ],
          [
            9.1057196,
            45.0716763
          ],
          [
            9.1057345,
            45.0716308
          ],
          [
            9.1057652,
            45.0715925
          ],
          [
            9.1058163,
            45.0715598
          ],
          [
            9.1058469,
            45.0715478
          ],
          [
            9.1058832,
            45.0715383
          ],
          [
            9.105924,
            45.0715319
          ],
          [
            9.1060436,
            45.071518
          ],
          [
            9.1062042,
            45.0715027
          ],
          [
            9.1062655,
            45.071492
          ],
          [
            9.1063225,
            45.0714762
          ],
          [
            9.1063483,
            45.0714655
          ],
          [
            9.1063755,
            45.0714518
          ],
          [
            9.1063985,
            45.0714325
          ],
          [
            9.1064171,
            45.0714092
          ],
          [
            9.1064278,
            45.0713685
          ],
          [
            9.1064318,
            45.0712937
          ],
          [
            9.1064304,
            45.0712607
          ],
          [
            9.1064266,
            45.071172
          ],
          [
            9.1064238,
            45.0711001
          ],
          [
            9.1064159,
            45.0709295
          ],
          [
            9.1063998,
            45.0708158
          ],
          [
            9.1063882,
            45.070785
          ],
          [
            9.1063648,
            45.0707599
          ],
          [
            9.1063265,
            45.0707486
          ],
          [
            9.1062843,
            45.0707462
          ],
          [
            9.1061831,
            45.070768
          ],
          [
            9.1058444,
            45.0708457
          ],
          [
            9.1055814,
            45.0709124
          ],
          [
            9.1052081,
            45.071001
          ],
          [
            9.1047963,
            45.0711052
          ],
          [
            9.1047306,
            45.0711163
          ],
          [
            9.1046649,
            45.0711222
          ],
          [
            9.1046126,
            45.0711218
          ],
          [
            9.1045603,
            45.0711203
          ],
          [
            9.1044886,
            45.0711118
          ],
          [
            9.1044179,
            45.0711013
          ],
          [
            9.1043444,
            45.0710867
          ],
          [
            9.1042765,
            45.0710671
          ],
          [
            9.1042119,
            45.0710402
          ],
          [
            9.1041679,
            45.0710141
          ],
          [
            9.1041254,
            45.070988
          ],
          [
            9.1041004,
            45.0709662
          ],
          [
            9.1040852,
            45.070943
          ],
          [
            9.1040801,
            45.0709004
          ],
          [
            9.1040901,
            45.0708774
          ],
          [
            9.104106,
            45.0708571
          ],
          [
            9.1041416,
            45.0708435
          ],
          [
            9.1041678,
            45.0708394
          ],
          [
            9.104194,
            45.0708394
          ],
          [
            9.1042338,
            45.0708568
          ],
          [
            9.1042865,
            45.0709056
          ],
          [
            9.1043109,
            45.0709216
          ],
          [
            9.1043352,
            45.0709335
          ],
          [
            9.1043897,
            45.0709459
          ],
          [
            9.1044517,
            45.0709522
          ],
          [
            9.1045208,
            45.0709532
          ],
          [
            9.104596,
            45.0709458
          ],
          [
            9.1046711,
            45.0709342
          ],
          [
            9.1050465,
            45.0708608
          ],
          [
            9.1052537,
            45.0708135
          ],
          [
            9.1054328,
            45.0707675
          ],
          [
            9.105774,
            45.07066
          ],
          [
            9.1059599,
            45.0706037
          ],
          [
            9.1060605,
            45.070563
          ],
          [
            9.1061012,
            45.0705331
          ],
          [
            9.1061409,
            45.0704834
          ],
          [
            9.1061509,
            45.0704393
          ],
          [
            9.1061468,
            45.0703967
          ],
          [
            9.1061261,
            45.0703636
          ],
          [
            9.1061012,
            45.0703423
          ],
          [
            9.106067,
            45.0703257
          ],
          [
            9.1060049,
            45.0703092
          ],
          [
            9.1059604,
            45.0703044
          ],
          [
            9.1059048,
            45.0703053
          ],
          [
            9.1058316,
            45.0703209
          ],
          [
            9.1057733,
            45.0703399
          ],
          [
            9.1057296,
            45.0703595
          ],
          [
            9.1056039,
            45.0704382
          ],
          [
            9.1054535,
            45.0705473
          ],
          [
            9.1054005,
            45.0705819
          ],
          [
            9.1053382,
            45.0706141
          ],
          [
            9.1052845,
            45.0706302
          ],
          [
            9.1052376,
            45.070634
          ],
          [
            9.1051886,
            45.0706293
          ],
          [
            9.105137,
            45.070615
          ],
          [
            9.1051032,
            45.0705941
          ],
          [
            9.105074,
            45.0705615
          ],
          [
            9.1050629,
            45.0705321
          ],
          [
            9.1050627,
            45.0704834
          ],
          [
            9.105086,
            45.0704289
          ],
          [
            9.105115,
            45.0703846
          ],
          [
            9.105133,
            45.0703621
          ],
          [
            9.105152,
            45.0703397
          ],
          [
            9.105196,
            45.0702999
          ]
        ]
      }
    }
  ]
}
