{
  "type": "FeatureCollection",
  "bbox": [
    -60.7461124,
    -32.9076535,
    -60.7432993,
    -32.9025915
  ],
  "metadata": {
    "schemaVersion": 1,
    "trackId": "ar-autodromo-juan-manuel-fangio-293583938",
    "layoutId": "rosario-short-circuit",
    "license": "ODbL-1.0",
    "attribution": "© OpenStreetMap contributors",
    "closed": true,
    "geometryStatus": "draft",
    "timingStatus": "missing",
    "timingMode": "shared",
    "lengthM": 1375.2,
    "reviewedAt": null,
    "notes": [
      "Draft configuration: Historical short course follows the western main straight, northern diagonal closure and stepped inner southern return retained in the 2013 public snapshot. The later western pit-entry jog is excluded. The primary series history identifies the original 1400 m circuit, and the supplied branch identity selects its triangular short-course shape. The exact public centreline measures 1375.2 m; the catalogue scalar is 1402 m. Historical alignment and direction remain draft. Branch identity was checked against catalogue layout facts and circuit identification references. Independent source distance 1375.2 m; no coordinates are changed to match a diagram or distance. Travel direction and historical alignment remain provisional."
    ]
  },
  "features": [
    {
      "type": "Feature",
      "id": "trace",
      "properties": {
        "role": "trace",
        "sourceIds": [
          "osm-selection-rosario-2013-independent-raceways-80184975"
        ]
      },
      "geometry": {
        "type": "LineString",
        "coordinates": [
          [
            -60.7460494,
            -32.9043475
          ],
          [
            -60.7460757,
            -32.9037453
          ],
          [
            -60.7460827,
            -32.9035855
          ],
          [
            -60.7461124,
            -32.902907
          ],
          [
            -60.7461032,
            -32.9027814
          ],
          [
            -60.7459433,
            -32.9026386
          ],
          [
            -60.7457683,
            -32.9025915
          ],
          [
            -60.7455969,
            -32.9026155
          ],
          [
            -60.7452402,
            -32.9028165
          ],
          [
            -60.74468,
            -32.9031561
          ],
          [
            -60.7445413,
            -32.9032577
          ],
          [
            -60.7435458,
            -32.9038776
          ],
          [
            -60.7434421,
            -32.9039487
          ],
          [
            -60.7433609,
            -32.9040879
          ],
          [
            -60.7432993,
            -32.9043091
          ],
          [
            -60.7433174,
            -32.9046855
          ],
          [
            -60.7433349,
            -32.9049341
          ],
          [
            -60.7434082,
            -32.905114
          ],
          [
            -60.7435769,
            -32.9052704
          ],
          [
            -60.7438271,
            -32.9053665
          ],
          [
            -60.7439231,
            -32.9054034
          ],
          [
            -60.7442113,
            -32.9055422
          ],
          [
            -60.7444359,
            -32.9056753
          ],
          [
            -60.7445323,
            -32.9058649
          ],
          [
            -60.7446668,
            -32.9062691
          ],
          [
            -60.744967,
            -32.9072886
          ],
          [
            -60.7450319,
            -32.9074224
          ],
          [
            -60.7451098,
            -32.9075058
          ],
          [
            -60.7452131,
            -32.9075878
          ],
          [
            -60.7453331,
            -32.9076433
          ],
          [
            -60.7455273,
            -32.9076535
          ],
          [
            -60.7457309,
            -32.9075834
          ],
          [
            -60.7458088,
            -32.9075349
          ],
          [
            -60.7458803,
            -32.9074904
          ],
          [
            -60.7459351,
            -32.9073551
          ],
          [
            -60.7459581,
            -32.9068617
          ],
          [
            -60.7459845,
            -32.9061341
          ],
          [
            -60.7460494,
            -32.9043475
          ]
        ]
      }
    }
  ]
}
