{
  "type": "FeatureCollection",
  "bbox": [
    -60.3816005,
    -31.7676206,
    -60.3736419,
    -31.7587603
  ],
  "metadata": {
    "schemaVersion": 1,
    "trackId": "ar-autodromo-ciudad-de-parana-256068024",
    "layoutId": "autodromo-de-parana",
    "license": "ODbL-1.0",
    "attribution": "© OpenStreetMap contributors",
    "closed": true,
    "geometryStatus": "draft",
    "timingStatus": "missing",
    "timingMode": "shared",
    "lengthM": 4140.3,
    "reviewedAt": null,
    "notes": [
      "Draft route hypothesis: the source cycle is the unique closest nominal-distance match within conservative timing and distance checks. Approximate OSM trace length 4140.3 m. Difference from the supplied layout distance 5.3 m. Course configuration still requires visual review."
    ]
  },
  "features": [
    {
      "type": "Feature",
      "id": "trace",
      "properties": {
        "role": "trace",
        "sourceIds": [
          "osm-network-256068024"
        ]
      },
      "geometry": {
        "type": "LineString",
        "coordinates": [
          [
            -60.3793693,
            -31.760453
          ],
          [
            -60.3809466,
            -31.762686
          ],
          [
            -60.3812423,
            -31.7631681
          ],
          [
            -60.3814093,
            -31.7634962
          ],
          [
            -60.3814979,
            -31.7637537
          ],
          [
            -60.3815721,
            -31.7640739
          ],
          [
            -60.3816005,
            -31.7643809
          ],
          [
            -60.3815792,
            -31.7646276
          ],
          [
            -60.3815285,
            -31.7648734
          ],
          [
            -60.3813933,
            -31.7651839
          ],
          [
            -60.3811985,
            -31.7655076
          ],
          [
            -60.3810073,
            -31.7657421
          ],
          [
            -60.3807297,
            -31.7659849
          ],
          [
            -60.380379,
            -31.7662277
          ],
          [
            -60.3797395,
            -31.7665956
          ],
          [
            -60.3794321,
            -31.7667724
          ],
          [
            -60.3787261,
            -31.7671258
          ],
          [
            -60.3782441,
            -31.7673289
          ],
          [
            -60.3778456,
            -31.7674969
          ],
          [
            -60.3776396,
            -31.7675719
          ],
          [
            -60.3774568,
            -31.7676206
          ],
          [
            -60.3772931,
            -31.7676127
          ],
          [
            -60.3771488,
            -31.7675456
          ],
          [
            -60.3770192,
            -31.7674259
          ],
          [
            -60.3755091,
            -31.7651975
          ],
          [
            -60.3737601,
            -31.7625922
          ],
          [
            -60.3736955,
            -31.7624517
          ],
          [
            -60.3736545,
            -31.7622954
          ],
          [
            -60.3736419,
            -31.7621392
          ],
          [
            -60.3736545,
            -31.7620105
          ],
          [
            -60.3736955,
            -31.7618397
          ],
          [
            -60.3737951,
            -31.7616314
          ],
          [
            -60.3739252,
            -31.7614762
          ],
          [
            -60.3740689,
            -31.7613441
          ],
          [
            -60.3753087,
            -31.7605203
          ],
          [
            -60.3754233,
            -31.760469
          ],
          [
            -60.3755733,
            -31.7604238
          ],
          [
            -60.3757389,
            -31.7604416
          ],
          [
            -60.3758913,
            -31.7605263
          ],
          [
            -60.3760107,
            -31.7606442
          ],
          [
            -60.3761194,
            -31.7607856
          ],
          [
            -60.3763126,
            -31.7610904
          ],
          [
            -60.3764476,
            -31.7613523
          ],
          [
            -60.3765724,
            -31.7615973
          ],
          [
            -60.3766711,
            -31.7618253
          ],
          [
            -60.3767515,
            -31.7620756
          ],
          [
            -60.3767931,
            -31.762326
          ],
          [
            -60.3768502,
            -31.7650101
          ],
          [
            -60.3768721,
            -31.7651813
          ],
          [
            -60.3769739,
            -31.7653897
          ],
          [
            -60.3770952,
            -31.7655505
          ],
          [
            -60.3772172,
            -31.7656608
          ],
          [
            -60.3773393,
            -31.765759
          ],
          [
            -60.3775621,
            -31.7659195
          ],
          [
            -60.3777953,
            -31.7660227
          ],
          [
            -60.3780476,
            -31.7660882
          ],
          [
            -60.3782851,
            -31.7660783
          ],
          [
            -60.3784855,
            -31.7660487
          ],
          [
            -60.3785959,
            -31.7660062
          ],
          [
            -60.3790383,
            -31.7658539
          ],
          [
            -60.3793463,
            -31.7657197
          ],
          [
            -60.3795182,
            -31.7656384
          ],
          [
            -60.3797468,
            -31.765536
          ],
          [
            -60.3799214,
            -31.7654233
          ],
          [
            -60.3800536,
            -31.7653046
          ],
          [
            -60.3801526,
            -31.7651791
          ],
          [
            -60.3802202,
            -31.7650188
          ],
          [
            -60.3802463,
            -31.7648616
          ],
          [
            -60.3802237,
            -31.7647089
          ],
          [
            -60.3801421,
            -31.7645255
          ],
          [
            -60.3783587,
            -31.7621514
          ],
          [
            -60.3781375,
            -31.7619136
          ],
          [
            -60.3774904,
            -31.7612606
          ],
          [
            -60.3776694,
            -31.7612733
          ],
          [
            -60.3777828,
            -31.76124
          ],
          [
            -60.3778609,
            -31.7611887
          ],
          [
            -60.377921,
            -31.7610883
          ],
          [
            -60.3779528,
            -31.7609999
          ],
          [
            -60.3779451,
            -31.7609255
          ],
          [
            -60.377902,
            -31.7608151
          ],
          [
            -60.377792,
            -31.7605963
          ],
          [
            -60.3774797,
            -31.7600578
          ],
          [
            -60.377277,
            -31.7597478
          ],
          [
            -60.3771115,
            -31.7594779
          ],
          [
            -60.3770875,
            -31.7592958
          ],
          [
            -60.3771128,
            -31.7591419
          ],
          [
            -60.3771831,
            -31.7590225
          ],
          [
            -60.3773172,
            -31.7588971
          ],
          [
            -60.3775316,
            -31.7588059
          ],
          [
            -60.377769,
            -31.7587603
          ],
          [
            -60.3779486,
            -31.7587663
          ],
          [
            -60.3781347,
            -31.7588274
          ],
          [
            -60.3782679,
            -31.7589371
          ],
          [
            -60.3783586,
            -31.7590468
          ],
          [
            -60.3784137,
            -31.7591234
          ],
          [
            -60.3793693,
            -31.760453
          ]
        ]
      }
    }
  ]
}
