{
  "type": "FeatureCollection",
  "bbox": [
    22.671438,
    42.2663301,
    22.6736871,
    42.2678744
  ],
  "metadata": {
    "schemaVersion": 1,
    "trackId": "bg-pautalia-f5a0fa61",
    "layoutId": "pautalia",
    "license": "ODbL-1.0",
    "attribution": "© OpenStreetMap contributors",
    "closed": true,
    "geometryStatus": "draft",
    "timingStatus": "missing",
    "timingMode": "shared",
    "lengthM": 999.2,
    "reviewedAt": null,
    "notes": [
      "Draft route hypothesis: the source cycle is the unique closest nominal-distance match within conservative timing and distance checks. Approximate OSM trace length 999.2 m. Difference from the supplied layout distance 20.8 m. Course configuration still requires visual review."
    ]
  },
  "features": [
    {
      "type": "Feature",
      "id": "trace",
      "properties": {
        "role": "trace",
        "sourceIds": [
          "osm-network-859079073"
        ]
      },
      "geometry": {
        "type": "LineString",
        "coordinates": [
          [
            22.6720598,
            42.2665538
          ],
          [
            22.671832,
            42.2667278
          ],
          [
            22.6718107,
            42.2667432
          ],
          [
            22.6717839,
            42.2667529
          ],
          [
            22.6717544,
            42.2667558
          ],
          [
            22.6717308,
            42.266753
          ],
          [
            22.6717089,
            42.2667459
          ],
          [
            22.6716902,
            42.2667348
          ],
          [
            22.6715789,
            42.2666801
          ],
          [
            22.6715484,
            42.2666775
          ],
          [
            22.6715181,
            42.266681
          ],
          [
            22.67149,
            42.2666901
          ],
          [
            22.6714669,
            42.2667037
          ],
          [
            22.6714492,
            42.2667212
          ],
          [
            22.671438,
            42.2667414
          ],
          [
            22.6714479,
            42.2668216
          ],
          [
            22.67146,
            42.2668491
          ],
          [
            22.6714801,
            42.2668738
          ],
          [
            22.6715073,
            42.2668945
          ],
          [
            22.6715433,
            42.2669112
          ],
          [
            22.6715838,
            42.2669208
          ],
          [
            22.6717016,
            42.2669366
          ],
          [
            22.6718216,
            42.26694
          ],
          [
            22.6718673,
            42.2669362
          ],
          [
            22.6719097,
            42.2669232
          ],
          [
            22.6719375,
            42.2669077
          ],
          [
            22.6719603,
            42.2668883
          ],
          [
            22.6720397,
            42.2668125
          ],
          [
            22.6720691,
            42.266788
          ],
          [
            22.6721042,
            42.2667681
          ],
          [
            22.6721437,
            42.2667534
          ],
          [
            22.6721931,
            42.2667437
          ],
          [
            22.6722442,
            42.2667421
          ],
          [
            22.6722869,
            42.2667357
          ],
          [
            22.6723729,
            42.2667138
          ],
          [
            22.6725063,
            42.2666714
          ],
          [
            22.6725449,
            42.2666665
          ],
          [
            22.672584,
            42.2666668
          ],
          [
            22.6726224,
            42.2666724
          ],
          [
            22.6726589,
            42.266683
          ],
          [
            22.6726983,
            42.2667019
          ],
          [
            22.6727313,
            42.2667268
          ],
          [
            22.6727562,
            42.2667563
          ],
          [
            22.6729809,
            42.2671312
          ],
          [
            22.6729833,
            42.2671557
          ],
          [
            22.6729769,
            42.2671798
          ],
          [
            22.6729622,
            42.2672018
          ],
          [
            22.6729401,
            42.2672202
          ],
          [
            22.6729124,
            42.2672337
          ],
          [
            22.6728801,
            42.2672413
          ],
          [
            22.6728463,
            42.2672423
          ],
          [
            22.6728133,
            42.2672366
          ],
          [
            22.6727837,
            42.2672245
          ],
          [
            22.6727595,
            42.267207
          ],
          [
            22.6727425,
            42.2671853
          ],
          [
            22.6726277,
            42.2669197
          ],
          [
            22.6726118,
            42.2668911
          ],
          [
            22.6725873,
            42.266866
          ],
          [
            22.6725556,
            42.2668459
          ],
          [
            22.6725184,
            42.2668317
          ],
          [
            22.6724778,
            42.2668244
          ],
          [
            22.672432,
            42.2668246
          ],
          [
            22.6723878,
            42.2668335
          ],
          [
            22.6723481,
            42.2668505
          ],
          [
            22.6722165,
            42.2669619
          ],
          [
            22.6721958,
            42.2669874
          ],
          [
            22.672183,
            42.2670155
          ],
          [
            22.6721787,
            42.2670459
          ],
          [
            22.6721836,
            42.2670762
          ],
          [
            22.6721974,
            42.2671049
          ],
          [
            22.6722196,
            42.2671307
          ],
          [
            22.6726446,
            42.2675121
          ],
          [
            22.6726695,
            42.267536
          ],
          [
            22.672701,
            42.2675552
          ],
          [
            22.6727373,
            42.2675688
          ],
          [
            22.6727768,
            42.2675761
          ],
          [
            22.6728176,
            42.2675769
          ],
          [
            22.6728549,
            42.2675716
          ],
          [
            22.67289,
            42.2675607
          ],
          [
            22.6729214,
            42.2675447
          ],
          [
            22.6729476,
            42.2675243
          ],
          [
            22.6732362,
            42.2672526
          ],
          [
            22.6732667,
            42.2672349
          ],
          [
            22.673303,
            42.2672251
          ],
          [
            22.6733416,
            42.267224
          ],
          [
            22.6733788,
            42.2672317
          ],
          [
            22.673411,
            42.2672476
          ],
          [
            22.6734343,
            42.267269
          ],
          [
            22.673448,
            42.2672945
          ],
          [
            22.6734508,
            42.2673219
          ],
          [
            22.6734426,
            42.2673487
          ],
          [
            22.6734241,
            42.2673725
          ],
          [
            22.6732791,
            42.2675038
          ],
          [
            22.6732631,
            42.267526
          ],
          [
            22.6732593,
            42.2675387
          ],
          [
            22.6732171,
            42.2675733
          ],
          [
            22.6731587,
            42.2676179
          ],
          [
            22.6730115,
            42.2676929
          ],
          [
            22.6729658,
            42.2677094
          ],
          [
            22.6729163,
            42.2677186
          ],
          [
            22.6728801,
            42.2677203
          ],
          [
            22.672844,
            42.267718
          ],
          [
            22.6728087,
            42.2677117
          ],
          [
            22.6727483,
            42.2676973
          ],
          [
            22.6726879,
            42.2676784
          ],
          [
            22.6726359,
            42.2676548
          ],
          [
            22.6725291,
            42.2675867
          ],
          [
            22.6724474,
            42.2675471
          ],
          [
            22.6724168,
            42.2675428
          ],
          [
            22.672386,
            42.2675461
          ],
          [
            22.6723583,
            42.2675565
          ],
          [
            22.6723366,
            42.267573
          ],
          [
            22.6723239,
            42.2675923
          ],
          [
            22.6723195,
            42.2676135
          ],
          [
            22.6723241,
            42.2676347
          ],
          [
            22.672337,
            42.2676539
          ],
          [
            22.6723572,
            42.2676694
          ],
          [
            22.6723827,
            42.2676796
          ],
          [
            22.6724815,
            42.2677231
          ],
          [
            22.6726186,
            42.2677638
          ],
          [
            22.6730437,
            42.2678678
          ],
          [
            22.6730872,
            42.2678744
          ],
          [
            22.6731315,
            42.2678742
          ],
          [
            22.6731749,
            42.2678673
          ],
          [
            22.6732154,
            42.2678538
          ],
          [
            22.6732549,
            42.2678321
          ],
          [
            22.6732866,
            42.2678043
          ],
          [
            22.6733345,
            42.2677392
          ],
          [
            22.6733534,
            42.2677145
          ],
          [
            22.6733756,
            42.2676913
          ],
          [
            22.6734116,
            42.2676619
          ],
          [
            22.6734528,
            42.2676364
          ],
          [
            22.6736087,
            42.267543
          ],
          [
            22.6736288,
            42.2675231
          ],
          [
            22.6736449,
            42.2675013
          ],
          [
            22.6736572,
            42.2674764
          ],
          [
            22.6736642,
            42.2674504
          ],
          [
            22.6736869,
            42.2673045
          ],
          [
            22.6736871,
            42.2672766
          ],
          [
            22.6736814,
            42.2672491
          ],
          [
            22.67367,
            42.2672226
          ],
          [
            22.6736496,
            42.2671934
          ],
          [
            22.6736223,
            42.2671675
          ],
          [
            22.6735891,
            42.2671458
          ],
          [
            22.6732438,
            42.2669089
          ],
          [
            22.6724555,
            42.2663681
          ],
          [
            22.6724225,
            42.2663504
          ],
          [
            22.6723854,
            42.2663378
          ],
          [
            22.6723456,
            42.266331
          ],
          [
            22.6723048,
            42.2663301
          ],
          [
            22.6722626,
            42.2663357
          ],
          [
            22.6722229,
            42.2663477
          ],
          [
            22.6721875,
            42.2663655
          ],
          [
            22.6721579,
            42.2663884
          ],
          [
            22.6721353,
            42.2664154
          ],
          [
            22.6720598,
            42.2665538
          ]
        ]
      }
    }
  ]
}
