{
  "type": "FeatureCollection",
  "bbox": [
    -75.5325147,
    39.1867352,
    -75.5282019,
    39.1925261
  ],
  "metadata": {
    "schemaVersion": 1,
    "trackId": "us-dover-motor-speedway-350676133",
    "layoutId": "main",
    "license": "ODbL-1.0",
    "attribution": "© OpenStreetMap contributors",
    "closed": true,
    "geometryStatus": "draft",
    "timingStatus": "missing",
    "timingMode": "shared",
    "lengthM": 1661.7,
    "reviewedAt": null,
    "notes": [
      "Closed named OSM raceway retained as a course candidate. Named-layout association requires review.",
      "Source way order and shared node IDs are retained. No nearby endpoints are joined and no reference boundaries are read."
    ]
  },
  "features": [
    {
      "type": "Feature",
      "id": "trace",
      "properties": {
        "role": "trace",
        "sourceIds": [
          "osm-snapshot"
        ]
      },
      "geometry": {
        "type": "LineString",
        "coordinates": [
          [
            -75.5316969,
            39.1875234
          ],
          [
            -75.5316305,
            39.1874173
          ],
          [
            -75.5315185,
            39.1872822
          ],
          [
            -75.5313566,
            39.1871438
          ],
          [
            -75.5311366,
            39.1870087
          ],
          [
            -75.5308751,
            39.1868864
          ],
          [
            -75.530626,
            39.186806
          ],
          [
            -75.5305212,
            39.186787
          ],
          [
            -75.530377,
            39.1867609
          ],
          [
            -75.5301445,
            39.1867352
          ],
          [
            -75.5298872,
            39.1867352
          ],
          [
            -75.5295924,
            39.1867674
          ],
          [
            -75.5293268,
            39.1868349
          ],
          [
            -75.5290819,
            39.1869315
          ],
          [
            -75.528866,
            39.1870473
          ],
          [
            -75.5286834,
            39.1871888
          ],
          [
            -75.5285298,
            39.1873368
          ],
          [
            -75.5284094,
            39.1874848
          ],
          [
            -75.528314,
            39.1876457
          ],
          [
            -75.5282434,
            39.187813
          ],
          [
            -75.5282102,
            39.1880028
          ],
          [
            -75.5282019,
            39.1882119
          ],
          [
            -75.5282476,
            39.1884886
          ],
          [
            -75.5285459,
            39.189808
          ],
          [
            -75.5285589,
            39.1898656
          ],
          [
            -75.5288743,
            39.1913358
          ],
          [
            -75.5289117,
            39.1914677
          ],
          [
            -75.5290072,
            39.1916833
          ],
          [
            -75.5291358,
            39.1918892
          ],
          [
            -75.5292273,
            39.191987
          ],
          [
            -75.5293019,
            39.1920565
          ],
          [
            -75.5295136,
            39.1922109
          ],
          [
            -75.5297585,
            39.1923363
          ],
          [
            -75.5300449,
            39.1924393
          ],
          [
            -75.5303313,
            39.1924972
          ],
          [
            -75.5306343,
            39.1925261
          ],
          [
            -75.5309539,
            39.1925133
          ],
          [
            -75.531286,
            39.1924522
          ],
          [
            -75.5316015,
            39.1923363
          ],
          [
            -75.5318837,
            39.1921916
          ],
          [
            -75.5321369,
            39.1919921
          ],
          [
            -75.5323237,
            39.1917701
          ],
          [
            -75.5324317,
            39.1915578
          ],
          [
            -75.5324939,
            39.1913616
          ],
          [
            -75.5325147,
            39.1911364
          ],
          [
            -75.5324898,
            39.1908597
          ],
          [
            -75.5321992,
            39.18956
          ],
          [
            -75.5319086,
            39.1881991
          ],
          [
            -75.5318256,
            39.1878516
          ],
          [
            -75.5317675,
            39.1876811
          ],
          [
            -75.5316969,
            39.1875234
          ]
        ]
      }
    }
  ]
}
