{
  "type": "FeatureCollection",
  "bbox": [
    22.1035125,
    62.0167441,
    22.1134776,
    62.0191323
  ],
  "metadata": {
    "schemaVersion": 1,
    "trackId": "fi-pesamaen-moottoriurheilukeskus-631890399",
    "layoutId": "main",
    "license": "ODbL-1.0",
    "attribution": "© OpenStreetMap contributors",
    "closed": true,
    "geometryStatus": "draft",
    "timingStatus": "missing",
    "timingMode": "shared",
    "lengthM": 1779.2,
    "reviewedAt": null,
    "notes": [
      "Connected OSM course candidate. The selected loop is the longest simple source-node cycle after explicit exclusions; its association with a named circuit configuration requires review.",
      "Source way order and shared node IDs are retained. No nearby endpoints are joined and no reference boundaries are read.",
      "Some source ways lack one-way direction tags. Travel direction is provisional."
    ]
  },
  "features": [
    {
      "type": "Feature",
      "id": "trace",
      "properties": {
        "role": "trace",
        "sourceIds": [
          "osm-snapshot"
        ]
      },
      "geometry": {
        "type": "LineString",
        "coordinates": [
          [
            22.1108847,
            62.0179077
          ],
          [
            22.1118897,
            62.0180902
          ],
          [
            22.112259,
            62.0181215
          ],
          [
            22.1126072,
            62.0181057
          ],
          [
            22.1131021,
            62.018055
          ],
          [
            22.1133594,
            62.0179987
          ],
          [
            22.1134754,
            62.0179213
          ],
          [
            22.1134776,
            62.0178083
          ],
          [
            22.1133735,
            62.0177384
          ],
          [
            22.1131503,
            62.0176825
          ],
          [
            22.1111682,
            62.0174405
          ],
          [
            22.1074115,
            62.0169759
          ],
          [
            22.1055919,
            62.0167538
          ],
          [
            22.1052587,
            62.0167441
          ],
          [
            22.1038217,
            62.016804
          ],
          [
            22.1036208,
            62.0168528
          ],
          [
            22.1035159,
            62.0169501
          ],
          [
            22.1035282,
            62.0171158
          ],
          [
            22.1036594,
            62.017413
          ],
          [
            22.1037672,
            62.0175048
          ],
          [
            22.1039611,
            62.0175667
          ],
          [
            22.1042186,
            62.0175818
          ],
          [
            22.104647,
            62.0175462
          ],
          [
            22.1066755,
            62.0173578
          ],
          [
            22.1068513,
            62.0173683
          ],
          [
            22.1069404,
            62.017407
          ],
          [
            22.1069757,
            62.0174709
          ],
          [
            22.1069384,
            62.017539
          ],
          [
            22.1067988,
            62.017597
          ],
          [
            22.1047494,
            62.0178381
          ],
          [
            22.1041543,
            62.0179091
          ],
          [
            22.1038864,
            62.0179764
          ],
          [
            22.103706,
            62.0180554
          ],
          [
            22.1035758,
            62.0181608
          ],
          [
            22.1035125,
            62.0182888
          ],
          [
            22.1035373,
            62.0184149
          ],
          [
            22.1036401,
            62.0185467
          ],
          [
            22.1038216,
            62.0186414
          ],
          [
            22.1040792,
            62.0187169
          ],
          [
            22.1044362,
            62.0187731
          ],
          [
            22.1050394,
            62.0186893
          ],
          [
            22.1053668,
            62.0186778
          ],
          [
            22.1056702,
            62.0186981
          ],
          [
            22.1058923,
            62.0187446
          ],
          [
            22.1060693,
            62.0188151
          ],
          [
            22.1064019,
            62.0190819
          ],
          [
            22.1067131,
            62.0191297
          ],
          [
            22.1069169,
            62.0191323
          ],
          [
            22.1070936,
            62.0190879
          ],
          [
            22.1071688,
            62.019027
          ],
          [
            22.1072012,
            62.0189511
          ],
          [
            22.1071418,
            62.0188659
          ],
          [
            22.1070395,
            62.0187908
          ],
          [
            22.1065682,
            62.0186012
          ],
          [
            22.1064341,
            62.0185005
          ],
          [
            22.1063934,
            62.0184016
          ],
          [
            22.1064126,
            62.0183067
          ],
          [
            22.1064932,
            62.0182102
          ],
          [
            22.1066737,
            62.0181227
          ],
          [
            22.1072952,
            62.0178913
          ],
          [
            22.1076572,
            62.0177681
          ],
          [
            22.1079486,
            62.0176852
          ],
          [
            22.1082312,
            62.0176297
          ],
          [
            22.1085105,
            62.0176054
          ],
          [
            22.1088535,
            62.017602
          ],
          [
            22.1092438,
            62.0176386
          ],
          [
            22.1100978,
            62.0177705
          ],
          [
            22.1108847,
            62.0179077
          ]
        ]
      }
    }
  ]
}
