{
  "type": "FeatureCollection",
  "bbox": [
    -0.6351732,
    39.4815987,
    -0.626055,
    39.4894395
  ],
  "metadata": {
    "schemaVersion": 1,
    "trackId": "es-valencia",
    "layoutId": "circuit-ricardo-tormo-national",
    "license": "ODbL-1.0",
    "attribution": "© OpenStreetMap contributors",
    "closed": true,
    "geometryStatus": "draft",
    "timingStatus": "missing",
    "timingMode": "shared",
    "lengthM": 3136.9,
    "reviewedAt": null,
    "notes": [
      "Draft configuration: National shortcut omitting the western long infield hairpin; retains the pointed eastern turn and small western notch. Branch identity was checked against catalogue layout facts and circuit identification references. Independent source distance 3136.9 m; no coordinates are changed to match a diagram or distance. Travel direction and historical alignment remain provisional."
    ]
  },
  "features": [
    {
      "type": "Feature",
      "id": "trace",
      "properties": {
        "role": "trace",
        "sourceIds": [
          "osm-selection-51765216"
        ]
      },
      "geometry": {
        "type": "LineString",
        "coordinates": [
          [
            -0.6338733,
            39.4843144
          ],
          [
            -0.6338439,
            39.4843924
          ],
          [
            -0.6338471,
            39.4844683
          ],
          [
            -0.6338725,
            39.4845595
          ],
          [
            -0.6339421,
            39.4846424
          ],
          [
            -0.634061,
            39.4847752
          ],
          [
            -0.6341213,
            39.4848699
          ],
          [
            -0.6341304,
            39.4849556
          ],
          [
            -0.6340958,
            39.4850461
          ],
          [
            -0.6336516,
            39.4856396
          ],
          [
            -0.6327994,
            39.4867857
          ],
          [
            -0.6326989,
            39.4869036
          ],
          [
            -0.6325803,
            39.4869839
          ],
          [
            -0.629904,
            39.4884264
          ],
          [
            -0.6297778,
            39.4884782
          ],
          [
            -0.6296602,
            39.4885155
          ],
          [
            -0.6295961,
            39.4885253
          ],
          [
            -0.6295384,
            39.4885269
          ],
          [
            -0.6294639,
            39.48852
          ],
          [
            -0.6293978,
            39.4885033
          ],
          [
            -0.629302,
            39.4884504
          ],
          [
            -0.6291919,
            39.4883895
          ],
          [
            -0.629123,
            39.4883031
          ],
          [
            -0.6291015,
            39.4882018
          ],
          [
            -0.6290846,
            39.4864345
          ],
          [
            -0.629013,
            39.4862335
          ],
          [
            -0.6288869,
            39.4861172
          ],
          [
            -0.6287773,
            39.4860515
          ],
          [
            -0.6286203,
            39.486012
          ],
          [
            -0.6284677,
            39.4860044
          ],
          [
            -0.6282512,
            39.4860485
          ],
          [
            -0.6273397,
            39.4865396
          ],
          [
            -0.6271883,
            39.4866278
          ],
          [
            -0.6271338,
            39.4866877
          ],
          [
            -0.6270987,
            39.4867618
          ],
          [
            -0.6271089,
            39.4868483
          ],
          [
            -0.6271537,
            39.4869314
          ],
          [
            -0.628128,
            39.4878436
          ],
          [
            -0.628203,
            39.4879144
          ],
          [
            -0.6282516,
            39.488011
          ],
          [
            -0.6282496,
            39.4881297
          ],
          [
            -0.628023,
            39.4892204
          ],
          [
            -0.6279874,
            39.4892813
          ],
          [
            -0.6279446,
            39.4893358
          ],
          [
            -0.6279005,
            39.489372
          ],
          [
            -0.6278413,
            39.4894023
          ],
          [
            -0.6277847,
            39.4894264
          ],
          [
            -0.627719,
            39.4894374
          ],
          [
            -0.6276569,
            39.4894395
          ],
          [
            -0.6275879,
            39.4894254
          ],
          [
            -0.6275134,
            39.4893999
          ],
          [
            -0.6274551,
            39.4893702
          ],
          [
            -0.6274189,
            39.4893401
          ],
          [
            -0.6273896,
            39.4893015
          ],
          [
            -0.6273613,
            39.4892661
          ],
          [
            -0.6262367,
            39.4870709
          ],
          [
            -0.6260972,
            39.4867563
          ],
          [
            -0.6260661,
            39.4866626
          ],
          [
            -0.6260561,
            39.4865872
          ],
          [
            -0.626055,
            39.4865186
          ],
          [
            -0.6260638,
            39.4864429
          ],
          [
            -0.6260901,
            39.4863671
          ],
          [
            -0.6261253,
            39.4862971
          ],
          [
            -0.6261795,
            39.4862214
          ],
          [
            -0.6262627,
            39.4861432
          ],
          [
            -0.626372,
            39.4860633
          ],
          [
            -0.6285406,
            39.4848991
          ],
          [
            -0.6306258,
            39.4837865
          ],
          [
            -0.6310722,
            39.4835483
          ],
          [
            -0.6328917,
            39.4825774
          ],
          [
            -0.6329364,
            39.4825531
          ],
          [
            -0.6329535,
            39.4825413
          ],
          [
            -0.6329792,
            39.4825265
          ],
          [
            -0.6330085,
            39.4825086
          ],
          [
            -0.6330416,
            39.4824903
          ],
          [
            -0.6330679,
            39.4824755
          ],
          [
            -0.6331087,
            39.482454
          ],
          [
            -0.6331517,
            39.4824312
          ],
          [
            -0.6331991,
            39.482406
          ],
          [
            -0.633237,
            39.4823849
          ],
          [
            -0.6332517,
            39.4823775
          ],
          [
            -0.6332902,
            39.4823568
          ],
          [
            -0.6333557,
            39.4823216
          ],
          [
            -0.6339693,
            39.4819917
          ],
          [
            -0.6346232,
            39.4816402
          ],
          [
            -0.6347062,
            39.4816022
          ],
          [
            -0.6348082,
            39.4815987
          ],
          [
            -0.6348935,
            39.481626
          ],
          [
            -0.6350206,
            39.4817055
          ],
          [
            -0.635081,
            39.4817978
          ],
          [
            -0.6351153,
            39.4819634
          ],
          [
            -0.6351732,
            39.4823762
          ],
          [
            -0.6351657,
            39.4825326
          ],
          [
            -0.6351512,
            39.4827054
          ],
          [
            -0.6350842,
            39.4829898
          ],
          [
            -0.6350032,
            39.4832372
          ],
          [
            -0.6348487,
            39.483491
          ],
          [
            -0.6346963,
            39.4836676
          ],
          [
            -0.634571,
            39.4838183
          ],
          [
            -0.6344347,
            39.483946
          ],
          [
            -0.6341846,
            39.4841334
          ],
          [
            -0.6338733,
            39.4843144
          ]
        ]
      }
    }
  ]
}
