{
  "type": "FeatureCollection",
  "bbox": [
    -0.6351732,
    39.4815987,
    -0.626055,
    39.4894395
  ],
  "metadata": {
    "schemaVersion": 1,
    "trackId": "es-valencia",
    "layoutId": "grand-prix",
    "license": "ODbL-1.0",
    "attribution": "© OpenStreetMap contributors",
    "closed": true,
    "geometryStatus": "draft",
    "timingStatus": "missing",
    "timingMode": "shared",
    "lengthM": 3999.8,
    "reviewedAt": null,
    "notes": [
      "Complete main loop on ways 1336518434, 51765219 and 1007068425. Formula E connectors, Shortcut 1, pit lane and MotoGP long-lap detour are excluded. Route order is counterclockwise; OSM direction tags are absent.",
      "Approximate OSM raceway trace; geometry is a draft pending independent layout review.",
      "Some selected OSM ways have no one-way direction tag. The displayed route order is provisional."
    ]
  },
  "features": [
    {
      "type": "Feature",
      "id": "trace",
      "properties": {
        "role": "trace",
        "sourceIds": [
          "osm-snapshot"
        ]
      },
      "geometry": {
        "type": "LineString",
        "coordinates": [
          [
            -0.6325958,
            39.4845782
          ],
          [
            -0.6327445,
            39.4845682
          ],
          [
            -0.6330444,
            39.4845466
          ],
          [
            -0.6333811,
            39.4844816
          ],
          [
            -0.6335918,
            39.4844226
          ],
          [
            -0.6338733,
            39.4843144
          ],
          [
            -0.6341846,
            39.4841334
          ],
          [
            -0.6344347,
            39.483946
          ],
          [
            -0.634571,
            39.4838183
          ],
          [
            -0.6346963,
            39.4836676
          ],
          [
            -0.6348487,
            39.483491
          ],
          [
            -0.6350032,
            39.4832372
          ],
          [
            -0.6350842,
            39.4829898
          ],
          [
            -0.6351512,
            39.4827054
          ],
          [
            -0.6351657,
            39.4825326
          ],
          [
            -0.6351732,
            39.4823762
          ],
          [
            -0.6351153,
            39.4819634
          ],
          [
            -0.635081,
            39.4817978
          ],
          [
            -0.6350206,
            39.4817055
          ],
          [
            -0.6348935,
            39.481626
          ],
          [
            -0.6348082,
            39.4815987
          ],
          [
            -0.6347062,
            39.4816022
          ],
          [
            -0.6346232,
            39.4816402
          ],
          [
            -0.6339693,
            39.4819917
          ],
          [
            -0.6333557,
            39.4823216
          ],
          [
            -0.6332902,
            39.4823568
          ],
          [
            -0.6332517,
            39.4823775
          ],
          [
            -0.633237,
            39.4823849
          ],
          [
            -0.6331991,
            39.482406
          ],
          [
            -0.6331517,
            39.4824312
          ],
          [
            -0.6331087,
            39.482454
          ],
          [
            -0.6330679,
            39.4824755
          ],
          [
            -0.6330416,
            39.4824903
          ],
          [
            -0.6330085,
            39.4825086
          ],
          [
            -0.6329792,
            39.4825265
          ],
          [
            -0.6329535,
            39.4825413
          ],
          [
            -0.6329364,
            39.4825531
          ],
          [
            -0.6328917,
            39.4825774
          ],
          [
            -0.6310722,
            39.4835483
          ],
          [
            -0.6306258,
            39.4837865
          ],
          [
            -0.6285406,
            39.4848991
          ],
          [
            -0.626372,
            39.4860633
          ],
          [
            -0.6262627,
            39.4861432
          ],
          [
            -0.6261795,
            39.4862214
          ],
          [
            -0.6261253,
            39.4862971
          ],
          [
            -0.6260901,
            39.4863671
          ],
          [
            -0.6260638,
            39.4864429
          ],
          [
            -0.626055,
            39.4865186
          ],
          [
            -0.6260561,
            39.4865872
          ],
          [
            -0.6260661,
            39.4866626
          ],
          [
            -0.6260972,
            39.4867563
          ],
          [
            -0.6262367,
            39.4870709
          ],
          [
            -0.6273613,
            39.4892661
          ],
          [
            -0.6273896,
            39.4893015
          ],
          [
            -0.6274189,
            39.4893401
          ],
          [
            -0.6274551,
            39.4893702
          ],
          [
            -0.6275134,
            39.4893999
          ],
          [
            -0.6275879,
            39.4894254
          ],
          [
            -0.6276569,
            39.4894395
          ],
          [
            -0.627719,
            39.4894374
          ],
          [
            -0.6277847,
            39.4894264
          ],
          [
            -0.6278413,
            39.4894023
          ],
          [
            -0.6279005,
            39.489372
          ],
          [
            -0.6279446,
            39.4893358
          ],
          [
            -0.6279874,
            39.4892813
          ],
          [
            -0.628023,
            39.4892204
          ],
          [
            -0.6282496,
            39.4881297
          ],
          [
            -0.6282516,
            39.488011
          ],
          [
            -0.628203,
            39.4879144
          ],
          [
            -0.628128,
            39.4878436
          ],
          [
            -0.6271537,
            39.4869314
          ],
          [
            -0.6271089,
            39.4868483
          ],
          [
            -0.6270987,
            39.4867618
          ],
          [
            -0.6271338,
            39.4866877
          ],
          [
            -0.6271883,
            39.4866278
          ],
          [
            -0.6273397,
            39.4865396
          ],
          [
            -0.6282512,
            39.4860485
          ],
          [
            -0.6284677,
            39.4860044
          ],
          [
            -0.6286203,
            39.486012
          ],
          [
            -0.6287773,
            39.4860515
          ],
          [
            -0.6288869,
            39.4861172
          ],
          [
            -0.629013,
            39.4862335
          ],
          [
            -0.6290846,
            39.4864345
          ],
          [
            -0.6291015,
            39.4882018
          ],
          [
            -0.629123,
            39.4883031
          ],
          [
            -0.6291919,
            39.4883895
          ],
          [
            -0.629302,
            39.4884504
          ],
          [
            -0.6293978,
            39.4885033
          ],
          [
            -0.6294639,
            39.48852
          ],
          [
            -0.6295384,
            39.4885269
          ],
          [
            -0.6295961,
            39.4885253
          ],
          [
            -0.6296602,
            39.4885155
          ],
          [
            -0.6297778,
            39.4884782
          ],
          [
            -0.629904,
            39.4884264
          ],
          [
            -0.6325803,
            39.4869839
          ],
          [
            -0.6326989,
            39.4869036
          ],
          [
            -0.6327994,
            39.4867857
          ],
          [
            -0.6336516,
            39.4856396
          ],
          [
            -0.6336594,
            39.4854883
          ],
          [
            -0.6336355,
            39.485344
          ],
          [
            -0.6335538,
            39.4852271
          ],
          [
            -0.6334566,
            39.4851409
          ],
          [
            -0.6333346,
            39.4850804
          ],
          [
            -0.6331718,
            39.485036
          ],
          [
            -0.6330396,
            39.4850384
          ],
          [
            -0.6329148,
            39.485054
          ],
          [
            -0.6328018,
            39.4851019
          ],
          [
            -0.6325701,
            39.4852227
          ],
          [
            -0.6323472,
            39.4853442
          ],
          [
            -0.632196,
            39.4854266
          ],
          [
            -0.6318505,
            39.4856086
          ],
          [
            -0.6317482,
            39.4856659
          ],
          [
            -0.6316196,
            39.485788
          ],
          [
            -0.6315595,
            39.4858997
          ],
          [
            -0.6313795,
            39.4866121
          ],
          [
            -0.6313511,
            39.4867051
          ],
          [
            -0.6312888,
            39.4867901
          ],
          [
            -0.6312172,
            39.4868645
          ],
          [
            -0.6311225,
            39.4869313
          ],
          [
            -0.6305325,
            39.4872737
          ],
          [
            -0.6303876,
            39.4873056
          ],
          [
            -0.6302313,
            39.487311
          ],
          [
            -0.6301924,
            39.4873016
          ],
          [
            -0.6301127,
            39.4872822
          ],
          [
            -0.630018,
            39.4872246
          ],
          [
            -0.6299534,
            39.4871491
          ],
          [
            -0.629908,
            39.4870659
          ],
          [
            -0.6299019,
            39.4869512
          ],
          [
            -0.6299465,
            39.4868421
          ],
          [
            -0.6309487,
            39.4855534
          ],
          [
            -0.6316724,
            39.4846227
          ],
          [
            -0.6317333,
            39.4845677
          ],
          [
            -0.6318229,
            39.484529
          ],
          [
            -0.6325432,
            39.4845748
          ],
          [
            -0.6325958,
            39.4845782
          ]
        ]
      }
    }
  ]
}
