{
  "type": "FeatureCollection",
  "bbox": [
    3.2991672,
    49.5427976,
    3.3083439,
    49.5491008
  ],
  "metadata": {
    "schemaVersion": 1,
    "trackId": "fr-circuit-de-folembray-113756422",
    "layoutId": "main",
    "license": "ODbL-1.0",
    "attribution": "© OpenStreetMap contributors",
    "closed": true,
    "geometryStatus": "draft",
    "timingStatus": "missing",
    "timingMode": "shared",
    "lengthM": 2029.2,
    "reviewedAt": null,
    "notes": [
      "Closed named OSM raceway retained as a course candidate. Named-layout association requires review.",
      "Source way order and shared node IDs are retained. No nearby endpoints are joined and no reference boundaries are read.",
      "Draft association of the supplied venue-level entry to the existing independently mapped full course at Circuit de Folembray. This venue has one supplied entry and one retained independent course, with a timing point on that course. Source trace distance 2029.2 m; supplied distance 2030 m. The association preserves the independent source geometry and remains provisional where corner configurations or historical distances differ."
    ]
  },
  "features": [
    {
      "type": "Feature",
      "id": "trace",
      "properties": {
        "role": "trace",
        "sourceIds": [
          "osm-snapshot"
        ]
      },
      "geometry": {
        "type": "LineString",
        "coordinates": [
          [
            3.2999101,
            49.5437182
          ],
          [
            3.3012162,
            49.5443942
          ],
          [
            3.3014496,
            49.5445189
          ],
          [
            3.3017006,
            49.5446515
          ],
          [
            3.3024618,
            49.5450487
          ],
          [
            3.3026537,
            49.5451568
          ],
          [
            3.3027432,
            49.5452174
          ],
          [
            3.3028326,
            49.5452884
          ],
          [
            3.3028728,
            49.5453249
          ],
          [
            3.3029085,
            49.5453622
          ],
          [
            3.3038295,
            49.5466504
          ],
          [
            3.3040457,
            49.5469387
          ],
          [
            3.3040768,
            49.5469766
          ],
          [
            3.3042697,
            49.5471652
          ],
          [
            3.3044546,
            49.5473266
          ],
          [
            3.3049347,
            49.5476086
          ],
          [
            3.3050218,
            49.5476582
          ],
          [
            3.3051869,
            49.5477443
          ],
          [
            3.3061311,
            49.5482132
          ],
          [
            3.3062171,
            49.5482488
          ],
          [
            3.30628,
            49.5482699
          ],
          [
            3.3063437,
            49.5482779
          ],
          [
            3.3063886,
            49.5482737
          ],
          [
            3.3064985,
            49.5482542
          ],
          [
            3.3066904,
            49.548238
          ],
          [
            3.3068246,
            49.5482422
          ],
          [
            3.3069035,
            49.5482542
          ],
          [
            3.3070214,
            49.5482905
          ],
          [
            3.3071047,
            49.5483265
          ],
          [
            3.3071732,
            49.5483699
          ],
          [
            3.3074105,
            49.5485814
          ],
          [
            3.307973,
            49.5490355
          ],
          [
            3.3080144,
            49.5490663
          ],
          [
            3.3080678,
            49.5490901
          ],
          [
            3.3081199,
            49.5491008
          ],
          [
            3.3081991,
            49.5490946
          ],
          [
            3.308242,
            49.5490821
          ],
          [
            3.3082742,
            49.5490678
          ],
          [
            3.3083171,
            49.549043
          ],
          [
            3.3083385,
            49.5490147
          ],
          [
            3.3083439,
            49.5489877
          ],
          [
            3.3083426,
            49.5489493
          ],
          [
            3.3083245,
            49.5488976
          ],
          [
            3.3083063,
            49.5488546
          ],
          [
            3.3081548,
            49.5485822
          ],
          [
            3.3079536,
            49.5482446
          ],
          [
            3.3079148,
            49.5482033
          ],
          [
            3.3078759,
            49.5481741
          ],
          [
            3.3078291,
            49.548147
          ],
          [
            3.3077739,
            49.5481246
          ],
          [
            3.3074158,
            49.5480471
          ],
          [
            3.3067261,
            49.5479028
          ],
          [
            3.3066071,
            49.5478727
          ],
          [
            3.3065186,
            49.547847
          ],
          [
            3.3063377,
            49.5477808
          ],
          [
            3.3062263,
            49.5477304
          ],
          [
            3.3060712,
            49.5476524
          ],
          [
            3.3059594,
            49.5475842
          ],
          [
            3.3058489,
            49.547502
          ],
          [
            3.3049243,
            49.5468281
          ],
          [
            3.3045375,
            49.5465656
          ],
          [
            3.3044949,
            49.5465365
          ],
          [
            3.3044262,
            49.546473
          ],
          [
            3.3043868,
            49.5464285
          ],
          [
            3.3043569,
            49.5463757
          ],
          [
            3.3043408,
            49.546322
          ],
          [
            3.304342,
            49.5462312
          ],
          [
            3.3043931,
            49.5459865
          ],
          [
            3.3043903,
            49.5459458
          ],
          [
            3.3043794,
            49.5459051
          ],
          [
            3.3043483,
            49.5458546
          ],
          [
            3.3034639,
            49.5448595
          ],
          [
            3.3033685,
            49.5447716
          ],
          [
            3.303273,
            49.5446905
          ],
          [
            3.3031762,
            49.5446196
          ],
          [
            3.299994,
            49.5428585
          ],
          [
            3.2999138,
            49.5428249
          ],
          [
            3.2998414,
            49.5428073
          ],
          [
            3.2997619,
            49.5427976
          ],
          [
            3.2996793,
            49.5427979
          ],
          [
            3.2995928,
            49.5428123
          ],
          [
            3.2995369,
            49.5428282
          ],
          [
            3.2994695,
            49.5428528
          ],
          [
            3.2994175,
            49.5428874
          ],
          [
            3.2993776,
            49.5429255
          ],
          [
            3.2993561,
            49.5429566
          ],
          [
            3.2992807,
            49.5431115
          ],
          [
            3.2992399,
            49.5432188
          ],
          [
            3.299168,
            49.5434077
          ],
          [
            3.2991672,
            49.5434544
          ],
          [
            3.2991815,
            49.5434948
          ],
          [
            3.299203,
            49.5435312
          ],
          [
            3.2992338,
            49.5435696
          ],
          [
            3.2993009,
            49.5436157
          ],
          [
            3.2993398,
            49.5436377
          ],
          [
            3.299388,
            49.5436557
          ],
          [
            3.2994435,
            49.543668
          ],
          [
            3.2995114,
            49.5436784
          ],
          [
            3.2995497,
            49.5436791
          ],
          [
            3.2996321,
            49.543674
          ],
          [
            3.2997047,
            49.5436755
          ],
          [
            3.2997796,
            49.5436826
          ],
          [
            3.2998688,
            49.5437029
          ],
          [
            3.2999101,
            49.5437182
          ]
        ]
      }
    }
  ]
}
