{
  "type": "FeatureCollection",
  "bbox": [
    115.7862155,
    -31.666474,
    115.794687,
    -31.6618716
  ],
  "metadata": {
    "schemaVersion": 1,
    "trackId": "au-wanneroo-raceway-44191932",
    "layoutId": "main",
    "license": "ODbL-1.0",
    "attribution": "© OpenStreetMap contributors",
    "closed": true,
    "geometryStatus": "draft",
    "timingStatus": "missing",
    "timingMode": "shared",
    "lengthM": 2469.6,
    "reviewedAt": null,
    "notes": [
      "Connected OSM course candidate. The selected loop is the longest simple source-node cycle after explicit exclusions; its association with a named circuit configuration requires review.",
      "Source way order and shared node IDs are retained. No nearby endpoints are joined and no reference boundaries are read.",
      "Draft association of the supplied venue-level entry to the existing independently mapped full course at Wanneroo Raceway. This venue has one supplied entry and one retained independent course, with a timing point on that course. Source trace distance 2469.6 m; supplied distance 2467 m. The association preserves the independent source geometry and remains provisional where corner configurations or historical distances differ."
    ]
  },
  "features": [
    {
      "type": "Feature",
      "id": "trace",
      "properties": {
        "role": "trace",
        "sourceIds": [
          "osm-snapshot"
        ]
      },
      "geometry": {
        "type": "LineString",
        "coordinates": [
          [
            115.7863872,
            -31.6662183
          ],
          [
            115.7862584,
            -31.6659115
          ],
          [
            115.7862155,
            -31.6656851
          ],
          [
            115.7862413,
            -31.6655243
          ],
          [
            115.786267,
            -31.6652906
          ],
          [
            115.7862155,
            -31.665181
          ],
          [
            115.7862155,
            -31.6651298
          ],
          [
            115.786267,
            -31.6649984
          ],
          [
            115.7863185,
            -31.663004
          ],
          [
            115.7863786,
            -31.662814
          ],
          [
            115.7864044,
            -31.6623538
          ],
          [
            115.7864902,
            -31.6622223
          ],
          [
            115.7866189,
            -31.6620543
          ],
          [
            115.7867734,
            -31.6619301
          ],
          [
            115.7869623,
            -31.6618716
          ],
          [
            115.7871597,
            -31.6618862
          ],
          [
            115.7873399,
            -31.6619666
          ],
          [
            115.7875202,
            -31.6621127
          ],
          [
            115.7876489,
            -31.6623465
          ],
          [
            115.7876918,
            -31.6625656
          ],
          [
            115.7877261,
            -31.6628579
          ],
          [
            115.7878034,
            -31.663099
          ],
          [
            115.7880351,
            -31.6634204
          ],
          [
            115.7881725,
            -31.6636907
          ],
          [
            115.7882326,
            -31.6639245
          ],
          [
            115.788238,
            -31.664123
          ],
          [
            115.7882154,
            -31.6642897
          ],
          [
            115.7881296,
            -31.6645893
          ],
          [
            115.7880866,
            -31.6648522
          ],
          [
            115.7881234,
            -31.6650588
          ],
          [
            115.7882088,
            -31.6651982
          ],
          [
            115.7882755,
            -31.6652979
          ],
          [
            115.7884986,
            -31.6654586
          ],
          [
            115.7887561,
            -31.6655389
          ],
          [
            115.7890823,
            -31.665517
          ],
          [
            115.7894084,
            -31.6654001
          ],
          [
            115.7896831,
            -31.6651737
          ],
          [
            115.7899663,
            -31.664918
          ],
          [
            115.790081,
            -31.6648483
          ],
          [
            115.7902238,
            -31.6647865
          ],
          [
            115.7904727,
            -31.6647427
          ],
          [
            115.790653,
            -31.66475
          ],
          [
            115.7936563,
            -31.6649527
          ],
          [
            115.7938888,
            -31.664991
          ],
          [
            115.7942009,
            -31.6650734
          ],
          [
            115.794481,
            -31.6652394
          ],
          [
            115.7946355,
            -31.6654221
          ],
          [
            115.794687,
            -31.6656558
          ],
          [
            115.7946624,
            -31.6657767
          ],
          [
            115.7946098,
            -31.6658896
          ],
          [
            115.7945115,
            -31.6660114
          ],
          [
            115.7944038,
            -31.6661015
          ],
          [
            115.7942336,
            -31.666208
          ],
          [
            115.7940261,
            -31.6662987
          ],
          [
            115.7937994,
            -31.6663648
          ],
          [
            115.7935541,
            -31.6664229
          ],
          [
            115.7931421,
            -31.6664667
          ],
          [
            115.7915113,
            -31.6664667
          ],
          [
            115.7899148,
            -31.6664594
          ],
          [
            115.7888976,
            -31.6664645
          ],
          [
            115.7869794,
            -31.666474
          ],
          [
            115.7866962,
            -31.6664448
          ],
          [
            115.7865785,
            -31.6664083
          ],
          [
            115.7865074,
            -31.6663717
          ],
          [
            115.7863872,
            -31.6662183
          ]
        ]
      }
    }
  ]
}
