{
  "type": "FeatureCollection",
  "bbox": [
    145.1642725,
    -37.9566188,
    145.1704555,
    -37.9450117
  ],
  "metadata": {
    "schemaVersion": 1,
    "trackId": "au-sandown-international-raceway-25927060",
    "layoutId": "main",
    "license": "ODbL-1.0",
    "attribution": "© OpenStreetMap contributors",
    "closed": true,
    "geometryStatus": "draft",
    "timingStatus": "missing",
    "timingMode": "shared",
    "lengthM": 3153.9,
    "reviewedAt": null,
    "notes": [
      "Connected OSM course candidate. The selected loop is the longest simple source-node cycle after explicit exclusions; its association with a named circuit configuration requires review.",
      "Source way order and shared node IDs are retained. No nearby endpoints are joined and no reference boundaries are read."
    ]
  },
  "features": [
    {
      "type": "Feature",
      "id": "trace",
      "properties": {
        "role": "trace",
        "sourceIds": [
          "osm-snapshot"
        ]
      },
      "geometry": {
        "type": "LineString",
        "coordinates": [
          [
            145.1696361,
            -37.9503894
          ],
          [
            145.1696431,
            -37.9503627
          ],
          [
            145.1701848,
            -37.9484011
          ],
          [
            145.1704179,
            -37.9475414
          ],
          [
            145.1704474,
            -37.9473943
          ],
          [
            145.1704555,
            -37.9472472
          ],
          [
            145.1704483,
            -37.947131
          ],
          [
            145.1704303,
            -37.9470147
          ],
          [
            145.1704109,
            -37.9469217
          ],
          [
            145.1703807,
            -37.9468245
          ],
          [
            145.170341,
            -37.9467345
          ],
          [
            145.1702852,
            -37.9466529
          ],
          [
            145.1701375,
            -37.9464826
          ],
          [
            145.1698465,
            -37.9461983
          ],
          [
            145.1697958,
            -37.9461392
          ],
          [
            145.1697612,
            -37.9460675
          ],
          [
            145.169736,
            -37.9459419
          ],
          [
            145.1696993,
            -37.9457691
          ],
          [
            145.169683,
            -37.9457156
          ],
          [
            145.1696676,
            -37.9456787
          ],
          [
            145.1696508,
            -37.9456501
          ],
          [
            145.1696354,
            -37.9456241
          ],
          [
            145.1695916,
            -37.9455655
          ],
          [
            145.1691692,
            -37.9450957
          ],
          [
            145.1691308,
            -37.9450586
          ],
          [
            145.1690901,
            -37.9450251
          ],
          [
            145.1690416,
            -37.9450122
          ],
          [
            145.1689909,
            -37.9450117
          ],
          [
            145.168938,
            -37.9450286
          ],
          [
            145.1688851,
            -37.9450527
          ],
          [
            145.1681526,
            -37.9455755
          ],
          [
            145.1680404,
            -37.9456594
          ],
          [
            145.1679785,
            -37.9457159
          ],
          [
            145.1678999,
            -37.9457877
          ],
          [
            145.167827,
            -37.9458543
          ],
          [
            145.1676808,
            -37.9459905
          ],
          [
            145.1675866,
            -37.9460585
          ],
          [
            145.1674766,
            -37.9461264
          ],
          [
            145.1669757,
            -37.9463833
          ],
          [
            145.1657461,
            -37.9470157
          ],
          [
            145.1656974,
            -37.9470341
          ],
          [
            145.165642,
            -37.9470472
          ],
          [
            145.1656056,
            -37.9470536
          ],
          [
            145.1655646,
            -37.9470528
          ],
          [
            145.165507,
            -37.9470429
          ],
          [
            145.1654494,
            -37.9470276
          ],
          [
            145.1650365,
            -37.9468944
          ],
          [
            145.1649891,
            -37.9468888
          ],
          [
            145.1649457,
            -37.9468981
          ],
          [
            145.1648996,
            -37.946921
          ],
          [
            145.1648799,
            -37.9469381
          ],
          [
            145.1648616,
            -37.9469535
          ],
          [
            145.1647775,
            -37.9470917
          ],
          [
            145.1645151,
            -37.9476084
          ],
          [
            145.1644201,
            -37.9477921
          ],
          [
            145.164347,
            -37.9479341
          ],
          [
            145.1643117,
            -37.9480418
          ],
          [
            145.1642878,
            -37.9481494
          ],
          [
            145.1642764,
            -37.9482517
          ],
          [
            145.1642725,
            -37.948354
          ],
          [
            145.1643261,
            -37.949332
          ],
          [
            145.1643735,
            -37.9501969
          ],
          [
            145.1644818,
            -37.9525309
          ],
          [
            145.164487,
            -37.9526388
          ],
          [
            145.1645504,
            -37.9539623
          ],
          [
            145.1646146,
            -37.9553035
          ],
          [
            145.1646181,
            -37.9553768
          ],
          [
            145.1646323,
            -37.9554442
          ],
          [
            145.1646555,
            -37.9555116
          ],
          [
            145.1647201,
            -37.9555831
          ],
          [
            145.1647938,
            -37.9556368
          ],
          [
            145.1648625,
            -37.9556734
          ],
          [
            145.1649447,
            -37.9557099
          ],
          [
            145.167009,
            -37.9560183
          ],
          [
            145.1672045,
            -37.9560589
          ],
          [
            145.1672804,
            -37.9560803
          ],
          [
            145.1673562,
            -37.956116
          ],
          [
            145.1673902,
            -37.9561466
          ],
          [
            145.1674061,
            -37.9561772
          ],
          [
            145.167441,
            -37.9563016
          ],
          [
            145.167498,
            -37.9564136
          ],
          [
            145.1675439,
            -37.9564577
          ],
          [
            145.1675989,
            -37.9564982
          ],
          [
            145.1676808,
            -37.956531
          ],
          [
            145.1677492,
            -37.9565425
          ],
          [
            145.1684359,
            -37.9566169
          ],
          [
            145.1685135,
            -37.9566188
          ],
          [
            145.1685776,
            -37.95661
          ],
          [
            145.1686756,
            -37.9565838
          ],
          [
            145.1687135,
            -37.9565578
          ],
          [
            145.1687424,
            -37.9565211
          ],
          [
            145.1687555,
            -37.9564718
          ],
          [
            145.1687637,
            -37.9564183
          ],
          [
            145.1686462,
            -37.9543183
          ],
          [
            145.1686352,
            -37.9541845
          ],
          [
            145.1686383,
            -37.9541087
          ],
          [
            145.1686549,
            -37.9540372
          ],
          [
            145.1687008,
            -37.9538785
          ],
          [
            145.1690078,
            -37.9527915
          ],
          [
            145.1696361,
            -37.9503894
          ]
        ]
      }
    }
  ]
}
