{
  "type": "FeatureCollection",
  "bbox": [
    116.9828059,
    39.3789797,
    116.9947407,
    39.3842268
  ],
  "metadata": {
    "schemaVersion": 1,
    "trackId": "cn-v1-auto-world-0a184784",
    "layoutId": "v1-auto-world-4-3",
    "license": "ODbL-1.0",
    "attribution": "Contains modified Copernicus Sentinel data 2026; independent centerline digitization by OpenRacetrackDB; © OpenStreetMap contributors, ODbL-1.0",
    "closed": true,
    "geometryStatus": "draft",
    "timingStatus": "missing",
    "timingMode": "shared",
    "lengthM": 4278.5,
    "reviewedAt": null,
    "notes": [
      "The venue operator identifies its 4.29 km international course with the permanent northern circuit, full western street return, small inner U return and long southeastern divided-road extension. The operator plan and independently published 2023 full-course event map identify these branches only. Exact pinned public OSM raceway and street nodes supply the mapped parts; licensed September 2026 satellite imagery locates the three missing course connections and the complete western hairpin. The short permanent-course return, intermediate western street U-turn, pit lane and surrounding civilian junction alternatives are excluded. The independent draft measures 4,278.5 m against the supplied 4,287 m scalar. Temporary race barriers, lane selection and historical street changes remain unverified. No points are moved to match either distance. Native satellite ground resolution is 10 m. Nearest-neighbor rendering does not add resolution. Fine corner alignment and historical direction remain draft; no vertices are fitted to private diagrams, timing positions or nominal distance. Independently digitized aerial centerline: 4278.5 m. Direction, historical configuration and fine corner alignment remain draft; no course coordinates come from the comparison catalogue."
    ]
  },
  "features": [
    {
      "type": "Feature",
      "id": "trace",
      "properties": {
        "role": "trace",
        "sourceIds": [
          "copernicus-sentinel-v1-auto-world-current-independent-roads"
        ]
      },
      "geometry": {
        "type": "LineString",
        "coordinates": [
          [
            116.9884067,
            39.38231
          ],
          [
            116.9883728,
            39.3826054
          ],
          [
            116.988339,
            39.3829008
          ],
          [
            116.9883051,
            39.3831962
          ],
          [
            116.9883091,
            39.3833218
          ],
          [
            116.9883376,
            39.3834947
          ],
          [
            116.9884006,
            39.3838042
          ],
          [
            116.9884636,
            39.3841137
          ],
          [
            116.9885124,
            39.384208
          ],
          [
            116.9885897,
            39.3842268
          ],
          [
            116.9889904,
            39.3841756
          ],
          [
            116.9893912,
            39.3841245
          ],
          [
            116.9897919,
            39.3840733
          ],
          [
            116.9901926,
            39.3840221
          ],
          [
            116.9905933,
            39.3839709
          ],
          [
            116.9909941,
            39.3839198
          ],
          [
            116.9913948,
            39.3838686
          ],
          [
            116.9917932,
            39.3838162
          ],
          [
            116.9921917,
            39.3837639
          ],
          [
            116.9925901,
            39.3837115
          ],
          [
            116.9927161,
            39.3836738
          ],
          [
            116.9927771,
            39.3836141
          ],
          [
            116.9927852,
            39.3834444
          ],
          [
            116.9928055,
            39.3833753
          ],
          [
            116.9928421,
            39.3833376
          ],
          [
            116.9929112,
            39.3833093
          ],
          [
            116.9929885,
            39.3833093
          ],
          [
            116.9933544,
            39.3833407
          ],
          [
            116.9937203,
            39.3833721
          ],
          [
            116.9940862,
            39.3834036
          ],
          [
            116.9944521,
            39.383435
          ],
          [
            116.9945578,
            39.3834193
          ],
          [
            116.994635,
            39.3833847
          ],
          [
            116.9947041,
            39.3833313
          ],
          [
            116.9947407,
            39.3832401
          ],
          [
            116.9947285,
            39.3831459
          ],
          [
            116.9946925,
            39.3830511
          ],
          [
            116.9946472,
            39.3829322
          ],
          [
            116.9945659,
            39.3828097
          ],
          [
            116.9944683,
            39.3827531
          ],
          [
            116.9943911,
            39.3827468
          ],
          [
            116.9939741,
            39.3828002
          ],
          [
            116.993557,
            39.3828536
          ],
          [
            116.9931399,
            39.3829071
          ],
          [
            116.9927229,
            39.3829605
          ],
          [
            116.9923059,
            39.3830139
          ],
          [
            116.9918888,
            39.3830673
          ],
          [
            116.9914717,
            39.3831207
          ],
          [
            116.9910547,
            39.3831741
          ],
          [
            116.9906377,
            39.3832276
          ],
          [
            116.9902206,
            39.383281
          ],
          [
            116.9898036,
            39.3833344
          ],
          [
            116.9893865,
            39.3833878
          ],
          [
            116.9892442,
            39.3833721
          ],
          [
            116.989167,
            39.3833501
          ],
          [
            116.9890856,
            39.3833061
          ],
          [
            116.9890531,
            39.3832339
          ],
          [
            116.9890145,
            39.3830249
          ],
          [
            116.9889759,
            39.3828159
          ],
          [
            116.9889881,
            39.3826494
          ],
          [
            116.9890328,
            39.382508
          ],
          [
            116.9891507,
            39.382376
          ],
          [
            116.9893621,
            39.3822817
          ],
          [
            116.9896914,
            39.3822189
          ],
          [
            116.9900433,
            39.3821779
          ],
          [
            116.9903952,
            39.3821369
          ],
          [
            116.9907471,
            39.3820959
          ],
          [
            116.9911434,
            39.3820497
          ],
          [
            116.9915397,
            39.3820036
          ],
          [
            116.991936,
            39.3819574
          ],
          [
            116.9923322,
            39.3819112
          ],
          [
            116.9927285,
            39.381865
          ],
          [
            116.9931248,
            39.3818189
          ],
          [
            116.9935211,
            39.3817727
          ],
          [
            116.9936146,
            39.3817444
          ],
          [
            116.9936715,
            39.3816753
          ],
          [
            116.9936837,
            39.3816093
          ],
          [
            116.9936674,
            39.3815496
          ],
          [
            116.9936186,
            39.3815024
          ],
          [
            116.9933029,
            39.3813893
          ],
          [
            116.9929871,
            39.3812762
          ],
          [
            116.9926714,
            39.3811631
          ],
          [
            116.9924559,
            39.3811316
          ],
          [
            116.9922282,
            39.3811379
          ],
          [
            116.99209,
            39.3811599
          ],
          [
            116.9919274,
            39.3812102
          ],
          [
            116.9916611,
            39.3813249
          ],
          [
            116.9913948,
            39.3814396
          ],
          [
            116.9912038,
            39.3814962
          ],
          [
            116.9910655,
            39.3815213
          ],
          [
            116.9908866,
            39.3815213
          ],
          [
            116.9907037,
            39.3814899
          ],
          [
            116.99035,
            39.3814113
          ],
          [
            116.9901416,
            39.3814697
          ],
          [
            116.9900058,
            39.3814697
          ],
          [
            116.9899152,
            39.3813997
          ],
          [
            116.9898699,
            39.3812947
          ],
          [
            116.9898926,
            39.3811547
          ],
          [
            116.9899605,
            39.3809097
          ],
          [
            116.9900963,
            39.3807697
          ],
          [
            116.9903312,
            39.3806151
          ],
          [
            116.990566,
            39.3804606
          ],
          [
            116.9909229,
            39.380315
          ],
          [
            116.9912798,
            39.3801694
          ],
          [
            116.9916367,
            39.3800238
          ],
          [
            116.9919937,
            39.3798782
          ],
          [
            116.9923506,
            39.3797325
          ],
          [
            116.9927075,
            39.3795869
          ],
          [
            116.9930644,
            39.3794413
          ],
          [
            116.9934213,
            39.3792957
          ],
          [
            116.9934712,
            39.3792715
          ],
          [
            116.993526,
            39.3792324
          ],
          [
            116.9935624,
            39.3791933
          ],
          [
            116.9935715,
            39.379161
          ],
          [
            116.9935733,
            39.379112
          ],
          [
            116.9935547,
            39.3790761
          ],
          [
            116.9935224,
            39.3790408
          ],
          [
            116.9934848,
            39.3790158
          ],
          [
            116.9934336,
            39.3789933
          ],
          [
            116.9933558,
            39.3789804
          ],
          [
            116.9932692,
            39.3789797
          ],
          [
            116.9931712,
            39.3789944
          ],
          [
            116.9929712,
            39.3790331
          ],
          [
            116.9927682,
            39.3791126
          ],
          [
            116.9925652,
            39.3791921
          ],
          [
            116.9922132,
            39.3793332
          ],
          [
            116.9918611,
            39.3794743
          ],
          [
            116.9915091,
            39.3796154
          ],
          [
            116.9911989,
            39.3797471
          ],
          [
            116.9908888,
            39.3798788
          ],
          [
            116.9905786,
            39.3800105
          ],
          [
            116.9904264,
            39.3800776
          ],
          [
            116.9900318,
            39.3802486
          ],
          [
            116.9896371,
            39.3804197
          ],
          [
            116.9892425,
            39.3805907
          ],
          [
            116.9888703,
            39.3807597
          ],
          [
            116.9884981,
            39.3809287
          ],
          [
            116.988126,
            39.3810977
          ],
          [
            116.9877538,
            39.3812667
          ],
          [
            116.9873816,
            39.3814357
          ],
          [
            116.9872653,
            39.3812977
          ],
          [
            116.9870887,
            39.3813779
          ],
          [
            116.9867324,
            39.3815416
          ],
          [
            116.9863761,
            39.3817053
          ],
          [
            116.9860197,
            39.3818691
          ],
          [
            116.9856634,
            39.3820328
          ],
          [
            116.9853071,
            39.3821965
          ],
          [
            116.9849508,
            39.3823602
          ],
          [
            116.9845945,
            39.3825239
          ],
          [
            116.9842382,
            39.3826877
          ],
          [
            116.9838818,
            39.3828514
          ],
          [
            116.9835255,
            39.3830151
          ],
          [
            116.9831692,
            39.3831788
          ],
          [
            116.9828964,
            39.3833247
          ],
          [
            116.9828059,
            39.3834297
          ],
          [
            116.9828511,
            39.3835347
          ],
          [
            116.982987,
            39.3836047
          ],
          [
            116.9831681,
            39.3836047
          ],
          [
            116.983304,
            39.3835347
          ],
          [
            116.9835908,
            39.383418
          ],
          [
            116.9838775,
            39.3833014
          ],
          [
            116.9841643,
            39.3831847
          ],
          [
            116.98447,
            39.3830534
          ],
          [
            116.9847756,
            39.3829222
          ],
          [
            116.9850813,
            39.3827909
          ],
          [
            116.985387,
            39.3826597
          ],
          [
            116.9857332,
            39.3825233
          ],
          [
            116.9860794,
            39.382387
          ],
          [
            116.9864256,
            39.3822506
          ],
          [
            116.9867719,
            39.3821142
          ],
          [
            116.9871181,
            39.3819779
          ],
          [
            116.9874643,
            39.3818415
          ],
          [
            116.9878322,
            39.3818197
          ],
          [
            116.9881492,
            39.3819947
          ],
          [
            116.988285,
            39.3822047
          ],
          [
            116.9884067,
            39.38231
          ]
        ]
      }
    }
  ]
}
