{
  "type": "FeatureCollection",
  "bbox": [
    -0.5384034,
    43.442553,
    -0.5308715,
    43.449291
  ],
  "metadata": {
    "schemaVersion": 1,
    "trackId": "fr-circuit-pau-arnos-61498515",
    "layoutId": "main",
    "license": "ODbL-1.0",
    "attribution": "© OpenStreetMap contributors",
    "closed": true,
    "geometryStatus": "draft",
    "timingStatus": "missing",
    "timingMode": "shared",
    "lengthM": 2978.1,
    "reviewedAt": null,
    "notes": [
      "Closed named OSM raceway retained as a course candidate. Named-layout association requires review.",
      "Source way order and shared node IDs are retained. No nearby endpoints are joined and no reference boundaries are read.",
      "Some source ways lack one-way direction tags. Travel direction is provisional."
    ]
  },
  "features": [
    {
      "type": "Feature",
      "id": "trace",
      "properties": {
        "role": "trace",
        "sourceIds": [
          "osm-snapshot"
        ]
      },
      "geometry": {
        "type": "LineString",
        "coordinates": [
          [
            -0.5338338,
            43.4470276
          ],
          [
            -0.5339587,
            43.4471292
          ],
          [
            -0.5340505,
            43.4472335
          ],
          [
            -0.5341796,
            43.4474154
          ],
          [
            -0.5346814,
            43.4482898
          ],
          [
            -0.5347452,
            43.4485106
          ],
          [
            -0.534769,
            43.4487095
          ],
          [
            -0.5347093,
            43.449009
          ],
          [
            -0.5346029,
            43.449148
          ],
          [
            -0.5345006,
            43.4492204
          ],
          [
            -0.5343798,
            43.4492718
          ],
          [
            -0.5342447,
            43.449291
          ],
          [
            -0.5341475,
            43.4492841
          ],
          [
            -0.5339813,
            43.449247
          ],
          [
            -0.533894,
            43.4492124
          ],
          [
            -0.533814,
            43.449159
          ],
          [
            -0.5336343,
            43.4489654
          ],
          [
            -0.5335459,
            43.4487915
          ],
          [
            -0.5334826,
            43.4486034
          ],
          [
            -0.5334055,
            43.4483634
          ],
          [
            -0.5332621,
            43.4480644
          ],
          [
            -0.5314811,
            43.4454657
          ],
          [
            -0.5313942,
            43.4453109
          ],
          [
            -0.5313626,
            43.4451891
          ],
          [
            -0.5313957,
            43.4450249
          ],
          [
            -0.5314876,
            43.4448274
          ],
          [
            -0.5314929,
            43.4446941
          ],
          [
            -0.5313679,
            43.4443074
          ],
          [
            -0.5310379,
            43.4435954
          ],
          [
            -0.5308928,
            43.4432846
          ],
          [
            -0.5308715,
            43.443183
          ],
          [
            -0.5308786,
            43.4430022
          ],
          [
            -0.5309303,
            43.4428655
          ],
          [
            -0.5309718,
            43.4428132
          ],
          [
            -0.5311562,
            43.4426811
          ],
          [
            -0.5312974,
            43.4426115
          ],
          [
            -0.5314457,
            43.4425681
          ],
          [
            -0.5316957,
            43.442553
          ],
          [
            -0.5318232,
            43.4425803
          ],
          [
            -0.5319139,
            43.4426261
          ],
          [
            -0.5319801,
            43.4426934
          ],
          [
            -0.5320249,
            43.4427718
          ],
          [
            -0.5320632,
            43.4429987
          ],
          [
            -0.5320146,
            43.4433442
          ],
          [
            -0.5318885,
            43.4438624
          ],
          [
            -0.5319042,
            43.4440877
          ],
          [
            -0.5319681,
            43.4441939
          ],
          [
            -0.5320673,
            43.4443032
          ],
          [
            -0.5339787,
            43.4457013
          ],
          [
            -0.5342239,
            43.445848
          ],
          [
            -0.5343346,
            43.4459013
          ],
          [
            -0.5344494,
            43.445935
          ],
          [
            -0.534743,
            43.4459822
          ],
          [
            -0.5349565,
            43.4459813
          ],
          [
            -0.5351556,
            43.4459419
          ],
          [
            -0.5353979,
            43.4458594
          ],
          [
            -0.5356608,
            43.4457188
          ],
          [
            -0.535809,
            43.4456081
          ],
          [
            -0.5365423,
            43.4449409
          ],
          [
            -0.5367738,
            43.4448644
          ],
          [
            -0.5370488,
            43.4448519
          ],
          [
            -0.5373353,
            43.4448991
          ],
          [
            -0.5379683,
            43.4450926
          ],
          [
            -0.5380964,
            43.4451452
          ],
          [
            -0.5383195,
            43.4452863
          ],
          [
            -0.5383721,
            43.4453525
          ],
          [
            -0.5384034,
            43.4454337
          ],
          [
            -0.5383988,
            43.4456265
          ],
          [
            -0.5383047,
            43.4457804
          ],
          [
            -0.5381239,
            43.4459312
          ],
          [
            -0.5379346,
            43.4460183
          ],
          [
            -0.5361842,
            43.4465686
          ],
          [
            -0.5357916,
            43.4466338
          ],
          [
            -0.5353448,
            43.4466713
          ],
          [
            -0.5351392,
            43.4466796
          ],
          [
            -0.5348873,
            43.4466668
          ],
          [
            -0.5346173,
            43.4466098
          ],
          [
            -0.5342536,
            43.446474
          ],
          [
            -0.5338899,
            43.4462531
          ],
          [
            -0.5326716,
            43.4452492
          ],
          [
            -0.5324336,
            43.4451149
          ],
          [
            -0.5323534,
            43.4450926
          ],
          [
            -0.5321958,
            43.4451011
          ],
          [
            -0.5321042,
            43.4451578
          ],
          [
            -0.5320323,
            43.4453055
          ],
          [
            -0.5320251,
            43.4454248
          ],
          [
            -0.5320823,
            43.4456324
          ],
          [
            -0.5322413,
            43.4459093
          ],
          [
            -0.5330454,
            43.4470473
          ],
          [
            -0.5331375,
            43.4471289
          ],
          [
            -0.5331763,
            43.4471456
          ],
          [
            -0.5332322,
            43.447144
          ],
          [
            -0.5333195,
            43.4471019
          ],
          [
            -0.5334497,
            43.4469621
          ],
          [
            -0.5335468,
            43.4469282
          ],
          [
            -0.5336761,
            43.4469421
          ],
          [
            -0.5338338,
            43.4470276
          ]
        ]
      }
    }
  ]
}
