{
  "type": "FeatureCollection",
  "bbox": [
    17.8137721,
    40.3106731,
    17.8297399,
    40.3189152
  ],
  "metadata": {
    "schemaVersion": 1,
    "trackId": "it-nardo-handling-c15106fb",
    "layoutId": "nardo-handling-track",
    "license": "ODbL-1.0",
    "attribution": "© OpenStreetMap contributors",
    "closed": true,
    "geometryStatus": "draft",
    "timingStatus": "missing",
    "timingMode": "shared",
    "lengthM": 6230.3,
    "reviewedAt": null,
    "notes": [
      "Draft configuration: Full handling course with southern spur and eastern elongated loop; excludes internal shortcuts. Branch identity was checked against catalogue layout facts and circuit identification references. Independent source distance 6230.3 m; no coordinates are changed to match a diagram or distance. Travel direction and historical alignment remain provisional."
    ]
  },
  "features": [
    {
      "type": "Feature",
      "id": "trace",
      "properties": {
        "role": "trace",
        "sourceIds": [
          "osm-selection-131480730"
        ]
      },
      "geometry": {
        "type": "LineString",
        "coordinates": [
          [
            17.8261047,
            40.3163131
          ],
          [
            17.8260871,
            40.3166606
          ],
          [
            17.826008,
            40.3171559
          ],
          [
            17.8260131,
            40.3172599
          ],
          [
            17.8260393,
            40.3173674
          ],
          [
            17.8260849,
            40.317461
          ],
          [
            17.8261581,
            40.3175615
          ],
          [
            17.8262466,
            40.3176332
          ],
          [
            17.8263748,
            40.3177053
          ],
          [
            17.8265198,
            40.3177661
          ],
          [
            17.8267778,
            40.3178037
          ],
          [
            17.827193,
            40.317876
          ],
          [
            17.8274402,
            40.3179333
          ],
          [
            17.8276395,
            40.3180076
          ],
          [
            17.827909,
            40.3181231
          ],
          [
            17.8280666,
            40.3181748
          ],
          [
            17.8282253,
            40.3182104
          ],
          [
            17.8284064,
            40.3182312
          ],
          [
            17.8285709,
            40.3182327
          ],
          [
            17.8287477,
            40.3182162
          ],
          [
            17.828984,
            40.3181633
          ],
          [
            17.8291608,
            40.318134
          ],
          [
            17.8293179,
            40.3181363
          ],
          [
            17.8294796,
            40.3181748
          ],
          [
            17.8295793,
            40.3182274
          ],
          [
            17.8296616,
            40.3183029
          ],
          [
            17.8297062,
            40.3183717
          ],
          [
            17.8297324,
            40.3184471
          ],
          [
            17.8297399,
            40.3185354
          ],
          [
            17.8297199,
            40.3186227
          ],
          [
            17.8296731,
            40.3187073
          ],
          [
            17.8295872,
            40.3187921
          ],
          [
            17.8294682,
            40.3188624
          ],
          [
            17.8293401,
            40.3189002
          ],
          [
            17.8292201,
            40.3189152
          ],
          [
            17.8290372,
            40.3189091
          ],
          [
            17.8288304,
            40.3188893
          ],
          [
            17.8283612,
            40.3188903
          ],
          [
            17.8280457,
            40.3188836
          ],
          [
            17.8275889,
            40.3188931
          ],
          [
            17.8274748,
            40.3188854
          ],
          [
            17.8265899,
            40.318773
          ],
          [
            17.8259229,
            40.3186773
          ],
          [
            17.8253599,
            40.318577
          ],
          [
            17.8248415,
            40.3184714
          ],
          [
            17.8242409,
            40.318321
          ],
          [
            17.8177591,
            40.3175178
          ],
          [
            17.8174062,
            40.3174792
          ],
          [
            17.8170137,
            40.3174308
          ],
          [
            17.816812,
            40.3173995
          ],
          [
            17.8166114,
            40.3173593
          ],
          [
            17.8163872,
            40.317298
          ],
          [
            17.8161682,
            40.3172263
          ],
          [
            17.8159574,
            40.3171501
          ],
          [
            17.8157908,
            40.3170805
          ],
          [
            17.8156255,
            40.3169995
          ],
          [
            17.815427,
            40.3168926
          ],
          [
            17.8152262,
            40.3167786
          ],
          [
            17.8150479,
            40.3166738
          ],
          [
            17.8148789,
            40.3165582
          ],
          [
            17.8146571,
            40.316387
          ],
          [
            17.8144801,
            40.3162247
          ],
          [
            17.8142685,
            40.3160008
          ],
          [
            17.8141705,
            40.3158957
          ],
          [
            17.8140907,
            40.3157919
          ],
          [
            17.8139852,
            40.3156168
          ],
          [
            17.8138711,
            40.315384
          ],
          [
            17.8138132,
            40.3151755
          ],
          [
            17.813774,
            40.3150018
          ],
          [
            17.8137721,
            40.3148416
          ],
          [
            17.8138588,
            40.3141522
          ],
          [
            17.8139042,
            40.3139348
          ],
          [
            17.8139462,
            40.3138572
          ],
          [
            17.8139893,
            40.3137893
          ],
          [
            17.8140545,
            40.3137221
          ],
          [
            17.8141592,
            40.3136493
          ],
          [
            17.8142784,
            40.3136024
          ],
          [
            17.8143891,
            40.3135624
          ],
          [
            17.8145086,
            40.3135434
          ],
          [
            17.8146549,
            40.3135417
          ],
          [
            17.8148172,
            40.3135674
          ],
          [
            17.8149636,
            40.3136135
          ],
          [
            17.8150978,
            40.3137004
          ],
          [
            17.8152312,
            40.313796
          ],
          [
            17.8153165,
            40.3138366
          ],
          [
            17.8154071,
            40.3138698
          ],
          [
            17.8154911,
            40.3138877
          ],
          [
            17.8155778,
            40.3138982
          ],
          [
            17.815665,
            40.3139001
          ],
          [
            17.8157539,
            40.3138919
          ],
          [
            17.8158387,
            40.3138736
          ],
          [
            17.8159137,
            40.3138438
          ],
          [
            17.8159886,
            40.3138056
          ],
          [
            17.8160556,
            40.3137634
          ],
          [
            17.8161227,
            40.3136934
          ],
          [
            17.8161698,
            40.3136237
          ],
          [
            17.8161927,
            40.3135705
          ],
          [
            17.8162033,
            40.3135174
          ],
          [
            17.8162361,
            40.3134085
          ],
          [
            17.8162796,
            40.3132988
          ],
          [
            17.816378,
            40.3131324
          ],
          [
            17.816472,
            40.3130053
          ],
          [
            17.8166098,
            40.312878
          ],
          [
            17.8167522,
            40.3127732
          ],
          [
            17.8169458,
            40.3126759
          ],
          [
            17.8171631,
            40.3125967
          ],
          [
            17.8173187,
            40.3125627
          ],
          [
            17.8175583,
            40.3125395
          ],
          [
            17.8178778,
            40.3125298
          ],
          [
            17.8186288,
            40.312509
          ],
          [
            17.8189843,
            40.3124829
          ],
          [
            17.8192119,
            40.3124339
          ],
          [
            17.8193982,
            40.312372
          ],
          [
            17.8202874,
            40.3119589
          ],
          [
            17.820695,
            40.3117163
          ],
          [
            17.8208153,
            40.311656
          ],
          [
            17.8209884,
            40.3115754
          ],
          [
            17.821206,
            40.3114905
          ],
          [
            17.8213556,
            40.3114338
          ],
          [
            17.821941,
            40.3111121
          ],
          [
            17.8223285,
            40.31088
          ],
          [
            17.8224853,
            40.3107668
          ],
          [
            17.8225917,
            40.3107066
          ],
          [
            17.8227429,
            40.3106731
          ],
          [
            17.8228757,
            40.3106895
          ],
          [
            17.8230193,
            40.3107333
          ],
          [
            17.8231029,
            40.310794
          ],
          [
            17.8231572,
            40.3108679
          ],
          [
            17.8231772,
            40.3109647
          ],
          [
            17.8231631,
            40.311063
          ],
          [
            17.8231081,
            40.3111555
          ],
          [
            17.8230124,
            40.3112301
          ],
          [
            17.8228885,
            40.3112749
          ],
          [
            17.8227242,
            40.3112921
          ],
          [
            17.8224619,
            40.3112991
          ],
          [
            17.8223304,
            40.3113138
          ],
          [
            17.8222003,
            40.3113414
          ],
          [
            17.8220822,
            40.3113808
          ],
          [
            17.8219919,
            40.3114212
          ],
          [
            17.8219112,
            40.3114591
          ],
          [
            17.8215899,
            40.3116103
          ],
          [
            17.8214319,
            40.3116866
          ],
          [
            17.8213156,
            40.3117631
          ],
          [
            17.8211919,
            40.3118662
          ],
          [
            17.821081,
            40.3119724
          ],
          [
            17.8202019,
            40.3128942
          ],
          [
            17.8195699,
            40.3134847
          ],
          [
            17.8192098,
            40.313782
          ],
          [
            17.8190839,
            40.3138552
          ],
          [
            17.8189246,
            40.3139129
          ],
          [
            17.81802,
            40.3141267
          ],
          [
            17.8176534,
            40.3141984
          ],
          [
            17.8174115,
            40.3142645
          ],
          [
            17.8172241,
            40.3143378
          ],
          [
            17.8170648,
            40.314422
          ],
          [
            17.8169407,
            40.3145175
          ],
          [
            17.8168233,
            40.3146136
          ],
          [
            17.8163075,
            40.3151411
          ],
          [
            17.8162077,
            40.3152637
          ],
          [
            17.8161593,
            40.3153645
          ],
          [
            17.8161367,
            40.3154697
          ],
          [
            17.8161328,
            40.3155731
          ],
          [
            17.8161413,
            40.3156303
          ],
          [
            17.81617,
            40.3157114
          ],
          [
            17.8162275,
            40.3158008
          ],
          [
            17.8162978,
            40.3158756
          ],
          [
            17.8163982,
            40.3159635
          ],
          [
            17.8166806,
            40.3161438
          ],
          [
            17.8168052,
            40.3162103
          ],
          [
            17.8169729,
            40.3162675
          ],
          [
            17.8172266,
            40.3163132
          ],
          [
            17.8174318,
            40.3163159
          ],
          [
            17.8176387,
            40.3162988
          ],
          [
            17.8177436,
            40.3162829
          ],
          [
            17.8179029,
            40.3162341
          ],
          [
            17.8180244,
            40.31619
          ],
          [
            17.8184668,
            40.3160219
          ],
          [
            17.8187941,
            40.3159307
          ],
          [
            17.8190588,
            40.315852
          ],
          [
            17.8200716,
            40.3154739
          ],
          [
            17.8203146,
            40.3153966
          ],
          [
            17.8204648,
            40.315366
          ],
          [
            17.8206533,
            40.3153618
          ],
          [
            17.8208023,
            40.3153809
          ],
          [
            17.8209554,
            40.3154369
          ],
          [
            17.8210995,
            40.3155331
          ],
          [
            17.8212766,
            40.3156421
          ],
          [
            17.8214538,
            40.3157797
          ],
          [
            17.8215374,
            40.315876
          ],
          [
            17.8216176,
            40.3159977
          ],
          [
            17.8216728,
            40.3161189
          ],
          [
            17.8218142,
            40.3165221
          ],
          [
            17.8218873,
            40.3167079
          ],
          [
            17.8219581,
            40.3168141
          ],
          [
            17.8220555,
            40.316894
          ],
          [
            17.8221973,
            40.3169659
          ],
          [
            17.8223603,
            40.3170143
          ],
          [
            17.8226028,
            40.317059
          ],
          [
            17.8228653,
            40.3171042
          ],
          [
            17.8231383,
            40.3171122
          ],
          [
            17.8233959,
            40.3170961
          ],
          [
            17.8235492,
            40.3170616
          ],
          [
            17.8237418,
            40.3170031
          ],
          [
            17.8239094,
            40.3169232
          ],
          [
            17.824048,
            40.3168469
          ],
          [
            17.8241613,
            40.3167472
          ],
          [
            17.8242828,
            40.3166337
          ],
          [
            17.8243864,
            40.3165184
          ],
          [
            17.8244662,
            40.3163398
          ],
          [
            17.8245075,
            40.3161947
          ],
          [
            17.8245288,
            40.3160227
          ],
          [
            17.8245072,
            40.3157345
          ],
          [
            17.8244005,
            40.3147469
          ],
          [
            17.8242988,
            40.3139472
          ],
          [
            17.8242825,
            40.3132164
          ],
          [
            17.8242998,
            40.3130476
          ],
          [
            17.8243253,
            40.3129257
          ],
          [
            17.8243667,
            40.3127841
          ],
          [
            17.8244312,
            40.3126538
          ],
          [
            17.8245314,
            40.3124796
          ],
          [
            17.8253679,
            40.311074
          ],
          [
            17.8254436,
            40.3109911
          ],
          [
            17.8255582,
            40.3109223
          ],
          [
            17.825681,
            40.3108852
          ],
          [
            17.8258129,
            40.3108763
          ],
          [
            17.8259734,
            40.3109
          ],
          [
            17.8261166,
            40.3109454
          ],
          [
            17.8273877,
            40.311566
          ],
          [
            17.827555,
            40.3117226
          ],
          [
            17.8276298,
            40.3118473
          ],
          [
            17.8276712,
            40.3119603
          ],
          [
            17.8277027,
            40.3121191
          ],
          [
            17.827686,
            40.3123065
          ],
          [
            17.8276317,
            40.3124549
          ],
          [
            17.8274863,
            40.3127103
          ],
          [
            17.8269943,
            40.3136319
          ],
          [
            17.8268737,
            40.3139831
          ],
          [
            17.8268415,
            40.3143445
          ],
          [
            17.8268973,
            40.3150211
          ],
          [
            17.8268988,
            40.3152204
          ],
          [
            17.8268688,
            40.3153263
          ],
          [
            17.8268197,
            40.3154326
          ],
          [
            17.8266096,
            40.3156571
          ],
          [
            17.8264625,
            40.3157658
          ],
          [
            17.8262915,
            40.3159179
          ],
          [
            17.8262062,
            40.3160371
          ],
          [
            17.8261494,
            40.3161716
          ],
          [
            17.8261047,
            40.3163131
          ]
        ]
      }
    }
  ]
}
