{
  "type": "FeatureCollection",
  "bbox": [
    19.3774599,
    47.2448469,
    19.38146,
    47.2478763
  ],
  "metadata": {
    "schemaVersion": 1,
    "trackId": "hu-kakucs-ring-77d708fc",
    "layoutId": "kakucs-ring",
    "license": "ODbL-1.0",
    "attribution": "© OpenStreetMap contributors",
    "closed": true,
    "geometryStatus": "draft",
    "timingStatus": "missing",
    "timingMode": "shared",
    "lengthM": 1006.7,
    "reviewedAt": null,
    "notes": [
      "Draft configuration: Full circuit with rounded northern bulge, southern return and eastern outer corner. Branch identity was checked against catalogue layout facts and circuit identification references. Independent source distance 1006.7 m; no coordinates are changed to match a diagram or distance. Travel direction and historical alignment remain provisional."
    ]
  },
  "features": [
    {
      "type": "Feature",
      "id": "trace",
      "properties": {
        "role": "trace",
        "sourceIds": [
          "osm-selection-182453038"
        ]
      },
      "geometry": {
        "type": "LineString",
        "coordinates": [
          [
            19.3780917,
            47.2463193
          ],
          [
            19.3786564,
            47.2459133
          ],
          [
            19.378713,
            47.2457742
          ],
          [
            19.3786786,
            47.2455918
          ],
          [
            19.3787251,
            47.2454615
          ],
          [
            19.3788372,
            47.2453863
          ],
          [
            19.3789032,
            47.2453387
          ],
          [
            19.3789865,
            47.2452785
          ],
          [
            19.3790819,
            47.2452097
          ],
          [
            19.3792902,
            47.2450593
          ],
          [
            19.379479,
            47.2449433
          ],
          [
            19.3795476,
            47.2449206
          ],
          [
            19.3796483,
            47.2448873
          ],
          [
            19.3798014,
            47.2448469
          ],
          [
            19.379946,
            47.2448527
          ],
          [
            19.3801076,
            47.2448873
          ],
          [
            19.3802692,
            47.2449739
          ],
          [
            19.3803968,
            47.2450663
          ],
          [
            19.3804648,
            47.2451529
          ],
          [
            19.3804563,
            47.2452915
          ],
          [
            19.3804563,
            47.2453897
          ],
          [
            19.3805414,
            47.2454994
          ],
          [
            19.380737,
            47.2455456
          ],
          [
            19.3809156,
            47.2455456
          ],
          [
            19.3811623,
            47.2455514
          ],
          [
            19.3813324,
            47.2456091
          ],
          [
            19.3814005,
            47.2457073
          ],
          [
            19.38146,
            47.2458689
          ],
          [
            19.3814005,
            47.2460248
          ],
          [
            19.3806009,
            47.2467697
          ],
          [
            19.3805047,
            47.2469129
          ],
          [
            19.3803861,
            47.2469897
          ],
          [
            19.3802335,
            47.2470287
          ],
          [
            19.3802078,
            47.2471869
          ],
          [
            19.3801606,
            47.247296
          ],
          [
            19.3800063,
            47.2473877
          ],
          [
            19.3797934,
            47.2474025
          ],
          [
            19.3796118,
            47.2473617
          ],
          [
            19.379189,
            47.2477859
          ],
          [
            19.3790103,
            47.2478725
          ],
          [
            19.378875,
            47.2478763
          ],
          [
            19.3787476,
            47.2478608
          ],
          [
            19.3785936,
            47.2477744
          ],
          [
            19.378551,
            47.2476243
          ],
          [
            19.378483,
            47.2471854
          ],
          [
            19.3783554,
            47.2470584
          ],
          [
            19.3781513,
            47.2470064
          ],
          [
            19.3779471,
            47.2470122
          ],
          [
            19.3776929,
            47.2470156
          ],
          [
            19.3776002,
            47.2470109
          ],
          [
            19.3775076,
            47.2469693
          ],
          [
            19.3774717,
            47.2469094
          ],
          [
            19.3774599,
            47.2467969
          ],
          [
            19.3775474,
            47.246712
          ],
          [
            19.3780917,
            47.2463193
          ]
        ]
      }
    }
  ]
}
