{
  "type": "FeatureCollection",
  "bbox": [
    -77.4219872,
    37.5910623,
    -77.4168084,
    37.5936046
  ],
  "metadata": {
    "schemaVersion": 1,
    "trackId": "us-richmond-raceway-complex-452377296",
    "layoutId": "main",
    "license": "ODbL-1.0",
    "attribution": "© OpenStreetMap contributors",
    "closed": true,
    "geometryStatus": "draft",
    "timingStatus": "missing",
    "timingMode": "shared",
    "lengthM": 1178.4,
    "reviewedAt": null,
    "notes": [
      "Connected OSM course candidate. The selected loop is the longest simple source-node cycle after explicit exclusions; its association with a named circuit configuration requires review.",
      "Source way order and shared node IDs are retained. No nearby endpoints are joined and no Racelogic boundaries are read."
    ]
  },
  "features": [
    {
      "type": "Feature",
      "id": "trace",
      "properties": {
        "role": "trace",
        "sourceIds": [
          "osm-snapshot"
        ]
      },
      "geometry": {
        "type": "LineString",
        "coordinates": [
          [
            -77.4218606,
            37.5924965
          ],
          [
            -77.4219332,
            37.5923475
          ],
          [
            -77.4219723,
            37.5922014
          ],
          [
            -77.4219872,
            37.5920804
          ],
          [
            -77.4219705,
            37.5919343
          ],
          [
            -77.421937,
            37.5918119
          ],
          [
            -77.4218718,
            37.5916687
          ],
          [
            -77.4218029,
            37.5915684
          ],
          [
            -77.4217321,
            37.5914828
          ],
          [
            -77.4215999,
            37.5913825
          ],
          [
            -77.42149,
            37.5913072
          ],
          [
            -77.4213634,
            37.5912511
          ],
          [
            -77.4211474,
            37.5911847
          ],
          [
            -77.4207936,
            37.5911183
          ],
          [
            -77.4203001,
            37.5910682
          ],
          [
            -77.4200356,
            37.5910623
          ],
          [
            -77.4196539,
            37.5910726
          ],
          [
            -77.4194044,
            37.5911021
          ],
          [
            -77.418909,
            37.5911921
          ],
          [
            -77.4182796,
            37.5913928
          ],
          [
            -77.4180189,
            37.5914902
          ],
          [
            -77.4175291,
            37.5917514
          ],
          [
            -77.4171399,
            37.5920317
          ],
          [
            -77.4170114,
            37.5921498
          ],
          [
            -77.416922,
            37.5922752
          ],
          [
            -77.4168718,
            37.5923873
          ],
          [
            -77.4168364,
            37.5925068
          ],
          [
            -77.416814,
            37.5926146
          ],
          [
            -77.4168084,
            37.5927341
          ],
          [
            -77.4168271,
            37.5928624
          ],
          [
            -77.4168513,
            37.5929466
          ],
          [
            -77.4169165,
            37.5930808
          ],
          [
            -77.4170077,
            37.5932077
          ],
          [
            -77.4170859,
            37.5932859
          ],
          [
            -77.417179,
            37.5933641
          ],
          [
            -77.4173243,
            37.5934571
          ],
          [
            -77.4174621,
            37.5935176
          ],
          [
            -77.417652,
            37.5935707
          ],
          [
            -77.4177451,
            37.5935899
          ],
          [
            -77.4178978,
            37.5936046
          ],
          [
            -77.4180245,
            37.5936017
          ],
          [
            -77.4181716,
            37.593584
          ],
          [
            -77.4187715,
            37.5934571
          ],
          [
            -77.4211641,
            37.592951
          ],
          [
            -77.4213131,
            37.5929097
          ],
          [
            -77.4214863,
            37.592827
          ],
          [
            -77.4216204,
            37.5927415
          ],
          [
            -77.4217358,
            37.5926529
          ],
          [
            -77.4218606,
            37.5924965
          ]
        ]
      }
    }
  ]
}
