{
  "type": "FeatureCollection",
  "bbox": [
    12.6817938,
    50.7894709,
    12.695557,
    50.7938124
  ],
  "metadata": {
    "schemaVersion": 1,
    "trackId": "de-sachsenring-31321783",
    "layoutId": "main",
    "license": "ODbL-1.0",
    "attribution": "© OpenStreetMap contributors",
    "closed": true,
    "geometryStatus": "draft",
    "timingStatus": "missing",
    "timingMode": "shared",
    "lengthM": 3649,
    "reviewedAt": null,
    "notes": [
      "Closed named OSM raceway retained as a course candidate. Named-layout association requires review.",
      "Source way order and shared node IDs are retained. No nearby endpoints are joined and no reference boundaries are read."
    ]
  },
  "features": [
    {
      "type": "Feature",
      "id": "trace",
      "properties": {
        "role": "trace",
        "sourceIds": [
          "osm-snapshot"
        ]
      },
      "geometry": {
        "type": "LineString",
        "coordinates": [
          [
            12.6818324,
            50.7922276
          ],
          [
            12.6818774,
            50.7921089
          ],
          [
            12.6824009,
            50.7907618
          ],
          [
            12.6824484,
            50.7906301
          ],
          [
            12.6826527,
            50.7900643
          ],
          [
            12.6826788,
            50.7900048
          ],
          [
            12.6827056,
            50.7899562
          ],
          [
            12.6827372,
            50.7899141
          ],
          [
            12.6827583,
            50.789894
          ],
          [
            12.6827728,
            50.7898802
          ],
          [
            12.6828147,
            50.7898475
          ],
          [
            12.6828644,
            50.7898172
          ],
          [
            12.6829173,
            50.7897889
          ],
          [
            12.6829642,
            50.7897695
          ],
          [
            12.6830173,
            50.7897523
          ],
          [
            12.6830701,
            50.7897408
          ],
          [
            12.6831297,
            50.7897326
          ],
          [
            12.6831906,
            50.7897257
          ],
          [
            12.6832395,
            50.7897235
          ],
          [
            12.6833002,
            50.7897255
          ],
          [
            12.6833722,
            50.7897346
          ],
          [
            12.6834331,
            50.7897486
          ],
          [
            12.6834836,
            50.7897654
          ],
          [
            12.6835684,
            50.7897945
          ],
          [
            12.6837145,
            50.7898707
          ],
          [
            12.685105,
            50.7904639
          ],
          [
            12.6865428,
            50.7910932
          ],
          [
            12.6872395,
            50.7913985
          ],
          [
            12.6880493,
            50.7917535
          ],
          [
            12.688296,
            50.7918602
          ],
          [
            12.6896386,
            50.7924539
          ],
          [
            12.6908716,
            50.7929756
          ],
          [
            12.6913359,
            50.7931586
          ],
          [
            12.6914859,
            50.7932177
          ],
          [
            12.6915878,
            50.7932528
          ],
          [
            12.6916775,
            50.7932805
          ],
          [
            12.6917794,
            50.7933073
          ],
          [
            12.6918188,
            50.7933156
          ],
          [
            12.6918677,
            50.7933244
          ],
          [
            12.691911,
            50.7933311
          ],
          [
            12.6919563,
            50.7933365
          ],
          [
            12.6920043,
            50.7933364
          ],
          [
            12.6920588,
            50.7933317
          ],
          [
            12.6920971,
            50.793326
          ],
          [
            12.6921472,
            50.7933188
          ],
          [
            12.6922263,
            50.7933038
          ],
          [
            12.692303,
            50.7932631
          ],
          [
            12.6923424,
            50.7932426
          ],
          [
            12.6923804,
            50.7932184
          ],
          [
            12.692405,
            50.7931992
          ],
          [
            12.6924261,
            50.7931794
          ],
          [
            12.6924426,
            50.793161
          ],
          [
            12.6924601,
            50.7931399
          ],
          [
            12.6924768,
            50.7931164
          ],
          [
            12.6924877,
            50.7930885
          ],
          [
            12.6924946,
            50.7930605
          ],
          [
            12.6924966,
            50.7930331
          ],
          [
            12.6924975,
            50.7929861
          ],
          [
            12.6924956,
            50.7929531
          ],
          [
            12.6924886,
            50.7929182
          ],
          [
            12.6924762,
            50.7928853
          ],
          [
            12.6924666,
            50.7928655
          ],
          [
            12.6924498,
            50.7928424
          ],
          [
            12.6924313,
            50.7928225
          ],
          [
            12.6924116,
            50.7928047
          ],
          [
            12.6923875,
            50.7927856
          ],
          [
            12.6923659,
            50.7927693
          ],
          [
            12.6921729,
            50.7926359
          ],
          [
            12.6921275,
            50.7926073
          ],
          [
            12.6920862,
            50.7925786
          ],
          [
            12.6920328,
            50.7925377
          ],
          [
            12.6919775,
            50.7924891
          ],
          [
            12.6919438,
            50.7924515
          ],
          [
            12.6919157,
            50.7924158
          ],
          [
            12.6918876,
            50.7923778
          ],
          [
            12.6918571,
            50.7923333
          ],
          [
            12.6918298,
            50.7922869
          ],
          [
            12.6918109,
            50.7922507
          ],
          [
            12.6917919,
            50.7922046
          ],
          [
            12.6917793,
            50.7921522
          ],
          [
            12.6917716,
            50.7920964
          ],
          [
            12.6917606,
            50.7920271
          ],
          [
            12.6917561,
            50.7919726
          ],
          [
            12.6917592,
            50.7919151
          ],
          [
            12.6917703,
            50.7918594
          ],
          [
            12.6917852,
            50.7917954
          ],
          [
            12.6918045,
            50.7917437
          ],
          [
            12.6918319,
            50.7916884
          ],
          [
            12.691862,
            50.7916438
          ],
          [
            12.6919009,
            50.7915983
          ],
          [
            12.6919518,
            50.7915516
          ],
          [
            12.6920175,
            50.7914979
          ],
          [
            12.692086,
            50.7914519
          ],
          [
            12.6921465,
            50.7914187
          ],
          [
            12.6922178,
            50.7913868
          ],
          [
            12.6922952,
            50.7913608
          ],
          [
            12.6923827,
            50.7913378
          ],
          [
            12.6924806,
            50.7913197
          ],
          [
            12.6925724,
            50.7913046
          ],
          [
            12.6926837,
            50.7912816
          ],
          [
            12.6927909,
            50.791253
          ],
          [
            12.6928885,
            50.7912147
          ],
          [
            12.6929766,
            50.7911718
          ],
          [
            12.6930539,
            50.7911274
          ],
          [
            12.693127,
            50.7910792
          ],
          [
            12.6931819,
            50.7910363
          ],
          [
            12.6932216,
            50.7910007
          ],
          [
            12.6932581,
            50.7909625
          ],
          [
            12.6932882,
            50.790926
          ],
          [
            12.6933079,
            50.7908941
          ],
          [
            12.693326,
            50.7908478
          ],
          [
            12.6933334,
            50.7908124
          ],
          [
            12.6933328,
            50.7907762
          ],
          [
            12.6933267,
            50.7907289
          ],
          [
            12.6933179,
            50.790685
          ],
          [
            12.6933064,
            50.7906453
          ],
          [
            12.6932898,
            50.7906134
          ],
          [
            12.6932672,
            50.7905809
          ],
          [
            12.6932416,
            50.7905517
          ],
          [
            12.6932064,
            50.7905213
          ],
          [
            12.6931693,
            50.7904922
          ],
          [
            12.6931268,
            50.7904644
          ],
          [
            12.6930649,
            50.7904329
          ],
          [
            12.6929914,
            50.7904014
          ],
          [
            12.6929187,
            50.7903789
          ],
          [
            12.6928412,
            50.7903624
          ],
          [
            12.6927767,
            50.7903526
          ],
          [
            12.6927097,
            50.7903485
          ],
          [
            12.6926412,
            50.7903473
          ],
          [
            12.6925669,
            50.7903507
          ],
          [
            12.6924968,
            50.7903581
          ],
          [
            12.692446,
            50.7903675
          ],
          [
            12.6923997,
            50.7903798
          ],
          [
            12.6923577,
            50.7903945
          ],
          [
            12.692314,
            50.7904147
          ],
          [
            12.6922709,
            50.7904406
          ],
          [
            12.6922255,
            50.790476
          ],
          [
            12.6921928,
            50.7905106
          ],
          [
            12.6921711,
            50.790538
          ],
          [
            12.6921643,
            50.7905466
          ],
          [
            12.6921367,
            50.7905875
          ],
          [
            12.6921151,
            50.7906315
          ],
          [
            12.6920971,
            50.7906771
          ],
          [
            12.692081,
            50.7907278
          ],
          [
            12.6920597,
            50.7908015
          ],
          [
            12.6920337,
            50.7908826
          ],
          [
            12.692013,
            50.790935
          ],
          [
            12.6919864,
            50.7909846
          ],
          [
            12.6919607,
            50.7910241
          ],
          [
            12.6919324,
            50.7910667
          ],
          [
            12.6919043,
            50.7911017
          ],
          [
            12.6918686,
            50.7911424
          ],
          [
            12.6918312,
            50.7911794
          ],
          [
            12.6917773,
            50.7912185
          ],
          [
            12.6917509,
            50.7912376
          ],
          [
            12.691714,
            50.7912644
          ],
          [
            12.6916493,
            50.7913049
          ],
          [
            12.6915874,
            50.7913388
          ],
          [
            12.6915061,
            50.791379
          ],
          [
            12.6913953,
            50.7914265
          ],
          [
            12.6912367,
            50.79149
          ],
          [
            12.6910672,
            50.7915506
          ],
          [
            12.6909508,
            50.7915815
          ],
          [
            12.6908807,
            50.7915949
          ],
          [
            12.6908117,
            50.7916059
          ],
          [
            12.6907318,
            50.791615
          ],
          [
            12.6906415,
            50.7916191
          ],
          [
            12.6905535,
            50.7916152
          ],
          [
            12.6904871,
            50.7916084
          ],
          [
            12.6904354,
            50.7915972
          ],
          [
            12.6903745,
            50.7915812
          ],
          [
            12.690294,
            50.7915562
          ],
          [
            12.6901855,
            50.7915178
          ],
          [
            12.6898984,
            50.7913925
          ],
          [
            12.6897868,
            50.7913418
          ],
          [
            12.6896826,
            50.7912878
          ],
          [
            12.6896508,
            50.7912673
          ],
          [
            12.6896168,
            50.7912422
          ],
          [
            12.689585,
            50.7912107
          ],
          [
            12.6895552,
            50.7911767
          ],
          [
            12.6895339,
            50.7911426
          ],
          [
            12.6895146,
            50.7911037
          ],
          [
            12.6895046,
            50.7910623
          ],
          [
            12.6894985,
            50.7910147
          ],
          [
            12.6894934,
            50.7909695
          ],
          [
            12.6894961,
            50.7909242
          ],
          [
            12.6895022,
            50.7908904
          ],
          [
            12.6895179,
            50.7908424
          ],
          [
            12.6895352,
            50.7908094
          ],
          [
            12.689556,
            50.7907712
          ],
          [
            12.6895797,
            50.790731
          ],
          [
            12.6896138,
            50.7906808
          ],
          [
            12.6899428,
            50.790205
          ],
          [
            12.690021,
            50.7901073
          ],
          [
            12.69011,
            50.7900154
          ],
          [
            12.6901398,
            50.7899893
          ],
          [
            12.6901831,
            50.7899512
          ],
          [
            12.6901989,
            50.7899374
          ],
          [
            12.6902874,
            50.7898718
          ],
          [
            12.6903707,
            50.7898144
          ],
          [
            12.6904693,
            50.789758
          ],
          [
            12.6905632,
            50.7897096
          ],
          [
            12.6906919,
            50.7896543
          ],
          [
            12.6908373,
            50.7896032
          ],
          [
            12.6909844,
            50.7895627
          ],
          [
            12.6911498,
            50.789523
          ],
          [
            12.6912699,
            50.7895018
          ],
          [
            12.6913992,
            50.7894849
          ],
          [
            12.6915443,
            50.7894726
          ],
          [
            12.6917189,
            50.7894709
          ],
          [
            12.6918949,
            50.7894782
          ],
          [
            12.6920307,
            50.7894855
          ],
          [
            12.692106,
            50.7894918
          ],
          [
            12.6921768,
            50.7895005
          ],
          [
            12.6922406,
            50.7895111
          ],
          [
            12.6923323,
            50.7895283
          ],
          [
            12.6924119,
            50.7895474
          ],
          [
            12.6924928,
            50.7895699
          ],
          [
            12.6925901,
            50.7896005
          ],
          [
            12.6926764,
            50.7896326
          ],
          [
            12.692756,
            50.7896689
          ],
          [
            12.6928612,
            50.7897214
          ],
          [
            12.6929996,
            50.7897933
          ],
          [
            12.6938524,
            50.7902624
          ],
          [
            12.6942495,
            50.7904836
          ],
          [
            12.6943934,
            50.7905702
          ],
          [
            12.6945426,
            50.7906676
          ],
          [
            12.6947995,
            50.7908519
          ],
          [
            12.6948952,
            50.7909121
          ],
          [
            12.6951066,
            50.7910574
          ],
          [
            12.695434,
            50.791291
          ],
          [
            12.6954588,
            50.7913123
          ],
          [
            12.6954766,
            50.7913322
          ],
          [
            12.6955037,
            50.7913639
          ],
          [
            12.6955232,
            50.7913986
          ],
          [
            12.6955384,
            50.7914343
          ],
          [
            12.6955473,
            50.7914679
          ],
          [
            12.6955548,
            50.7915064
          ],
          [
            12.695557,
            50.7915473
          ],
          [
            12.6955541,
            50.7916047
          ],
          [
            12.6955439,
            50.7917007
          ],
          [
            12.6955349,
            50.791765
          ],
          [
            12.6955203,
            50.7918244
          ],
          [
            12.6954944,
            50.7919102
          ],
          [
            12.6954545,
            50.7920059
          ],
          [
            12.6953941,
            50.7921189
          ],
          [
            12.6952973,
            50.7922648
          ],
          [
            12.6952011,
            50.7923773
          ],
          [
            12.6950753,
            50.7924989
          ],
          [
            12.6948185,
            50.7927365
          ],
          [
            12.6942605,
            50.7932523
          ],
          [
            12.6941779,
            50.7933203
          ],
          [
            12.6941393,
            50.7933455
          ],
          [
            12.6940966,
            50.7933712
          ],
          [
            12.6940462,
            50.7933969
          ],
          [
            12.6940035,
            50.7934157
          ],
          [
            12.6939366,
            50.7934375
          ],
          [
            12.693738,
            50.7934889
          ],
          [
            12.6934203,
            50.7935712
          ],
          [
            12.6931063,
            50.7936525
          ],
          [
            12.6927131,
            50.7937543
          ],
          [
            12.6926065,
            50.7937806
          ],
          [
            12.6925288,
            50.7937952
          ],
          [
            12.6924496,
            50.7938043
          ],
          [
            12.6923617,
            50.7938112
          ],
          [
            12.6922878,
            50.7938124
          ],
          [
            12.6922188,
            50.7938092
          ],
          [
            12.6921632,
            50.7938017
          ],
          [
            12.6920714,
            50.7937879
          ],
          [
            12.692,
            50.7937682
          ],
          [
            12.6919347,
            50.7937483
          ],
          [
            12.6915788,
            50.7936206
          ],
          [
            12.6912774,
            50.7935174
          ],
          [
            12.6911093,
            50.7934564
          ],
          [
            12.6909619,
            50.7933956
          ],
          [
            12.6899676,
            50.7929835
          ],
          [
            12.689892,
            50.7929509
          ],
          [
            12.6898123,
            50.7929236
          ],
          [
            12.6897266,
            50.7929007
          ],
          [
            12.6896549,
            50.7928875
          ],
          [
            12.6895727,
            50.7928711
          ],
          [
            12.6894848,
            50.7928596
          ],
          [
            12.6893953,
            50.7928531
          ],
          [
            12.6892885,
            50.792852
          ],
          [
            12.6878747,
            50.7928733
          ],
          [
            12.6867333,
            50.7929093
          ],
          [
            12.6859587,
            50.7929455
          ],
          [
            12.685342,
            50.792975
          ],
          [
            12.6846204,
            50.793023
          ],
          [
            12.6835876,
            50.7930882
          ],
          [
            12.6833472,
            50.7931089
          ],
          [
            12.6831823,
            50.7931198
          ],
          [
            12.6830618,
            50.7931226
          ],
          [
            12.682961,
            50.7931203
          ],
          [
            12.682865,
            50.793114
          ],
          [
            12.6827604,
            50.7931001
          ],
          [
            12.6827336,
            50.7930954
          ],
          [
            12.6826485,
            50.7930806
          ],
          [
            12.6825258,
            50.7930502
          ],
          [
            12.6823827,
            50.7930045
          ],
          [
            12.6822778,
            50.7929642
          ],
          [
            12.6821858,
            50.7929189
          ],
          [
            12.6821067,
            50.7928723
          ],
          [
            12.6820449,
            50.7928282
          ],
          [
            12.6819877,
            50.7927817
          ],
          [
            12.6819316,
            50.7927318
          ],
          [
            12.6818935,
            50.7926918
          ],
          [
            12.6818593,
            50.7926509
          ],
          [
            12.68183,
            50.7926073
          ],
          [
            12.6818137,
            50.7925697
          ],
          [
            12.6818055,
            50.7925338
          ],
          [
            12.6817969,
            50.7924884
          ],
          [
            12.6817938,
            50.7924463
          ],
          [
            12.6817944,
            50.7923935
          ],
          [
            12.6818015,
            50.7923393
          ],
          [
            12.6818142,
            50.7922877
          ],
          [
            12.6818324,
            50.7922276
          ]
        ]
      }
    }
  ]
}
