{
  "type": "FeatureCollection",
  "bbox": [
    0.0102406,
    51.766739,
    0.012991,
    51.7681507
  ],
  "metadata": {
    "schemaVersion": 1,
    "trackId": "gb-rye-house-kart-raceway-3e1eaf80",
    "layoutId": "rye-house-kart-raceway",
    "license": "ODbL-1.0",
    "attribution": "© OpenStreetMap contributors",
    "closed": true,
    "geometryStatus": "draft",
    "timingStatus": "missing",
    "timingMode": "shared",
    "lengthM": 748.3,
    "reviewedAt": null,
    "notes": [
      "Draft route hypothesis: the source cycle is the unique closest nominal-distance match within conservative timing and distance checks. Approximate OSM trace length 748.3 m. Difference from the supplied layout distance 9.7 m. Course configuration still requires visual review."
    ]
  },
  "features": [
    {
      "type": "Feature",
      "id": "trace",
      "properties": {
        "role": "trace",
        "sourceIds": [
          "osm-network-78417235"
        ]
      },
      "geometry": {
        "type": "LineString",
        "coordinates": [
          [
            0.0113764,
            51.767402
          ],
          [
            0.0114702,
            51.7673585
          ],
          [
            0.011567,
            51.7673219
          ],
          [
            0.0116704,
            51.7672765
          ],
          [
            0.0117467,
            51.7672418
          ],
          [
            0.011809,
            51.7672264
          ],
          [
            0.0118781,
            51.7672336
          ],
          [
            0.0119222,
            51.7672615
          ],
          [
            0.0119268,
            51.7673042
          ],
          [
            0.0118992,
            51.7673341
          ],
          [
            0.011826,
            51.7673799
          ],
          [
            0.0117404,
            51.7674409
          ],
          [
            0.011699,
            51.767468
          ],
          [
            0.0116581,
            51.7675061
          ],
          [
            0.0116184,
            51.7675621
          ],
          [
            0.0115807,
            51.7676108
          ],
          [
            0.0115218,
            51.7676488
          ],
          [
            0.0114528,
            51.7676816
          ],
          [
            0.0113393,
            51.7677133
          ],
          [
            0.0112296,
            51.7677428
          ],
          [
            0.0111708,
            51.7677654
          ],
          [
            0.0111214,
            51.7677926
          ],
          [
            0.0110984,
            51.7678211
          ],
          [
            0.0111053,
            51.7678539
          ],
          [
            0.0111409,
            51.767885
          ],
          [
            0.0111928,
            51.7679009
          ],
          [
            0.0112673,
            51.7679063
          ],
          [
            0.01134,
            51.7679009
          ],
          [
            0.0114229,
            51.7678781
          ],
          [
            0.0115264,
            51.7678368
          ],
          [
            0.011629,
            51.7677967
          ],
          [
            0.011768,
            51.7677243
          ],
          [
            0.0118086,
            51.7677034
          ],
          [
            0.0119194,
            51.7676465
          ],
          [
            0.0120304,
            51.7675762
          ],
          [
            0.012104,
            51.7675164
          ],
          [
            0.0121777,
            51.7674501
          ],
          [
            0.0122421,
            51.7673839
          ],
          [
            0.0122912,
            51.7673401
          ],
          [
            0.0123479,
            51.7673028
          ],
          [
            0.0124008,
            51.7672743
          ],
          [
            0.0124605,
            51.7672538
          ],
          [
            0.0125292,
            51.7672485
          ],
          [
            0.0126008,
            51.7672553
          ],
          [
            0.0126793,
            51.7672761
          ],
          [
            0.0127566,
            51.7673007
          ],
          [
            0.0128246,
            51.7673065
          ],
          [
            0.0128949,
            51.7673007
          ],
          [
            0.0129559,
            51.7672761
          ],
          [
            0.012984,
            51.7672325
          ],
          [
            0.012991,
            51.7671934
          ],
          [
            0.0129582,
            51.7671513
          ],
          [
            0.0128762,
            51.7671223
          ],
          [
            0.0127617,
            51.7670955
          ],
          [
            0.0126324,
            51.7670599
          ],
          [
            0.0125581,
            51.767047
          ],
          [
            0.0124781,
            51.7670431
          ],
          [
            0.0123815,
            51.7670469
          ],
          [
            0.012293,
            51.7670425
          ],
          [
            0.0122179,
            51.7670271
          ],
          [
            0.0121695,
            51.7669986
          ],
          [
            0.0121424,
            51.7669526
          ],
          [
            0.0121312,
            51.7668957
          ],
          [
            0.0121269,
            51.766842
          ],
          [
            0.0121143,
            51.7667994
          ],
          [
            0.0120904,
            51.76676
          ],
          [
            0.0120374,
            51.766739
          ],
          [
            0.0119811,
            51.766739
          ],
          [
            0.0119343,
            51.7667529
          ],
          [
            0.0118882,
            51.7667797
          ],
          [
            0.011804,
            51.7668436
          ],
          [
            0.0117092,
            51.7669224
          ],
          [
            0.0116286,
            51.766985
          ],
          [
            0.0115082,
            51.7670772
          ],
          [
            0.0114041,
            51.7671547
          ],
          [
            0.0113398,
            51.7671951
          ],
          [
            0.0112554,
            51.7672404
          ],
          [
            0.0111785,
            51.7672775
          ],
          [
            0.0109947,
            51.7673703
          ],
          [
            0.0108755,
            51.7674308
          ],
          [
            0.0107628,
            51.7674881
          ],
          [
            0.0104297,
            51.7676591
          ],
          [
            0.0103833,
            51.7676837
          ],
          [
            0.0103308,
            51.7677197
          ],
          [
            0.0102858,
            51.7677626
          ],
          [
            0.0102555,
            51.7678064
          ],
          [
            0.0102406,
            51.7678646
          ],
          [
            0.0102406,
            51.7679279
          ],
          [
            0.0102651,
            51.7679915
          ],
          [
            0.0103253,
            51.7680437
          ],
          [
            0.0104191,
            51.7680953
          ],
          [
            0.0105409,
            51.768133
          ],
          [
            0.0106535,
            51.7681507
          ],
          [
            0.0107693,
            51.768146
          ],
          [
            0.0108546,
            51.7681223
          ],
          [
            0.0109081,
            51.7680786
          ],
          [
            0.0109252,
            51.7680153
          ],
          [
            0.0109087,
            51.767949
          ],
          [
            0.0108478,
            51.7678781
          ],
          [
            0.0108018,
            51.767796
          ],
          [
            0.0107868,
            51.7677291
          ],
          [
            0.0108082,
            51.7676639
          ],
          [
            0.0108695,
            51.7676156
          ],
          [
            0.0109701,
            51.7675578
          ],
          [
            0.0110768,
            51.767511
          ],
          [
            0.0111894,
            51.7674643
          ],
          [
            0.0112878,
            51.7674291
          ],
          [
            0.0113764,
            51.767402
          ]
        ]
      }
    }
  ]
}
