{
  "type": "FeatureCollection",
  "bbox": [
    -56.0870652,
    -15.4571026,
    -56.0780399,
    -15.4489402
  ],
  "metadata": {
    "schemaVersion": 1,
    "trackId": "br-autodromo-internacional-de-mato-grosso-1088646764",
    "layoutId": "main",
    "license": "ODbL-1.0",
    "attribution": "© OpenStreetMap contributors",
    "closed": true,
    "geometryStatus": "draft",
    "timingStatus": "missing",
    "timingMode": "shared",
    "lengthM": 4550.9,
    "reviewedAt": null,
    "notes": [
      "Connected OSM course candidate. The selected loop is the longest simple source-node cycle after explicit exclusions; its association with a named circuit configuration requires review.",
      "Source way order and shared node IDs are retained. No nearby endpoints are joined and no Racelogic boundaries are read."
    ]
  },
  "features": [
    {
      "type": "Feature",
      "id": "trace",
      "properties": {
        "role": "trace",
        "sourceIds": [
          "osm-snapshot"
        ]
      },
      "geometry": {
        "type": "LineString",
        "coordinates": [
          [
            -56.0815915,
            -15.4489515
          ],
          [
            -56.0814423,
            -15.4489739
          ],
          [
            -56.0812607,
            -15.4490105
          ],
          [
            -56.0811584,
            -15.4490722
          ],
          [
            -56.0811018,
            -15.4491227
          ],
          [
            -56.0802962,
            -15.4508252
          ],
          [
            -56.0780566,
            -15.4555584
          ],
          [
            -56.0780399,
            -15.4557892
          ],
          [
            -56.0781061,
            -15.4560454
          ],
          [
            -56.0782606,
            -15.456353
          ],
          [
            -56.0785298,
            -15.4566374
          ],
          [
            -56.0788109,
            -15.4568006
          ],
          [
            -56.0791581,
            -15.4569269
          ],
          [
            -56.0795192,
            -15.4570127
          ],
          [
            -56.0797749,
            -15.4570732
          ],
          [
            -56.0800918,
            -15.4571026
          ],
          [
            -56.0803852,
            -15.457084
          ],
          [
            -56.0809155,
            -15.4569846
          ],
          [
            -56.0812057,
            -15.4568723
          ],
          [
            -56.0820215,
            -15.4564737
          ],
          [
            -56.082159,
            -15.4563152
          ],
          [
            -56.0822216,
            -15.4561967
          ],
          [
            -56.0822796,
            -15.4560161
          ],
          [
            -56.0822585,
            -15.4558386
          ],
          [
            -56.0822034,
            -15.4556465
          ],
          [
            -56.0821057,
            -15.4555265
          ],
          [
            -56.0819415,
            -15.4554042
          ],
          [
            -56.0817988,
            -15.4553468
          ],
          [
            -56.0816151,
            -15.4553413
          ],
          [
            -56.081493,
            -15.4553676
          ],
          [
            -56.0799995,
            -15.4558979
          ],
          [
            -56.0798995,
            -15.4559117
          ],
          [
            -56.0797566,
            -15.4558841
          ],
          [
            -56.0796494,
            -15.4557877
          ],
          [
            -56.0796208,
            -15.4556844
          ],
          [
            -56.0796494,
            -15.4554985
          ],
          [
            -56.0803549,
            -15.4529093
          ],
          [
            -56.0804104,
            -15.4527988
          ],
          [
            -56.0804866,
            -15.4527136
          ],
          [
            -56.0805897,
            -15.4526519
          ],
          [
            -56.0807792,
            -15.45264
          ],
          [
            -56.0809087,
            -15.4527052
          ],
          [
            -56.0809942,
            -15.4528165
          ],
          [
            -56.0810484,
            -15.4529639
          ],
          [
            -56.0811911,
            -15.4534763
          ],
          [
            -56.0812698,
            -15.4537076
          ],
          [
            -56.0813448,
            -15.4538502
          ],
          [
            -56.0815345,
            -15.453938
          ],
          [
            -56.0816949,
            -15.453941
          ],
          [
            -56.0818672,
            -15.4538825
          ],
          [
            -56.0820217,
            -15.4537482
          ],
          [
            -56.0821003,
            -15.4536217
          ],
          [
            -56.0821075,
            -15.4533909
          ],
          [
            -56.0814944,
            -15.4512845
          ],
          [
            -56.081523,
            -15.4511723
          ],
          [
            -56.081615,
            -15.4511093
          ],
          [
            -56.081753,
            -15.4511282
          ],
          [
            -56.0818363,
            -15.4511833
          ],
          [
            -56.0820531,
            -15.4513875
          ],
          [
            -56.083522,
            -15.4527438
          ],
          [
            -56.0835653,
            -15.4528675
          ],
          [
            -56.0835724,
            -15.452957
          ],
          [
            -56.083601,
            -15.4531154
          ],
          [
            -56.0836367,
            -15.4533702
          ],
          [
            -56.0837225,
            -15.4535769
          ],
          [
            -56.083844,
            -15.4537008
          ],
          [
            -56.0839869,
            -15.4537766
          ],
          [
            -56.0842155,
            -15.4538593
          ],
          [
            -56.0843656,
            -15.4539557
          ],
          [
            -56.0845246,
            -15.4540472
          ],
          [
            -56.0845357,
            -15.4542228
          ],
          [
            -56.0845055,
            -15.4543987
          ],
          [
            -56.0843673,
            -15.4545824
          ],
          [
            -56.0842656,
            -15.4546857
          ],
          [
            -56.0841474,
            -15.4547883
          ],
          [
            -56.0840634,
            -15.4549168
          ],
          [
            -56.0840155,
            -15.455037
          ],
          [
            -56.0840298,
            -15.4551541
          ],
          [
            -56.0841155,
            -15.4552781
          ],
          [
            -56.0841876,
            -15.4553359
          ],
          [
            -56.0842944,
            -15.4554078
          ],
          [
            -56.0844434,
            -15.4553658
          ],
          [
            -56.0851862,
            -15.4550145
          ],
          [
            -56.0866268,
            -15.454333
          ],
          [
            -56.0868222,
            -15.4542077
          ],
          [
            -56.0870142,
            -15.454003
          ],
          [
            -56.0870652,
            -15.4537635
          ],
          [
            -56.0870589,
            -15.4535682
          ],
          [
            -56.0869824,
            -15.4534083
          ],
          [
            -56.0865154,
            -15.4529181
          ],
          [
            -56.0851598,
            -15.4516279
          ],
          [
            -56.0824928,
            -15.4491343
          ],
          [
            -56.0822925,
            -15.4489965
          ],
          [
            -56.0820797,
            -15.4489444
          ],
          [
            -56.0818027,
            -15.4489402
          ],
          [
            -56.0815915,
            -15.4489515
          ]
        ]
      }
    }
  ]
}
