{
  "type": "FeatureCollection",
  "bbox": [
    -118.2717124,
    34.8689481,
    -118.2567603,
    34.87617
  ],
  "metadata": {
    "schemaVersion": 1,
    "trackId": "us-willow-springs-international-raceway-10440074",
    "layoutId": "main",
    "license": "ODbL-1.0",
    "attribution": "© OpenStreetMap contributors",
    "closed": true,
    "geometryStatus": "draft",
    "timingStatus": "missing",
    "timingMode": "shared",
    "lengthM": 3943.9,
    "reviewedAt": null,
    "notes": [
      "Closed named OSM raceway retained as a course candidate. Named-layout association requires review.",
      "Source way order and shared node IDs are retained. No nearby endpoints are joined and no reference boundaries are read.",
      "Some source ways lack one-way direction tags. Travel direction is provisional."
    ]
  },
  "features": [
    {
      "type": "Feature",
      "id": "trace",
      "properties": {
        "role": "trace",
        "sourceIds": [
          "osm-snapshot"
        ]
      },
      "geometry": {
        "type": "LineString",
        "coordinates": [
          [
            -118.2602551,
            34.8696224
          ],
          [
            -118.2595964,
            34.8692649
          ],
          [
            -118.2592828,
            34.8690982
          ],
          [
            -118.2591503,
            34.869033
          ],
          [
            -118.2590738,
            34.8690019
          ],
          [
            -118.2590004,
            34.8689783
          ],
          [
            -118.2589654,
            34.8689681
          ],
          [
            -118.2589329,
            34.8689604
          ],
          [
            -118.2588978,
            34.8689556
          ],
          [
            -118.2588617,
            34.868952
          ],
          [
            -118.2588211,
            34.8689498
          ],
          [
            -118.2587825,
            34.8689484
          ],
          [
            -118.2587054,
            34.8689481
          ],
          [
            -118.2586371,
            34.8689492
          ],
          [
            -118.2585696,
            34.868953
          ],
          [
            -118.2585006,
            34.8689591
          ],
          [
            -118.258427,
            34.8689668
          ],
          [
            -118.2583448,
            34.8689773
          ],
          [
            -118.2582653,
            34.8689911
          ],
          [
            -118.2581858,
            34.8690065
          ],
          [
            -118.2581076,
            34.8690253
          ],
          [
            -118.2580173,
            34.869051
          ],
          [
            -118.2579304,
            34.8690816
          ],
          [
            -118.2578425,
            34.8691197
          ],
          [
            -118.2577579,
            34.8691606
          ],
          [
            -118.2576788,
            34.8692024
          ],
          [
            -118.2576044,
            34.8692467
          ],
          [
            -118.2575277,
            34.8692935
          ],
          [
            -118.2574587,
            34.8693429
          ],
          [
            -118.2573985,
            34.8693883
          ],
          [
            -118.257343,
            34.8694338
          ],
          [
            -118.2572867,
            34.8694805
          ],
          [
            -118.257235,
            34.8695285
          ],
          [
            -118.2571791,
            34.8695847
          ],
          [
            -118.2571278,
            34.8696435
          ],
          [
            -118.257078,
            34.8697054
          ],
          [
            -118.2570329,
            34.8697686
          ],
          [
            -118.2569856,
            34.8698431
          ],
          [
            -118.2569446,
            34.8699177
          ],
          [
            -118.2569073,
            34.8699947
          ],
          [
            -118.2568762,
            34.8700743
          ],
          [
            -118.2568513,
            34.8701536
          ],
          [
            -118.2568301,
            34.8702342
          ],
          [
            -118.256812,
            34.8703135
          ],
          [
            -118.2567963,
            34.8703954
          ],
          [
            -118.2567836,
            34.8704711
          ],
          [
            -118.256774,
            34.8705469
          ],
          [
            -118.2567674,
            34.8706239
          ],
          [
            -118.256764,
            34.8707009
          ],
          [
            -118.2567603,
            34.871469
          ],
          [
            -118.2567783,
            34.8716626
          ],
          [
            -118.2567885,
            34.8717595
          ],
          [
            -118.2568022,
            34.8718563
          ],
          [
            -118.2568233,
            34.8719532
          ],
          [
            -118.2568503,
            34.8720491
          ],
          [
            -118.2568825,
            34.8721412
          ],
          [
            -118.256924,
            34.8722371
          ],
          [
            -118.2570172,
            34.8724113
          ],
          [
            -118.2570648,
            34.8724944
          ],
          [
            -118.2571132,
            34.8725755
          ],
          [
            -118.2571738,
            34.8726635
          ],
          [
            -118.2572367,
            34.8727516
          ],
          [
            -118.2573281,
            34.8728625
          ],
          [
            -118.2574251,
            34.8729651
          ],
          [
            -118.2575302,
            34.8730677
          ],
          [
            -118.2576103,
            34.8731355
          ],
          [
            -118.2576939,
            34.8732025
          ],
          [
            -118.2577527,
            34.8732463
          ],
          [
            -118.2577774,
            34.8732646
          ],
          [
            -118.2578825,
            34.873341
          ],
          [
            -118.2580107,
            34.8734196
          ],
          [
            -118.2581423,
            34.8734944
          ],
          [
            -118.2582153,
            34.8735305
          ],
          [
            -118.2583372,
            34.8735868
          ],
          [
            -118.2584544,
            34.8736347
          ],
          [
            -118.2585339,
            34.8736634
          ],
          [
            -118.2586146,
            34.8736902
          ],
          [
            -118.2586947,
            34.8737151
          ],
          [
            -118.258776,
            34.873739
          ],
          [
            -118.2588558,
            34.8737588
          ],
          [
            -118.2589344,
            34.8737777
          ],
          [
            -118.2590923,
            34.8738073
          ],
          [
            -118.2592431,
            34.8738297
          ],
          [
            -118.259394,
            34.8738473
          ],
          [
            -118.2602289,
            34.8739368
          ],
          [
            -118.2603849,
            34.8739566
          ],
          [
            -118.2605439,
            34.8739832
          ],
          [
            -118.2606929,
            34.8740095
          ],
          [
            -118.2608395,
            34.8740396
          ],
          [
            -118.2609747,
            34.8740707
          ],
          [
            -118.26111,
            34.8741037
          ],
          [
            -118.2612411,
            34.8741405
          ],
          [
            -118.2613699,
            34.8741802
          ],
          [
            -118.2637044,
            34.8749649
          ],
          [
            -118.2639555,
            34.8750414
          ],
          [
            -118.2640602,
            34.8750676
          ],
          [
            -118.264166,
            34.8750834
          ],
          [
            -118.2642655,
            34.8750894
          ],
          [
            -118.264365,
            34.8750888
          ],
          [
            -118.2644592,
            34.875082
          ],
          [
            -118.2645534,
            34.8750715
          ],
          [
            -118.2646457,
            34.8750584
          ],
          [
            -118.2647379,
            34.8750425
          ],
          [
            -118.2648365,
            34.8750185
          ],
          [
            -118.2649327,
            34.8749897
          ],
          [
            -118.2651041,
            34.8749228
          ],
          [
            -118.2653361,
            34.8748204
          ],
          [
            -118.265567,
            34.8747285
          ],
          [
            -118.265667,
            34.8746956
          ],
          [
            -118.2657164,
            34.874682
          ],
          [
            -118.2657682,
            34.8746694
          ],
          [
            -118.2658174,
            34.87466
          ],
          [
            -118.2658677,
            34.8746544
          ],
          [
            -118.2659193,
            34.8746512
          ],
          [
            -118.265972,
            34.8746499
          ],
          [
            -118.2660759,
            34.8746559
          ],
          [
            -118.266181,
            34.8746677
          ],
          [
            -118.2662737,
            34.8746821
          ],
          [
            -118.2663242,
            34.8746934
          ],
          [
            -118.2663706,
            34.8747038
          ],
          [
            -118.2664237,
            34.8747205
          ],
          [
            -118.2664732,
            34.8747395
          ],
          [
            -118.2665149,
            34.8747589
          ],
          [
            -118.2665542,
            34.8747796
          ],
          [
            -118.2665934,
            34.8748092
          ],
          [
            -118.2666249,
            34.8748401
          ],
          [
            -118.2666495,
            34.8748725
          ],
          [
            -118.2666735,
            34.8749073
          ],
          [
            -118.2666934,
            34.8749413
          ],
          [
            -118.2667121,
            34.8749734
          ],
          [
            -118.2667291,
            34.8750084
          ],
          [
            -118.2667432,
            34.8750428
          ],
          [
            -118.2667614,
            34.8750883
          ],
          [
            -118.2667784,
            34.8751385
          ],
          [
            -118.2667932,
            34.8751863
          ],
          [
            -118.2668102,
            34.8752351
          ],
          [
            -118.266829,
            34.8752813
          ],
          [
            -118.2668496,
            34.8753275
          ],
          [
            -118.2668754,
            34.8753741
          ],
          [
            -118.2669017,
            34.8754198
          ],
          [
            -118.2669564,
            34.8754896
          ],
          [
            -118.2670192,
            34.8755584
          ],
          [
            -118.2670874,
            34.8756196
          ],
          [
            -118.2671613,
            34.8756797
          ],
          [
            -118.2672333,
            34.8757298
          ],
          [
            -118.2673099,
            34.8757817
          ],
          [
            -118.2673915,
            34.8758295
          ],
          [
            -118.2674765,
            34.8758744
          ],
          [
            -118.267572,
            34.8759156
          ],
          [
            -118.2676226,
            34.8759355
          ],
          [
            -118.2676697,
            34.8759539
          ],
          [
            -118.2678471,
            34.8760162
          ],
          [
            -118.2680298,
            34.8760751
          ],
          [
            -118.2681826,
            34.8761166
          ],
          [
            -118.2682644,
            34.8761355
          ],
          [
            -118.2683462,
            34.8761527
          ],
          [
            -118.2683958,
            34.8761608
          ],
          [
            -118.2684454,
            34.8761668
          ],
          [
            -118.2684943,
            34.87617
          ],
          [
            -118.2685432,
            34.8761699
          ],
          [
            -118.2685911,
            34.8761659
          ],
          [
            -118.268639,
            34.8761587
          ],
          [
            -118.2686822,
            34.8761487
          ],
          [
            -118.2687254,
            34.8761354
          ],
          [
            -118.2687796,
            34.8761132
          ],
          [
            -118.2688271,
            34.8760855
          ],
          [
            -118.2688625,
            34.8760567
          ],
          [
            -118.2688959,
            34.8760257
          ],
          [
            -118.2689238,
            34.8759945
          ],
          [
            -118.2689483,
            34.8759622
          ],
          [
            -118.2689674,
            34.8759299
          ],
          [
            -118.2689839,
            34.8758976
          ],
          [
            -118.2690018,
            34.8758587
          ],
          [
            -118.2690156,
            34.8758197
          ],
          [
            -118.2690281,
            34.8757802
          ],
          [
            -118.2690366,
            34.8757407
          ],
          [
            -118.2690441,
            34.8757007
          ],
          [
            -118.2690476,
            34.8756606
          ],
          [
            -118.2690485,
            34.8756211
          ],
          [
            -118.2690479,
            34.8755805
          ],
          [
            -118.2690448,
            34.8755408
          ],
          [
            -118.2690404,
            34.875501
          ],
          [
            -118.2690339,
            34.8754612
          ],
          [
            -118.2690261,
            34.8754214
          ],
          [
            -118.269017,
            34.8753795
          ],
          [
            -118.2690039,
            34.8753387
          ],
          [
            -118.268988,
            34.8753014
          ],
          [
            -118.2689695,
            34.8752653
          ],
          [
            -118.2689397,
            34.8752178
          ],
          [
            -118.2689019,
            34.8751736
          ],
          [
            -118.2688587,
            34.8751333
          ],
          [
            -118.2688061,
            34.8750951
          ],
          [
            -118.2685613,
            34.8749406
          ],
          [
            -118.268459,
            34.8748743
          ],
          [
            -118.2684101,
            34.8748382
          ],
          [
            -118.2683636,
            34.8748003
          ],
          [
            -118.2683309,
            34.8747653
          ],
          [
            -118.2683,
            34.8747289
          ],
          [
            -118.2682755,
            34.8746935
          ],
          [
            -118.268255,
            34.8746566
          ],
          [
            -118.2682383,
            34.8746154
          ],
          [
            -118.2682286,
            34.8745742
          ],
          [
            -118.2682206,
            34.8745331
          ],
          [
            -118.2682173,
            34.8744919
          ],
          [
            -118.2682169,
            34.8744524
          ],
          [
            -118.2682223,
            34.874414
          ],
          [
            -118.2682301,
            34.8743726
          ],
          [
            -118.2682425,
            34.8743351
          ],
          [
            -118.268261,
            34.8742954
          ],
          [
            -118.268283,
            34.8742557
          ],
          [
            -118.2683085,
            34.8742183
          ],
          [
            -118.2683375,
            34.874182
          ],
          [
            -118.2683723,
            34.8741411
          ],
          [
            -118.2684118,
            34.8741022
          ],
          [
            -118.2684553,
            34.8740705
          ],
          [
            -118.2685012,
            34.8740426
          ],
          [
            -118.2685714,
            34.8740022
          ],
          [
            -118.2686442,
            34.8739665
          ],
          [
            -118.2687953,
            34.873898
          ],
          [
            -118.2694108,
            34.8736244
          ],
          [
            -118.2705876,
            34.8731347
          ],
          [
            -118.2708204,
            34.8730378
          ],
          [
            -118.2709678,
            34.8729725
          ],
          [
            -118.271035,
            34.8729376
          ],
          [
            -118.2711021,
            34.8728976
          ],
          [
            -118.2711692,
            34.8728558
          ],
          [
            -118.2712302,
            34.8728115
          ],
          [
            -118.2712881,
            34.8727634
          ],
          [
            -118.2713398,
            34.8727153
          ],
          [
            -118.2713985,
            34.872658
          ],
          [
            -118.2714495,
            34.8725995
          ],
          [
            -118.2714951,
            34.8725409
          ],
          [
            -118.271536,
            34.8724811
          ],
          [
            -118.2715723,
            34.8724229
          ],
          [
            -118.2716008,
            34.8723634
          ],
          [
            -118.2716255,
            34.8723052
          ],
          [
            -118.2716471,
            34.8722458
          ],
          [
            -118.2716693,
            34.8721796
          ],
          [
            -118.271687,
            34.8721096
          ],
          [
            -118.2716996,
            34.8720412
          ],
          [
            -118.2717068,
            34.8719741
          ],
          [
            -118.2717124,
            34.8719139
          ],
          [
            -118.2717119,
            34.8718537
          ],
          [
            -118.2717082,
            34.8717929
          ],
          [
            -118.2717,
            34.8717321
          ],
          [
            -118.2716886,
            34.8716709
          ],
          [
            -118.2716726,
            34.8716097
          ],
          [
            -118.2716527,
            34.8715484
          ],
          [
            -118.2716298,
            34.8714872
          ],
          [
            -118.2716103,
            34.8714334
          ],
          [
            -118.2715861,
            34.8713797
          ],
          [
            -118.2715581,
            34.8713265
          ],
          [
            -118.2715286,
            34.8712784
          ],
          [
            -118.2714649,
            34.8711823
          ],
          [
            -118.2713904,
            34.8710937
          ],
          [
            -118.2713456,
            34.8710446
          ],
          [
            -118.2712962,
            34.870998
          ],
          [
            -118.2712414,
            34.8709534
          ],
          [
            -118.2711866,
            34.8709125
          ],
          [
            -118.2710724,
            34.8708352
          ],
          [
            -118.2709473,
            34.8707661
          ],
          [
            -118.270829,
            34.8707105
          ],
          [
            -118.270703,
            34.8706643
          ],
          [
            -118.270644,
            34.8706437
          ],
          [
            -118.2705834,
            34.8706268
          ],
          [
            -118.2705183,
            34.8706106
          ],
          [
            -118.2704531,
            34.8705994
          ],
          [
            -118.2703785,
            34.8705878
          ],
          [
            -118.2703008,
            34.87058
          ],
          [
            -118.2702254,
            34.8705748
          ],
          [
            -118.270147,
            34.8705733
          ],
          [
            -118.270065,
            34.8705759
          ],
          [
            -118.26998,
            34.8705823
          ],
          [
            -118.2698933,
            34.8705919
          ],
          [
            -118.2698114,
            34.870604
          ],
          [
            -118.2696871,
            34.8706269
          ],
          [
            -118.2695643,
            34.8706598
          ],
          [
            -118.26945,
            34.8707024
          ],
          [
            -118.2693419,
            34.8707526
          ],
          [
            -118.269238,
            34.8708134
          ],
          [
            -118.2691442,
            34.870878
          ],
          [
            -118.269058,
            34.8709541
          ],
          [
            -118.2689864,
            34.8710352
          ],
          [
            -118.2688265,
            34.8712292
          ],
          [
            -118.2677128,
            34.872573
          ],
          [
            -118.2675883,
            34.8727003
          ],
          [
            -118.267466,
            34.8728091
          ],
          [
            -118.267397,
            34.8728612
          ],
          [
            -118.2673198,
            34.8729094
          ],
          [
            -118.267249,
            34.8729436
          ],
          [
            -118.2671753,
            34.8729745
          ],
          [
            -118.2670942,
            34.873001
          ],
          [
            -118.2670108,
            34.8730233
          ],
          [
            -118.2669684,
            34.8730321
          ],
          [
            -118.2669259,
            34.8730381
          ],
          [
            -118.2668782,
            34.8730426
          ],
          [
            -118.2668305,
            34.8730442
          ],
          [
            -118.2667816,
            34.8730443
          ],
          [
            -118.2667327,
            34.8730425
          ],
          [
            -118.2666832,
            34.8730387
          ],
          [
            -118.2666338,
            34.8730331
          ],
          [
            -118.2665819,
            34.8730251
          ],
          [
            -118.2665313,
            34.8730142
          ],
          [
            -118.2664807,
            34.8730015
          ],
          [
            -118.2664312,
            34.8729868
          ],
          [
            -118.2663863,
            34.8729715
          ],
          [
            -118.2663415,
            34.8729542
          ],
          [
            -118.2662564,
            34.872914
          ],
          [
            -118.2661679,
            34.8728709
          ],
          [
            -118.2660795,
            34.8728229
          ],
          [
            -118.2658208,
            34.872684
          ],
          [
            -118.2655209,
            34.8725169
          ],
          [
            -118.2637684,
            34.8715627
          ],
          [
            -118.2602551,
            34.8696224
          ]
        ]
      }
    }
  ]
}
