{
  "type": "FeatureCollection",
  "bbox": [
    -118.2622964,
    34.8745462,
    -118.2573268,
    34.8815383
  ],
  "metadata": {
    "schemaVersion": 1,
    "trackId": "us-willow-springs-international-raceway-10440074",
    "layoutId": "streets-of-willow-springs",
    "license": "ODbL-1.0",
    "attribution": "© OpenStreetMap contributors",
    "closed": true,
    "geometryStatus": "draft",
    "timingStatus": "missing",
    "timingMode": "shared",
    "lengthM": 2551.7,
    "reviewedAt": null,
    "notes": [
      "Draft route hypothesis: the source cycle is the unique closest nominal-distance match within conservative timing and distance checks. Approximate OSM trace length 2551.7 m. Difference from the supplied layout distance 0.7 m. Course configuration still requires visual review."
    ]
  },
  "features": [
    {
      "type": "Feature",
      "id": "trace",
      "properties": {
        "role": "trace",
        "sourceIds": [
          "osm-network-10412884"
        ]
      },
      "geometry": {
        "type": "LineString",
        "coordinates": [
          [
            -118.2588803,
            34.8748138
          ],
          [
            -118.2579534,
            34.8745955
          ],
          [
            -118.2577045,
            34.8745533
          ],
          [
            -118.25755,
            34.8745462
          ],
          [
            -118.2574555,
            34.8745674
          ],
          [
            -118.257404,
            34.8745885
          ],
          [
            -118.2573525,
            34.8746307
          ],
          [
            -118.2573268,
            34.8746871
          ],
          [
            -118.2573354,
            34.8747293
          ],
          [
            -118.2573611,
            34.8747716
          ],
          [
            -118.2574212,
            34.8747997
          ],
          [
            -118.2576015,
            34.8748349
          ],
          [
            -118.2577731,
            34.8748702
          ],
          [
            -118.2578246,
            34.8748913
          ],
          [
            -118.2578589,
            34.8749265
          ],
          [
            -118.2578504,
            34.8749758
          ],
          [
            -118.257816,
            34.875018
          ],
          [
            -118.2577216,
            34.8750884
          ],
          [
            -118.257653,
            34.8751377
          ],
          [
            -118.2576272,
            34.875187
          ],
          [
            -118.2576186,
            34.8752293
          ],
          [
            -118.2576358,
            34.8752715
          ],
          [
            -118.2579019,
            34.8755813
          ],
          [
            -118.2579705,
            34.8756447
          ],
          [
            -118.2580306,
            34.8756799
          ],
          [
            -118.258125,
            34.8757011
          ],
          [
            -118.2586658,
            34.8757574
          ],
          [
            -118.2588717,
            34.8757715
          ],
          [
            -118.258949,
            34.8757785
          ],
          [
            -118.259052,
            34.8758137
          ],
          [
            -118.2591121,
            34.875863
          ],
          [
            -118.2591464,
            34.8759264
          ],
          [
            -118.259155,
            34.8759898
          ],
          [
            -118.2591292,
            34.8760954
          ],
          [
            -118.2591207,
            34.8762221
          ],
          [
            -118.2591378,
            34.876363
          ],
          [
            -118.2592237,
            34.8767361
          ],
          [
            -118.2592939,
            34.8769146
          ],
          [
            -118.2591952,
            34.8771103
          ],
          [
            -118.2591123,
            34.877277
          ],
          [
            -118.2590535,
            34.8774705
          ],
          [
            -118.2590177,
            34.8775459
          ],
          [
            -118.2589919,
            34.8776093
          ],
          [
            -118.2589576,
            34.8776726
          ],
          [
            -118.2589061,
            34.877729
          ],
          [
            -118.2588374,
            34.8777924
          ],
          [
            -118.2587773,
            34.8778557
          ],
          [
            -118.2587258,
            34.8779543
          ],
          [
            -118.2586829,
            34.8780881
          ],
          [
            -118.2586314,
            34.8783697
          ],
          [
            -118.2586143,
            34.8786162
          ],
          [
            -118.2586228,
            34.880806
          ],
          [
            -118.25864,
            34.8809327
          ],
          [
            -118.2586743,
            34.8810313
          ],
          [
            -118.2587258,
            34.8811299
          ],
          [
            -118.2588031,
            34.8812425
          ],
          [
            -118.2588889,
            34.8813341
          ],
          [
            -118.2590177,
            34.8814326
          ],
          [
            -118.2591292,
            34.881489
          ],
          [
            -118.2593181,
            34.8815383
          ],
          [
            -118.2594811,
            34.8815312
          ],
          [
            -118.2596013,
            34.881503
          ],
          [
            -118.2597043,
            34.8814467
          ],
          [
            -118.259773,
            34.8813904
          ],
          [
            -118.2598159,
            34.8813129
          ],
          [
            -118.2598245,
            34.8812284
          ],
          [
            -118.2597901,
            34.8811228
          ],
          [
            -118.2597129,
            34.8810102
          ],
          [
            -118.2596013,
            34.8808975
          ],
          [
            -118.2594382,
            34.8807849
          ],
          [
            -118.2592666,
            34.880644
          ],
          [
            -118.2591722,
            34.8805243
          ],
          [
            -118.2591035,
            34.8803976
          ],
          [
            -118.2590606,
            34.8802849
          ],
          [
            -118.259052,
            34.8801582
          ],
          [
            -118.2590606,
            34.8800244
          ],
          [
            -118.2590863,
            34.8799118
          ],
          [
            -118.2591464,
            34.879785
          ],
          [
            -118.2592237,
            34.8796653
          ],
          [
            -118.2593524,
            34.8795245
          ],
          [
            -118.2597644,
            34.8791161
          ],
          [
            -118.2598588,
            34.8790246
          ],
          [
            -118.2599017,
            34.8789682
          ],
          [
            -118.2599189,
            34.8788556
          ],
          [
            -118.2599189,
            34.8787288
          ],
          [
            -118.2598931,
            34.8786443
          ],
          [
            -118.2598331,
            34.8785387
          ],
          [
            -118.2597816,
            34.8784472
          ],
          [
            -118.2597301,
            34.8783627
          ],
          [
            -118.2597129,
            34.8782782
          ],
          [
            -118.2597129,
            34.8781937
          ],
          [
            -118.2597386,
            34.8781022
          ],
          [
            -118.2597901,
            34.8780177
          ],
          [
            -118.2598502,
            34.8779402
          ],
          [
            -118.2599446,
            34.8778628
          ],
          [
            -118.2600305,
            34.8778064
          ],
          [
            -118.2601935,
            34.8777501
          ],
          [
            -118.2603566,
            34.8777079
          ],
          [
            -118.2604595,
            34.8776591
          ],
          [
            -118.2605454,
            34.8776726
          ],
          [
            -118.2606484,
            34.8776656
          ],
          [
            -118.2607257,
            34.8776374
          ],
          [
            -118.2607772,
            34.8776093
          ],
          [
            -118.2608201,
            34.8775529
          ],
          [
            -118.2608201,
            34.8774896
          ],
          [
            -118.2607944,
            34.8774332
          ],
          [
            -118.2607171,
            34.8773769
          ],
          [
            -118.2605197,
            34.8772361
          ],
          [
            -118.2603566,
            34.8771093
          ],
          [
            -118.2602536,
            34.8769967
          ],
          [
            -118.2601592,
            34.876884
          ],
          [
            -118.2600734,
            34.8767502
          ],
          [
            -118.2599875,
            34.8765601
          ],
          [
            -118.2599618,
            34.8764615
          ],
          [
            -118.2599618,
            34.87637
          ],
          [
            -118.2599704,
            34.8762785
          ],
          [
            -118.2600047,
            34.876201
          ],
          [
            -118.2600734,
            34.8761306
          ],
          [
            -118.260142,
            34.8760672
          ],
          [
            -118.2602279,
            34.876032
          ],
          [
            -118.2603309,
            34.8760109
          ],
          [
            -118.2604167,
            34.8760109
          ],
          [
            -118.2605197,
            34.876032
          ],
          [
            -118.2606484,
            34.8760883
          ],
          [
            -118.2610776,
            34.876377
          ],
          [
            -118.2617728,
            34.8769051
          ],
          [
            -118.2619359,
            34.8769967
          ],
          [
            -118.2620132,
            34.8770248
          ],
          [
            -118.2620818,
            34.8770319
          ],
          [
            -118.2621591,
            34.8770178
          ],
          [
            -118.2622277,
            34.8769756
          ],
          [
            -118.2622792,
            34.8769122
          ],
          [
            -118.2622964,
            34.8768206
          ],
          [
            -118.2622878,
            34.876715
          ],
          [
            -118.2622277,
            34.876546
          ],
          [
            -118.2620904,
            34.8762503
          ],
          [
            -118.2619016,
            34.8759334
          ],
          [
            -118.2617299,
            34.8757222
          ],
          [
            -118.2616183,
            34.8756166
          ],
          [
            -118.2615153,
            34.8755461
          ],
          [
            -118.2613866,
            34.8754968
          ],
          [
            -118.261172,
            34.8754335
          ],
          [
            -118.2588803,
            34.8748138
          ]
        ]
      }
    }
  ]
}
