{
  "type": "FeatureCollection",
  "bbox": [
    -66.8886822,
    -29.4065351,
    -66.8738663,
    -29.4031773
  ],
  "metadata": {
    "schemaVersion": 1,
    "trackId": "ar-autodromo-de-la-rioja-211143911",
    "layoutId": "main",
    "license": "ODbL-1.0",
    "attribution": "© OpenStreetMap contributors",
    "closed": true,
    "geometryStatus": "draft",
    "timingStatus": "missing",
    "timingMode": "shared",
    "lengthM": 3267.1,
    "reviewedAt": null,
    "notes": [
      "Connected OSM course candidate. The selected loop is the longest simple source-node cycle after explicit exclusions; its association with a named circuit configuration requires review.",
      "Source way order and shared node IDs are retained. No nearby endpoints are joined and no reference boundaries are read."
    ]
  },
  "features": [
    {
      "type": "Feature",
      "id": "trace",
      "properties": {
        "role": "trace",
        "sourceIds": [
          "osm-snapshot"
        ]
      },
      "geometry": {
        "type": "LineString",
        "coordinates": [
          [
            -66.8873792,
            -29.4051138
          ],
          [
            -66.8865554,
            -29.4054077
          ],
          [
            -66.88636,
            -29.4054415
          ],
          [
            -66.8831424,
            -29.4049533
          ],
          [
            -66.8820311,
            -29.4045973
          ],
          [
            -66.8818837,
            -29.4045737
          ],
          [
            -66.8818309,
            -29.4045676
          ],
          [
            -66.8799461,
            -29.404312
          ],
          [
            -66.8795311,
            -29.4042206
          ],
          [
            -66.8791674,
            -29.4040857
          ],
          [
            -66.8787297,
            -29.403892
          ],
          [
            -66.8779517,
            -29.4034967
          ],
          [
            -66.8777606,
            -29.4034034
          ],
          [
            -66.8775265,
            -29.4033195
          ],
          [
            -66.8770459,
            -29.4032121
          ],
          [
            -66.8767979,
            -29.4031773
          ],
          [
            -66.8765714,
            -29.4031799
          ],
          [
            -66.8762087,
            -29.4032096
          ],
          [
            -66.8755455,
            -29.4033047
          ],
          [
            -66.8752158,
            -29.4033893
          ],
          [
            -66.8750555,
            -29.4034591
          ],
          [
            -66.8749606,
            -29.4035517
          ],
          [
            -66.8749146,
            -29.403623
          ],
          [
            -66.8749078,
            -29.4036944
          ],
          [
            -66.8749015,
            -29.4037114
          ],
          [
            -66.8749261,
            -29.4038885
          ],
          [
            -66.8749621,
            -29.4040584
          ],
          [
            -66.8749754,
            -29.4041784
          ],
          [
            -66.8749484,
            -29.4042723
          ],
          [
            -66.8748892,
            -29.4043663
          ],
          [
            -66.8747811,
            -29.4044636
          ],
          [
            -66.8740588,
            -29.4050666
          ],
          [
            -66.873971,
            -29.4051877
          ],
          [
            -66.8738931,
            -29.4053632
          ],
          [
            -66.8738663,
            -29.4055957
          ],
          [
            -66.8739094,
            -29.4057889
          ],
          [
            -66.873971,
            -29.4059446
          ],
          [
            -66.8740648,
            -29.4060891
          ],
          [
            -66.8741982,
            -29.4062141
          ],
          [
            -66.8743303,
            -29.4063204
          ],
          [
            -66.8744749,
            -29.4064043
          ],
          [
            -66.8746423,
            -29.4064712
          ],
          [
            -66.874921,
            -29.4065061
          ],
          [
            -66.8752319,
            -29.4065074
          ],
          [
            -66.875605,
            -29.4064666
          ],
          [
            -66.8759983,
            -29.4064116
          ],
          [
            -66.876653,
            -29.4062464
          ],
          [
            -66.8777124,
            -29.4058846
          ],
          [
            -66.8778882,
            -29.4058452
          ],
          [
            -66.8780444,
            -29.4058341
          ],
          [
            -66.878224,
            -29.4058479
          ],
          [
            -66.8784077,
            -29.405907
          ],
          [
            -66.8789438,
            -29.4062023
          ],
          [
            -66.8790794,
            -29.4062667
          ],
          [
            -66.8792273,
            -29.4062935
          ],
          [
            -66.8794368,
            -29.4062989
          ],
          [
            -66.8796069,
            -29.4062579
          ],
          [
            -66.8797724,
            -29.4061695
          ],
          [
            -66.8801886,
            -29.4058909
          ],
          [
            -66.880421,
            -29.405785
          ],
          [
            -66.8806173,
            -29.4057293
          ],
          [
            -66.8808786,
            -29.4056736
          ],
          [
            -66.8812156,
            -29.4056277
          ],
          [
            -66.8814541,
            -29.4056197
          ],
          [
            -66.8817963,
            -29.4056715
          ],
          [
            -66.8833343,
            -29.4061153
          ],
          [
            -66.88347,
            -29.4061388
          ],
          [
            -66.8836293,
            -29.4061468
          ],
          [
            -66.8837944,
            -29.406132
          ],
          [
            -66.8840951,
            -29.4061024
          ],
          [
            -66.8843049,
            -29.4061217
          ],
          [
            -66.8845201,
            -29.4061782
          ],
          [
            -66.885134,
            -29.4064824
          ],
          [
            -66.8852564,
            -29.4065181
          ],
          [
            -66.8854325,
            -29.4065351
          ],
          [
            -66.8856878,
            -29.4065086
          ],
          [
            -66.8858714,
            -29.4064542
          ],
          [
            -66.8860549,
            -29.406374
          ],
          [
            -66.8864161,
            -29.4061887
          ],
          [
            -66.8869053,
            -29.4059124
          ],
          [
            -66.887201,
            -29.4058104
          ],
          [
            -66.887466,
            -29.405746
          ],
          [
            -66.8877463,
            -29.405743
          ],
          [
            -66.8882239,
            -29.4058025
          ],
          [
            -66.8883904,
            -29.4058059
          ],
          [
            -66.8885567,
            -29.405746
          ],
          [
            -66.8886319,
            -29.405682
          ],
          [
            -66.8886822,
            -29.4055814
          ],
          [
            -66.8886793,
            -29.4054808
          ],
          [
            -66.8886503,
            -29.4054109
          ],
          [
            -66.888586,
            -29.4053332
          ],
          [
            -66.8884746,
            -29.4052606
          ],
          [
            -66.8875821,
            -29.4051174
          ],
          [
            -66.8873792,
            -29.4051138
          ]
        ]
      }
    }
  ]
}
