{
  "type": "FeatureCollection",
  "bbox": [
    -119.5208689,
    49.1597737,
    -119.5150543,
    49.1659517
  ],
  "metadata": {
    "schemaVersion": 1,
    "trackId": "ca-area-27-526010213",
    "layoutId": "area-27-short",
    "license": "ODbL-1.0",
    "attribution": "© OpenStreetMap contributors",
    "closed": true,
    "geometryStatus": "draft",
    "timingStatus": "missing",
    "timingMode": "shared",
    "lengthM": 2386.1,
    "reviewedAt": null,
    "notes": [
      "Draft route hypothesis: the source cycle is the unique closest nominal-distance match within conservative timing and distance checks. Approximate OSM trace length 2386.1 m. Difference from the supplied layout distance 4.9 m. Course configuration still requires visual review."
    ]
  },
  "features": [
    {
      "type": "Feature",
      "id": "trace",
      "properties": {
        "role": "trace",
        "sourceIds": [
          "osm-network-526010213"
        ]
      },
      "geometry": {
        "type": "LineString",
        "coordinates": [
          [
            -119.5205717,
            49.1615795
          ],
          [
            -119.5208619,
            49.1603066
          ],
          [
            -119.5208689,
            49.160221
          ],
          [
            -119.5208616,
            49.1601615
          ],
          [
            -119.5208325,
            49.1600878
          ],
          [
            -119.5207943,
            49.1600199
          ],
          [
            -119.5207361,
            49.1599509
          ],
          [
            -119.5206451,
            49.1598879
          ],
          [
            -119.5205578,
            49.1598438
          ],
          [
            -119.5204814,
            49.1598153
          ],
          [
            -119.5203904,
            49.1597939
          ],
          [
            -119.5202922,
            49.1597808
          ],
          [
            -119.520183,
            49.1597737
          ],
          [
            -119.5200775,
            49.1597808
          ],
          [
            -119.5199792,
            49.1597963
          ],
          [
            -119.5198637,
            49.1598164
          ],
          [
            -119.5196769,
            49.1598692
          ],
          [
            -119.5152285,
            49.1616764
          ],
          [
            -119.5151125,
            49.161766
          ],
          [
            -119.5150834,
            49.1617982
          ],
          [
            -119.5150543,
            49.1618624
          ],
          [
            -119.5150579,
            49.1619302
          ],
          [
            -119.5150889,
            49.1619968
          ],
          [
            -119.5151416,
            49.1620539
          ],
          [
            -119.5152453,
            49.162111
          ],
          [
            -119.5153545,
            49.1621479
          ],
          [
            -119.5155182,
            49.1621777
          ],
          [
            -119.5157074,
            49.1621931
          ],
          [
            -119.5158493,
            49.1621848
          ],
          [
            -119.5159876,
            49.1621646
          ],
          [
            -119.5161677,
            49.1621329
          ],
          [
            -119.516326,
            49.1621008
          ],
          [
            -119.5164752,
            49.162077
          ],
          [
            -119.5166335,
            49.1620603
          ],
          [
            -119.5168136,
            49.1620496
          ],
          [
            -119.517112,
            49.1620472
          ],
          [
            -119.5172157,
            49.1620342
          ],
          [
            -119.5172993,
            49.1620127
          ],
          [
            -119.5173849,
            49.1619771
          ],
          [
            -119.5193934,
            49.1606457
          ],
          [
            -119.5194644,
            49.1606124
          ],
          [
            -119.5195553,
            49.1605934
          ],
          [
            -119.5196463,
            49.1605982
          ],
          [
            -119.5197355,
            49.1606219
          ],
          [
            -119.5198101,
            49.1606672
          ],
          [
            -119.5198664,
            49.160735
          ],
          [
            -119.5199119,
            49.1608361
          ],
          [
            -119.5199247,
            49.1609384
          ],
          [
            -119.5199047,
            49.1610431
          ],
          [
            -119.5198355,
            49.1611431
          ],
          [
            -119.5167572,
            49.1642839
          ],
          [
            -119.5166735,
            49.1643909
          ],
          [
            -119.5166226,
            49.164523
          ],
          [
            -119.5166135,
            49.1646372
          ],
          [
            -119.5166298,
            49.1647573
          ],
          [
            -119.5166662,
            49.1648513
          ],
          [
            -119.5170701,
            49.1657233
          ],
          [
            -119.5171283,
            49.165809
          ],
          [
            -119.5172175,
            49.1658922
          ],
          [
            -119.5173339,
            49.1659303
          ],
          [
            -119.5174595,
            49.1659505
          ],
          [
            -119.5175868,
            49.1659517
          ],
          [
            -119.5177123,
            49.1659279
          ],
          [
            -119.517854,
            49.165877
          ],
          [
            -119.5179434,
            49.1658018
          ],
          [
            -119.5179852,
            49.1657233
          ],
          [
            -119.517958,
            49.1651975
          ],
          [
            -119.5179598,
            49.1650643
          ],
          [
            -119.5179907,
            49.164962
          ],
          [
            -119.5180489,
            49.1648644
          ],
          [
            -119.5181381,
            49.1647585
          ],
          [
            -119.5182436,
            49.1646776
          ],
          [
            -119.5183564,
            49.1646062
          ],
          [
            -119.518522,
            49.1645432
          ],
          [
            -119.5186657,
            49.164498
          ],
          [
            -119.5194043,
            49.1643457
          ],
          [
            -119.5195863,
            49.1642993
          ],
          [
            -119.5197282,
            49.1642398
          ],
          [
            -119.5198355,
            49.1641744
          ],
          [
            -119.5199228,
            49.1641018
          ],
          [
            -119.5199956,
            49.1640043
          ],
          [
            -119.5200393,
            49.1639115
          ],
          [
            -119.5200611,
            49.1638282
          ],
          [
            -119.5205717,
            49.1615795
          ]
        ]
      }
    }
  ]
}
