{
  "type": "FeatureCollection",
  "bbox": [
    -70.5572607,
    46.9350248,
    -70.5514097,
    46.9387458
  ],
  "metadata": {
    "schemaVersion": 1,
    "trackId": "ca-autodrome-montmagny-speedway-659151671",
    "layoutId": "main",
    "license": "ODbL-1.0",
    "attribution": "© OpenStreetMap contributors",
    "closed": true,
    "geometryStatus": "draft",
    "timingStatus": "missing",
    "timingMode": "shared",
    "lengthM": 1725.4,
    "reviewedAt": null,
    "notes": [
      "Connected OSM course candidate. The selected loop is the longest simple source-node cycle after explicit exclusions; its association with a named circuit configuration requires review.",
      "Source way order and shared node IDs are retained. No nearby endpoints are joined and no Racelogic boundaries are read.",
      "Some source ways lack one-way direction tags. Travel direction is provisional."
    ]
  },
  "features": [
    {
      "type": "Feature",
      "id": "trace",
      "properties": {
        "role": "trace",
        "sourceIds": [
          "osm-snapshot"
        ]
      },
      "geometry": {
        "type": "LineString",
        "coordinates": [
          [
            -70.554899,
            46.9382143
          ],
          [
            -70.5550824,
            46.9381043
          ],
          [
            -70.5551853,
            46.9380163
          ],
          [
            -70.5552455,
            46.937914
          ],
          [
            -70.5552793,
            46.9378348
          ],
          [
            -70.5552566,
            46.9376897
          ],
          [
            -70.555202,
            46.9375904
          ],
          [
            -70.5551432,
            46.9375186
          ],
          [
            -70.5551283,
            46.9375005
          ],
          [
            -70.5550117,
            46.9374105
          ],
          [
            -70.5549204,
            46.9373708
          ],
          [
            -70.5547594,
            46.9373238
          ],
          [
            -70.5545468,
            46.9373023
          ],
          [
            -70.5543824,
            46.9373156
          ],
          [
            -70.5526499,
            46.9378931
          ],
          [
            -70.552473,
            46.9379845
          ],
          [
            -70.5523336,
            46.9380759
          ],
          [
            -70.5522712,
            46.9381488
          ],
          [
            -70.5522382,
            46.9382125
          ],
          [
            -70.5522229,
            46.9383313
          ],
          [
            -70.5522236,
            46.9384098
          ],
          [
            -70.5522487,
            46.9384961
          ],
          [
            -70.5523114,
            46.9385897
          ],
          [
            -70.5523741,
            46.9386622
          ],
          [
            -70.5524797,
            46.9387346
          ],
          [
            -70.5525049,
            46.9387458
          ],
          [
            -70.552167,
            46.9386019
          ],
          [
            -70.5515064,
            46.9383649
          ],
          [
            -70.5514339,
            46.9383209
          ],
          [
            -70.5514097,
            46.9382859
          ],
          [
            -70.5514333,
            46.9382449
          ],
          [
            -70.5556893,
            46.9367771
          ],
          [
            -70.5561561,
            46.9366139
          ],
          [
            -70.5560029,
            46.936586
          ],
          [
            -70.5559654,
            46.9365768
          ],
          [
            -70.5559064,
            46.936553
          ],
          [
            -70.5558127,
            46.9364817
          ],
          [
            -70.5557881,
            46.9363876
          ],
          [
            -70.5557261,
            46.9362733
          ],
          [
            -70.5555874,
            46.9361688
          ],
          [
            -70.554697,
            46.9357066
          ],
          [
            -70.5545063,
            46.9355907
          ],
          [
            -70.5544216,
            46.9355071
          ],
          [
            -70.5544099,
            46.9354378
          ],
          [
            -70.5544666,
            46.9353414
          ],
          [
            -70.554719,
            46.935132
          ],
          [
            -70.5547924,
            46.9350895
          ],
          [
            -70.5548873,
            46.9350471
          ],
          [
            -70.5550129,
            46.9350248
          ],
          [
            -70.5551371,
            46.9350288
          ],
          [
            -70.5552958,
            46.9350668
          ],
          [
            -70.5554117,
            46.9351342
          ],
          [
            -70.5554717,
            46.9352176
          ],
          [
            -70.5555352,
            46.9354473
          ],
          [
            -70.5556019,
            46.9355157
          ],
          [
            -70.5556996,
            46.9355634
          ],
          [
            -70.5558455,
            46.9356047
          ],
          [
            -70.5561372,
            46.9356415
          ],
          [
            -70.5562335,
            46.9356706
          ],
          [
            -70.5563084,
            46.9357033
          ],
          [
            -70.5563801,
            46.9357616
          ],
          [
            -70.5568558,
            46.9362663
          ],
          [
            -70.5569363,
            46.9363412
          ],
          [
            -70.5570054,
            46.9363974
          ],
          [
            -70.5571709,
            46.9364845
          ],
          [
            -70.5572305,
            46.9365438
          ],
          [
            -70.5572607,
            46.9366075
          ],
          [
            -70.5572488,
            46.9366638
          ],
          [
            -70.5572148,
            46.9367195
          ],
          [
            -70.5571445,
            46.9367939
          ],
          [
            -70.557062,
            46.9368504
          ],
          [
            -70.5569626,
            46.936899
          ],
          [
            -70.5568192,
            46.9369558
          ],
          [
            -70.5565886,
            46.93702
          ],
          [
            -70.5561165,
            46.9371319
          ],
          [
            -70.5557215,
            46.9372256
          ],
          [
            -70.5556113,
            46.9372881
          ],
          [
            -70.5555386,
            46.9373506
          ],
          [
            -70.5555006,
            46.9374131
          ],
          [
            -70.5554947,
            46.9374755
          ],
          [
            -70.5554844,
            46.9377759
          ],
          [
            -70.5554581,
            46.9378679
          ],
          [
            -70.5554142,
            46.9379402
          ],
          [
            -70.5552994,
            46.938034
          ],
          [
            -70.5551042,
            46.9381388
          ],
          [
            -70.554899,
            46.9382143
          ]
        ]
      }
    }
  ]
}
