{
  "type": "FeatureCollection",
  "bbox": [
    138.7997998,
    37.7433236,
    138.8087479,
    37.747723
  ],
  "metadata": {
    "schemaVersion": 1,
    "trackId": "jp-osm-226496291",
    "layoutId": "main",
    "license": "ODbL-1.0",
    "attribution": "© OpenStreetMap contributors",
    "closed": true,
    "geometryStatus": "draft",
    "timingStatus": "missing",
    "timingMode": "shared",
    "lengthM": 2038.8,
    "reviewedAt": null,
    "notes": [
      "Closed named OSM raceway retained as a course candidate. Named-layout association requires review.",
      "Source way order and shared node IDs are retained. No nearby endpoints are joined and no Racelogic boundaries are read.",
      "Some source ways lack one-way direction tags. Travel direction is provisional."
    ]
  },
  "features": [
    {
      "type": "Feature",
      "id": "trace",
      "properties": {
        "role": "trace",
        "sourceIds": [
          "osm-snapshot"
        ]
      },
      "geometry": {
        "type": "LineString",
        "coordinates": [
          [
            138.8027485,
            37.7452481
          ],
          [
            138.8022776,
            37.7450403
          ],
          [
            138.8018467,
            37.7449361
          ],
          [
            138.8005685,
            37.7447489
          ],
          [
            138.8000599,
            37.7446506
          ],
          [
            138.7999217,
            37.7446027
          ],
          [
            138.799831,
            37.7445258
          ],
          [
            138.7997998,
            37.7444371
          ],
          [
            138.7998211,
            37.7442957
          ],
          [
            138.799835,
            37.7442446
          ],
          [
            138.7999048,
            37.7440919
          ],
          [
            138.800012,
            37.743962
          ],
          [
            138.8002436,
            37.7438037
          ],
          [
            138.8004041,
            37.7437483
          ],
          [
            138.8005709,
            37.7436999
          ],
          [
            138.8007561,
            37.7437026
          ],
          [
            138.8009366,
            37.743742
          ],
          [
            138.8010397,
            37.7437436
          ],
          [
            138.80112,
            37.7437448
          ],
          [
            138.801466,
            37.743616
          ],
          [
            138.8017775,
            37.7434172
          ],
          [
            138.8020408,
            37.7433236
          ],
          [
            138.8021779,
            37.7433376
          ],
          [
            138.8022524,
            37.7434086
          ],
          [
            138.8022689,
            37.7434971
          ],
          [
            138.8022233,
            37.7436356
          ],
          [
            138.8021385,
            37.7438081
          ],
          [
            138.8020724,
            37.7440012
          ],
          [
            138.8020868,
            37.7441387
          ],
          [
            138.8021244,
            37.7442827
          ],
          [
            138.8021507,
            37.7443083
          ],
          [
            138.8022248,
            37.7443802
          ],
          [
            138.8023571,
            37.7444295
          ],
          [
            138.8025808,
            37.744461
          ],
          [
            138.8030012,
            37.7445028
          ],
          [
            138.8031311,
            37.7445234
          ],
          [
            138.8033109,
            37.7445823
          ],
          [
            138.8036284,
            37.7447598
          ],
          [
            138.8043579,
            37.7452154
          ],
          [
            138.8046852,
            37.7453536
          ],
          [
            138.8049509,
            37.7454775
          ],
          [
            138.8054439,
            37.7456365
          ],
          [
            138.8060857,
            37.7459354
          ],
          [
            138.8063414,
            37.7460468
          ],
          [
            138.8064979,
            37.7460882
          ],
          [
            138.8066477,
            37.7460787
          ],
          [
            138.806876,
            37.7460541
          ],
          [
            138.8070173,
            37.7460263
          ],
          [
            138.8071577,
            37.7460063
          ],
          [
            138.8073145,
            37.7460737
          ],
          [
            138.8073477,
            37.7461561
          ],
          [
            138.8072928,
            37.7462674
          ],
          [
            138.807231,
            37.7464145
          ],
          [
            138.8072174,
            37.7465248
          ],
          [
            138.8072524,
            37.746602
          ],
          [
            138.8073218,
            37.7466678
          ],
          [
            138.8075187,
            37.7467568
          ],
          [
            138.8080775,
            37.7469968
          ],
          [
            138.8086724,
            37.7472575
          ],
          [
            138.8087281,
            37.7473169
          ],
          [
            138.8087479,
            37.747385
          ],
          [
            138.8087169,
            37.7474877
          ],
          [
            138.8086639,
            37.747578
          ],
          [
            138.8086052,
            37.7476505
          ],
          [
            138.808464,
            37.747723
          ],
          [
            138.8083023,
            37.7477125
          ],
          [
            138.8081989,
            37.7476954
          ],
          [
            138.8080211,
            37.7475876
          ],
          [
            138.8077187,
            37.747317
          ],
          [
            138.8074864,
            37.7471715
          ],
          [
            138.8070857,
            37.7470046
          ],
          [
            138.806892,
            37.7469442
          ],
          [
            138.806635,
            37.7469374
          ],
          [
            138.8063755,
            37.746941
          ],
          [
            138.8061973,
            37.7469442
          ],
          [
            138.8058814,
            37.7468854
          ],
          [
            138.805578,
            37.746821
          ],
          [
            138.8053827,
            37.7467683
          ],
          [
            138.8051773,
            37.746663
          ],
          [
            138.8046724,
            37.7463167
          ],
          [
            138.8038475,
            37.7458412
          ],
          [
            138.8029154,
            37.7453381
          ],
          [
            138.8027485,
            37.7452481
          ]
        ]
      }
    }
  ]
}
