{
  "type": "FeatureCollection",
  "bbox": [
    134.9199583,
    35.0223565,
    134.9249402,
    35.028327
  ],
  "metadata": {
    "schemaVersion": 1,
    "trackId": "jp-central-circuit-121305487",
    "layoutId": "main",
    "license": "ODbL-1.0",
    "attribution": "© OpenStreetMap contributors",
    "closed": true,
    "geometryStatus": "draft",
    "timingStatus": "missing",
    "timingMode": "shared",
    "lengthM": 2798.6,
    "reviewedAt": null,
    "notes": [
      "Connected OSM course candidate. The selected loop is the longest simple source-node cycle after explicit exclusions; its association with a named circuit configuration requires review.",
      "Source way order and shared node IDs are retained. No nearby endpoints are joined and no Racelogic boundaries are read.",
      "Some source ways lack one-way direction tags. Travel direction is provisional."
    ]
  },
  "features": [
    {
      "type": "Feature",
      "id": "trace",
      "properties": {
        "role": "trace",
        "sourceIds": [
          "osm-snapshot"
        ]
      },
      "geometry": {
        "type": "LineString",
        "coordinates": [
          [
            134.9228142,
            35.0240115
          ],
          [
            134.9228764,
            35.024022
          ],
          [
            134.9229414,
            35.0240515
          ],
          [
            134.9230278,
            35.0241265
          ],
          [
            134.9231619,
            35.0243027
          ],
          [
            134.923282,
            35.0244821
          ],
          [
            134.9233997,
            35.0246398
          ],
          [
            134.9235696,
            35.0247716
          ],
          [
            134.9237936,
            35.0248738
          ],
          [
            134.9240768,
            35.0249514
          ],
          [
            134.9243242,
            35.0250936
          ],
          [
            134.9245158,
            35.0251976
          ],
          [
            134.924682,
            35.0253086
          ],
          [
            134.9247845,
            35.0253924
          ],
          [
            134.9248543,
            35.0254775
          ],
          [
            134.9249024,
            35.0255574
          ],
          [
            134.9249215,
            35.0256251
          ],
          [
            134.9249402,
            35.0256994
          ],
          [
            134.9249389,
            35.0257838
          ],
          [
            134.9249259,
            35.0258557
          ],
          [
            134.9249016,
            35.025927
          ],
          [
            134.9248672,
            35.0259929
          ],
          [
            134.9248258,
            35.0260537
          ],
          [
            134.9247594,
            35.0261218
          ],
          [
            134.924331,
            35.0264989
          ],
          [
            134.9242576,
            35.0265654
          ],
          [
            134.9241879,
            35.0266394
          ],
          [
            134.9241511,
            35.0267055
          ],
          [
            134.9241371,
            35.0267585
          ],
          [
            134.9241274,
            35.0268067
          ],
          [
            134.9241293,
            35.0268658
          ],
          [
            134.9241363,
            35.0269174
          ],
          [
            134.9241568,
            35.0269738
          ],
          [
            134.9241857,
            35.0270316
          ],
          [
            134.924228,
            35.0270853
          ],
          [
            134.9243004,
            35.027162
          ],
          [
            134.9243935,
            35.0272566
          ],
          [
            134.9245966,
            35.0274824
          ],
          [
            134.9247348,
            35.0276535
          ],
          [
            134.9247929,
            35.0277477
          ],
          [
            134.9248299,
            35.0278507
          ],
          [
            134.9248352,
            35.0279168
          ],
          [
            134.9248277,
            35.0279864
          ],
          [
            134.9248137,
            35.0280396
          ],
          [
            134.9247853,
            35.0280881
          ],
          [
            134.9247453,
            35.0281366
          ],
          [
            134.9246907,
            35.0281887
          ],
          [
            134.9246243,
            35.0282351
          ],
          [
            134.9245481,
            35.0282728
          ],
          [
            134.9244762,
            35.0282982
          ],
          [
            134.9243903,
            35.0283211
          ],
          [
            134.9242913,
            35.028327
          ],
          [
            134.9242107,
            35.0283187
          ],
          [
            134.9241411,
            35.0283002
          ],
          [
            134.9240656,
            35.0282633
          ],
          [
            134.9240023,
            35.0282195
          ],
          [
            134.9239441,
            35.0281586
          ],
          [
            134.9231622,
            35.0270575
          ],
          [
            134.9221707,
            35.0257438
          ],
          [
            134.9216048,
            35.0249425
          ],
          [
            134.9214119,
            35.0246755
          ],
          [
            134.9213047,
            35.0245165
          ],
          [
            134.9212243,
            35.0243476
          ],
          [
            134.9211512,
            35.0241588
          ],
          [
            134.9210908,
            35.0240048
          ],
          [
            134.920994,
            35.0238041
          ],
          [
            134.9208655,
            35.0236521
          ],
          [
            134.9207315,
            35.0235443
          ],
          [
            134.9201327,
            35.0231485
          ],
          [
            134.9200428,
            35.0230575
          ],
          [
            134.919976,
            35.0229387
          ],
          [
            134.9199583,
            35.0228356
          ],
          [
            134.9199686,
            35.0227439
          ],
          [
            134.9200011,
            35.022646
          ],
          [
            134.9200608,
            35.0225453
          ],
          [
            134.9201458,
            35.0224678
          ],
          [
            134.9202809,
            35.0223913
          ],
          [
            134.9204188,
            35.0223565
          ],
          [
            134.9205603,
            35.0223597
          ],
          [
            134.9206912,
            35.0223984
          ],
          [
            134.9207849,
            35.0224788
          ],
          [
            134.920875,
            35.0226041
          ],
          [
            134.9210056,
            35.0227965
          ],
          [
            134.9212171,
            35.0231074
          ],
          [
            134.9215958,
            35.0237005
          ],
          [
            134.9224088,
            35.0249285
          ],
          [
            134.9234634,
            35.0264778
          ],
          [
            134.9236379,
            35.0267325
          ],
          [
            134.9243612,
            35.0278002
          ],
          [
            134.9243675,
            35.0278573
          ],
          [
            134.9243584,
            35.0278948
          ],
          [
            134.9243415,
            35.0279286
          ],
          [
            134.9243121,
            35.0279591
          ],
          [
            134.9242574,
            35.0279804
          ],
          [
            134.9241988,
            35.027982
          ],
          [
            134.9241471,
            35.027969
          ],
          [
            134.9240948,
            35.0279443
          ],
          [
            134.9240417,
            35.0278944
          ],
          [
            134.9239895,
            35.0278137
          ],
          [
            134.9238824,
            35.0276367
          ],
          [
            134.9235933,
            35.0271669
          ],
          [
            134.9234921,
            35.0270228
          ],
          [
            134.9234188,
            35.0269045
          ],
          [
            134.9233898,
            35.0267829
          ],
          [
            134.9234068,
            35.0266923
          ],
          [
            134.9234433,
            35.0266064
          ],
          [
            134.9235787,
            35.0264773
          ],
          [
            134.9241642,
            35.0260876
          ],
          [
            134.9242565,
            35.026019
          ],
          [
            134.9242987,
            35.0259688
          ],
          [
            134.9243313,
            35.0259153
          ],
          [
            134.9243616,
            35.0258509
          ],
          [
            134.924375,
            35.0257929
          ],
          [
            134.9243805,
            35.0257291
          ],
          [
            134.9243745,
            35.0256594
          ],
          [
            134.9243602,
            35.0255811
          ],
          [
            134.9242866,
            35.0254628
          ],
          [
            134.9241653,
            35.0253625
          ],
          [
            134.923693,
            35.0250845
          ],
          [
            134.9228179,
            35.0245902
          ],
          [
            134.922691,
            35.0245141
          ],
          [
            134.9225918,
            35.0244517
          ],
          [
            134.9225459,
            35.0243891
          ],
          [
            134.9225299,
            35.0243361
          ],
          [
            134.9225281,
            35.0242756
          ],
          [
            134.9225589,
            35.0241888
          ],
          [
            134.9226525,
            35.0240605
          ],
          [
            134.9227059,
            35.0240291
          ],
          [
            134.9227534,
            35.0240141
          ],
          [
            134.9228142,
            35.0240115
          ]
        ]
      }
    }
  ]
}
