{
  "type": "FeatureCollection",
  "bbox": [
    139.1058408,
    36.1705795,
    139.1091167,
    36.1715759
  ],
  "metadata": {
    "schemaVersion": 1,
    "trackId": "jp-honjo-circuit-408075022",
    "layoutId": "main",
    "license": "ODbL-1.0",
    "attribution": "© OpenStreetMap contributors",
    "closed": true,
    "geometryStatus": "draft",
    "timingStatus": "missing",
    "timingMode": "shared",
    "lengthM": 1069,
    "reviewedAt": null,
    "notes": [
      "Connected OSM course candidate. The selected loop is the longest simple source-node cycle after explicit exclusions; its association with a named circuit configuration requires review.",
      "Source way order and shared node IDs are retained. No nearby endpoints are joined and no Racelogic boundaries are read.",
      "Some source ways lack one-way direction tags. Travel direction is provisional."
    ]
  },
  "features": [
    {
      "type": "Feature",
      "id": "trace",
      "properties": {
        "role": "trace",
        "sourceIds": [
          "osm-snapshot"
        ]
      },
      "geometry": {
        "type": "LineString",
        "coordinates": [
          [
            139.1089249,
            36.1709924
          ],
          [
            139.108554,
            36.1706507
          ],
          [
            139.1084709,
            36.1706191
          ],
          [
            139.1084088,
            36.1706034
          ],
          [
            139.1082848,
            36.1705944
          ],
          [
            139.1082442,
            36.1705943
          ],
          [
            139.1068751,
            36.1705909
          ],
          [
            139.1061034,
            36.1705818
          ],
          [
            139.1060054,
            36.1705795
          ],
          [
            139.1059399,
            36.1705995
          ],
          [
            139.1058884,
            36.1706352
          ],
          [
            139.1058504,
            36.1706832
          ],
          [
            139.1058408,
            36.1707426
          ],
          [
            139.1058427,
            36.1708006
          ],
          [
            139.1058723,
            36.170858
          ],
          [
            139.1059175,
            36.1708996
          ],
          [
            139.1059958,
            36.1709348
          ],
          [
            139.1060569,
            36.1709491
          ],
          [
            139.1061225,
            36.1709492
          ],
          [
            139.1061923,
            36.170933
          ],
          [
            139.1063515,
            36.1708821
          ],
          [
            139.1065225,
            36.1708286
          ],
          [
            139.10664,
            36.1708112
          ],
          [
            139.1067913,
            36.1708106
          ],
          [
            139.1068687,
            36.170812
          ],
          [
            139.1081876,
            36.1708347
          ],
          [
            139.1082418,
            36.1708371
          ],
          [
            139.1082954,
            36.1708395
          ],
          [
            139.1083731,
            36.1708535
          ],
          [
            139.1084415,
            36.1708861
          ],
          [
            139.1084824,
            36.1709252
          ],
          [
            139.1085324,
            36.170981
          ],
          [
            139.1085517,
            36.1710087
          ],
          [
            139.1085581,
            36.1710434
          ],
          [
            139.1085539,
            36.1710849
          ],
          [
            139.1085281,
            36.1711161
          ],
          [
            139.1084981,
            36.1711386
          ],
          [
            139.108453,
            36.1711508
          ],
          [
            139.1084123,
            36.1711529
          ],
          [
            139.1083865,
            36.1711542
          ],
          [
            139.1083436,
            36.1711456
          ],
          [
            139.108266,
            36.1710981
          ],
          [
            139.1082095,
            36.1710748
          ],
          [
            139.1081695,
            36.1710589
          ],
          [
            139.1080508,
            36.1710473
          ],
          [
            139.1079514,
            36.1710466
          ],
          [
            139.1078666,
            36.1710541
          ],
          [
            139.1077083,
            36.1710755
          ],
          [
            139.1075299,
            36.1711052
          ],
          [
            139.107352,
            36.1711277
          ],
          [
            139.1072688,
            36.1711311
          ],
          [
            139.1071539,
            36.1711184
          ],
          [
            139.107096,
            36.1711016
          ],
          [
            139.1070262,
            36.1710884
          ],
          [
            139.1069485,
            36.1710644
          ],
          [
            139.1068621,
            36.1710424
          ],
          [
            139.1067861,
            36.171047
          ],
          [
            139.106729,
            36.171063
          ],
          [
            139.1066818,
            36.1710838
          ],
          [
            139.1066529,
            36.1711143
          ],
          [
            139.1066348,
            36.1711756
          ],
          [
            139.1066397,
            36.1712163
          ],
          [
            139.1066623,
            36.1712673
          ],
          [
            139.1066969,
            36.1713009
          ],
          [
            139.1072347,
            36.1715407
          ],
          [
            139.1072984,
            36.1715632
          ],
          [
            139.1073622,
            36.171575
          ],
          [
            139.1074126,
            36.1715759
          ],
          [
            139.1074709,
            36.1715682
          ],
          [
            139.1075173,
            36.171554
          ],
          [
            139.1075639,
            36.1715277
          ],
          [
            139.1076155,
            36.1714864
          ],
          [
            139.107691,
            36.171386
          ],
          [
            139.1077382,
            36.1713267
          ],
          [
            139.1077703,
            36.1713079
          ],
          [
            139.1078157,
            36.1712897
          ],
          [
            139.1078753,
            36.1712812
          ],
          [
            139.1079366,
            36.1712861
          ],
          [
            139.1081674,
            36.1713378
          ],
          [
            139.108338,
            36.1713727
          ],
          [
            139.1088045,
            36.171388
          ],
          [
            139.1089123,
            36.1713837
          ],
          [
            139.1089987,
            36.1713703
          ],
          [
            139.1090588,
            36.1713487
          ],
          [
            139.1090963,
            36.1713111
          ],
          [
            139.1091152,
            36.1712695
          ],
          [
            139.1091167,
            36.1712233
          ],
          [
            139.1091031,
            36.171185
          ],
          [
            139.1090811,
            36.1711382
          ],
          [
            139.109021,
            36.1710772
          ],
          [
            139.1089249,
            36.1709924
          ]
        ]
      }
    }
  ]
}
