{
  "type": "FeatureCollection",
  "bbox": [
    147.2920234,
    -42.747264,
    147.2997019,
    -42.7438093
  ],
  "metadata": {
    "schemaVersion": 1,
    "trackId": "au-baskerville-raceway-139014945",
    "layoutId": "main",
    "license": "ODbL-1.0",
    "attribution": "© OpenStreetMap contributors",
    "closed": true,
    "geometryStatus": "draft",
    "timingStatus": "missing",
    "timingMode": "shared",
    "lengthM": 1979.8,
    "reviewedAt": null,
    "notes": [
      "Connected OSM course candidate. The selected loop is the longest simple source-node cycle after explicit exclusions; its association with a named circuit configuration requires review.",
      "Source way order and shared node IDs are retained. No nearby endpoints are joined and no Racelogic boundaries are read."
    ]
  },
  "features": [
    {
      "type": "Feature",
      "id": "trace",
      "properties": {
        "role": "trace",
        "sourceIds": [
          "osm-snapshot"
        ]
      },
      "geometry": {
        "type": "LineString",
        "coordinates": [
          [
            147.2956068,
            -42.7455124
          ],
          [
            147.2956983,
            -42.7454264
          ],
          [
            147.2957945,
            -42.7453401
          ],
          [
            147.2958617,
            -42.7452868
          ],
          [
            147.295938,
            -42.7452466
          ],
          [
            147.2960236,
            -42.7452151
          ],
          [
            147.2961142,
            -42.7451969
          ],
          [
            147.2961997,
            -42.7451987
          ],
          [
            147.2962912,
            -42.7452065
          ],
          [
            147.2963986,
            -42.7452291
          ],
          [
            147.2969201,
            -42.7453656
          ],
          [
            147.2970718,
            -42.7454129
          ],
          [
            147.2971669,
            -42.7454453
          ],
          [
            147.2972568,
            -42.7454867
          ],
          [
            147.2973373,
            -42.745532
          ],
          [
            147.2974031,
            -42.7455861
          ],
          [
            147.29745,
            -42.7456457
          ],
          [
            147.2974808,
            -42.7457053
          ],
          [
            147.2975022,
            -42.7457781
          ],
          [
            147.2975022,
            -42.745849
          ],
          [
            147.2974808,
            -42.7459209
          ],
          [
            147.2974429,
            -42.7459793
          ],
          [
            147.2973855,
            -42.7460269
          ],
          [
            147.2973138,
            -42.7460608
          ],
          [
            147.2972408,
            -42.7460825
          ],
          [
            147.2971522,
            -42.7460962
          ],
          [
            147.2970552,
            -42.7461011
          ],
          [
            147.2968879,
            -42.7461059
          ],
          [
            147.2967874,
            -42.7461153
          ],
          [
            147.2966976,
            -42.7461376
          ],
          [
            147.2966294,
            -42.7461656
          ],
          [
            147.2965702,
            -42.7462006
          ],
          [
            147.2965214,
            -42.7462423
          ],
          [
            147.2964818,
            -42.7462922
          ],
          [
            147.2964562,
            -42.7463386
          ],
          [
            147.2964394,
            -42.7463969
          ],
          [
            147.2964309,
            -42.7464608
          ],
          [
            147.2964305,
            -42.7465486
          ],
          [
            147.2964395,
            -42.7466854
          ],
          [
            147.2964511,
            -42.7468274
          ],
          [
            147.2964616,
            -42.7469093
          ],
          [
            147.2964777,
            -42.746959
          ],
          [
            147.2964991,
            -42.7470042
          ],
          [
            147.2965373,
            -42.7470481
          ],
          [
            147.2965861,
            -42.7470868
          ],
          [
            147.2966524,
            -42.7471087
          ],
          [
            147.2967458,
            -42.7471205
          ],
          [
            147.2969036,
            -42.7471307
          ],
          [
            147.2970629,
            -42.7471263
          ],
          [
            147.2971885,
            -42.7471116
          ],
          [
            147.2973051,
            -42.7470899
          ],
          [
            147.2974124,
            -42.7470545
          ],
          [
            147.2975341,
            -42.7470073
          ],
          [
            147.297641,
            -42.7469568
          ],
          [
            147.2979113,
            -42.7468127
          ],
          [
            147.2995092,
            -42.7458869
          ],
          [
            147.2995952,
            -42.7458196
          ],
          [
            147.299645,
            -42.7457497
          ],
          [
            147.2996869,
            -42.745677
          ],
          [
            147.2997019,
            -42.7456013
          ],
          [
            147.2996946,
            -42.7455209
          ],
          [
            147.2996707,
            -42.7454396
          ],
          [
            147.2996265,
            -42.7453602
          ],
          [
            147.2995612,
            -42.7452687
          ],
          [
            147.2994676,
            -42.7451513
          ],
          [
            147.2992167,
            -42.7448792
          ],
          [
            147.2984443,
            -42.7440823
          ],
          [
            147.2983151,
            -42.743981
          ],
          [
            147.298239,
            -42.7439303
          ],
          [
            147.2981519,
            -42.7438775
          ],
          [
            147.2980586,
            -42.7438437
          ],
          [
            147.2979665,
            -42.743821
          ],
          [
            147.2978691,
            -42.7438093
          ],
          [
            147.2977709,
            -42.7438093
          ],
          [
            147.2976787,
            -42.7438224
          ],
          [
            147.2975799,
            -42.7438498
          ],
          [
            147.2974709,
            -42.7438874
          ],
          [
            147.2935112,
            -42.7458288
          ],
          [
            147.2922098,
            -42.7464698
          ],
          [
            147.292124,
            -42.7465319
          ],
          [
            147.2920674,
            -42.7465984
          ],
          [
            147.2920354,
            -42.7466699
          ],
          [
            147.2920234,
            -42.7467403
          ],
          [
            147.2920255,
            -42.7468188
          ],
          [
            147.2920609,
            -42.7469007
          ],
          [
            147.2921109,
            -42.7469574
          ],
          [
            147.2921667,
            -42.7470064
          ],
          [
            147.2922446,
            -42.7470631
          ],
          [
            147.2923391,
            -42.7471143
          ],
          [
            147.292443,
            -42.7471558
          ],
          [
            147.2925856,
            -42.7471939
          ],
          [
            147.2927359,
            -42.7472238
          ],
          [
            147.2928961,
            -42.7472501
          ],
          [
            147.2930543,
            -42.747264
          ],
          [
            147.293244,
            -42.7472637
          ],
          [
            147.2934427,
            -42.7472595
          ],
          [
            147.2936308,
            -42.7472398
          ],
          [
            147.2938182,
            -42.7471959
          ],
          [
            147.2939865,
            -42.7471274
          ],
          [
            147.2941364,
            -42.7470364
          ],
          [
            147.2942758,
            -42.7469329
          ],
          [
            147.2943981,
            -42.7468212
          ],
          [
            147.2945698,
            -42.7466527
          ],
          [
            147.2956068,
            -42.7455124
          ]
        ]
      }
    }
  ]
}
