{
  "type": "FeatureCollection",
  "bbox": [
    -0.6591613,
    53.0446424,
    -0.6544374,
    53.0462836
  ],
  "metadata": {
    "schemaVersion": 1,
    "trackId": "gb-fulbeck-kart-circuit-15a721dc",
    "layoutId": "fulbeck-kart-circuit",
    "license": "ODbL-1.0",
    "attribution": "© OpenStreetMap contributors",
    "closed": true,
    "geometryStatus": "draft",
    "timingStatus": "missing",
    "timingMode": "shared",
    "lengthM": 947,
    "reviewedAt": null,
    "notes": [
      "Draft configuration: Full outer kart configuration uses the two chicane branches and eastern narrow turnaround. Branch identity was checked against catalogue layout facts and circuit identification references. Independent source distance 947.0 m; no coordinates are changed to match a diagram or distance. Travel direction and historical alignment remain provisional."
    ]
  },
  "features": [
    {
      "type": "Feature",
      "id": "trace",
      "properties": {
        "role": "trace",
        "sourceIds": [
          "osm-selection-240643727"
        ]
      },
      "geometry": {
        "type": "LineString",
        "coordinates": [
          [
            -0.6548248,
            53.0446425
          ],
          [
            -0.6548711,
            53.044647
          ],
          [
            -0.6549254,
            53.0446582
          ],
          [
            -0.6549536,
            53.0446741
          ],
          [
            -0.6549736,
            53.0447031
          ],
          [
            -0.6549782,
            53.0447279
          ],
          [
            -0.6549774,
            53.0447526
          ],
          [
            -0.6549552,
            53.0450329
          ],
          [
            -0.6549574,
            53.0450504
          ],
          [
            -0.6549628,
            53.0450682
          ],
          [
            -0.6549828,
            53.0450972
          ],
          [
            -0.6550209,
            53.0451225
          ],
          [
            -0.6550604,
            53.0451397
          ],
          [
            -0.6551327,
            53.0451621
          ],
          [
            -0.6551981,
            53.0451765
          ],
          [
            -0.6552626,
            53.0451881
          ],
          [
            -0.655317,
            53.045195
          ],
          [
            -0.6553659,
            53.0452018
          ],
          [
            -0.6554269,
            53.0452035
          ],
          [
            -0.6554911,
            53.0452033
          ],
          [
            -0.6555517,
            53.0452038
          ],
          [
            -0.6555925,
            53.0452062
          ],
          [
            -0.6556216,
            53.0452101
          ],
          [
            -0.6562137,
            53.045344
          ],
          [
            -0.6569294,
            53.0455152
          ],
          [
            -0.6571908,
            53.0455812
          ],
          [
            -0.6573731,
            53.0456302
          ],
          [
            -0.657407,
            53.0456477
          ],
          [
            -0.657428,
            53.0456698
          ],
          [
            -0.657446,
            53.045691
          ],
          [
            -0.6574485,
            53.0457206
          ],
          [
            -0.6574381,
            53.0457552
          ],
          [
            -0.6574396,
            53.0457876
          ],
          [
            -0.6574504,
            53.0458091
          ],
          [
            -0.6574783,
            53.0458268
          ],
          [
            -0.6575198,
            53.0458386
          ],
          [
            -0.6575606,
            53.045842
          ],
          [
            -0.6576093,
            53.0458385
          ],
          [
            -0.6576567,
            53.0458234
          ],
          [
            -0.6576924,
            53.0458028
          ],
          [
            -0.6577309,
            53.0457668
          ],
          [
            -0.6577632,
            53.0457522
          ],
          [
            -0.657808,
            53.0457437
          ],
          [
            -0.6578791,
            53.0457489
          ],
          [
            -0.6589862,
            53.0459996
          ],
          [
            -0.6590301,
            53.0460179
          ],
          [
            -0.6590785,
            53.0460426
          ],
          [
            -0.6591198,
            53.0460757
          ],
          [
            -0.6591448,
            53.0461044
          ],
          [
            -0.6591601,
            53.0461411
          ],
          [
            -0.6591613,
            53.0461771
          ],
          [
            -0.6591397,
            53.0462151
          ],
          [
            -0.6591122,
            53.0462434
          ],
          [
            -0.6590624,
            53.0462699
          ],
          [
            -0.6590113,
            53.0462815
          ],
          [
            -0.6589473,
            53.0462836
          ],
          [
            -0.6588762,
            53.046276
          ],
          [
            -0.6574887,
            53.0459582
          ],
          [
            -0.657447,
            53.045945
          ],
          [
            -0.657407,
            53.0459295
          ],
          [
            -0.6573656,
            53.0459088
          ],
          [
            -0.6573268,
            53.0458826
          ],
          [
            -0.6572908,
            53.0458569
          ],
          [
            -0.6572463,
            53.0458305
          ],
          [
            -0.6571814,
            53.0458005
          ],
          [
            -0.6571208,
            53.0457796
          ],
          [
            -0.656641,
            53.0456631
          ],
          [
            -0.6566057,
            53.0456647
          ],
          [
            -0.6565754,
            53.045671
          ],
          [
            -0.6565566,
            53.0456773
          ],
          [
            -0.656534,
            53.0456938
          ],
          [
            -0.656519,
            53.0457164
          ],
          [
            -0.6564941,
            53.0457351
          ],
          [
            -0.6564645,
            53.0457455
          ],
          [
            -0.6564277,
            53.0457476
          ],
          [
            -0.6563827,
            53.0457427
          ],
          [
            -0.656332,
            53.0457297
          ],
          [
            -0.6563052,
            53.0457144
          ],
          [
            -0.6562894,
            53.0456963
          ],
          [
            -0.6562834,
            53.0456758
          ],
          [
            -0.656279,
            53.0456549
          ],
          [
            -0.6562733,
            53.0456335
          ],
          [
            -0.6562557,
            53.0456095
          ],
          [
            -0.6562229,
            53.0455808
          ],
          [
            -0.6561879,
            53.0455646
          ],
          [
            -0.6561364,
            53.0455423
          ],
          [
            -0.6552739,
            53.0453493
          ],
          [
            -0.6552283,
            53.0453435
          ],
          [
            -0.65518,
            53.0453397
          ],
          [
            -0.6551627,
            53.0453404
          ],
          [
            -0.655138,
            53.0453413
          ],
          [
            -0.6550887,
            53.0453476
          ],
          [
            -0.6550407,
            53.0453568
          ],
          [
            -0.6549974,
            53.0453793
          ],
          [
            -0.6549714,
            53.0454048
          ],
          [
            -0.654957,
            53.0454307
          ],
          [
            -0.6548336,
            53.0458167
          ],
          [
            -0.6548261,
            53.0458345
          ],
          [
            -0.6548069,
            53.0458527
          ],
          [
            -0.6547703,
            53.0458694
          ],
          [
            -0.6547369,
            53.0458789
          ],
          [
            -0.6546961,
            53.04588
          ],
          [
            -0.6546671,
            53.0458725
          ],
          [
            -0.6546375,
            53.0458602
          ],
          [
            -0.6546073,
            53.0458335
          ],
          [
            -0.6545922,
            53.045809
          ],
          [
            -0.6545889,
            53.0457842
          ],
          [
            -0.6545905,
            53.0457499
          ],
          [
            -0.6546723,
            53.045418
          ],
          [
            -0.6547041,
            53.0451978
          ],
          [
            -0.6547215,
            53.0449522
          ],
          [
            -0.6547204,
            53.044925
          ],
          [
            -0.6547087,
            53.0448875
          ],
          [
            -0.6546901,
            53.0448605
          ],
          [
            -0.6546582,
            53.0448363
          ],
          [
            -0.6546091,
            53.0448214
          ],
          [
            -0.6545605,
            53.0448138
          ],
          [
            -0.6545118,
            53.0448061
          ],
          [
            -0.6544804,
            53.044796
          ],
          [
            -0.6544579,
            53.0447819
          ],
          [
            -0.6544427,
            53.0447614
          ],
          [
            -0.6544374,
            53.0447415
          ],
          [
            -0.6544389,
            53.0447228
          ],
          [
            -0.6544446,
            53.0447065
          ],
          [
            -0.6544694,
            53.044681
          ],
          [
            -0.6545032,
            53.0446633
          ],
          [
            -0.6545446,
            53.0446517
          ],
          [
            -0.654595,
            53.0446473
          ],
          [
            -0.654701,
            53.0446424
          ],
          [
            -0.6548248,
            53.0446425
          ]
        ]
      }
    }
  ]
}
