{
  "type": "FeatureCollection",
  "bbox": [
    143.27973,
    42.6267254,
    143.2983372,
    42.6316418
  ],
  "metadata": {
    "schemaVersion": 1,
    "trackId": "jp-tokachi-speedway-e03415a4",
    "layoutId": "tokachi-speedway-grand-prix",
    "license": "ODbL-1.0",
    "attribution": "© OpenStreetMap contributors",
    "closed": true,
    "geometryStatus": "draft",
    "timingStatus": "missing",
    "timingMode": "shared",
    "lengthM": 5100.4,
    "reviewedAt": null,
    "notes": [
      "Draft configuration: Grand Prix course including the western parallel extension, northern shoulder and central angled hairpin. Branch identity was checked against catalogue layout facts and circuit identification references. Independent source distance 5100.4 m; no coordinates are changed to match a diagram or distance. Travel direction and historical alignment remain provisional."
    ]
  },
  "features": [
    {
      "type": "Feature",
      "id": "trace",
      "properties": {
        "role": "trace",
        "sourceIds": [
          "osm-selection-187997017"
        ]
      },
      "geometry": {
        "type": "LineString",
        "coordinates": [
          [
            143.2850129,
            42.6296717
          ],
          [
            143.2831509,
            42.629849
          ],
          [
            143.282542,
            42.6299075
          ],
          [
            143.282345,
            42.6299279
          ],
          [
            143.2822044,
            42.6299217
          ],
          [
            143.28208,
            42.6298929
          ],
          [
            143.282011,
            42.6298521
          ],
          [
            143.2819826,
            42.6298105
          ],
          [
            143.2819583,
            42.6297489
          ],
          [
            143.2819575,
            42.6296819
          ],
          [
            143.2819613,
            42.6296471
          ],
          [
            143.2820088,
            42.629549
          ],
          [
            143.2821457,
            42.6294547
          ],
          [
            143.2839253,
            42.6289493
          ],
          [
            143.2842553,
            42.6288799
          ],
          [
            143.2851341,
            42.6287961
          ],
          [
            143.285259,
            42.6287613
          ],
          [
            143.2853403,
            42.6287015
          ],
          [
            143.285424,
            42.6286311
          ],
          [
            143.2854553,
            42.6285417
          ],
          [
            143.2854676,
            42.6283843
          ],
          [
            143.2854199,
            42.6282077
          ],
          [
            143.2853544,
            42.6281245
          ],
          [
            143.2852709,
            42.6280714
          ],
          [
            143.2851831,
            42.6280347
          ],
          [
            143.2850403,
            42.6280211
          ],
          [
            143.284851,
            42.6280277
          ],
          [
            143.2844655,
            42.6280639
          ],
          [
            143.2810532,
            42.6283836
          ],
          [
            143.2806965,
            42.628417
          ],
          [
            143.2802605,
            42.6284753
          ],
          [
            143.2801708,
            42.6285004
          ],
          [
            143.2801132,
            42.6285171
          ],
          [
            143.2800093,
            42.6285625
          ],
          [
            143.2799497,
            42.6285975
          ],
          [
            143.2798858,
            42.6286367
          ],
          [
            143.2798235,
            42.6286875
          ],
          [
            143.2797874,
            42.6287325
          ],
          [
            143.2797584,
            42.6287759
          ],
          [
            143.2797423,
            42.6288322
          ],
          [
            143.27973,
            42.6289063
          ],
          [
            143.2801465,
            42.6313471
          ],
          [
            143.280175,
            42.631398
          ],
          [
            143.280259,
            42.631474
          ],
          [
            143.280334,
            42.631525
          ],
          [
            143.280412,
            42.631559
          ],
          [
            143.2805735,
            42.6316165
          ],
          [
            143.2807541,
            42.6316418
          ],
          [
            143.2809648,
            42.6316255
          ],
          [
            143.2834368,
            42.6308755
          ],
          [
            143.2837915,
            42.6307537
          ],
          [
            143.2840078,
            42.6306895
          ],
          [
            143.2841481,
            42.6306483
          ],
          [
            143.284212,
            42.630633
          ],
          [
            143.284295,
            42.630633
          ],
          [
            143.284386,
            42.630643
          ],
          [
            143.284475,
            42.630659
          ],
          [
            143.284555,
            42.630684
          ],
          [
            143.284598,
            42.630722
          ],
          [
            143.284633,
            42.630766
          ],
          [
            143.2846604,
            42.6308149
          ],
          [
            143.284699,
            42.630884
          ],
          [
            143.2847701,
            42.6310147
          ],
          [
            143.28487,
            42.6311235
          ],
          [
            143.2849343,
            42.6311735
          ],
          [
            143.2850294,
            42.6312355
          ],
          [
            143.2851683,
            42.6312844
          ],
          [
            143.2852565,
            42.6313107
          ],
          [
            143.2854044,
            42.6313294
          ],
          [
            143.2859839,
            42.6312805
          ],
          [
            143.286837,
            42.6311204
          ],
          [
            143.2876196,
            42.6310116
          ],
          [
            143.2876614,
            42.6309977
          ],
          [
            143.2877,
            42.6309678
          ],
          [
            143.2877183,
            42.6309304
          ],
          [
            143.2877305,
            42.6308736
          ],
          [
            143.2877589,
            42.6308527
          ],
          [
            143.2878098,
            42.6308287
          ],
          [
            143.2878789,
            42.6308153
          ],
          [
            143.2879927,
            42.6308228
          ],
          [
            143.2888119,
            42.6308886
          ],
          [
            143.2943999,
            42.6303711
          ],
          [
            143.2946174,
            42.6303561
          ],
          [
            143.2959555,
            42.6303307
          ],
          [
            143.2976053,
            42.6301735
          ],
          [
            143.2977854,
            42.6301596
          ],
          [
            143.2979156,
            42.6301339
          ],
          [
            143.2980096,
            42.6300999
          ],
          [
            143.2980751,
            42.6300637
          ],
          [
            143.2981526,
            42.6300025
          ],
          [
            143.2982456,
            42.6298927
          ],
          [
            143.2982923,
            42.6298104
          ],
          [
            143.2983372,
            42.6297204
          ],
          [
            143.2979208,
            42.6271792
          ],
          [
            143.2978551,
            42.6270512
          ],
          [
            143.297731,
            42.6269417
          ],
          [
            143.2976259,
            42.6268871
          ],
          [
            143.2975327,
            42.6268628
          ],
          [
            143.2973336,
            42.6268507
          ],
          [
            143.2953968,
            42.6270501
          ],
          [
            143.2952414,
            42.6271229
          ],
          [
            143.295167,
            42.6271801
          ],
          [
            143.295108,
            42.627243
          ],
          [
            143.295084,
            42.627278
          ],
          [
            143.2950358,
            42.6273617
          ],
          [
            143.2950084,
            42.6274269
          ],
          [
            143.29498,
            42.627573
          ],
          [
            143.2949916,
            42.6276505
          ],
          [
            143.2950263,
            42.6277356
          ],
          [
            143.2955838,
            42.6288131
          ],
          [
            143.2955782,
            42.6288965
          ],
          [
            143.2955498,
            42.6289835
          ],
          [
            143.295497,
            42.629075
          ],
          [
            143.2954598,
            42.6291114
          ],
          [
            143.295403,
            42.6291469
          ],
          [
            143.2952792,
            42.6291916
          ],
          [
            143.2939586,
            42.6293187
          ],
          [
            143.2937192,
            42.629293
          ],
          [
            143.2935283,
            42.6292403
          ],
          [
            143.2934521,
            42.6291992
          ],
          [
            143.2933304,
            42.6291097
          ],
          [
            143.2913749,
            42.6268983
          ],
          [
            143.2912139,
            42.6267992
          ],
          [
            143.2910344,
            42.6267445
          ],
          [
            143.2908442,
            42.6267254
          ],
          [
            143.2907164,
            42.6267334
          ],
          [
            143.2905819,
            42.6267831
          ],
          [
            143.2904038,
            42.626886
          ],
          [
            143.2891833,
            42.627719
          ],
          [
            143.2891255,
            42.6278039
          ],
          [
            143.289091,
            42.627922
          ],
          [
            143.2890996,
            42.6279771
          ],
          [
            143.2891595,
            42.6280749
          ],
          [
            143.2892165,
            42.6281391
          ],
          [
            143.2893495,
            42.628245
          ],
          [
            143.2901211,
            42.6288541
          ],
          [
            143.2901529,
            42.6289347
          ],
          [
            143.2901406,
            42.6290148
          ],
          [
            143.2901064,
            42.6291137
          ],
          [
            143.2900355,
            42.6291785
          ],
          [
            143.2899232,
            42.6292081
          ],
          [
            143.2898061,
            42.629223
          ],
          [
            143.2850129,
            42.6296717
          ]
        ]
      }
    }
  ]
}
