{
  "type": "FeatureCollection",
  "bbox": [
    -102.3296275,
    21.7211686,
    -102.3252565,
    21.7249387
  ],
  "metadata": {
    "schemaVersion": 1,
    "trackId": "mx-ovalo-aguscaliente-9c6010c1",
    "layoutId": "ovalo-aguscaliente",
    "license": "ODbL-1.0",
    "attribution": "© OpenStreetMap contributors",
    "closed": true,
    "geometryStatus": "draft",
    "timingStatus": "missing",
    "timingMode": "shared",
    "lengthM": 1342.6,
    "reviewedAt": null,
    "notes": [
      "Draft route hypothesis: the source cycle is the unique closest nominal-distance match within conservative timing and distance checks. Approximate OSM trace length 1342.6 m. Difference from the supplied layout distance 19.4 m. Course configuration still requires visual review."
    ]
  },
  "features": [
    {
      "type": "Feature",
      "id": "trace",
      "properties": {
        "role": "trace",
        "sourceIds": [
          "osm-network-184905703"
        ]
      },
      "geometry": {
        "type": "LineString",
        "coordinates": [
          [
            -102.3264429,
            21.7211729
          ],
          [
            -102.3267687,
            21.7211686
          ],
          [
            -102.3271427,
            21.7211992
          ],
          [
            -102.327531,
            21.721287
          ],
          [
            -102.3278496,
            21.7213897
          ],
          [
            -102.3282584,
            21.7215776
          ],
          [
            -102.3285706,
            21.7217705
          ],
          [
            -102.3287935,
            21.7219577
          ],
          [
            -102.3289735,
            21.7221449
          ],
          [
            -102.3292563,
            21.7225257
          ],
          [
            -102.3293953,
            21.7227884
          ],
          [
            -102.3295001,
            21.7230517
          ],
          [
            -102.3295958,
            21.7234945
          ],
          [
            -102.3296268,
            21.7238182
          ],
          [
            -102.3296275,
            21.7239978
          ],
          [
            -102.3295554,
            21.7242637
          ],
          [
            -102.3294603,
            21.724467
          ],
          [
            -102.3293148,
            21.7246151
          ],
          [
            -102.3291271,
            21.7247496
          ],
          [
            -102.3289287,
            21.7248543
          ],
          [
            -102.3287266,
            21.7249152
          ],
          [
            -102.3285004,
            21.7249387
          ],
          [
            -102.3282811,
            21.7249197
          ],
          [
            -102.328086,
            21.7248708
          ],
          [
            -102.3279431,
            21.7248052
          ],
          [
            -102.3277768,
            21.7247288
          ],
          [
            -102.3274542,
            21.7245445
          ],
          [
            -102.3271767,
            21.724325
          ],
          [
            -102.3258647,
            21.7232877
          ],
          [
            -102.3257194,
            21.7231423
          ],
          [
            -102.3256685,
            21.7230913
          ],
          [
            -102.3255098,
            21.7229198
          ],
          [
            -102.325392,
            21.722753
          ],
          [
            -102.3253118,
            21.7226111
          ],
          [
            -102.3252734,
            21.7224579
          ],
          [
            -102.3252565,
            21.7222898
          ],
          [
            -102.3252868,
            21.722045
          ],
          [
            -102.3253896,
            21.7217902
          ],
          [
            -102.32549,
            21.7216326
          ],
          [
            -102.3256441,
            21.721475
          ],
          [
            -102.3258213,
            21.72137
          ],
          [
            -102.3260682,
            21.7212649
          ],
          [
            -102.3262395,
            21.7212139
          ],
          [
            -102.3264429,
            21.7211729
          ]
        ]
      }
    }
  ]
}
