{
  "type": "FeatureCollection",
  "bbox": [
    -118.1973238,
    33.7617731,
    -118.1840972,
    33.765887
  ],
  "metadata": {
    "schemaVersion": 1,
    "trackId": "us-long-beach-street-circuit-5f06f492",
    "layoutId": "long-beach-street-circuit",
    "license": "ODbL-1.0",
    "attribution": "© OpenStreetMap contributors",
    "closed": true,
    "geometryStatus": "draft",
    "timingStatus": "missing",
    "timingMode": "shared",
    "lengthM": 3258.4,
    "reviewedAt": null,
    "notes": [
      "Draft configuration: The independently named Long Beach circuit relation contains one complete closed source-node cycle. The course follows Shoreline Drive, the Aquarium fountain section, convention-centre return and final hairpin, matching the published 11-turn INDYCAR circuit. The mapped road centreline measures 3258.4 m versus the catalogue 3169 m and operator 1.968 miles; temporary race barriers and exact historical racing alignment remain draft. Branch identity was checked against catalogue layout facts and circuit identification references. Independent source distance 3258.4 m; no coordinates are changed to match a diagram or distance. Travel direction and historical alignment remain provisional."
    ]
  },
  "features": [
    {
      "type": "Feature",
      "id": "trace",
      "properties": {
        "role": "trace",
        "sourceIds": [
          "osm-selection-long-beach-independent-relation-13352560"
        ]
      },
      "geometry": {
        "type": "LineString",
        "coordinates": [
          [
            -118.1909878,
            33.7658417
          ],
          [
            -118.190235,
            33.7658747
          ],
          [
            -118.190058,
            33.7658801
          ],
          [
            -118.189843,
            33.7658826
          ],
          [
            -118.1897328,
            33.7658857
          ],
          [
            -118.1896925,
            33.7658862
          ],
          [
            -118.1896291,
            33.765887
          ],
          [
            -118.1891568,
            33.7658855
          ],
          [
            -118.1890543,
            33.7658844
          ],
          [
            -118.1889496,
            33.7658822
          ],
          [
            -118.1887712,
            33.765872
          ],
          [
            -118.1886726,
            33.7658663
          ],
          [
            -118.1885919,
            33.7658608
          ],
          [
            -118.1881665,
            33.7658317
          ],
          [
            -118.1867955,
            33.7657404
          ],
          [
            -118.1865217,
            33.7657203
          ],
          [
            -118.1864825,
            33.7657174
          ],
          [
            -118.186368,
            33.7657091
          ],
          [
            -118.1858883,
            33.7656636
          ],
          [
            -118.1857721,
            33.7656198
          ],
          [
            -118.1856899,
            33.7655726
          ],
          [
            -118.1856264,
            33.7655142
          ],
          [
            -118.1855987,
            33.7654787
          ],
          [
            -118.185568,
            33.7654321
          ],
          [
            -118.1855446,
            33.7653593
          ],
          [
            -118.1855339,
            33.7653013
          ],
          [
            -118.18553,
            33.7652255
          ],
          [
            -118.1855453,
            33.7651382
          ],
          [
            -118.1855533,
            33.7649709
          ],
          [
            -118.1855629,
            33.7648781
          ],
          [
            -118.1855656,
            33.7648029
          ],
          [
            -118.1855625,
            33.7647313
          ],
          [
            -118.1855572,
            33.7646411
          ],
          [
            -118.185539,
            33.7645503
          ],
          [
            -118.1855207,
            33.7644711
          ],
          [
            -118.1854739,
            33.7643796
          ],
          [
            -118.1854117,
            33.7642946
          ],
          [
            -118.1853116,
            33.7642131
          ],
          [
            -118.1852062,
            33.7641648
          ],
          [
            -118.1850594,
            33.7641186
          ],
          [
            -118.1849254,
            33.764099
          ],
          [
            -118.1848115,
            33.7640947
          ],
          [
            -118.1846905,
            33.7641018
          ],
          [
            -118.1845559,
            33.7641236
          ],
          [
            -118.1843852,
            33.7641875
          ],
          [
            -118.1842557,
            33.7643197
          ],
          [
            -118.1842126,
            33.7643375
          ],
          [
            -118.1841676,
            33.7643344
          ],
          [
            -118.1841146,
            33.764301
          ],
          [
            -118.1840972,
            33.7642638
          ],
          [
            -118.1841098,
            33.764217
          ],
          [
            -118.1844602,
            33.7639107
          ],
          [
            -118.1847158,
            33.7637282
          ],
          [
            -118.1854136,
            33.7633217
          ],
          [
            -118.1855168,
            33.7632618
          ],
          [
            -118.1855508,
            33.763242
          ],
          [
            -118.1872307,
            33.7622661
          ],
          [
            -118.1873491,
            33.7621973
          ],
          [
            -118.1875966,
            33.7620855
          ],
          [
            -118.1878269,
            33.761997
          ],
          [
            -118.1881449,
            33.7619072
          ],
          [
            -118.1885271,
            33.761832
          ],
          [
            -118.1888691,
            33.7617894
          ],
          [
            -118.1892099,
            33.7617731
          ],
          [
            -118.1893396,
            33.7617748
          ],
          [
            -118.1894112,
            33.7617798
          ],
          [
            -118.1894761,
            33.7617845
          ],
          [
            -118.1894949,
            33.7617857
          ],
          [
            -118.1897111,
            33.7618016
          ],
          [
            -118.1901145,
            33.761873
          ],
          [
            -118.1904836,
            33.7619872
          ],
          [
            -118.19099,
            33.7621656
          ],
          [
            -118.1919742,
            33.7625751
          ],
          [
            -118.1926132,
            33.7628329
          ],
          [
            -118.1927503,
            33.7628884
          ],
          [
            -118.1928494,
            33.7629313
          ],
          [
            -118.192991,
            33.7629935
          ],
          [
            -118.1930229,
            33.763008
          ],
          [
            -118.1933196,
            33.7631391
          ],
          [
            -118.1935838,
            33.7632667
          ],
          [
            -118.1944294,
            33.7636574
          ],
          [
            -118.1945839,
            33.7637299
          ],
          [
            -118.1946578,
            33.7636201
          ],
          [
            -118.1946658,
            33.7636086
          ],
          [
            -118.1947461,
            33.7634934
          ],
          [
            -118.1948603,
            33.7633691
          ],
          [
            -118.1949626,
            33.763274
          ],
          [
            -118.1950986,
            33.7632
          ],
          [
            -118.1952652,
            33.763132
          ],
          [
            -118.1954615,
            33.7630763
          ],
          [
            -118.1956585,
            33.7630504
          ],
          [
            -118.1958276,
            33.7630448
          ],
          [
            -118.1958254,
            33.7629817
          ],
          [
            -118.195849,
            33.7629217
          ],
          [
            -118.1958956,
            33.7628718
          ],
          [
            -118.1959598,
            33.762838
          ],
          [
            -118.196034,
            33.7628243
          ],
          [
            -118.1961094,
            33.7628323
          ],
          [
            -118.1961771,
            33.762861
          ],
          [
            -118.1962291,
            33.762907
          ],
          [
            -118.1962593,
            33.7629649
          ],
          [
            -118.1962641,
            33.763028
          ],
          [
            -118.196243,
            33.7630887
          ],
          [
            -118.1963965,
            33.7631638
          ],
          [
            -118.1964273,
            33.7631782
          ],
          [
            -118.1966383,
            33.7632826
          ],
          [
            -118.1967294,
            33.7633719
          ],
          [
            -118.1967554,
            33.763387
          ],
          [
            -118.1968048,
            33.7634153
          ],
          [
            -118.1969483,
            33.7634975
          ],
          [
            -118.1969949,
            33.7635237
          ],
          [
            -118.1970218,
            33.7635376
          ],
          [
            -118.1972369,
            33.7636449
          ],
          [
            -118.1972472,
            33.7636597
          ],
          [
            -118.1972835,
            33.7636964
          ],
          [
            -118.1972952,
            33.7637303
          ],
          [
            -118.1973238,
            33.7638415
          ],
          [
            -118.1972436,
            33.7640356
          ],
          [
            -118.1971431,
            33.7642359
          ],
          [
            -118.1970811,
            33.7643349
          ],
          [
            -118.1970226,
            33.7644281
          ],
          [
            -118.1969834,
            33.7644904
          ],
          [
            -118.1969308,
            33.7645594
          ],
          [
            -118.1968227,
            33.7646831
          ],
          [
            -118.1968009,
            33.7647068
          ],
          [
            -118.1967135,
            33.7648055
          ],
          [
            -118.1965888,
            33.7649585
          ],
          [
            -118.1964775,
            33.7648932
          ],
          [
            -118.1964535,
            33.7648799
          ],
          [
            -118.1959044,
            33.7645759
          ],
          [
            -118.1954523,
            33.7643588
          ],
          [
            -118.1944884,
            33.7638826
          ],
          [
            -118.1943278,
            33.7638046
          ],
          [
            -118.1943095,
            33.763796
          ],
          [
            -118.193665,
            33.7634919
          ],
          [
            -118.1932885,
            33.7633187
          ],
          [
            -118.1928903,
            33.7631495
          ],
          [
            -118.1927582,
            33.7630981
          ],
          [
            -118.1926476,
            33.7630503
          ],
          [
            -118.1925821,
            33.7631468
          ],
          [
            -118.1925032,
            33.7632828
          ],
          [
            -118.1924271,
            33.7634315
          ],
          [
            -118.1923822,
            33.7635496
          ],
          [
            -118.1923552,
            33.7637025
          ],
          [
            -118.1923875,
            33.7638273
          ],
          [
            -118.1923764,
            33.7639712
          ],
          [
            -118.192371,
            33.7641554
          ],
          [
            -118.1923723,
            33.7643713
          ],
          [
            -118.1923727,
            33.764443
          ],
          [
            -118.192373,
            33.7645155
          ],
          [
            -118.1923685,
            33.7650058
          ],
          [
            -118.192366,
            33.7653277
          ],
          [
            -118.1923594,
            33.765719
          ],
          [
            -118.1923575,
            33.7658397
          ],
          [
            -118.1922263,
            33.7658398
          ],
          [
            -118.191802,
            33.7658405
          ],
          [
            -118.191754,
            33.7658406
          ],
          [
            -118.1916248,
            33.7658408
          ],
          [
            -118.1909878,
            33.7658417
          ]
        ]
      }
    }
  ]
}
