{
  "type": "FeatureCollection",
  "bbox": [
    14.2978969,
    37.5071304,
    14.314476,
    37.5224249
  ],
  "metadata": {
    "schemaVersion": 1,
    "trackId": "it-autodromo-di-pergusa-51067755",
    "layoutId": "main",
    "license": "ODbL-1.0",
    "attribution": "© OpenStreetMap contributors",
    "closed": true,
    "geometryStatus": "draft",
    "timingStatus": "missing",
    "timingMode": "shared",
    "lengthM": 4982.7,
    "reviewedAt": null,
    "notes": [
      "Connected OSM course candidate. The selected loop is the longest simple source-node cycle after explicit exclusions; its association with a named circuit configuration requires review.",
      "Source way order and shared node IDs are retained. No nearby endpoints are joined and no Racelogic boundaries are read."
    ]
  },
  "features": [
    {
      "type": "Feature",
      "id": "trace",
      "properties": {
        "role": "trace",
        "sourceIds": [
          "osm-snapshot"
        ]
      },
      "geometry": {
        "type": "LineString",
        "coordinates": [
          [
            14.3080582,
            37.5213962
          ],
          [
            14.3081339,
            37.5214647
          ],
          [
            14.3081621,
            37.5215049
          ],
          [
            14.3081841,
            37.5215804
          ],
          [
            14.308188,
            37.5217814
          ],
          [
            14.3082,
            37.521855
          ],
          [
            14.3082396,
            37.5219411
          ],
          [
            14.308307,
            37.5220382
          ],
          [
            14.3083967,
            37.5221161
          ],
          [
            14.3085082,
            37.5221784
          ],
          [
            14.3086357,
            37.5222186
          ],
          [
            14.3087692,
            37.5222432
          ],
          [
            14.311241,
            37.5224249
          ],
          [
            14.3114475,
            37.5223976
          ],
          [
            14.3115645,
            37.5223594
          ],
          [
            14.3116884,
            37.5222229
          ],
          [
            14.3127791,
            37.5208739
          ],
          [
            14.312806,
            37.5208165
          ],
          [
            14.3128064,
            37.5207543
          ],
          [
            14.3127916,
            37.5206906
          ],
          [
            14.3127696,
            37.5206421
          ],
          [
            14.3126873,
            37.5205306
          ],
          [
            14.3126538,
            37.5204821
          ],
          [
            14.3126383,
            37.5204269
          ],
          [
            14.3126369,
            37.5203855
          ],
          [
            14.3126427,
            37.5203365
          ],
          [
            14.312676,
            37.5202671
          ],
          [
            14.3133679,
            37.5194606
          ],
          [
            14.3139416,
            37.518784
          ],
          [
            14.3140939,
            37.5185594
          ],
          [
            14.3142214,
            37.5183524
          ],
          [
            14.3143558,
            37.5180089
          ],
          [
            14.3144077,
            37.5178212
          ],
          [
            14.3144613,
            37.517551
          ],
          [
            14.314476,
            37.5172769
          ],
          [
            14.314464,
            37.517034
          ],
          [
            14.3144451,
            37.5167662
          ],
          [
            14.3143681,
            37.5165065
          ],
          [
            14.3142278,
            37.5161522
          ],
          [
            14.3130512,
            37.5138089
          ],
          [
            14.3117083,
            37.5111342
          ],
          [
            14.3116981,
            37.5111172
          ],
          [
            14.3116816,
            37.5111035
          ],
          [
            14.3116605,
            37.5110948
          ],
          [
            14.311637,
            37.5110918
          ],
          [
            14.3116135,
            37.5110949
          ],
          [
            14.31149,
            37.5111144
          ],
          [
            14.3114667,
            37.5111166
          ],
          [
            14.3114437,
            37.5111128
          ],
          [
            14.3114234,
            37.5111035
          ],
          [
            14.311408,
            37.5110895
          ],
          [
            14.3112809,
            37.5109208
          ],
          [
            14.3111433,
            37.5107635
          ],
          [
            14.310879,
            37.5105582
          ],
          [
            14.3101457,
            37.5100881
          ],
          [
            14.3101058,
            37.510051
          ],
          [
            14.3100918,
            37.5100166
          ],
          [
            14.3100891,
            37.5099715
          ],
          [
            14.3100955,
            37.5098438
          ],
          [
            14.3100904,
            37.5097844
          ],
          [
            14.3100566,
            37.5097101
          ],
          [
            14.3100101,
            37.5096448
          ],
          [
            14.3099575,
            37.5095929
          ],
          [
            14.3099065,
            37.5095493
          ],
          [
            14.3098327,
            37.5095056
          ],
          [
            14.3055945,
            37.5079421
          ],
          [
            14.3050947,
            37.507796
          ],
          [
            14.3044221,
            37.507646
          ],
          [
            14.303605,
            37.5075238
          ],
          [
            14.3019775,
            37.5073231
          ],
          [
            14.3011581,
            37.507251
          ],
          [
            14.3009548,
            37.5072362
          ],
          [
            14.3007491,
            37.5072366
          ],
          [
            14.3007315,
            37.5072362
          ],
          [
            14.300715,
            37.5072313
          ],
          [
            14.3007014,
            37.5072224
          ],
          [
            14.3006922,
            37.5072105
          ],
          [
            14.3006525,
            37.5071509
          ],
          [
            14.3006368,
            37.5071392
          ],
          [
            14.3006172,
            37.5071321
          ],
          [
            14.3005958,
            37.5071304
          ],
          [
            14.3005748,
            37.5071342
          ],
          [
            14.3004784,
            37.5071739
          ],
          [
            14.3004181,
            37.5071898
          ],
          [
            14.2998777,
            37.5072954
          ],
          [
            14.2995446,
            37.5073843
          ],
          [
            14.2991725,
            37.507539
          ],
          [
            14.2988947,
            37.507695
          ],
          [
            14.2986631,
            37.5078726
          ],
          [
            14.2984544,
            37.5080673
          ],
          [
            14.2982769,
            37.5082663
          ],
          [
            14.2981068,
            37.5085412
          ],
          [
            14.2980167,
            37.508745
          ],
          [
            14.2979623,
            37.5089145
          ],
          [
            14.2979094,
            37.5091258
          ],
          [
            14.2978969,
            37.5093362
          ],
          [
            14.2979202,
            37.5096024
          ],
          [
            14.2979545,
            37.5098744
          ],
          [
            14.2982375,
            37.5106938
          ],
          [
            14.2993712,
            37.5134619
          ],
          [
            14.3009989,
            37.5166923
          ],
          [
            14.3010629,
            37.5167814
          ],
          [
            14.3011503,
            37.5168171
          ],
          [
            14.3012546,
            37.5168507
          ],
          [
            14.30139,
            37.5168619
          ],
          [
            14.3014952,
            37.5168937
          ],
          [
            14.3015805,
            37.5169893
          ],
          [
            14.3018912,
            37.5175321
          ],
          [
            14.3019084,
            37.5175893
          ],
          [
            14.3018986,
            37.5176276
          ],
          [
            14.3018779,
            37.5176693
          ],
          [
            14.3017622,
            37.5177825
          ],
          [
            14.3017386,
            37.5178158
          ],
          [
            14.3017273,
            37.5178548
          ],
          [
            14.3017268,
            37.5178936
          ],
          [
            14.3017459,
            37.5179427
          ],
          [
            14.3020925,
            37.5184321
          ],
          [
            14.3023316,
            37.5186553
          ],
          [
            14.3026192,
            37.518852
          ],
          [
            14.3078165,
            37.5212742
          ],
          [
            14.3080582,
            37.5213962
          ]
        ]
      }
    }
  ]
}
