{
  "type": "FeatureCollection",
  "bbox": [
    -79.6139255,
    34.9731378,
    -79.607108,
    34.9758721
  ],
  "metadata": {
    "schemaVersion": 1,
    "trackId": "us-rockingham-speedway-infield-course-245545512",
    "layoutId": "main",
    "license": "ODbL-1.0",
    "attribution": "© OpenStreetMap contributors",
    "closed": true,
    "geometryStatus": "draft",
    "timingStatus": "missing",
    "timingMode": "shared",
    "lengthM": 1559.4,
    "reviewedAt": null,
    "notes": [
      "Closed named OSM raceway retained as a course candidate. Named-layout association requires review.",
      "Source way order and shared node IDs are retained. No nearby endpoints are joined and no Racelogic boundaries are read."
    ]
  },
  "features": [
    {
      "type": "Feature",
      "id": "trace",
      "properties": {
        "role": "trace",
        "sourceIds": [
          "osm-snapshot"
        ]
      },
      "geometry": {
        "type": "LineString",
        "coordinates": [
          [
            -79.6112422,
            34.9758518
          ],
          [
            -79.6115537,
            34.9758121
          ],
          [
            -79.6126178,
            34.9755727
          ],
          [
            -79.6128382,
            34.9755134
          ],
          [
            -79.6130527,
            34.9754397
          ],
          [
            -79.6132551,
            34.9753409
          ],
          [
            -79.61347,
            34.9752055
          ],
          [
            -79.6136628,
            34.9750324
          ],
          [
            -79.6137789,
            34.9748586
          ],
          [
            -79.6138704,
            34.9746727
          ],
          [
            -79.6139255,
            34.9744455
          ],
          [
            -79.6139255,
            34.9742152
          ],
          [
            -79.6138924,
            34.9740196
          ],
          [
            -79.6138098,
            34.9738571
          ],
          [
            -79.6137087,
            34.9736855
          ],
          [
            -79.6135912,
            34.9735666
          ],
          [
            -79.6134461,
            34.9734522
          ],
          [
            -79.613279,
            34.9733559
          ],
          [
            -79.6131486,
            34.9732882
          ],
          [
            -79.6130108,
            34.9732355
          ],
          [
            -79.6128382,
            34.9731768
          ],
          [
            -79.6126802,
            34.9731482
          ],
          [
            -79.6125305,
            34.9731378
          ],
          [
            -79.6123549,
            34.9731378
          ],
          [
            -79.6119914,
            34.9731451
          ],
          [
            -79.6092146,
            34.9731904
          ],
          [
            -79.6089483,
            34.9731919
          ],
          [
            -79.6085314,
            34.9732009
          ],
          [
            -79.6083936,
            34.9732084
          ],
          [
            -79.6082375,
            34.9732235
          ],
          [
            -79.6080979,
            34.9732549
          ],
          [
            -79.6079377,
            34.9733104
          ],
          [
            -79.6078169,
            34.9733755
          ],
          [
            -79.6076852,
            34.9734542
          ],
          [
            -79.6075488,
            34.9735501
          ],
          [
            -79.6074129,
            34.9736915
          ],
          [
            -79.6073155,
            34.9738044
          ],
          [
            -79.607198,
            34.9740136
          ],
          [
            -79.6071484,
            34.9741445
          ],
          [
            -79.6071117,
            34.974292
          ],
          [
            -79.607108,
            34.9744034
          ],
          [
            -79.6071148,
            34.9745185
          ],
          [
            -79.6071355,
            34.9746462
          ],
          [
            -79.6071667,
            34.9747484
          ],
          [
            -79.6072109,
            34.974842
          ],
          [
            -79.6072654,
            34.9749505
          ],
          [
            -79.6073381,
            34.9750612
          ],
          [
            -79.6074368,
            34.9751825
          ],
          [
            -79.6075407,
            34.9752847
          ],
          [
            -79.6076836,
            34.9753911
          ],
          [
            -79.6078109,
            34.9754698
          ],
          [
            -79.6079513,
            34.9755364
          ],
          [
            -79.6081022,
            34.975591
          ],
          [
            -79.60825,
            34.9756322
          ],
          [
            -79.6084704,
            34.9756785
          ],
          [
            -79.6088082,
            34.9757465
          ],
          [
            -79.6091693,
            34.9758104
          ],
          [
            -79.609451,
            34.975845
          ],
          [
            -79.6096896,
            34.9758654
          ],
          [
            -79.6098861,
            34.9758721
          ],
          [
            -79.6105655,
            34.9758711
          ],
          [
            -79.6108951,
            34.9758683
          ],
          [
            -79.6110524,
            34.9758657
          ],
          [
            -79.6112422,
            34.9758518
          ]
        ]
      }
    }
  ]
}
