{
  "type": "FeatureCollection",
  "bbox": [
    -79.6139255,
    34.9731378,
    -79.6071148,
    34.9758721
  ],
  "metadata": {
    "schemaVersion": 1,
    "trackId": "us-rockingham-speedway-infield-course-245545512",
    "layoutId": "rockingham-infield-course",
    "license": "ODbL-1.0",
    "attribution": "© OpenStreetMap contributors",
    "closed": true,
    "geometryStatus": "draft",
    "timingStatus": "missing",
    "timingMode": "shared",
    "lengthM": 2329.9,
    "reviewedAt": null,
    "notes": [
      "Draft route hypothesis: the source cycle is the unique closest nominal-distance match within conservative timing and distance checks. Approximate OSM trace length 2329.9 m. Difference from the supplied layout distance 23.1 m. Course configuration still requires visual review."
    ]
  },
  "features": [
    {
      "type": "Feature",
      "id": "trace",
      "properties": {
        "role": "trace",
        "sourceIds": [
          "osm-network-245545513"
        ]
      },
      "geometry": {
        "type": "LineString",
        "coordinates": [
          [
            -79.6092146,
            34.9731904
          ],
          [
            -79.6090327,
            34.973234
          ],
          [
            -79.6089497,
            34.9732756
          ],
          [
            -79.6088821,
            34.9733224
          ],
          [
            -79.6088399,
            34.9733619
          ],
          [
            -79.608726,
            34.9734823
          ],
          [
            -79.6086544,
            34.9735756
          ],
          [
            -79.6086085,
            34.9736659
          ],
          [
            -79.608603,
            34.9737788
          ],
          [
            -79.608625,
            34.9738721
          ],
          [
            -79.6086673,
            34.9739519
          ],
          [
            -79.6087132,
            34.9740136
          ],
          [
            -79.6087701,
            34.9740647
          ],
          [
            -79.6088693,
            34.9741174
          ],
          [
            -79.6089795,
            34.9741535
          ],
          [
            -79.609097,
            34.9741656
          ],
          [
            -79.609525,
            34.974146
          ],
          [
            -79.6096333,
            34.9741295
          ],
          [
            -79.6098886,
            34.9740662
          ],
          [
            -79.6107129,
            34.9738396
          ],
          [
            -79.6109722,
            34.9737683
          ],
          [
            -79.6111963,
            34.9737051
          ],
          [
            -79.6113726,
            34.9736599
          ],
          [
            -79.6115452,
            34.9736328
          ],
          [
            -79.6117013,
            34.9736343
          ],
          [
            -79.6118776,
            34.973672
          ],
          [
            -79.6119787,
            34.9737171
          ],
          [
            -79.6120301,
            34.9737397
          ],
          [
            -79.6121219,
            34.9738209
          ],
          [
            -79.6121972,
            34.9739293
          ],
          [
            -79.612245,
            34.9740602
          ],
          [
            -79.6122542,
            34.9741731
          ],
          [
            -79.6122504,
            34.9742345
          ],
          [
            -79.6122248,
            34.9742815
          ],
          [
            -79.6121531,
            34.9743793
          ],
          [
            -79.612054,
            34.9744575
          ],
          [
            -79.6119456,
            34.9745042
          ],
          [
            -79.6118097,
            34.9745388
          ],
          [
            -79.6116591,
            34.9745478
          ],
          [
            -79.6114497,
            34.9745569
          ],
          [
            -79.6112881,
            34.9745659
          ],
          [
            -79.6111028,
            34.9745753
          ],
          [
            -79.610963,
            34.9745824
          ],
          [
            -79.6100135,
            34.9746472
          ],
          [
            -79.6093872,
            34.9746968
          ],
          [
            -79.6091448,
            34.9747073
          ],
          [
            -79.6089538,
            34.9747043
          ],
          [
            -79.6087187,
            34.9746773
          ],
          [
            -79.6085718,
            34.9746487
          ],
          [
            -79.6084414,
            34.9745975
          ],
          [
            -79.608384,
            34.9745644
          ],
          [
            -79.608355,
            34.9745373
          ],
          [
            -79.6082632,
            34.9744515
          ],
          [
            -79.6081953,
            34.9743778
          ],
          [
            -79.6080869,
            34.9742559
          ],
          [
            -79.6080024,
            34.9741656
          ],
          [
            -79.6079253,
            34.9740918
          ],
          [
            -79.6078408,
            34.9740346
          ],
          [
            -79.6077563,
            34.9740076
          ],
          [
            -79.6076737,
            34.973997
          ],
          [
            -79.6075745,
            34.9740015
          ],
          [
            -79.6074331,
            34.9740377
          ],
          [
            -79.6073559,
            34.9740738
          ],
          [
            -79.6072806,
            34.974131
          ],
          [
            -79.6072035,
            34.9742062
          ],
          [
            -79.6071484,
            34.9743206
          ],
          [
            -79.6071148,
            34.9745185
          ],
          [
            -79.6071355,
            34.9746462
          ],
          [
            -79.6071667,
            34.9747484
          ],
          [
            -79.6072109,
            34.974842
          ],
          [
            -79.6072654,
            34.9749505
          ],
          [
            -79.6073381,
            34.9750612
          ],
          [
            -79.6074368,
            34.9751825
          ],
          [
            -79.6075407,
            34.9752847
          ],
          [
            -79.6076836,
            34.9753911
          ],
          [
            -79.6078109,
            34.9754698
          ],
          [
            -79.6079513,
            34.9755364
          ],
          [
            -79.6081022,
            34.975591
          ],
          [
            -79.60825,
            34.9756322
          ],
          [
            -79.6084704,
            34.9756785
          ],
          [
            -79.6088082,
            34.9757465
          ],
          [
            -79.6091693,
            34.9758104
          ],
          [
            -79.609451,
            34.975845
          ],
          [
            -79.6096896,
            34.9758654
          ],
          [
            -79.6098861,
            34.9758721
          ],
          [
            -79.6105655,
            34.9758711
          ],
          [
            -79.6108951,
            34.9758683
          ],
          [
            -79.6110524,
            34.9758657
          ],
          [
            -79.6112422,
            34.9758518
          ],
          [
            -79.6115537,
            34.9758121
          ],
          [
            -79.6126178,
            34.9755727
          ],
          [
            -79.6128382,
            34.9755134
          ],
          [
            -79.6130527,
            34.9754397
          ],
          [
            -79.6132551,
            34.9753409
          ],
          [
            -79.61347,
            34.9752055
          ],
          [
            -79.6136628,
            34.9750324
          ],
          [
            -79.6137789,
            34.9748586
          ],
          [
            -79.6138704,
            34.9746727
          ],
          [
            -79.6139255,
            34.9744455
          ],
          [
            -79.6139255,
            34.9742152
          ],
          [
            -79.6138924,
            34.9740196
          ],
          [
            -79.6138098,
            34.9738571
          ],
          [
            -79.6137087,
            34.9736855
          ],
          [
            -79.6135912,
            34.9735666
          ],
          [
            -79.6134461,
            34.9734522
          ],
          [
            -79.613279,
            34.9733559
          ],
          [
            -79.6131486,
            34.9732882
          ],
          [
            -79.6130108,
            34.9732355
          ],
          [
            -79.6128382,
            34.9731768
          ],
          [
            -79.6126802,
            34.9731482
          ],
          [
            -79.6125305,
            34.9731378
          ],
          [
            -79.6123549,
            34.9731378
          ],
          [
            -79.6119914,
            34.9731451
          ],
          [
            -79.6092146,
            34.9731904
          ]
        ]
      }
    }
  ]
}
