{
  "type": "FeatureCollection",
  "bbox": [
    -88.0611683,
    41.4710047,
    -88.0522161,
    41.4786703
  ],
  "metadata": {
    "schemaVersion": 1,
    "trackId": "us-chicagoland-speedway-33119599",
    "layoutId": "main",
    "license": "ODbL-1.0",
    "attribution": "© OpenStreetMap contributors",
    "closed": true,
    "geometryStatus": "draft",
    "timingStatus": "missing",
    "timingMode": "shared",
    "lengthM": 2468.2,
    "reviewedAt": null,
    "notes": [
      "Connected OSM course candidate. The selected loop is the longest simple source-node cycle after explicit exclusions; its association with a named circuit configuration requires review.",
      "Source way order and shared node IDs are retained. No nearby endpoints are joined and no Racelogic boundaries are read."
    ]
  },
  "features": [
    {
      "type": "Feature",
      "id": "trace",
      "properties": {
        "role": "trace",
        "sourceIds": [
          "osm-snapshot"
        ]
      },
      "geometry": {
        "type": "LineString",
        "coordinates": [
          [
            -88.058868,
            41.4722524
          ],
          [
            -88.0579325,
            41.471815
          ],
          [
            -88.0560184,
            41.4711398
          ],
          [
            -88.0556557,
            41.4710844
          ],
          [
            -88.0551344,
            41.4710047
          ],
          [
            -88.0542761,
            41.471069
          ],
          [
            -88.0535208,
            41.4713005
          ],
          [
            -88.0528599,
            41.4717314
          ],
          [
            -88.0524393,
            41.4722717
          ],
          [
            -88.0522161,
            41.4729148
          ],
          [
            -88.0522676,
            41.4735707
          ],
          [
            -88.0526882,
            41.4744325
          ],
          [
            -88.0527766,
            41.4745406
          ],
          [
            -88.0528917,
            41.4746813
          ],
          [
            -88.0535036,
            41.4754292
          ],
          [
            -88.0545421,
            41.4765546
          ],
          [
            -88.0553404,
            41.4772813
          ],
          [
            -88.0561128,
            41.4779308
          ],
          [
            -88.056913,
            41.4783754
          ],
          [
            -88.057838,
            41.4786317
          ],
          [
            -88.0580689,
            41.4786423
          ],
          [
            -88.0586792,
            41.4786703
          ],
          [
            -88.0594002,
            41.4785224
          ],
          [
            -88.0600353,
            41.4782587
          ],
          [
            -88.0606275,
            41.4778407
          ],
          [
            -88.0610481,
            41.4772041
          ],
          [
            -88.0611683,
            41.4766125
          ],
          [
            -88.0609451,
            41.4749919
          ],
          [
            -88.0606962,
            41.4742588
          ],
          [
            -88.06031,
            41.4735643
          ],
          [
            -88.0596577,
            41.4728633
          ],
          [
            -88.058868,
            41.4722524
          ]
        ]
      }
    }
  ]
}
