{
  "type": "FeatureCollection",
  "bbox": [
    -72.16413,
    -50.3297921,
    -72.1510602,
    -50.3196697
  ],
  "metadata": {
    "schemaVersion": 1,
    "trackId": "ar-autodromo-municipal-enrique-quique-freile-1160575442",
    "layoutId": "main",
    "license": "ODbL-1.0",
    "attribution": "© OpenStreetMap contributors",
    "closed": true,
    "geometryStatus": "draft",
    "timingStatus": "missing",
    "timingMode": "shared",
    "lengthM": 3663.1,
    "reviewedAt": null,
    "notes": [
      "Closed named OSM raceway retained as a course candidate. Named-layout association requires review.",
      "Source way order and shared node IDs are retained. No nearby endpoints are joined and no Racelogic boundaries are read."
    ]
  },
  "features": [
    {
      "type": "Feature",
      "id": "trace",
      "properties": {
        "role": "trace",
        "sourceIds": [
          "osm-snapshot"
        ]
      },
      "geometry": {
        "type": "LineString",
        "coordinates": [
          [
            -72.1514237,
            -50.3232067
          ],
          [
            -72.151532,
            -50.3253189
          ],
          [
            -72.1515593,
            -50.3258504
          ],
          [
            -72.151584,
            -50.3260078
          ],
          [
            -72.1516517,
            -50.3260865
          ],
          [
            -72.151775,
            -50.3261533
          ],
          [
            -72.1521509,
            -50.3262832
          ],
          [
            -72.1522618,
            -50.3263736
          ],
          [
            -72.1523912,
            -50.3264956
          ],
          [
            -72.1527424,
            -50.3267985
          ],
          [
            -72.1528842,
            -50.3268929
          ],
          [
            -72.1531368,
            -50.3269913
          ],
          [
            -72.1534326,
            -50.327066
          ],
          [
            -72.1541166,
            -50.3271958
          ],
          [
            -72.1542706,
            -50.3272116
          ],
          [
            -72.1545171,
            -50.3272234
          ],
          [
            -72.1549731,
            -50.3272312
          ],
          [
            -72.1551395,
            -50.3272509
          ],
          [
            -72.155312,
            -50.3272902
          ],
          [
            -72.1565876,
            -50.3278056
          ],
          [
            -72.156908,
            -50.3279118
          ],
          [
            -72.157173,
            -50.3279865
          ],
          [
            -72.1591094,
            -50.3284445
          ],
          [
            -72.1603834,
            -50.3287458
          ],
          [
            -72.1607901,
            -50.3288598
          ],
          [
            -72.1637418,
            -50.3297803
          ],
          [
            -72.1638773,
            -50.3297921
          ],
          [
            -72.1639944,
            -50.3297685
          ],
          [
            -72.1640745,
            -50.3296899
          ],
          [
            -72.1640992,
            -50.3296151
          ],
          [
            -72.16413,
            -50.3294617
          ],
          [
            -72.164096,
            -50.3292895
          ],
          [
            -72.1640396,
            -50.329196
          ],
          [
            -72.1638465,
            -50.3289857
          ],
          [
            -72.1635631,
            -50.3287536
          ],
          [
            -72.1630578,
            -50.328435
          ],
          [
            -72.1622136,
            -50.3280101
          ],
          [
            -72.1614988,
            -50.3276876
          ],
          [
            -72.1610743,
            -50.3275225
          ],
          [
            -72.160519,
            -50.3273335
          ],
          [
            -72.1596871,
            -50.3270975
          ],
          [
            -72.1595281,
            -50.3270536
          ],
          [
            -72.159188,
            -50.3269598
          ],
          [
            -72.1569573,
            -50.3264326
          ],
          [
            -72.1568402,
            -50.3264287
          ],
          [
            -72.1566985,
            -50.3264326
          ],
          [
            -72.1565506,
            -50.3264602
          ],
          [
            -72.1563781,
            -50.3265192
          ],
          [
            -72.1561501,
            -50.3265585
          ],
          [
            -72.1560083,
            -50.3265585
          ],
          [
            -72.1558481,
            -50.3265271
          ],
          [
            -72.1534572,
            -50.3259645
          ],
          [
            -72.153334,
            -50.3258898
          ],
          [
            -72.153297,
            -50.3257875
          ],
          [
            -72.1533217,
            -50.3256655
          ],
          [
            -72.1538393,
            -50.3245364
          ],
          [
            -72.1538886,
            -50.3243083
          ],
          [
            -72.1538763,
            -50.3240407
          ],
          [
            -72.1537653,
            -50.3237457
          ],
          [
            -72.1531553,
            -50.3224356
          ],
          [
            -72.153069,
            -50.3220854
          ],
          [
            -72.1531122,
            -50.3218061
          ],
          [
            -72.1532416,
            -50.3215267
          ],
          [
            -72.1534326,
            -50.3212671
          ],
          [
            -72.1536735,
            -50.3210748
          ],
          [
            -72.1539872,
            -50.320909
          ],
          [
            -72.1555339,
            -50.3203031
          ],
          [
            -72.1557237,
            -50.3202225
          ],
          [
            -72.1558481,
            -50.3201418
          ],
          [
            -72.1559714,
            -50.3200199
          ],
          [
            -72.1559899,
            -50.3198861
          ],
          [
            -72.1559344,
            -50.3198192
          ],
          [
            -72.1558296,
            -50.3197798
          ],
          [
            -72.1552011,
            -50.3196697
          ],
          [
            -72.1548992,
            -50.3196736
          ],
          [
            -72.1545911,
            -50.3197169
          ],
          [
            -72.1543076,
            -50.3197917
          ],
          [
            -72.1524052,
            -50.320599
          ],
          [
            -72.1512758,
            -50.3210782
          ],
          [
            -72.1511156,
            -50.3211805
          ],
          [
            -72.1510602,
            -50.321271
          ],
          [
            -72.1510602,
            -50.321393
          ],
          [
            -72.1511156,
            -50.3214913
          ],
          [
            -72.1512943,
            -50.3216684
          ],
          [
            -72.1513436,
            -50.3217353
          ],
          [
            -72.1513621,
            -50.3218139
          ],
          [
            -72.1514237,
            -50.3232067
          ]
        ]
      }
    }
  ]
}
