{
  "type": "FeatureCollection",
  "bbox": [
    -54.4678252,
    -20.4803832,
    -54.4632709,
    -20.4718285
  ],
  "metadata": {
    "schemaVersion": 1,
    "trackId": "br-autodromo-internacional-de-campo-grande-240032772",
    "layoutId": "campo-grande-track-b",
    "license": "ODbL-1.0",
    "attribution": "© OpenStreetMap contributors",
    "closed": true,
    "geometryStatus": "draft",
    "timingStatus": "missing",
    "timingMode": "shared",
    "lengthM": 3441.3,
    "reviewedAt": null,
    "notes": [
      "Draft route hypothesis: the source cycle is the unique closest nominal-distance match within conservative timing and distance checks. Approximate OSM trace length 3441.3 m. Difference from the supplied layout distance 10.7 m. Course configuration still requires visual review."
    ]
  },
  "features": [
    {
      "type": "Feature",
      "id": "trace",
      "properties": {
        "role": "trace",
        "sourceIds": [
          "osm-network-240032772"
        ]
      },
      "geometry": {
        "type": "LineString",
        "coordinates": [
          [
            -54.466899,
            -20.4733356
          ],
          [
            -54.4669105,
            -20.473232
          ],
          [
            -54.4668792,
            -20.4731304
          ],
          [
            -54.4668097,
            -20.4730492
          ],
          [
            -54.4667109,
            -20.4729981
          ],
          [
            -54.4666004,
            -20.4729866
          ],
          [
            -54.466492,
            -20.4730161
          ],
          [
            -54.4664052,
            -20.473081
          ],
          [
            -54.4663515,
            -20.4731739
          ],
          [
            -54.4657858,
            -20.4748552
          ],
          [
            -54.4657128,
            -20.4750721
          ],
          [
            -54.4656115,
            -20.4752422
          ],
          [
            -54.4654507,
            -20.475361
          ],
          [
            -54.4652502,
            -20.4754135
          ],
          [
            -54.4650468,
            -20.475391
          ],
          [
            -54.4641577,
            -20.4751284
          ],
          [
            -54.4640884,
            -20.4751001
          ],
          [
            -54.4639568,
            -20.4750053
          ],
          [
            -54.4639006,
            -20.4749406
          ],
          [
            -54.4638227,
            -20.4747978
          ],
          [
            -54.4638021,
            -20.4747276
          ],
          [
            -54.463796,
            -20.4745767
          ],
          [
            -54.4638105,
            -20.4744991
          ],
          [
            -54.4639038,
            -20.474308
          ],
          [
            -54.4642647,
            -20.4738317
          ],
          [
            -54.4643749,
            -20.4737008
          ],
          [
            -54.4646198,
            -20.4734559
          ],
          [
            -54.4647493,
            -20.4733444
          ],
          [
            -54.4650269,
            -20.47314
          ],
          [
            -54.4652073,
            -20.4730191
          ],
          [
            -54.4669356,
            -20.4719468
          ],
          [
            -54.4670213,
            -20.4719017
          ],
          [
            -54.4671895,
            -20.4718415
          ],
          [
            -54.4672755,
            -20.4718285
          ],
          [
            -54.4674523,
            -20.4718491
          ],
          [
            -54.4675286,
            -20.4718758
          ],
          [
            -54.4676543,
            -20.4719584
          ],
          [
            -54.4677505,
            -20.4720766
          ],
          [
            -54.4677889,
            -20.47215
          ],
          [
            -54.4678252,
            -20.4723295
          ],
          [
            -54.4678239,
            -20.4724226
          ],
          [
            -54.4677804,
            -20.4726013
          ],
          [
            -54.4654447,
            -20.4795423
          ],
          [
            -54.4653744,
            -20.479735
          ],
          [
            -54.4652844,
            -20.4799167
          ],
          [
            -54.4651501,
            -20.4800706
          ],
          [
            -54.4649876,
            -20.4802037
          ],
          [
            -54.4647969,
            -20.4802972
          ],
          [
            -54.4645926,
            -20.4803639
          ],
          [
            -54.464382,
            -20.4803832
          ],
          [
            -54.4641662,
            -20.4803702
          ],
          [
            -54.4639592,
            -20.4803083
          ],
          [
            -54.4637659,
            -20.4802219
          ],
          [
            -54.4635987,
            -20.4800914
          ],
          [
            -54.4634596,
            -20.4799439
          ],
          [
            -54.4633561,
            -20.4797662
          ],
          [
            -54.4632885,
            -20.4795738
          ],
          [
            -54.4632709,
            -20.4793718
          ],
          [
            -54.4632817,
            -20.4791743
          ],
          [
            -54.4632876,
            -20.4790867
          ],
          [
            -54.4636506,
            -20.4780101
          ],
          [
            -54.463691,
            -20.4779409
          ],
          [
            -54.4637577,
            -20.4778905
          ],
          [
            -54.4638385,
            -20.4778682
          ],
          [
            -54.4639237,
            -20.4778769
          ],
          [
            -54.4639976,
            -20.4779146
          ],
          [
            -54.4640514,
            -20.4779772
          ],
          [
            -54.4640751,
            -20.4780528
          ],
          [
            -54.4640659,
            -20.4781328
          ],
          [
            -54.463929,
            -20.4785397
          ],
          [
            -54.4639072,
            -20.4786736
          ],
          [
            -54.4639377,
            -20.4788069
          ],
          [
            -54.4640273,
            -20.478922
          ],
          [
            -54.4640907,
            -20.4789634
          ],
          [
            -54.4641577,
            -20.4789919
          ],
          [
            -54.4647805,
            -20.4791766
          ],
          [
            -54.4648775,
            -20.4791964
          ],
          [
            -54.4649729,
            -20.4791942
          ],
          [
            -54.4650559,
            -20.4791676
          ],
          [
            -54.4651206,
            -20.4791175
          ],
          [
            -54.4651907,
            -20.4789878
          ],
          [
            -54.4651981,
            -20.4789115
          ],
          [
            -54.4651591,
            -20.4785908
          ],
          [
            -54.4651653,
            -20.4785202
          ],
          [
            -54.4652139,
            -20.4783429
          ],
          [
            -54.4664087,
            -20.4747924
          ],
          [
            -54.466899,
            -20.4733356
          ]
        ]
      }
    }
  ]
}
