{
  "type": "FeatureCollection",
  "bbox": [
    -2.218089,
    51.4853783,
    -2.2041778,
    51.4933602
  ],
  "metadata": {
    "schemaVersion": 1,
    "trackId": "gb-castle-combe-circuit-35406015",
    "layoutId": "castle-combe",
    "license": "ODbL-1.0",
    "attribution": "© OpenStreetMap contributors",
    "closed": true,
    "geometryStatus": "draft",
    "timingStatus": "missing",
    "timingMode": "shared",
    "lengthM": 2961.5,
    "reviewedAt": null,
    "notes": [
      "Draft identification from a uniquely connected OSM course with a matching layout name. Private reference start/finish GPS supports the venue association. Named source geometry and configuration still require visual review."
    ]
  },
  "features": [
    {
      "type": "Feature",
      "id": "trace",
      "properties": {
        "role": "trace",
        "sourceIds": [
          "osm-snapshot"
        ]
      },
      "geometry": {
        "type": "LineString",
        "coordinates": [
          [
            -2.2075926,
            51.4877305
          ],
          [
            -2.2079463,
            51.4873475
          ],
          [
            -2.2079872,
            51.4873119
          ],
          [
            -2.208075,
            51.4872356
          ],
          [
            -2.2082149,
            51.4871576
          ],
          [
            -2.2084103,
            51.4870903
          ],
          [
            -2.2118489,
            51.4864556
          ],
          [
            -2.2120366,
            51.4864155
          ],
          [
            -2.2122458,
            51.4863471
          ],
          [
            -2.2124899,
            51.4862535
          ],
          [
            -2.2144027,
            51.4854724
          ],
          [
            -2.2145928,
            51.4854134
          ],
          [
            -2.2148529,
            51.4853783
          ],
          [
            -2.2151024,
            51.4853833
          ],
          [
            -2.2153492,
            51.4854184
          ],
          [
            -2.2155829,
            51.4854941
          ],
          [
            -2.2158078,
            51.4856105
          ],
          [
            -2.2159339,
            51.4857274
          ],
          [
            -2.2160331,
            51.485851
          ],
          [
            -2.2161381,
            51.4859918
          ],
          [
            -2.2167748,
            51.4870619
          ],
          [
            -2.2176679,
            51.4884063
          ],
          [
            -2.2178599,
            51.4886786
          ],
          [
            -2.2179915,
            51.4888996
          ],
          [
            -2.2180291,
            51.4889931
          ],
          [
            -2.2180394,
            51.4891045
          ],
          [
            -2.218067,
            51.490123
          ],
          [
            -2.2180783,
            51.4909087
          ],
          [
            -2.218089,
            51.4918226
          ],
          [
            -2.2180863,
            51.4918734
          ],
          [
            -2.2180595,
            51.4919483
          ],
          [
            -2.2180086,
            51.4920254
          ],
          [
            -2.2178881,
            51.4921938
          ],
          [
            -2.2178316,
            51.4922538
          ],
          [
            -2.2177605,
            51.492311
          ],
          [
            -2.2176707,
            51.4923652
          ],
          [
            -2.217566,
            51.4924128
          ],
          [
            -2.2173608,
            51.4924722
          ],
          [
            -2.2169477,
            51.4925766
          ],
          [
            -2.2160162,
            51.4927346
          ],
          [
            -2.2131016,
            51.4932913
          ],
          [
            -2.2128149,
            51.4933335
          ],
          [
            -2.2124394,
            51.4933602
          ],
          [
            -2.2119861,
            51.4933586
          ],
          [
            -2.2115726,
            51.4933213
          ],
          [
            -2.2090191,
            51.4929072
          ],
          [
            -2.2087084,
            51.4928426
          ],
          [
            -2.208354,
            51.4927519
          ],
          [
            -2.2069485,
            51.4923744
          ],
          [
            -2.2065841,
            51.4922965
          ],
          [
            -2.2062538,
            51.4922643
          ],
          [
            -2.2058679,
            51.4922597
          ],
          [
            -2.2051621,
            51.4922943
          ],
          [
            -2.2049292,
            51.4922931
          ],
          [
            -2.2046556,
            51.4922597
          ],
          [
            -2.204441,
            51.4921796
          ],
          [
            -2.2043038,
            51.4920689
          ],
          [
            -2.2042103,
            51.4919141
          ],
          [
            -2.2041778,
            51.491775
          ],
          [
            -2.2041969,
            51.4916335
          ],
          [
            -2.20428,
            51.4915049
          ],
          [
            -2.2047351,
            51.4909871
          ],
          [
            -2.2055435,
            51.4900672
          ],
          [
            -2.2064258,
            51.4890632
          ],
          [
            -2.2075926,
            51.4877305
          ]
        ]
      }
    }
  ]
}
