{
  "type": "FeatureCollection",
  "bbox": [
    -111.9736779,
    33.2630179,
    -111.9634741,
    33.2651598
  ],
  "metadata": {
    "schemaVersion": 1,
    "trackId": "us-bondurant-driving-school-ac53816b",
    "layoutId": "bondurant-driving-school",
    "license": "ODbL-1.0",
    "attribution": "© OpenStreetMap contributors",
    "closed": true,
    "geometryStatus": "draft",
    "timingStatus": "missing",
    "timingMode": "shared",
    "lengthM": 2266.1,
    "reviewedAt": null,
    "notes": [
      "Draft configuration: Western rounded turnaround, southern sequence of bends and eastern rounded loop; excludes additional internal detours. Branch identity was checked against catalogue layout facts and circuit identification references. Independent source distance 2266.1 m; no coordinates are changed to match a diagram or distance. Travel direction and historical alignment remain provisional."
    ]
  },
  "features": [
    {
      "type": "Feature",
      "id": "trace",
      "properties": {
        "role": "trace",
        "sourceIds": [
          "osm-selection-137284296"
        ]
      },
      "geometry": {
        "type": "LineString",
        "coordinates": [
          [
            -111.9731693,
            33.2631809
          ],
          [
            -111.9734165,
            33.2632246
          ],
          [
            -111.9735305,
            33.2632723
          ],
          [
            -111.9736398,
            33.2633915
          ],
          [
            -111.9736731,
            33.2634908
          ],
          [
            -111.9736779,
            33.2635981
          ],
          [
            -111.9736446,
            33.2637054
          ],
          [
            -111.97354,
            33.2638246
          ],
          [
            -111.9734022,
            33.2639121
          ],
          [
            -111.9732359,
            33.2639717
          ],
          [
            -111.9723899,
            33.2639359
          ],
          [
            -111.9721238,
            33.2639121
          ],
          [
            -111.9718244,
            33.2638723
          ],
          [
            -111.9715962,
            33.2638048
          ],
          [
            -111.9714157,
            33.2637213
          ],
          [
            -111.9712873,
            33.2637491
          ],
          [
            -111.9709214,
            33.2638644
          ],
          [
            -111.9707836,
            33.2639121
          ],
          [
            -111.9705649,
            33.2638842
          ],
          [
            -111.970142,
            33.2640869
          ],
          [
            -111.9699424,
            33.2641386
          ],
          [
            -111.969776,
            33.2641505
          ],
          [
            -111.9696002,
            33.2641266
          ],
          [
            -111.9695688,
            33.2641181
          ],
          [
            -111.9694101,
            33.264075
          ],
          [
            -111.9692342,
            33.2640273
          ],
          [
            -111.9690489,
            33.2639876
          ],
          [
            -111.9688968,
            33.2639796
          ],
          [
            -111.9684863,
            33.2640583
          ],
          [
            -111.9666583,
            33.2644088
          ],
          [
            -111.966454,
            33.2644406
          ],
          [
            -111.9659882,
            33.2645002
          ],
          [
            -111.9657953,
            33.2645059
          ],
          [
            -111.9654179,
            33.2645677
          ],
          [
            -111.9652658,
            33.2645956
          ],
          [
            -111.9651185,
            33.264679
          ],
          [
            -111.965066,
            33.2647364
          ],
          [
            -111.9649949,
            33.2648141
          ],
          [
            -111.9647716,
            33.2650367
          ],
          [
            -111.9645815,
            33.265132
          ],
          [
            -111.9644199,
            33.2651598
          ],
          [
            -111.964187,
            33.2651201
          ],
          [
            -111.964092,
            33.2650446
          ],
          [
            -111.9639922,
            33.2649572
          ],
          [
            -111.9638686,
            33.2648221
          ],
          [
            -111.9637735,
            33.264683
          ],
          [
            -111.9637022,
            33.264532
          ],
          [
            -111.9635597,
            33.2641227
          ],
          [
            -111.9635264,
            33.2639876
          ],
          [
            -111.9635019,
            33.2638701
          ],
          [
            -111.9634931,
            33.2638286
          ],
          [
            -111.9634741,
            33.2636895
          ],
          [
            -111.9634979,
            33.2635902
          ],
          [
            -111.9635359,
            33.2634908
          ],
          [
            -111.9635834,
            33.2634193
          ],
          [
            -111.9636642,
            33.2633279
          ],
          [
            -111.9637925,
            33.2632325
          ],
          [
            -111.9639304,
            33.2631769
          ],
          [
            -111.9641157,
            33.2631491
          ],
          [
            -111.9642678,
            33.2631491
          ],
          [
            -111.9644246,
            33.2631729
          ],
          [
            -111.9646052,
            33.2632365
          ],
          [
            -111.9648842,
            33.2633354
          ],
          [
            -111.9651344,
            33.2636568
          ],
          [
            -111.9653181,
            33.2637293
          ],
          [
            -111.9655225,
            33.2637253
          ],
          [
            -111.9656746,
            33.2637014
          ],
          [
            -111.9657599,
            33.2636391
          ],
          [
            -111.9657316,
            33.2635624
          ],
          [
            -111.9656983,
            33.2634153
          ],
          [
            -111.9657031,
            33.2632802
          ],
          [
            -111.9657649,
            33.2631888
          ],
          [
            -111.9659027,
            33.2631491
          ],
          [
            -111.9660785,
            33.2631372
          ],
          [
            -111.9663732,
            33.2631689
          ],
          [
            -111.9665158,
            33.2631888
          ],
          [
            -111.9666536,
            33.2632683
          ],
          [
            -111.9670195,
            33.2635067
          ],
          [
            -111.9671193,
            33.2635584
          ],
          [
            -111.9672429,
            33.2635862
          ],
          [
            -111.9673475,
            33.2635783
          ],
          [
            -111.9675043,
            33.2635345
          ],
          [
            -111.967913,
            33.2632405
          ],
          [
            -111.9680176,
            33.2631729
          ],
          [
            -111.9681459,
            33.2631411
          ],
          [
            -111.9687685,
            33.263157
          ],
          [
            -111.9692105,
            33.2632762
          ],
          [
            -111.9693245,
            33.2632762
          ],
          [
            -111.9697523,
            33.263161
          ],
          [
            -111.9698758,
            33.2631491
          ],
          [
            -111.9701721,
            33.2631879
          ],
          [
            -111.9703463,
            33.2630458
          ],
          [
            -111.9705079,
            33.2630179
          ],
          [
            -111.9711257,
            33.2630299
          ],
          [
            -111.9712968,
            33.2630497
          ],
          [
            -111.9714632,
            33.2631054
          ],
          [
            -111.9716248,
            33.2631928
          ],
          [
            -111.9731693,
            33.2631809
          ]
        ]
      }
    }
  ]
}
