{
  "type": "FeatureCollection",
  "bbox": [
    116.3004835,
    -8.9053527,
    116.3090297,
    -8.8944596
  ],
  "metadata": {
    "schemaVersion": 1,
    "trackId": "id-mandalika-international-street-circuit-942267289",
    "layoutId": "main",
    "license": "ODbL-1.0",
    "attribution": "© OpenStreetMap contributors",
    "closed": true,
    "geometryStatus": "draft",
    "timingStatus": "missing",
    "timingMode": "shared",
    "lengthM": 4312.5,
    "reviewedAt": null,
    "notes": [
      "Connected OSM course candidate. The selected loop is the longest simple source-node cycle after explicit exclusions; its association with a named circuit configuration requires review.",
      "Source way order and shared node IDs are retained. No nearby endpoints are joined and no Racelogic boundaries are read."
    ]
  },
  "features": [
    {
      "type": "Feature",
      "id": "trace",
      "properties": {
        "role": "trace",
        "sourceIds": [
          "osm-snapshot"
        ]
      },
      "geometry": {
        "type": "LineString",
        "coordinates": [
          [
            116.3020892,
            -8.9049557
          ],
          [
            116.3021977,
            -8.9028963
          ],
          [
            116.3022407,
            -8.9027442
          ],
          [
            116.3023489,
            -8.9026215
          ],
          [
            116.3025241,
            -8.9025366
          ],
          [
            116.3034225,
            -8.9021968
          ],
          [
            116.3036397,
            -8.9021077
          ],
          [
            116.30382,
            -8.9019614
          ],
          [
            116.3039357,
            -8.9018
          ],
          [
            116.3040053,
            -8.9016002
          ],
          [
            116.3040224,
            -8.901405
          ],
          [
            116.3038156,
            -8.8992277
          ],
          [
            116.3037598,
            -8.8990575
          ],
          [
            116.3036704,
            -8.8989322
          ],
          [
            116.3035168,
            -8.8988162
          ],
          [
            116.3033458,
            -8.8987721
          ],
          [
            116.3029995,
            -8.8987527
          ],
          [
            116.3027678,
            -8.8987218
          ],
          [
            116.3025574,
            -8.8986597
          ],
          [
            116.3024698,
            -8.8986213
          ],
          [
            116.3023389,
            -8.8985638
          ],
          [
            116.3021064,
            -8.8984153
          ],
          [
            116.3019373,
            -8.8982648
          ],
          [
            116.3017932,
            -8.8980834
          ],
          [
            116.3007747,
            -8.896607
          ],
          [
            116.3006012,
            -8.896295
          ],
          [
            116.3005165,
            -8.8960305
          ],
          [
            116.3004835,
            -8.8957704
          ],
          [
            116.3004957,
            -8.8955031
          ],
          [
            116.300543,
            -8.8952609
          ],
          [
            116.3006009,
            -8.8950674
          ],
          [
            116.3007012,
            -8.8948571
          ],
          [
            116.3008799,
            -8.8946004
          ],
          [
            116.3009867,
            -8.8945287
          ],
          [
            116.3011061,
            -8.8945242
          ],
          [
            116.3012174,
            -8.8945705
          ],
          [
            116.3013118,
            -8.8946815
          ],
          [
            116.301352,
            -8.8948173
          ],
          [
            116.3013538,
            -8.8950085
          ],
          [
            116.3012328,
            -8.8958878
          ],
          [
            116.3012348,
            -8.8960349
          ],
          [
            116.3013086,
            -8.8961699
          ],
          [
            116.3014293,
            -8.8962354
          ],
          [
            116.3015552,
            -8.8962425
          ],
          [
            116.3017703,
            -8.8961985
          ],
          [
            116.3079841,
            -8.8944596
          ],
          [
            116.3081463,
            -8.8944772
          ],
          [
            116.3082901,
            -8.8945336
          ],
          [
            116.3084075,
            -8.8946398
          ],
          [
            116.3084763,
            -8.8947443
          ],
          [
            116.3085088,
            -8.8948831
          ],
          [
            116.3085639,
            -8.8966541
          ],
          [
            116.3085305,
            -8.896781
          ],
          [
            116.3084421,
            -8.8968984
          ],
          [
            116.3083162,
            -8.8969759
          ],
          [
            116.3081777,
            -8.8969861
          ],
          [
            116.3080024,
            -8.8969895
          ],
          [
            116.3078863,
            -8.8969979
          ],
          [
            116.3077879,
            -8.8970593
          ],
          [
            116.3077212,
            -8.8971418
          ],
          [
            116.3075704,
            -8.897454
          ],
          [
            116.3075629,
            -8.897582
          ],
          [
            116.3076139,
            -8.8977223
          ],
          [
            116.3077666,
            -8.8979299
          ],
          [
            116.3080037,
            -8.8981964
          ],
          [
            116.308197,
            -8.8983673
          ],
          [
            116.3088706,
            -8.898896
          ],
          [
            116.3089473,
            -8.8989981
          ],
          [
            116.3089871,
            -8.8991375
          ],
          [
            116.3090169,
            -8.9000309
          ],
          [
            116.3090297,
            -8.9007734
          ],
          [
            116.3090194,
            -8.9009342
          ],
          [
            116.3089669,
            -8.9010657
          ],
          [
            116.3088865,
            -8.9011765
          ],
          [
            116.3078426,
            -8.9023662
          ],
          [
            116.3077089,
            -8.9024908
          ],
          [
            116.3075693,
            -8.902556
          ],
          [
            116.3074029,
            -8.9025859
          ],
          [
            116.3070872,
            -8.9025809
          ],
          [
            116.3068812,
            -8.9025964
          ],
          [
            116.3066767,
            -8.9026377
          ],
          [
            116.3064807,
            -8.9027091
          ],
          [
            116.306277,
            -8.9028334
          ],
          [
            116.3060817,
            -8.9029821
          ],
          [
            116.3059395,
            -8.9031611
          ],
          [
            116.3057087,
            -8.9034698
          ],
          [
            116.3055697,
            -8.9036375
          ],
          [
            116.305471,
            -8.9037198
          ],
          [
            116.3054037,
            -8.903776
          ],
          [
            116.305151,
            -8.9039419
          ],
          [
            116.3030851,
            -8.905052
          ],
          [
            116.3025895,
            -8.9053183
          ],
          [
            116.3024339,
            -8.9053527
          ],
          [
            116.3022992,
            -8.9053192
          ],
          [
            116.3021868,
            -8.9052434
          ],
          [
            116.3021017,
            -8.9051111
          ],
          [
            116.3020892,
            -8.9049557
          ]
        ]
      }
    }
  ]
}
