{
  "type": "FeatureCollection",
  "bbox": [
    -9.1907336,
    39.2658266,
    -9.1886177,
    39.2677116
  ],
  "metadata": {
    "schemaVersion": 1,
    "trackId": "pt-bombarral-b2-9936078e",
    "layoutId": "bombarral-b2",
    "license": "ODbL-1.0",
    "attribution": "© OpenStreetMap contributors",
    "closed": true,
    "geometryStatus": "draft",
    "timingStatus": "missing",
    "timingMode": "shared",
    "lengthM": 1094.8,
    "reviewedAt": null,
    "notes": [
      "Draft configuration: The national federation 2025 Circuito 2B plan (page 6) identifies the full southern finger, southeast curved outer return and smooth northeast corner. The angular northeast alternative and straight southeast shortcut are excluded. Independent public nodes supply the trace; the archive image only identifies the named configuration. Branch identity was checked against catalogue layout facts and circuit identification references. Independent source distance 1094.8 m; no coordinates are changed to match a diagram or distance. Travel direction and historical alignment remain provisional."
    ]
  },
  "features": [
    {
      "type": "Feature",
      "id": "trace",
      "properties": {
        "role": "trace",
        "sourceIds": [
          "osm-selection-307000722"
        ]
      },
      "geometry": {
        "type": "LineString",
        "coordinates": [
          [
            -9.1894358,
            39.2666774
          ],
          [
            -9.1892999,
            39.2664351
          ],
          [
            -9.189249,
            39.2663957
          ],
          [
            -9.1891762,
            39.2663929
          ],
          [
            -9.1891107,
            39.2664211
          ],
          [
            -9.1890889,
            39.2664689
          ],
          [
            -9.1890729,
            39.2665971
          ],
          [
            -9.1890561,
            39.2667309
          ],
          [
            -9.189016,
            39.2668977
          ],
          [
            -9.1890286,
            39.2669383
          ],
          [
            -9.189081,
            39.2669562
          ],
          [
            -9.1891853,
            39.2669446
          ],
          [
            -9.1894596,
            39.2672636
          ],
          [
            -9.1895786,
            39.267402
          ],
          [
            -9.1895985,
            39.2674413
          ],
          [
            -9.1896007,
            39.2674875
          ],
          [
            -9.1895875,
            39.2675388
          ],
          [
            -9.1895367,
            39.2675799
          ],
          [
            -9.1893268,
            39.2676944
          ],
          [
            -9.189265,
            39.2677116
          ],
          [
            -9.1892186,
            39.2677098
          ],
          [
            -9.1891656,
            39.2676859
          ],
          [
            -9.1891346,
            39.2676466
          ],
          [
            -9.1890971,
            39.2675679
          ],
          [
            -9.1890507,
            39.2674807
          ],
          [
            -9.1890087,
            39.2674482
          ],
          [
            -9.1889579,
            39.2674294
          ],
          [
            -9.1888673,
            39.2674208
          ],
          [
            -9.1888055,
            39.2674208
          ],
          [
            -9.1887567,
            39.2674268
          ],
          [
            -9.1887083,
            39.2674328
          ],
          [
            -9.1886619,
            39.2674259
          ],
          [
            -9.1886376,
            39.2674054
          ],
          [
            -9.1886177,
            39.2673746
          ],
          [
            -9.1886231,
            39.2673451
          ],
          [
            -9.1887282,
            39.2667209
          ],
          [
            -9.1888342,
            39.2660915
          ],
          [
            -9.1888196,
            39.2660548
          ],
          [
            -9.1887723,
            39.2660436
          ],
          [
            -9.1887104,
            39.2660238
          ],
          [
            -9.1886486,
            39.2659788
          ],
          [
            -9.1886267,
            39.2659337
          ],
          [
            -9.1886377,
            39.2658858
          ],
          [
            -9.1886668,
            39.2658492
          ],
          [
            -9.1887032,
            39.2658266
          ],
          [
            -9.1888014,
            39.2658295
          ],
          [
            -9.188987,
            39.2658464
          ],
          [
            -9.1890779,
            39.2658661
          ],
          [
            -9.1891544,
            39.2659112
          ],
          [
            -9.1891871,
            39.2659929
          ],
          [
            -9.1891835,
            39.2660661
          ],
          [
            -9.189198,
            39.2661112
          ],
          [
            -9.1892599,
            39.2661393
          ],
          [
            -9.1893327,
            39.2661591
          ],
          [
            -9.18942,
            39.2661591
          ],
          [
            -9.1894818,
            39.2661393
          ],
          [
            -9.1895328,
            39.2660943
          ],
          [
            -9.1895364,
            39.2660323
          ],
          [
            -9.1895546,
            39.2659759
          ],
          [
            -9.1895837,
            39.2659337
          ],
          [
            -9.1896383,
            39.2658971
          ],
          [
            -9.1897074,
            39.2658773
          ],
          [
            -9.1897911,
            39.2658773
          ],
          [
            -9.1898748,
            39.2659083
          ],
          [
            -9.1899003,
            39.2659675
          ],
          [
            -9.1898967,
            39.2660323
          ],
          [
            -9.1898639,
            39.2660943
          ],
          [
            -9.1897948,
            39.2666042
          ],
          [
            -9.1897948,
            39.2666549
          ],
          [
            -9.1898239,
            39.2667028
          ],
          [
            -9.1898894,
            39.2667253
          ],
          [
            -9.1899876,
            39.2667169
          ],
          [
            -9.190064,
            39.2666661
          ],
          [
            -9.1901368,
            39.2665506
          ],
          [
            -9.1902023,
            39.2663957
          ],
          [
            -9.1902969,
            39.2662041
          ],
          [
            -9.1903297,
            39.2661534
          ],
          [
            -9.1903842,
            39.2660971
          ],
          [
            -9.1904461,
            39.2660717
          ],
          [
            -9.1905189,
            39.2660576
          ],
          [
            -9.1905989,
            39.2660661
          ],
          [
            -9.1906863,
            39.2661027
          ],
          [
            -9.1907226,
            39.2661534
          ],
          [
            -9.1907336,
            39.2662154
          ],
          [
            -9.1907044,
            39.2662887
          ],
          [
            -9.1904534,
            39.2665647
          ],
          [
            -9.1902933,
            39.2667647
          ],
          [
            -9.190246,
            39.2669281
          ],
          [
            -9.1902096,
            39.2670803
          ],
          [
            -9.190115,
            39.2672183
          ],
          [
            -9.1899949,
            39.2673113
          ],
          [
            -9.1899185,
            39.2673282
          ],
          [
            -9.189853,
            39.2673282
          ],
          [
            -9.1897948,
            39.2672944
          ],
          [
            -9.1897438,
            39.2672267
          ],
          [
            -9.1897234,
            39.267166
          ],
          [
            -9.1894358,
            39.2666774
          ]
        ]
      }
    }
  ]
}
