{
  "type": "FeatureCollection",
  "bbox": [
    13.4226856,
    63.3237945,
    13.4277683,
    63.3278413
  ],
  "metadata": {
    "schemaVersion": 1,
    "trackId": "se-molanda-raceway-4eb5965c",
    "layoutId": "molanda-raceway",
    "license": "ODbL-1.0",
    "attribution": "© OpenStreetMap contributors",
    "closed": true,
    "geometryStatus": "draft",
    "timingStatus": "missing",
    "timingMode": "shared",
    "lengthM": 1276,
    "reviewedAt": null,
    "notes": [
      "Draft route hypothesis: the source cycle is the unique closest nominal-distance match within conservative timing and distance checks. Approximate OSM trace length 1276 m. Difference from the supplied layout distance 7.0 m. Course configuration still requires visual review."
    ]
  },
  "features": [
    {
      "type": "Feature",
      "id": "trace",
      "properties": {
        "role": "trace",
        "sourceIds": [
          "osm-network-227685107"
        ]
      },
      "geometry": {
        "type": "LineString",
        "coordinates": [
          [
            13.4227312,
            63.3246753
          ],
          [
            13.4226856,
            63.3245748
          ],
          [
            13.4226963,
            63.3244881
          ],
          [
            13.4227607,
            63.3243965
          ],
          [
            13.4228706,
            63.3243303
          ],
          [
            13.4229967,
            63.3242834
          ],
          [
            13.423171,
            63.3242484
          ],
          [
            13.4233668,
            63.3242496
          ],
          [
            13.4236109,
            63.3242617
          ],
          [
            13.425585,
            63.3243616
          ],
          [
            13.4257969,
            63.3243616
          ],
          [
            13.4260008,
            63.3243412
          ],
          [
            13.4261751,
            63.3242978
          ],
          [
            13.4262824,
            63.3242496
          ],
          [
            13.4263816,
            63.3241882
          ],
          [
            13.4264165,
            63.324128
          ],
          [
            13.4265587,
            63.3239498
          ],
          [
            13.4266499,
            63.3238896
          ],
          [
            13.4267732,
            63.3238499
          ],
          [
            13.4269556,
            63.3238186
          ],
          [
            13.4271783,
            63.3237945
          ],
          [
            13.4273741,
            63.3238113
          ],
          [
            13.427543,
            63.3238523
          ],
          [
            13.4276289,
            63.3239101
          ],
          [
            13.4277388,
            63.3239763
          ],
          [
            13.4277603,
            63.3240473
          ],
          [
            13.4277683,
            63.3241316
          ],
          [
            13.4277496,
            63.3242051
          ],
          [
            13.4276879,
            63.3244062
          ],
          [
            13.4273834,
            63.3255459
          ],
          [
            13.4273513,
            63.3256398
          ],
          [
            13.4273083,
            63.3257397
          ],
          [
            13.4272332,
            63.3257975
          ],
          [
            13.427126,
            63.3258626
          ],
          [
            13.4269972,
            63.3259059
          ],
          [
            13.4268336,
            63.3259517
          ],
          [
            13.4260967,
            63.3260796
          ],
          [
            13.4259465,
            63.3261675
          ],
          [
            13.4258499,
            63.3263072
          ],
          [
            13.4258553,
            63.3264035
          ],
          [
            13.4258955,
            63.3265564
          ],
          [
            13.4260135,
            63.3266925
          ],
          [
            13.4261423,
            63.3268008
          ],
          [
            13.4262603,
            63.3268839
          ],
          [
            13.4264239,
            63.3269549
          ],
          [
            13.4266492,
            63.3270127
          ],
          [
            13.4268665,
            63.3270705
          ],
          [
            13.4270703,
            63.3271247
          ],
          [
            13.4272741,
            63.327209
          ],
          [
            13.4273573,
            63.327274
          ],
          [
            13.4274083,
            63.3273619
          ],
          [
            13.4274056,
            63.3274462
          ],
          [
            13.4273492,
            63.3275196
          ],
          [
            13.4272607,
            63.3275774
          ],
          [
            13.4271293,
            63.3276581
          ],
          [
            13.4269523,
            63.3277364
          ],
          [
            13.4267887,
            63.3277857
          ],
          [
            13.4265697,
            63.3278292
          ],
          [
            13.4263223,
            63.3278413
          ],
          [
            13.4261283,
            63.3278413
          ],
          [
            13.4257641,
            63.3278182
          ],
          [
            13.4254529,
            63.3277436
          ],
          [
            13.4251377,
            63.3276057
          ],
          [
            13.4241364,
            63.3263865
          ],
          [
            13.424098,
            63.3263397
          ],
          [
            13.4227312,
            63.3246753
          ]
        ]
      }
    }
  ]
}
