{
  "type": "FeatureCollection",
  "bbox": [
    113.5508778,
    22.3631783,
    113.5613162,
    22.3715324
  ],
  "metadata": {
    "schemaVersion": 1,
    "trackId": "cn-zhuhai-international-circuit-144766397",
    "layoutId": "main",
    "license": "ODbL-1.0",
    "attribution": "© OpenStreetMap contributors",
    "closed": true,
    "geometryStatus": "draft",
    "timingStatus": "missing",
    "timingMode": "shared",
    "lengthM": 4310,
    "reviewedAt": null,
    "notes": [
      "Connected OSM course candidate. The selected loop is the longest simple source-node cycle after explicit exclusions; its association with a named circuit configuration requires review.",
      "Source way order and shared node IDs are retained. No nearby endpoints are joined and no Racelogic boundaries are read."
    ]
  },
  "features": [
    {
      "type": "Feature",
      "id": "trace",
      "properties": {
        "role": "trace",
        "sourceIds": [
          "osm-snapshot"
        ]
      },
      "geometry": {
        "type": "LineString",
        "coordinates": [
          [
            113.5608109,
            22.3631783
          ],
          [
            113.5607197,
            22.3631833
          ],
          [
            113.5606124,
            22.3631932
          ],
          [
            113.5604997,
            22.3632379
          ],
          [
            113.558075,
            22.3644583
          ],
          [
            113.5579044,
            22.3645421
          ],
          [
            113.5578175,
            22.364612
          ],
          [
            113.5577371,
            22.3646964
          ],
          [
            113.5576727,
            22.3647956
          ],
          [
            113.5565526,
            22.3668787
          ],
          [
            113.5564764,
            22.3669337
          ],
          [
            113.556397,
            22.3669432
          ],
          [
            113.5562672,
            22.3668891
          ],
          [
            113.5560258,
            22.3668097
          ],
          [
            113.5558327,
            22.3667899
          ],
          [
            113.5555806,
            22.3667948
          ],
          [
            113.5534348,
            22.3669288
          ],
          [
            113.553173,
            22.3669531
          ],
          [
            113.5530003,
            22.3670032
          ],
          [
            113.5528286,
            22.3670726
          ],
          [
            113.5526956,
            22.3671714
          ],
          [
            113.5510129,
            22.3685982
          ],
          [
            113.5509074,
            22.368705
          ],
          [
            113.5508778,
            22.3688046
          ],
          [
            113.5509252,
            22.3688962
          ],
          [
            113.5510423,
            22.3689429
          ],
          [
            113.5511925,
            22.3689429
          ],
          [
            113.5534198,
            22.3686348
          ],
          [
            113.5539927,
            22.3685559
          ],
          [
            113.5544122,
            22.368486
          ],
          [
            113.5547008,
            22.3684021
          ],
          [
            113.5566116,
            22.3677567
          ],
          [
            113.5567393,
            22.3677126
          ],
          [
            113.5568412,
            22.3677126
          ],
          [
            113.5569163,
            22.3677721
          ],
          [
            113.5569592,
            22.3678366
          ],
          [
            113.5569699,
            22.367916
          ],
          [
            113.5568519,
            22.3691066
          ],
          [
            113.5568144,
            22.3692306
          ],
          [
            113.5567339,
            22.3693496
          ],
          [
            113.5566213,
            22.3694389
          ],
          [
            113.5564721,
            22.3695129
          ],
          [
            113.5519446,
            22.3709614
          ],
          [
            113.5518212,
            22.3710159
          ],
          [
            113.5517611,
            22.3710809
          ],
          [
            113.5517407,
            22.3712094
          ],
          [
            113.5517718,
            22.3713141
          ],
          [
            113.5518963,
            22.3714029
          ],
          [
            113.5523029,
            22.3715324
          ],
          [
            113.5524917,
            22.3715319
          ],
          [
            113.5527009,
            22.3714723
          ],
          [
            113.5556288,
            22.3707535
          ],
          [
            113.5560376,
            22.3706637
          ],
          [
            113.5565526,
            22.3706042
          ],
          [
            113.5569646,
            22.3705898
          ],
          [
            113.5582091,
            22.37057
          ],
          [
            113.5584183,
            22.3704757
          ],
          [
            113.5585964,
            22.3702867
          ],
          [
            113.560479,
            22.3656571
          ],
          [
            113.5612894,
            22.363664
          ],
          [
            113.5613162,
            22.3635598
          ],
          [
            113.5612347,
            22.3634115
          ],
          [
            113.5610587,
            22.3632771
          ],
          [
            113.5608109,
            22.3631783
          ]
        ]
      }
    }
  ]
}
