{
  "type": "FeatureCollection",
  "bbox": [
    -71.7929264,
    46.6312064,
    -71.7857961,
    46.6342174
  ],
  "metadata": {
    "schemaVersion": 1,
    "trackId": "ca-circuit-riverside-speedway-ste-croix-101951392",
    "layoutId": "main",
    "license": "ODbL-1.0",
    "attribution": "© OpenStreetMap contributors",
    "closed": true,
    "geometryStatus": "draft",
    "timingStatus": "missing",
    "timingMode": "shared",
    "lengthM": 1386.6,
    "reviewedAt": null,
    "notes": [
      "Connected OSM course candidate. The selected loop is the longest simple source-node cycle after explicit exclusions; its association with a named circuit configuration requires review.",
      "Source way order and shared node IDs are retained. No nearby endpoints are joined and no reference boundaries are read."
    ]
  },
  "features": [
    {
      "type": "Feature",
      "id": "trace",
      "properties": {
        "role": "trace",
        "sourceIds": [
          "osm-snapshot"
        ]
      },
      "geometry": {
        "type": "LineString",
        "coordinates": [
          [
            -71.7891877,
            46.6333979
          ],
          [
            -71.7894328,
            46.6335179
          ],
          [
            -71.7897039,
            46.6336205
          ],
          [
            -71.7899858,
            46.6336988
          ],
          [
            -71.7903278,
            46.6337792
          ],
          [
            -71.7906602,
            46.6338374
          ],
          [
            -71.7907747,
            46.6338454
          ],
          [
            -71.7909007,
            46.6338238
          ],
          [
            -71.7911074,
            46.6337789
          ],
          [
            -71.7911903,
            46.6337692
          ],
          [
            -71.791258,
            46.6337781
          ],
          [
            -71.7913677,
            46.6338374
          ],
          [
            -71.7914798,
            46.6339336
          ],
          [
            -71.7915907,
            46.6340073
          ],
          [
            -71.7916911,
            46.6340522
          ],
          [
            -71.7918382,
            46.6340787
          ],
          [
            -71.7921009,
            46.6341204
          ],
          [
            -71.7926053,
            46.6341997
          ],
          [
            -71.7927699,
            46.6342174
          ],
          [
            -71.7928516,
            46.634211
          ],
          [
            -71.7928972,
            46.6341957
          ],
          [
            -71.7929158,
            46.6341829
          ],
          [
            -71.7929264,
            46.6341597
          ],
          [
            -71.7929252,
            46.6341332
          ],
          [
            -71.7929112,
            46.6340947
          ],
          [
            -71.792882,
            46.634041
          ],
          [
            -71.7927454,
            46.6339448
          ],
          [
            -71.7924547,
            46.6337901
          ],
          [
            -71.7918352,
            46.6334877
          ],
          [
            -71.7916868,
            46.6334305
          ],
          [
            -71.7915635,
            46.6334198
          ],
          [
            -71.7914742,
            46.6334325
          ],
          [
            -71.7913555,
            46.6334695
          ],
          [
            -71.7912184,
            46.6334991
          ],
          [
            -71.7911506,
            46.6335097
          ],
          [
            -71.7910767,
            46.6335139
          ],
          [
            -71.7910212,
            46.6335055
          ],
          [
            -71.7909658,
            46.633479
          ],
          [
            -71.7909103,
            46.6334357
          ],
          [
            -71.7908764,
            46.6333775
          ],
          [
            -71.7908287,
            46.6332675
          ],
          [
            -71.7907902,
            46.6331479
          ],
          [
            -71.7907393,
            46.6330411
          ],
          [
            -71.7906938,
            46.6329754
          ],
          [
            -71.7903737,
            46.6328247
          ],
          [
            -71.7896705,
            46.6325523
          ],
          [
            -71.7884308,
            46.6318923
          ],
          [
            -71.7869143,
            46.6312071
          ],
          [
            -71.7865132,
            46.6312064
          ],
          [
            -71.7862386,
            46.6312772
          ],
          [
            -71.7860411,
            46.6313587
          ],
          [
            -71.7858977,
            46.6314926
          ],
          [
            -71.7857961,
            46.6316757
          ],
          [
            -71.7857965,
            46.6317998
          ],
          [
            -71.7858545,
            46.6319199
          ],
          [
            -71.7859959,
            46.6320144
          ],
          [
            -71.7866983,
            46.6323227
          ],
          [
            -71.7868735,
            46.6323052
          ],
          [
            -71.7871189,
            46.6322859
          ],
          [
            -71.7873322,
            46.6322831
          ],
          [
            -71.7877211,
            46.6322923
          ],
          [
            -71.7879383,
            46.6323135
          ],
          [
            -71.7881288,
            46.6323623
          ],
          [
            -71.7882575,
            46.6324351
          ],
          [
            -71.7883487,
            46.6325032
          ],
          [
            -71.7884493,
            46.6326156
          ],
          [
            -71.7885526,
            46.6327519
          ],
          [
            -71.7886371,
            46.6329305
          ],
          [
            -71.7886867,
            46.633076
          ],
          [
            -71.788743,
            46.6331921
          ],
          [
            -71.7887717,
            46.6332329
          ],
          [
            -71.7889795,
            46.6333241
          ],
          [
            -71.7891877,
            46.6333979
          ]
        ]
      }
    }
  ]
}
