{
  "type": "FeatureCollection",
  "bbox": [
    -47.9029195,
    -15.7797756,
    -47.8956737,
    -15.7717459
  ],
  "metadata": {
    "schemaVersion": 1,
    "trackId": "br-autodromo-nelson-piquet-32900091",
    "layoutId": "autodromo-int-nelson-piquet",
    "license": "ODbL-1.0",
    "attribution": "© OpenStreetMap contributors",
    "closed": true,
    "geometryStatus": "draft",
    "timingStatus": "missing",
    "timingMode": "shared",
    "lengthM": 5470.1,
    "reviewedAt": null,
    "notes": [
      "Draft configuration: Historical full circuit follows the named outer and infield raceway, excluding the additional unnamed northwestern shortcut. Branch identity was checked against catalogue layout facts and circuit identification references. Independent source distance 5470.1 m; no coordinates are changed to match a diagram or distance. Travel direction and historical alignment remain provisional."
    ]
  },
  "features": [
    {
      "type": "Feature",
      "id": "trace",
      "properties": {
        "role": "trace",
        "sourceIds": [
          "osm-selection-nelson-piquet-2020-32900091"
        ]
      },
      "geometry": {
        "type": "LineString",
        "coordinates": [
          [
            -47.9026441,
            -15.7785483
          ],
          [
            -47.9025442,
            -15.7787978
          ],
          [
            -47.9023769,
            -15.7789414
          ],
          [
            -47.9021852,
            -15.7790433
          ],
          [
            -47.9019453,
            -15.779069
          ],
          [
            -47.9014971,
            -15.7790195
          ],
          [
            -47.8998673,
            -15.7786325
          ],
          [
            -47.8995567,
            -15.7786011
          ],
          [
            -47.8992231,
            -15.7786231
          ],
          [
            -47.8988769,
            -15.7786868
          ],
          [
            -47.8985106,
            -15.7788119
          ],
          [
            -47.8966963,
            -15.7797455
          ],
          [
            -47.8965636,
            -15.7797723
          ],
          [
            -47.8963821,
            -15.7797756
          ],
          [
            -47.8961772,
            -15.7797542
          ],
          [
            -47.8959418,
            -15.7796972
          ],
          [
            -47.8957958,
            -15.7796252
          ],
          [
            -47.8957109,
            -15.7795234
          ],
          [
            -47.8956737,
            -15.779359
          ],
          [
            -47.8959278,
            -15.775941
          ],
          [
            -47.8960138,
            -15.7746909
          ],
          [
            -47.8961948,
            -15.7724722
          ],
          [
            -47.8962643,
            -15.7722078
          ],
          [
            -47.8964101,
            -15.7720175
          ],
          [
            -47.8965966,
            -15.7718654
          ],
          [
            -47.8968082,
            -15.7717783
          ],
          [
            -47.8970686,
            -15.7717459
          ],
          [
            -47.8973718,
            -15.7718107
          ],
          [
            -47.9014809,
            -15.7732598
          ],
          [
            -47.902384,
            -15.7735861
          ],
          [
            -47.9025267,
            -15.7736746
          ],
          [
            -47.9026937,
            -15.7737943
          ],
          [
            -47.9027896,
            -15.773902
          ],
          [
            -47.9028448,
            -15.7740097
          ],
          [
            -47.9029001,
            -15.7741647
          ],
          [
            -47.9029147,
            -15.7742805
          ],
          [
            -47.9029195,
            -15.7745259
          ],
          [
            -47.902792,
            -15.7747884
          ],
          [
            -47.9025994,
            -15.7750587
          ],
          [
            -47.9014176,
            -15.776517
          ],
          [
            -47.9012487,
            -15.7766643
          ],
          [
            -47.9010427,
            -15.7767882
          ],
          [
            -47.9007109,
            -15.7768939
          ],
          [
            -47.9003474,
            -15.7769534
          ],
          [
            -47.9000839,
            -15.7769288
          ],
          [
            -47.8997482,
            -15.7768413
          ],
          [
            -47.899459,
            -15.7766886
          ],
          [
            -47.8977336,
            -15.7753687
          ],
          [
            -47.8975868,
            -15.7752185
          ],
          [
            -47.897505,
            -15.7750839
          ],
          [
            -47.8974214,
            -15.7748833
          ],
          [
            -47.8974138,
            -15.7747365
          ],
          [
            -47.8974709,
            -15.7745425
          ],
          [
            -47.8976094,
            -15.7743764
          ],
          [
            -47.8978611,
            -15.7743044
          ],
          [
            -47.8981354,
            -15.7743147
          ],
          [
            -47.8984019,
            -15.7744191
          ],
          [
            -47.8996522,
            -15.7754089
          ],
          [
            -47.8998175,
            -15.7754778
          ],
          [
            -47.9000642,
            -15.7754997
          ],
          [
            -47.9003962,
            -15.7754199
          ],
          [
            -47.9007852,
            -15.7752932
          ],
          [
            -47.901592,
            -15.7749215
          ],
          [
            -47.9018065,
            -15.7747394
          ],
          [
            -47.9019294,
            -15.774569
          ],
          [
            -47.9019831,
            -15.7743894
          ],
          [
            -47.9019927,
            -15.7742033
          ],
          [
            -47.9019598,
            -15.7740598
          ],
          [
            -47.9018605,
            -15.7739049
          ],
          [
            -47.9017068,
            -15.7738459
          ],
          [
            -47.8973899,
            -15.773537
          ],
          [
            -47.8972524,
            -15.7735534
          ],
          [
            -47.897119,
            -15.7736003
          ],
          [
            -47.897,
            -15.7737073
          ],
          [
            -47.8969142,
            -15.7738478
          ],
          [
            -47.8968898,
            -15.773974
          ],
          [
            -47.896842,
            -15.7752453
          ],
          [
            -47.8968364,
            -15.7754508
          ],
          [
            -47.8968709,
            -15.7756516
          ],
          [
            -47.8969967,
            -15.7759654
          ],
          [
            -47.897089,
            -15.7761009
          ],
          [
            -47.8972301,
            -15.7762443
          ],
          [
            -47.8983544,
            -15.7771132
          ],
          [
            -47.8987651,
            -15.7773767
          ],
          [
            -47.8989941,
            -15.7774839
          ],
          [
            -47.8992495,
            -15.7775758
          ],
          [
            -47.8994671,
            -15.7776343
          ],
          [
            -47.8997708,
            -15.7776622
          ],
          [
            -47.9016029,
            -15.777587
          ],
          [
            -47.9019549,
            -15.7775974
          ],
          [
            -47.9022217,
            -15.7776895
          ],
          [
            -47.9024397,
            -15.7778442
          ],
          [
            -47.902552,
            -15.7780484
          ],
          [
            -47.9026317,
            -15.7782722
          ],
          [
            -47.9026441,
            -15.7785483
          ]
        ]
      }
    }
  ]
}
