{
  "type": "FeatureCollection",
  "bbox": [
    10.0167298,
    44.6800269,
    10.024595,
    44.6815668
  ],
  "metadata": {
    "schemaVersion": 1,
    "trackId": "it-autodromo-riccardo-paletti-85226080",
    "layoutId": "varano-de-melegari-short",
    "license": "ODbL-1.0",
    "attribution": "© OpenStreetMap contributors",
    "closed": true,
    "geometryStatus": "draft",
    "timingStatus": "missing",
    "timingMode": "shared",
    "lengthM": 1634.3,
    "reviewedAt": null,
    "notes": [
      "Draft configuration: Western hooked hairpin, northern chicane and short eastern turnaround; excludes the long eastern extension. Branch identity was checked against catalogue layout facts and circuit identification references. Independent source distance 1634.3 m; no coordinates are changed to match a diagram or distance. Travel direction and historical alignment remain provisional."
    ]
  },
  "features": [
    {
      "type": "Feature",
      "id": "trace",
      "properties": {
        "role": "trace",
        "sourceIds": [
          "osm-selection-85226080"
        ]
      },
      "geometry": {
        "type": "LineString",
        "coordinates": [
          [
            10.0243712,
            44.6808344
          ],
          [
            10.0244405,
            44.6808766
          ],
          [
            10.0244736,
            44.6809393
          ],
          [
            10.0245028,
            44.6810713
          ],
          [
            10.0245067,
            44.6812609
          ],
          [
            10.0245288,
            44.6813629
          ],
          [
            10.024595,
            44.6814021
          ],
          [
            10.0242199,
            44.6813786
          ],
          [
            10.0237835,
            44.6813466
          ],
          [
            10.0236463,
            44.6812923
          ],
          [
            10.0235029,
            44.6812217
          ],
          [
            10.0233926,
            44.6811668
          ],
          [
            10.0233043,
            44.681104
          ],
          [
            10.023205,
            44.6810727
          ],
          [
            10.0229734,
            44.681057
          ],
          [
            10.0218923,
            44.681104
          ],
          [
            10.021418,
            44.6811197
          ],
          [
            10.0212856,
            44.6811668
          ],
          [
            10.0211864,
            44.6812217
          ],
          [
            10.0210871,
            44.6813158
          ],
          [
            10.0209437,
            44.6814021
          ],
          [
            10.020755,
            44.6814224
          ],
          [
            10.0202898,
            44.6814136
          ],
          [
            10.0186222,
            44.6813259
          ],
          [
            10.0172969,
            44.6815629
          ],
          [
            10.017149,
            44.6815668
          ],
          [
            10.0170387,
            44.6815276
          ],
          [
            10.0170056,
            44.6814727
          ],
          [
            10.0169284,
            44.6813629
          ],
          [
            10.0168953,
            44.6812531
          ],
          [
            10.0168401,
            44.6810334
          ],
          [
            10.0167298,
            44.6803589
          ],
          [
            10.0167298,
            44.6802491
          ],
          [
            10.0167519,
            44.6801785
          ],
          [
            10.0167739,
            44.6801236
          ],
          [
            10.016858,
            44.680062
          ],
          [
            10.0169504,
            44.6800373
          ],
          [
            10.0170718,
            44.6800295
          ],
          [
            10.0172003,
            44.6800269
          ],
          [
            10.0173917,
            44.6800687
          ],
          [
            10.0174468,
            44.6800922
          ],
          [
            10.0175682,
            44.6801785
          ],
          [
            10.0176013,
            44.6802805
          ],
          [
            10.0175351,
            44.6804452
          ],
          [
            10.0174468,
            44.6805707
          ],
          [
            10.0173758,
            44.6806939
          ],
          [
            10.0172483,
            44.680853
          ],
          [
            10.0172262,
            44.6809158
          ],
          [
            10.0172372,
            44.6809707
          ],
          [
            10.0172593,
            44.6810099
          ],
          [
            10.0174468,
            44.6810727
          ],
          [
            10.0176454,
            44.6810962
          ],
          [
            10.0177888,
            44.6811119
          ],
          [
            10.0178881,
            44.6811119
          ],
          [
            10.0179984,
            44.6811119
          ],
          [
            10.0180535,
            44.6810883
          ],
          [
            10.0180977,
            44.6810413
          ],
          [
            10.0182273,
            44.6807674
          ],
          [
            10.0182741,
            44.6806454
          ],
          [
            10.0183209,
            44.6805899
          ],
          [
            10.0183833,
            44.6805567
          ],
          [
            10.0185861,
            44.6805456
          ],
          [
            10.0191634,
            44.6805567
          ],
          [
            10.0194598,
            44.6805678
          ],
          [
            10.0197094,
            44.6805899
          ],
          [
            10.0198654,
            44.6805899
          ],
          [
            10.020115,
            44.680601
          ],
          [
            10.0211758,
            44.6805678
          ],
          [
            10.0220026,
            44.6805345
          ],
          [
            10.0226578,
            44.6805123
          ],
          [
            10.0234222,
            44.6806454
          ],
          [
            10.023859,
            44.6807341
          ],
          [
            10.0241537,
            44.6808084
          ],
          [
            10.0243712,
            44.6808344
          ]
        ]
      }
    }
  ]
}
