{
  "type": "FeatureCollection",
  "bbox": [
    8.1874764,
    52.199976,
    8.2043318,
    52.2097106
  ],
  "metadata": {
    "schemaVersion": 1,
    "trackId": "de-osnabruck-hill-climb-d7c0b8d4",
    "layoutId": "osnabruck-hill-climb",
    "license": "ODbL-1.0",
    "attribution": "© OpenStreetMap contributors",
    "closed": false,
    "geometryStatus": "draft",
    "timingStatus": "missing",
    "timingMode": "separate",
    "lengthM": 2022.5,
    "reviewedAt": null,
    "notes": [
      "Draft open course: The event operator identifies the 2.030 km Uphöfener Berg hillclimb. The independently mapped open route measures approximately 2.023 km and both private timing positions agree with its endpoints. The supplied scalar course distance differs and is not used to stretch the geometry. Coordinates are unchanged independent OSM ways; no artificial closure or endpoint interpolation is added."
    ]
  },
  "features": [
    {
      "type": "Feature",
      "id": "trace",
      "properties": {
        "role": "trace",
        "sourceIds": [
          "osm-road-16137199"
        ]
      },
      "geometry": {
        "type": "LineString",
        "coordinates": [
          [
            8.2043318,
            52.199976
          ],
          [
            8.2039396,
            52.2011719
          ],
          [
            8.203898,
            52.2012931
          ],
          [
            8.2034621,
            52.2027256
          ],
          [
            8.2033479,
            52.2030355
          ],
          [
            8.2032091,
            52.2033549
          ],
          [
            8.203128,
            52.2035093
          ],
          [
            8.2030285,
            52.203656
          ],
          [
            8.2029504,
            52.203736
          ],
          [
            8.2028483,
            52.2037988
          ],
          [
            8.202731,
            52.2038437
          ],
          [
            8.2025804,
            52.2038607
          ],
          [
            8.202446,
            52.203861
          ],
          [
            8.2022871,
            52.203833
          ],
          [
            8.2021535,
            52.2037761
          ],
          [
            8.2020644,
            52.2037056
          ],
          [
            8.2019102,
            52.203491
          ],
          [
            8.2018532,
            52.2034118
          ],
          [
            8.2017657,
            52.203339
          ],
          [
            8.2016407,
            52.2032527
          ],
          [
            8.2014284,
            52.2031905
          ],
          [
            8.2011475,
            52.2031738
          ],
          [
            8.2009057,
            52.2032083
          ],
          [
            8.2002888,
            52.2033809
          ],
          [
            8.1991589,
            52.2037192
          ],
          [
            8.1979705,
            52.2041242
          ],
          [
            8.1978102,
            52.2041818
          ],
          [
            8.1975919,
            52.2042685
          ],
          [
            8.1974971,
            52.2043243
          ],
          [
            8.197404,
            52.2044013
          ],
          [
            8.1973434,
            52.2044869
          ],
          [
            8.1973215,
            52.2045389
          ],
          [
            8.1972953,
            52.204669
          ],
          [
            8.1972881,
            52.204821
          ],
          [
            8.1972633,
            52.204914
          ],
          [
            8.1971818,
            52.2050241
          ],
          [
            8.1970644,
            52.205101
          ],
          [
            8.1968444,
            52.2051695
          ],
          [
            8.196423,
            52.2052213
          ],
          [
            8.1959523,
            52.2052936
          ],
          [
            8.1954539,
            52.2054009
          ],
          [
            8.194991,
            52.2055209
          ],
          [
            8.1944763,
            52.2056897
          ],
          [
            8.1942011,
            52.2057835
          ],
          [
            8.1940575,
            52.2058115
          ],
          [
            8.193898,
            52.2058191
          ],
          [
            8.1937403,
            52.2057973
          ],
          [
            8.1936315,
            52.2057394
          ],
          [
            8.193484,
            52.2056066
          ],
          [
            8.1932581,
            52.2054291
          ],
          [
            8.1931013,
            52.2053747
          ],
          [
            8.1929392,
            52.2053399
          ],
          [
            8.1927311,
            52.2053301
          ],
          [
            8.1924113,
            52.2053556
          ],
          [
            8.1921473,
            52.2054002
          ],
          [
            8.1919127,
            52.2054725
          ],
          [
            8.1917067,
            52.2055887
          ],
          [
            8.1915811,
            52.2056994
          ],
          [
            8.1914916,
            52.2058517
          ],
          [
            8.191477,
            52.2060428
          ],
          [
            8.1915414,
            52.206235
          ],
          [
            8.1917899,
            52.2067212
          ],
          [
            8.1918214,
            52.206811
          ],
          [
            8.191819,
            52.2068943
          ],
          [
            8.1917949,
            52.2069755
          ],
          [
            8.1917466,
            52.2070495
          ],
          [
            8.1916533,
            52.2071305
          ],
          [
            8.1915419,
            52.2072042
          ],
          [
            8.1912749,
            52.2073481
          ],
          [
            8.1911575,
            52.2074234
          ],
          [
            8.1910606,
            52.2075152
          ],
          [
            8.190972,
            52.2076343
          ],
          [
            8.1907824,
            52.2079749
          ],
          [
            8.1906375,
            52.2081754
          ],
          [
            8.1904666,
            52.2083532
          ],
          [
            8.1902406,
            52.2085912
          ],
          [
            8.1901628,
            52.2087194
          ],
          [
            8.1901048,
            52.2088729
          ],
          [
            8.1900619,
            52.2089801
          ],
          [
            8.1900064,
            52.2090471
          ],
          [
            8.1899052,
            52.209119
          ],
          [
            8.1897892,
            52.2091597
          ],
          [
            8.1896597,
            52.2091836
          ],
          [
            8.1895176,
            52.2091873
          ],
          [
            8.1893683,
            52.2091787
          ],
          [
            8.1890469,
            52.2091366
          ],
          [
            8.1887962,
            52.2090877
          ],
          [
            8.1886928,
            52.2090706
          ],
          [
            8.1884778,
            52.2090576
          ],
          [
            8.1882799,
            52.2090843
          ],
          [
            8.1881505,
            52.2091225
          ],
          [
            8.1880498,
            52.2091691
          ],
          [
            8.1879357,
            52.2092509
          ],
          [
            8.1877834,
            52.2094067
          ],
          [
            8.1876249,
            52.209576
          ],
          [
            8.1874764,
            52.2097106
          ]
        ]
      }
    }
  ]
}
