{
  "type": "FeatureCollection",
  "bbox": [
    -97.4378276,
    33.3651583,
    -97.4268204,
    33.3731262
  ],
  "metadata": {
    "schemaVersion": 1,
    "trackId": "us-eagles-canyon-raceway-1557375600",
    "layoutId": "main",
    "license": "ODbL-1.0",
    "attribution": "© OpenStreetMap contributors",
    "closed": true,
    "geometryStatus": "draft",
    "timingStatus": "missing",
    "timingMode": "shared",
    "lengthM": 4285.8,
    "reviewedAt": null,
    "notes": [
      "Connected OSM course candidate. The selected loop is the longest simple source-node cycle after explicit exclusions; its association with a named circuit configuration requires review.",
      "Source way order and shared node IDs are retained. No nearby endpoints are joined and no reference boundaries are read.",
      "Some source ways lack one-way direction tags. Travel direction is provisional."
    ]
  },
  "features": [
    {
      "type": "Feature",
      "id": "trace",
      "properties": {
        "role": "trace",
        "sourceIds": [
          "osm-snapshot"
        ]
      },
      "geometry": {
        "type": "LineString",
        "coordinates": [
          [
            -97.4327773,
            33.368231
          ],
          [
            -97.4327389,
            33.3683096
          ],
          [
            -97.4326328,
            33.3687196
          ],
          [
            -97.4325471,
            33.3691294
          ],
          [
            -97.4325384,
            33.3692677
          ],
          [
            -97.4325513,
            33.3693692
          ],
          [
            -97.4325926,
            33.3694888
          ],
          [
            -97.4326535,
            33.369585
          ],
          [
            -97.4327512,
            33.3696847
          ],
          [
            -97.4328638,
            33.3697847
          ],
          [
            -97.4337337,
            33.3705134
          ],
          [
            -97.4337757,
            33.3705651
          ],
          [
            -97.4338015,
            33.3706276
          ],
          [
            -97.4338115,
            33.3707201
          ],
          [
            -97.433804,
            33.3707767
          ],
          [
            -97.4337926,
            33.3708073
          ],
          [
            -97.433652,
            33.3710229
          ],
          [
            -97.4335142,
            33.3712044
          ],
          [
            -97.4334408,
            33.3712662
          ],
          [
            -97.4333659,
            33.371303
          ],
          [
            -97.4332836,
            33.3713244
          ],
          [
            -97.4331978,
            33.3713289
          ],
          [
            -97.4331295,
            33.3713148
          ],
          [
            -97.4330716,
            33.3712916
          ],
          [
            -97.4329529,
            33.3712089
          ],
          [
            -97.432197,
            33.3705892
          ],
          [
            -97.4312725,
            33.36982
          ],
          [
            -97.4309867,
            33.3695673
          ],
          [
            -97.4308535,
            33.3694297
          ],
          [
            -97.4308251,
            33.369382
          ],
          [
            -97.4308059,
            33.3693113
          ],
          [
            -97.430804,
            33.3692362
          ],
          [
            -97.4308187,
            33.3691606
          ],
          [
            -97.4308414,
            33.3691127
          ],
          [
            -97.4308831,
            33.3690508
          ],
          [
            -97.4309805,
            33.3689311
          ],
          [
            -97.4310509,
            33.3688329
          ],
          [
            -97.4310848,
            33.3687662
          ],
          [
            -97.4311004,
            33.3687156
          ],
          [
            -97.4311009,
            33.3686283
          ],
          [
            -97.4310817,
            33.3685599
          ],
          [
            -97.4310557,
            33.3685127
          ],
          [
            -97.4309961,
            33.3684503
          ],
          [
            -97.4308124,
            33.3683165
          ],
          [
            -97.4302628,
            33.3679622
          ],
          [
            -97.4300368,
            33.3678266
          ],
          [
            -97.4297302,
            33.3676632
          ],
          [
            -97.4292669,
            33.3673741
          ],
          [
            -97.4289918,
            33.3671962
          ],
          [
            -97.428184,
            33.3666736
          ],
          [
            -97.4271402,
            33.3659789
          ],
          [
            -97.4269483,
            33.365862
          ],
          [
            -97.4268932,
            33.3658113
          ],
          [
            -97.4268476,
            33.365753
          ],
          [
            -97.4268268,
            33.3657048
          ],
          [
            -97.4268204,
            33.3656565
          ],
          [
            -97.4268284,
            33.3656095
          ],
          [
            -97.4268537,
            33.3655409
          ],
          [
            -97.4269674,
            33.3653025
          ],
          [
            -97.4270095,
            33.3652419
          ],
          [
            -97.4270381,
            33.3652135
          ],
          [
            -97.4270877,
            33.3651821
          ],
          [
            -97.4271243,
            33.3651687
          ],
          [
            -97.4271488,
            33.3651644
          ],
          [
            -97.4271833,
            33.3651583
          ],
          [
            -97.427223,
            33.3651585
          ],
          [
            -97.427283,
            33.3651698
          ],
          [
            -97.4273342,
            33.3651867
          ],
          [
            -97.4274169,
            33.3652321
          ],
          [
            -97.4305261,
            33.3674586
          ],
          [
            -97.4306236,
            33.3675192
          ],
          [
            -97.4306998,
            33.3675526
          ],
          [
            -97.4307845,
            33.3675762
          ],
          [
            -97.4308734,
            33.3675869
          ],
          [
            -97.4309997,
            33.3675813
          ],
          [
            -97.4311184,
            33.3675578
          ],
          [
            -97.4311994,
            33.3675268
          ],
          [
            -97.4313031,
            33.3674646
          ],
          [
            -97.4313792,
            33.3674034
          ],
          [
            -97.43143,
            33.3673458
          ],
          [
            -97.4314854,
            33.367228
          ],
          [
            -97.4315037,
            33.367139
          ],
          [
            -97.4314974,
            33.3670492
          ],
          [
            -97.431474,
            33.366959
          ],
          [
            -97.4314483,
            33.3669095
          ],
          [
            -97.4313911,
            33.3668356
          ],
          [
            -97.4312493,
            33.3667197
          ],
          [
            -97.4306336,
            33.3662742
          ],
          [
            -97.4305881,
            33.3662341
          ],
          [
            -97.4305646,
            33.3662037
          ],
          [
            -97.4305329,
            33.36613
          ],
          [
            -97.4305143,
            33.3660548
          ],
          [
            -97.4305152,
            33.3660168
          ],
          [
            -97.4305339,
            33.3659621
          ],
          [
            -97.4305699,
            33.3658928
          ],
          [
            -97.4307053,
            33.3656773
          ],
          [
            -97.4308489,
            33.3654693
          ],
          [
            -97.4309126,
            33.3654006
          ],
          [
            -97.4309769,
            33.3653636
          ],
          [
            -97.4310638,
            33.3653459
          ],
          [
            -97.4311681,
            33.3653513
          ],
          [
            -97.431246,
            33.3653736
          ],
          [
            -97.431349,
            33.3654245
          ],
          [
            -97.4314361,
            33.365487
          ],
          [
            -97.4317366,
            33.3657361
          ],
          [
            -97.4326734,
            33.3664583
          ],
          [
            -97.4328076,
            33.3665491
          ],
          [
            -97.4329121,
            33.3666091
          ],
          [
            -97.4330076,
            33.3666533
          ],
          [
            -97.4331049,
            33.366685
          ],
          [
            -97.4331629,
            33.3666965
          ],
          [
            -97.4332294,
            33.3666978
          ],
          [
            -97.4333054,
            33.3666868
          ],
          [
            -97.4333641,
            33.3666674
          ],
          [
            -97.4335271,
            33.3665917
          ],
          [
            -97.4340944,
            33.3663048
          ],
          [
            -97.4342036,
            33.3662575
          ],
          [
            -97.4342813,
            33.3662312
          ],
          [
            -97.434358,
            33.3662194
          ],
          [
            -97.4344565,
            33.3662242
          ],
          [
            -97.4345331,
            33.3662433
          ],
          [
            -97.4346089,
            33.3662765
          ],
          [
            -97.4346938,
            33.3663388
          ],
          [
            -97.4347537,
            33.3664134
          ],
          [
            -97.4351527,
            33.3670222
          ],
          [
            -97.4373369,
            33.3702563
          ],
          [
            -97.4377599,
            33.3709029
          ],
          [
            -97.4377984,
            33.3709871
          ],
          [
            -97.4378206,
            33.3710713
          ],
          [
            -97.4378276,
            33.3711599
          ],
          [
            -97.4378226,
            33.3712516
          ],
          [
            -97.4378088,
            33.3713267
          ],
          [
            -97.4377843,
            33.3713946
          ],
          [
            -97.4377417,
            33.3714758
          ],
          [
            -97.4376899,
            33.3715514
          ],
          [
            -97.4376275,
            33.3716201
          ],
          [
            -97.4375612,
            33.371671
          ],
          [
            -97.4374705,
            33.3717243
          ],
          [
            -97.437374,
            33.3717672
          ],
          [
            -97.4372777,
            33.3717957
          ],
          [
            -97.4371487,
            33.3718228
          ],
          [
            -97.4366472,
            33.3719092
          ],
          [
            -97.43653,
            33.3719458
          ],
          [
            -97.4364608,
            33.3719835
          ],
          [
            -97.4363805,
            33.3720631
          ],
          [
            -97.4363298,
            33.3721452
          ],
          [
            -97.4360484,
            33.3728661
          ],
          [
            -97.4360045,
            33.3729586
          ],
          [
            -97.4359553,
            33.3730321
          ],
          [
            -97.4359149,
            33.3730677
          ],
          [
            -97.4358791,
            33.3730874
          ],
          [
            -97.4358208,
            33.3731087
          ],
          [
            -97.435759,
            33.3731213
          ],
          [
            -97.435695,
            33.3731262
          ],
          [
            -97.4356276,
            33.3731222
          ],
          [
            -97.4355339,
            33.3730907
          ],
          [
            -97.4354226,
            33.3730204
          ],
          [
            -97.4352411,
            33.3728734
          ],
          [
            -97.4350218,
            33.3726778
          ],
          [
            -97.4349242,
            33.372569
          ],
          [
            -97.4348629,
            33.3724729
          ],
          [
            -97.4348196,
            33.3723684
          ],
          [
            -97.434789,
            33.372245
          ],
          [
            -97.4347767,
            33.3721179
          ],
          [
            -97.4347785,
            33.3720452
          ],
          [
            -97.4347901,
            33.3719742
          ],
          [
            -97.4348224,
            33.3718718
          ],
          [
            -97.4348567,
            33.3718004
          ],
          [
            -97.4349453,
            33.3716668
          ],
          [
            -97.4351834,
            33.3713466
          ],
          [
            -97.4353491,
            33.3711062
          ],
          [
            -97.4354209,
            33.3709812
          ],
          [
            -97.4354951,
            33.3708107
          ],
          [
            -97.4355323,
            33.3706745
          ],
          [
            -97.4355408,
            33.3705376
          ],
          [
            -97.4355199,
            33.3703624
          ],
          [
            -97.4354739,
            33.3702046
          ],
          [
            -97.4354246,
            33.3701001
          ],
          [
            -97.4353508,
            33.3699763
          ],
          [
            -97.4352819,
            33.3698908
          ],
          [
            -97.4351758,
            33.3697777
          ],
          [
            -97.4348432,
            33.3694464
          ],
          [
            -97.4344883,
            33.369104
          ],
          [
            -97.4343633,
            33.3689835
          ],
          [
            -97.4338794,
            33.3685272
          ],
          [
            -97.433599,
            33.3682733
          ],
          [
            -97.4335116,
            33.3682085
          ],
          [
            -97.4333996,
            33.3681478
          ],
          [
            -97.4332834,
            33.3681017
          ],
          [
            -97.4331819,
            33.3680804
          ],
          [
            -97.4330785,
            33.3680774
          ],
          [
            -97.4329954,
            33.3680906
          ],
          [
            -97.4328999,
            33.3681287
          ],
          [
            -97.4328327,
            33.3681731
          ],
          [
            -97.4327773,
            33.368231
          ]
        ]
      }
    }
  ]
}
