{
  "type": "FeatureCollection",
  "bbox": [
    149.6842301,
    -34.843452,
    149.6901404,
    -34.8380063
  ],
  "metadata": {
    "schemaVersion": 1,
    "trackId": "au-one-raceway-243608030",
    "layoutId": "main",
    "license": "ODbL-1.0",
    "attribution": "© OpenStreetMap contributors",
    "closed": true,
    "geometryStatus": "draft",
    "timingStatus": "missing",
    "timingMode": "shared",
    "lengthM": 2201,
    "reviewedAt": null,
    "notes": [
      "Connected OSM course candidate. The selected loop is the longest simple source-node cycle after explicit exclusions; its association with a named circuit configuration requires review.",
      "Source way order and shared node IDs are retained. No nearby endpoints are joined and no Racelogic boundaries are read.",
      "Some source ways lack one-way direction tags. Travel direction is provisional."
    ]
  },
  "features": [
    {
      "type": "Feature",
      "id": "trace",
      "properties": {
        "role": "trace",
        "sourceIds": [
          "osm-snapshot"
        ]
      },
      "geometry": {
        "type": "LineString",
        "coordinates": [
          [
            149.68538,
            -34.8401685
          ],
          [
            149.6856026,
            -34.8395619
          ],
          [
            149.6857495,
            -34.8391615
          ],
          [
            149.6857944,
            -34.83905
          ],
          [
            149.6858544,
            -34.8389443
          ],
          [
            149.6859261,
            -34.8388395
          ],
          [
            149.686014,
            -34.8387422
          ],
          [
            149.6861691,
            -34.8385962
          ],
          [
            149.6867529,
            -34.8381245
          ],
          [
            149.6868899,
            -34.8380395
          ],
          [
            149.6870279,
            -34.8380063
          ],
          [
            149.6871771,
            -34.8380214
          ],
          [
            149.6873394,
            -34.8380939
          ],
          [
            149.6875007,
            -34.8381862
          ],
          [
            149.6878131,
            -34.8384406
          ],
          [
            149.6879853,
            -34.8386254
          ],
          [
            149.6881295,
            -34.8387913
          ],
          [
            149.6886166,
            -34.8395024
          ],
          [
            149.6887971,
            -34.8398554
          ],
          [
            149.6888768,
            -34.8400712
          ],
          [
            149.688937,
            -34.8402141
          ],
          [
            149.6889696,
            -34.8402823
          ],
          [
            149.689029,
            -34.8403407
          ],
          [
            149.6891036,
            -34.8403968
          ],
          [
            149.6891977,
            -34.8404455
          ],
          [
            149.6894258,
            -34.8405279
          ],
          [
            149.689923,
            -34.840706
          ],
          [
            149.6899955,
            -34.8407484
          ],
          [
            149.6900449,
            -34.8408016
          ],
          [
            149.6900746,
            -34.8408611
          ],
          [
            149.6901067,
            -34.8409352
          ],
          [
            149.6901226,
            -34.8410031
          ],
          [
            149.6901404,
            -34.8411006
          ],
          [
            149.690109,
            -34.8412493
          ],
          [
            149.6900706,
            -34.8414715
          ],
          [
            149.6900262,
            -34.8415898
          ],
          [
            149.689952,
            -34.8416825
          ],
          [
            149.689844,
            -34.8417244
          ],
          [
            149.6897402,
            -34.8417465
          ],
          [
            149.6895587,
            -34.8417456
          ],
          [
            149.6894282,
            -34.8417167
          ],
          [
            149.6888801,
            -34.8415993
          ],
          [
            149.6885715,
            -34.8415314
          ],
          [
            149.6884953,
            -34.84149
          ],
          [
            149.6884223,
            -34.8414449
          ],
          [
            149.688363,
            -34.8413889
          ],
          [
            149.688299,
            -34.8413235
          ],
          [
            149.6882444,
            -34.8412542
          ],
          [
            149.688195,
            -34.8411752
          ],
          [
            149.6881578,
            -34.8410894
          ],
          [
            149.688132,
            -34.8410021
          ],
          [
            149.6881167,
            -34.8409097
          ],
          [
            149.6880939,
            -34.8406964
          ],
          [
            149.6880841,
            -34.8406189
          ],
          [
            149.6880666,
            -34.8405391
          ],
          [
            149.6879981,
            -34.8403744
          ],
          [
            149.6879444,
            -34.8402649
          ],
          [
            149.6878841,
            -34.840161
          ],
          [
            149.6876788,
            -34.8398952
          ],
          [
            149.6875146,
            -34.8396781
          ],
          [
            149.6873869,
            -34.839562
          ],
          [
            149.6873268,
            -34.8395366
          ],
          [
            149.6872638,
            -34.8395246
          ],
          [
            149.6872022,
            -34.8395197
          ],
          [
            149.6871406,
            -34.8395283
          ],
          [
            149.6870639,
            -34.8395625
          ],
          [
            149.6869947,
            -34.839607
          ],
          [
            149.6869256,
            -34.8396625
          ],
          [
            149.6868624,
            -34.8397268
          ],
          [
            149.6867997,
            -34.8397996
          ],
          [
            149.6867438,
            -34.8398802
          ],
          [
            149.6867011,
            -34.8399468
          ],
          [
            149.6866708,
            -34.840015
          ],
          [
            149.6866422,
            -34.8401154
          ],
          [
            149.6866298,
            -34.8402134
          ],
          [
            149.6866326,
            -34.8403312
          ],
          [
            149.6866617,
            -34.8404493
          ],
          [
            149.6867021,
            -34.8405378
          ],
          [
            149.6867848,
            -34.8407188
          ],
          [
            149.6870129,
            -34.8411456
          ],
          [
            149.6870393,
            -34.84121
          ],
          [
            149.6870585,
            -34.8412804
          ],
          [
            149.6870694,
            -34.8413595
          ],
          [
            149.6870571,
            -34.8414404
          ],
          [
            149.6870434,
            -34.8415101
          ],
          [
            149.6870083,
            -34.8415761
          ],
          [
            149.6869503,
            -34.8416539
          ],
          [
            149.6868806,
            -34.8417258
          ],
          [
            149.6867236,
            -34.8418863
          ],
          [
            149.6865385,
            -34.8420553
          ],
          [
            149.6851425,
            -34.8430859
          ],
          [
            149.6849415,
            -34.8432449
          ],
          [
            149.6846913,
            -34.8434022
          ],
          [
            149.6846184,
            -34.8434352
          ],
          [
            149.6845353,
            -34.843452
          ],
          [
            149.6844262,
            -34.8434446
          ],
          [
            149.6842996,
            -34.84341
          ],
          [
            149.6842366,
            -34.8432259
          ],
          [
            149.6842301,
            -34.8431031
          ],
          [
            149.6842676,
            -34.8429771
          ],
          [
            149.6843303,
            -34.8428281
          ],
          [
            149.6843968,
            -34.8426727
          ],
          [
            149.6844398,
            -34.8425823
          ],
          [
            149.684695,
            -34.8419877
          ],
          [
            149.6849229,
            -34.8413713
          ],
          [
            149.68538,
            -34.8401685
          ]
        ]
      }
    }
  ]
}
