{
  "type": "FeatureCollection",
  "bbox": [
    -71.6112684,
    42.5732084,
    -71.60251,
    42.575973
  ],
  "metadata": {
    "schemaVersion": 1,
    "trackId": "us-fort-devens-7cacf24a",
    "layoutId": "mapped-branch-3",
    "license": "ODbL-1.0",
    "attribution": "© OpenStreetMap contributors",
    "closed": false,
    "geometryStatus": "draft",
    "timingStatus": "missing",
    "timingMode": "shared",
    "lengthM": 854.9,
    "reviewedAt": null,
    "notes": [
      "Northern taxiway loop branches follows the independently mapped open airfield centerline, inspected over public-domain USGS imagery. The organizer identifies this airfield as an autocross venue. This branch has no fixed event lap or independently verified endpoint timing. Exact source coordinates are unchanged; historical alignment and direction remain provisional."
    ]
  },
  "features": [
    {
      "type": "Feature",
      "id": "trace",
      "properties": {
        "role": "trace",
        "sourceIds": [
          "osm-components-902194774"
        ]
      },
      "geometry": {
        "type": "LineString",
        "coordinates": [
          [
            -71.60251,
            42.5732084
          ],
          [
            -71.6038732,
            42.5742335
          ],
          [
            -71.6041399,
            42.5742381
          ],
          [
            -71.6064077,
            42.5742577
          ],
          [
            -71.6069883,
            42.5746098
          ],
          [
            -71.6088617,
            42.5757233
          ],
          [
            -71.6101934,
            42.5759535
          ],
          [
            -71.6103869,
            42.575973
          ],
          [
            -71.6106019,
            42.5759312
          ],
          [
            -71.6107636,
            42.5758556
          ],
          [
            -71.6109141,
            42.5757323
          ],
          [
            -71.6112684,
            42.5753802
          ]
        ]
      }
    }
  ]
}
