{
  "type": "FeatureCollection",
  "bbox": [
    -71.6028592,
    42.5746044,
    -71.6016388,
    42.5754182
  ],
  "metadata": {
    "schemaVersion": 1,
    "trackId": "us-fort-devens-7cacf24a",
    "layoutId": "mapped-branch-6",
    "license": "ODbL-1.0",
    "attribution": "© OpenStreetMap contributors",
    "closed": false,
    "geometryStatus": "draft",
    "timingStatus": "missing",
    "timingMode": "shared",
    "lengthM": 134.8,
    "reviewedAt": null,
    "notes": [
      "Northern diagonal training strip follows the independently mapped open airfield centerline, inspected over public-domain USGS imagery. The organizer identifies this airfield as an autocross venue. This branch has no fixed event lap or independently verified endpoint timing. Exact source coordinates are unchanged; historical alignment and direction remain provisional."
    ]
  },
  "features": [
    {
      "type": "Feature",
      "id": "trace",
      "properties": {
        "role": "trace",
        "sourceIds": [
          "osm-components-902194774"
        ]
      },
      "geometry": {
        "type": "LineString",
        "coordinates": [
          [
            -71.6028592,
            42.5754182
          ],
          [
            -71.6026093,
            42.5752515
          ],
          [
            -71.6018041,
            42.5747146
          ],
          [
            -71.6016388,
            42.5746044
          ]
        ]
      }
    }
  ]
}
