{
  "type": "FeatureCollection",
  "bbox": [
    -71.6081657,
    42.5735343,
    -71.6069883,
    42.5746098
  ],
  "metadata": {
    "schemaVersion": 1,
    "trackId": "us-fort-devens-7cacf24a",
    "layoutId": "mapped-branch-4",
    "license": "ODbL-1.0",
    "attribution": "© OpenStreetMap contributors",
    "closed": false,
    "geometryStatus": "draft",
    "timingStatus": "missing",
    "timingMode": "shared",
    "lengthM": 153.6,
    "reviewedAt": null,
    "notes": [
      "Middle taxiway connection follows the independently mapped open airfield centerline, inspected over public-domain USGS imagery. The organizer identifies this airfield as an autocross venue. This branch has no fixed event lap or independently verified endpoint timing. Exact source coordinates are unchanged; historical alignment and direction remain provisional."
    ]
  },
  "features": [
    {
      "type": "Feature",
      "id": "trace",
      "properties": {
        "role": "trace",
        "sourceIds": [
          "osm-components-902194774"
        ]
      },
      "geometry": {
        "type": "LineString",
        "coordinates": [
          [
            -71.6081657,
            42.5735343
          ],
          [
            -71.6069883,
            42.5746098
          ]
        ]
      }
    }
  ]
}
