{
  "type": "FeatureCollection",
  "bbox": [
    -62.889398,
    8.1814671,
    -62.8836541,
    8.1857215
  ],
  "metadata": {
    "schemaVersion": 1,
    "trackId": "ve-autodromo-internacional-simon-bolivar-1486879925",
    "layoutId": "main",
    "license": "ODbL-1.0",
    "attribution": "© OpenStreetMap contributors",
    "closed": true,
    "geometryStatus": "draft",
    "timingStatus": "missing",
    "timingMode": "shared",
    "lengthM": 2070.8,
    "reviewedAt": null,
    "notes": [
      "Connected OSM course candidate. The selected loop is the longest simple source-node cycle after explicit exclusions; its association with a named circuit configuration requires review.",
      "Source way order and shared node IDs are retained. No nearby endpoints are joined and no reference boundaries are read.",
      "Some source ways lack one-way direction tags. Travel direction is provisional."
    ]
  },
  "features": [
    {
      "type": "Feature",
      "id": "trace",
      "properties": {
        "role": "trace",
        "sourceIds": [
          "osm-snapshot"
        ]
      },
      "geometry": {
        "type": "LineString",
        "coordinates": [
          [
            -62.8838499,
            8.1849888
          ],
          [
            -62.8837775,
            8.184953
          ],
          [
            -62.8837346,
            8.1849238
          ],
          [
            -62.883701,
            8.1848839
          ],
          [
            -62.8836782,
            8.1848388
          ],
          [
            -62.8836581,
            8.1847777
          ],
          [
            -62.8836541,
            8.1847286
          ],
          [
            -62.8836554,
            8.1846556
          ],
          [
            -62.8839464,
            8.1828994
          ],
          [
            -62.8839599,
            8.1828476
          ],
          [
            -62.8839907,
            8.1827985
          ],
          [
            -62.8840604,
            8.1827268
          ],
          [
            -62.8844279,
            8.1824587
          ],
          [
            -62.884507,
            8.182379
          ],
          [
            -62.8845553,
            8.18231
          ],
          [
            -62.8846036,
            8.1821972
          ],
          [
            -62.8847055,
            8.1818109
          ],
          [
            -62.8847377,
            8.1817326
          ],
          [
            -62.88479,
            8.1816529
          ],
          [
            -62.8848584,
            8.1815759
          ],
          [
            -62.8849523,
            8.1815162
          ],
          [
            -62.8850622,
            8.1814777
          ],
          [
            -62.8851615,
            8.1814671
          ],
          [
            -62.8852581,
            8.1814737
          ],
          [
            -62.8853479,
            8.181495
          ],
          [
            -62.8854391,
            8.1815374
          ],
          [
            -62.8854914,
            8.1815826
          ],
          [
            -62.8857704,
            8.1819702
          ],
          [
            -62.8858334,
            8.1820604
          ],
          [
            -62.8858776,
            8.1821467
          ],
          [
            -62.8859058,
            8.1822357
          ],
          [
            -62.8859139,
            8.1823113
          ],
          [
            -62.8859152,
            8.182387
          ],
          [
            -62.8859058,
            8.1824481
          ],
          [
            -62.8858696,
            8.1825184
          ],
          [
            -62.8858227,
            8.1825808
          ],
          [
            -62.8856845,
            8.1827348
          ],
          [
            -62.8856537,
            8.1827746
          ],
          [
            -62.8856349,
            8.1828131
          ],
          [
            -62.8856269,
            8.1828596
          ],
          [
            -62.8856295,
            8.1829021
          ],
          [
            -62.8856416,
            8.1829605
          ],
          [
            -62.8856939,
            8.1830667
          ],
          [
            -62.8857248,
            8.1831158
          ],
          [
            -62.8857341,
            8.1831476
          ],
          [
            -62.8857368,
            8.1831808
          ],
          [
            -62.8857328,
            8.1832113
          ],
          [
            -62.8857127,
            8.1832591
          ],
          [
            -62.8856845,
            8.183295
          ],
          [
            -62.885651,
            8.1833215
          ],
          [
            -62.8855987,
            8.183356
          ],
          [
            -62.8855665,
            8.1833892
          ],
          [
            -62.885541,
            8.183433
          ],
          [
            -62.8855276,
            8.1834755
          ],
          [
            -62.8855249,
            8.1835326
          ],
          [
            -62.8855343,
            8.1835844
          ],
          [
            -62.8855518,
            8.1836308
          ],
          [
            -62.8856014,
            8.1837304
          ],
          [
            -62.886005,
            8.1842972
          ],
          [
            -62.8861097,
            8.1844326
          ],
          [
            -62.8861593,
            8.1844963
          ],
          [
            -62.886229,
            8.1845428
          ],
          [
            -62.8863014,
            8.1845693
          ],
          [
            -62.8873542,
            8.1847578
          ],
          [
            -62.8875929,
            8.1848016
          ],
          [
            -62.8876841,
            8.184803
          ],
          [
            -62.8877431,
            8.184791
          ],
          [
            -62.8878196,
            8.1847578
          ],
          [
            -62.8878799,
            8.1847127
          ],
          [
            -62.8879161,
            8.1846609
          ],
          [
            -62.8879403,
            8.1846065
          ],
          [
            -62.8880247,
            8.1840403
          ],
          [
            -62.8880522,
            8.1839454
          ],
          [
            -62.8880683,
            8.1839069
          ],
          [
            -62.8880878,
            8.1838744
          ],
          [
            -62.8881045,
            8.1838499
          ],
          [
            -62.8881327,
            8.1838246
          ],
          [
            -62.8881562,
            8.183808
          ],
          [
            -62.8881884,
            8.1837934
          ],
          [
            -62.8882333,
            8.1837815
          ],
          [
            -62.8882782,
            8.1837795
          ],
          [
            -62.888356,
            8.1837835
          ],
          [
            -62.8888636,
            8.1838671
          ],
          [
            -62.8889689,
            8.1838976
          ],
          [
            -62.8890587,
            8.1839375
          ],
          [
            -62.8891312,
            8.1839945
          ],
          [
            -62.8892103,
            8.1840782
          ],
          [
            -62.889272,
            8.1841711
          ],
          [
            -62.8893162,
            8.1842627
          ],
          [
            -62.8893538,
            8.1843609
          ],
          [
            -62.8893793,
            8.1844578
          ],
          [
            -62.889394,
            8.1845521
          ],
          [
            -62.889398,
            8.184653
          ],
          [
            -62.889394,
            8.1847631
          ],
          [
            -62.8893846,
            8.1848547
          ],
          [
            -62.8893591,
            8.1849702
          ],
          [
            -62.8893243,
            8.1850791
          ],
          [
            -62.8892733,
            8.1851813
          ],
          [
            -62.8892049,
            8.1852968
          ],
          [
            -62.8891285,
            8.1853923
          ],
          [
            -62.88904,
            8.1854786
          ],
          [
            -62.8889582,
            8.1855357
          ],
          [
            -62.8888723,
            8.1855861
          ],
          [
            -62.8887583,
            8.1856419
          ],
          [
            -62.8886175,
            8.185695
          ],
          [
            -62.8885169,
            8.1857176
          ],
          [
            -62.8883949,
            8.1857215
          ],
          [
            -62.8882527,
            8.1857136
          ],
          [
            -62.88398,
            8.1850167
          ],
          [
            -62.8838499,
            8.1849888
          ]
        ]
      }
    }
  ]
}
