{
  "type": "FeatureCollection",
  "bbox": [
    -61.8758974,
    -31.9136041,
    -61.8642339,
    -31.9094132
  ],
  "metadata": {
    "schemaVersion": 1,
    "trackId": "ar-autodromo-de-san-jorge-76618655",
    "layoutId": "autodromo-de-san-jorge",
    "license": "ODbL-1.0",
    "attribution": "© OpenStreetMap contributors",
    "closed": true,
    "geometryStatus": "draft",
    "timingStatus": "missing",
    "timingMode": "shared",
    "lengthM": 3164.8,
    "reviewedAt": null,
    "notes": [
      "Draft route hypothesis: the source cycle is the unique closest nominal-distance match within conservative timing and distance checks. Approximate OSM trace length 3164.8 m. Difference from the supplied layout distance 1.2 m. Course configuration still requires visual review."
    ]
  },
  "features": [
    {
      "type": "Feature",
      "id": "trace",
      "properties": {
        "role": "trace",
        "sourceIds": [
          "osm-network-215341966"
        ]
      },
      "geometry": {
        "type": "LineString",
        "coordinates": [
          [
            -61.8666314,
            -31.9133769
          ],
          [
            -61.8652636,
            -31.9136041
          ],
          [
            -61.8649993,
            -31.9136006
          ],
          [
            -61.8647723,
            -31.9135475
          ],
          [
            -61.8646019,
            -31.9134403
          ],
          [
            -61.8644913,
            -31.9133349
          ],
          [
            -61.8644287,
            -31.9131814
          ],
          [
            -61.8644543,
            -31.9130477
          ],
          [
            -61.8645726,
            -31.9129172
          ],
          [
            -61.8647095,
            -31.9128168
          ],
          [
            -61.8648852,
            -31.9126676
          ],
          [
            -61.8650086,
            -31.9125056
          ],
          [
            -61.8650744,
            -31.9123722
          ],
          [
            -61.8651054,
            -31.9122083
          ],
          [
            -61.8651032,
            -31.9119462
          ],
          [
            -61.8650104,
            -31.9107757
          ],
          [
            -61.8649917,
            -31.9106639
          ],
          [
            -61.8649583,
            -31.9105815
          ],
          [
            -61.8648518,
            -31.9104449
          ],
          [
            -61.864785,
            -31.9103703
          ],
          [
            -61.8646808,
            -31.910301
          ],
          [
            -61.8644374,
            -31.9102193
          ],
          [
            -61.8643073,
            -31.9101146
          ],
          [
            -61.8642431,
            -31.9100041
          ],
          [
            -61.8642339,
            -31.9098371
          ],
          [
            -61.8642736,
            -31.9097306
          ],
          [
            -61.8643792,
            -31.9096161
          ],
          [
            -61.8645697,
            -31.9095287
          ],
          [
            -61.8649945,
            -31.9094298
          ],
          [
            -61.8653347,
            -31.9094132
          ],
          [
            -61.8656033,
            -31.9094318
          ],
          [
            -61.8658348,
            -31.9094791
          ],
          [
            -61.8660528,
            -31.909558
          ],
          [
            -61.8662944,
            -31.9096972
          ],
          [
            -61.8664718,
            -31.9098234
          ],
          [
            -61.866582,
            -31.9099409
          ],
          [
            -61.8666814,
            -31.9100858
          ],
          [
            -61.8667325,
            -31.9102467
          ],
          [
            -61.8667942,
            -31.9103795
          ],
          [
            -61.8674235,
            -31.912188
          ],
          [
            -61.8675094,
            -31.912352
          ],
          [
            -61.8676757,
            -31.9125022
          ],
          [
            -61.8678795,
            -31.9125614
          ],
          [
            -61.8680673,
            -31.9125387
          ],
          [
            -61.8681541,
            -31.9124816
          ],
          [
            -61.868255,
            -31.9123884
          ],
          [
            -61.8683032,
            -31.9122791
          ],
          [
            -61.8683301,
            -31.9121698
          ],
          [
            -61.8683462,
            -31.9119558
          ],
          [
            -61.868376,
            -31.9118271
          ],
          [
            -61.8684765,
            -31.9117104
          ],
          [
            -61.8685717,
            -31.9116579
          ],
          [
            -61.8686735,
            -31.9116279
          ],
          [
            -61.8714358,
            -31.9111451
          ],
          [
            -61.8716819,
            -31.911077
          ],
          [
            -61.8718892,
            -31.9109878
          ],
          [
            -61.8720527,
            -31.9108481
          ],
          [
            -61.8721228,
            -31.9106808
          ],
          [
            -61.8722783,
            -31.910066
          ],
          [
            -61.8723189,
            -31.9099605
          ],
          [
            -61.8724587,
            -31.909825
          ],
          [
            -61.8726378,
            -31.9097518
          ],
          [
            -61.8727577,
            -31.9097246
          ],
          [
            -61.872906,
            -31.9097154
          ],
          [
            -61.8731152,
            -31.9097791
          ],
          [
            -61.8732454,
            -31.9098757
          ],
          [
            -61.8733544,
            -31.9099903
          ],
          [
            -61.8742476,
            -31.9108471
          ],
          [
            -61.8745198,
            -31.9109924
          ],
          [
            -61.8748239,
            -31.9111157
          ],
          [
            -61.8751566,
            -31.9112006
          ],
          [
            -61.8755866,
            -31.9112512
          ],
          [
            -61.875725,
            -31.9113
          ],
          [
            -61.875857,
            -31.9114265
          ],
          [
            -61.8758974,
            -31.9115657
          ],
          [
            -61.8758463,
            -31.9117139
          ],
          [
            -61.8757399,
            -31.9118277
          ],
          [
            -61.8755653,
            -31.9118928
          ],
          [
            -61.8745796,
            -31.912056
          ],
          [
            -61.8726955,
            -31.9123555
          ],
          [
            -61.8666314,
            -31.9133769
          ]
        ]
      }
    }
  ]
}
