{
  "type": "FeatureCollection",
  "bbox": [
    153.4240925,
    -27.9917782,
    153.4300025,
    -27.9813165
  ],
  "metadata": {
    "schemaVersion": 1,
    "trackId": "au-surfer-s-paradise-ee3387d5",
    "layoutId": "surfer-s-paradise",
    "license": "ODbL-1.0",
    "attribution": "Includes material © State of Queensland, Department of Natural Resources and Mines, Manufacturing and Regional and Rural Development. Queensland public aerial imagery, CC BY 4.0.",
    "closed": true,
    "geometryStatus": "draft",
    "timingStatus": "missing",
    "timingMode": "shared",
    "lengthM": 2911.7,
    "reviewedAt": null,
    "notes": [
      "The championship organizer identifies the 2010-onward short street circuit through the Gold Coast Highway, southern Surfers Paradise Boulevard traffic island, Main Beach Parade, Pacific Street, Breaker Street and Tedder Avenue. The full underlying road centerline is independently digitized from the State of Queensland public time-series aerial survey, project Gold_Coast_2011_10cm_SISP_Urban_Oct_Dec, locked raster 4192, captured November 2011 to January 2012 before the later tram reconstruction. The official 2011 event map corroborates the southern island return and northern Tedder hairpin; the Higman Street shortcut and former longer Indy course are excluded. Temporary event barriers and chicanes are not resolved in the off-event aerial survey: this draft follows the identified street pavement and does not claim exact event corner geometry. The pinned export has approximately 0.5 m ground pixel spacing, despite finer native survey resolution. The dataset catalogue explicitly licenses this public imagery service under CC BY 4.0. All pixel vertices come from that survey; no operator diagram coordinates, private course coordinates, timing location or nominal distance define any vertex. Independently digitized aerial centerline: 2911.7 m. Direction, historical configuration and fine corner alignment remain draft; no course coordinates come from the comparison catalogue."
    ]
  },
  "features": [
    {
      "type": "Feature",
      "id": "trace",
      "properties": {
        "role": "trace",
        "sourceIds": [
          "qld-gold-coast-2011-independent-aerial"
        ]
      },
      "geometry": {
        "type": "LineString",
        "coordinates": [
          [
            153.4240925,
            -27.9819991
          ],
          [
            153.4241025,
            -27.9821161
          ],
          [
            153.4241925,
            -27.9822526
          ],
          [
            153.4243175,
            -27.9824232
          ],
          [
            153.4244425,
            -27.9825938
          ],
          [
            153.4246225,
            -27.982823
          ],
          [
            153.4248025,
            -27.9830521
          ],
          [
            153.4249975,
            -27.9833105
          ],
          [
            153.4251925,
            -27.9835689
          ],
          [
            153.4253458,
            -27.9837671
          ],
          [
            153.4254992,
            -27.9839654
          ],
          [
            153.4256525,
            -27.9841636
          ],
          [
            153.4257992,
            -27.9843586
          ],
          [
            153.4259458,
            -27.9845536
          ],
          [
            153.4260925,
            -27.9847486
          ],
          [
            153.4262392,
            -27.9849404
          ],
          [
            153.4263858,
            -27.9851321
          ],
          [
            153.4265325,
            -27.9853239
          ],
          [
            153.4266792,
            -27.9855189
          ],
          [
            153.4268258,
            -27.9857139
          ],
          [
            153.4269725,
            -27.9859089
          ],
          [
            153.4271092,
            -27.9861039
          ],
          [
            153.4272458,
            -27.9862989
          ],
          [
            153.4273825,
            -27.9864939
          ],
          [
            153.4275092,
            -27.9867116
          ],
          [
            153.4276358,
            -27.9869294
          ],
          [
            153.4277625,
            -27.9871471
          ],
          [
            153.4278625,
            -27.9873681
          ],
          [
            153.4279625,
            -27.9875891
          ],
          [
            153.4280625,
            -27.9878101
          ],
          [
            153.4281325,
            -27.9880344
          ],
          [
            153.4282025,
            -27.9882586
          ],
          [
            153.4282725,
            -27.9884828
          ],
          [
            153.4283192,
            -27.9887103
          ],
          [
            153.4283658,
            -27.9889378
          ],
          [
            153.4284125,
            -27.9891653
          ],
          [
            153.4284925,
            -27.9894578
          ],
          [
            153.4285025,
            -27.9896772
          ],
          [
            153.4285125,
            -27.9898965
          ],
          [
            153.4285225,
            -27.9901159
          ],
          [
            153.4285325,
            -27.9903353
          ],
          [
            153.4285575,
            -27.9905156
          ],
          [
            153.4285825,
            -27.990696
          ],
          [
            153.4286575,
            -27.990852
          ],
          [
            153.4287325,
            -27.991008
          ],
          [
            153.4288325,
            -27.9911884
          ],
          [
            153.4289325,
            -27.9913687
          ],
          [
            153.4291125,
            -27.9916125
          ],
          [
            153.4292225,
            -27.9917295
          ],
          [
            153.4293325,
            -27.9917782
          ],
          [
            153.4294425,
            -27.9917685
          ],
          [
            153.4295325,
            -27.9917002
          ],
          [
            153.4295925,
            -27.991593
          ],
          [
            153.4296825,
            -27.9913882
          ],
          [
            153.4297525,
            -27.991164
          ],
          [
            153.4297825,
            -27.9908715
          ],
          [
            153.4297825,
            -27.9905303
          ],
          [
            153.4297875,
            -27.9903109
          ],
          [
            153.4297925,
            -27.9900915
          ],
          [
            153.4298275,
            -27.9898722
          ],
          [
            153.4298625,
            -27.9896528
          ],
          [
            153.4298825,
            -27.9894091
          ],
          [
            153.4299025,
            -27.9891653
          ],
          [
            153.4299275,
            -27.9889216
          ],
          [
            153.4299525,
            -27.9886778
          ],
          [
            153.4299675,
            -27.9884341
          ],
          [
            153.4299825,
            -27.9881904
          ],
          [
            153.4299925,
            -27.9879466
          ],
          [
            153.4300025,
            -27.9877029
          ],
          [
            153.4300025,
            -27.9874591
          ],
          [
            153.4300025,
            -27.9872154
          ],
          [
            153.4299875,
            -27.9869716
          ],
          [
            153.4299725,
            -27.9867279
          ],
          [
            153.4299475,
            -27.9864841
          ],
          [
            153.4299225,
            -27.9862404
          ],
          [
            153.4298925,
            -27.9859966
          ],
          [
            153.4298625,
            -27.9857529
          ],
          [
            153.4298225,
            -27.9854604
          ],
          [
            153.4297925,
            -27.9852654
          ],
          [
            153.4297425,
            -27.9851191
          ],
          [
            153.4297325,
            -27.9849729
          ],
          [
            153.4297825,
            -27.9847486
          ],
          [
            153.4297825,
            -27.9845829
          ],
          [
            153.4297325,
            -27.9843635
          ],
          [
            153.4296825,
            -27.9841441
          ],
          [
            153.4295875,
            -27.9838857
          ],
          [
            153.4294925,
            -27.9836274
          ],
          [
            153.4293825,
            -27.9834129
          ],
          [
            153.4292925,
            -27.9833836
          ],
          [
            153.4291125,
            -27.9834421
          ],
          [
            153.4288925,
            -27.9834811
          ],
          [
            153.4286225,
            -27.9835006
          ],
          [
            153.4284325,
            -27.9834714
          ],
          [
            153.4282625,
            -27.9834129
          ],
          [
            153.4281025,
            -27.9833056
          ],
          [
            153.4279725,
            -27.9831691
          ],
          [
            153.4278825,
            -27.9829936
          ],
          [
            153.4278425,
            -27.9827791
          ],
          [
            153.4278375,
            -27.9825938
          ],
          [
            153.4278325,
            -27.9824086
          ],
          [
            153.4278225,
            -27.9822038
          ],
          [
            153.4278125,
            -27.9819991
          ],
          [
            153.4278025,
            -27.9817943
          ],
          [
            153.4276825,
            -27.9817553
          ],
          [
            153.4275025,
            -27.9817309
          ],
          [
            153.4273225,
            -27.9817066
          ],
          [
            153.4271125,
            -27.9816724
          ],
          [
            153.4269025,
            -27.9816383
          ],
          [
            153.4266725,
            -27.9816042
          ],
          [
            153.4264425,
            -27.98157
          ],
          [
            153.4262075,
            -27.9815359
          ],
          [
            153.4259725,
            -27.9815018
          ],
          [
            153.4257375,
            -27.9814677
          ],
          [
            153.4255025,
            -27.9814335
          ],
          [
            153.4252775,
            -27.9813994
          ],
          [
            153.4250525,
            -27.9813653
          ],
          [
            153.4248725,
            -27.9813409
          ],
          [
            153.4246925,
            -27.9813165
          ],
          [
            153.4245525,
            -27.9813165
          ],
          [
            153.4245125,
            -27.9814238
          ],
          [
            153.4244825,
            -27.9816383
          ],
          [
            153.4243925,
            -27.9817651
          ],
          [
            153.4242725,
            -27.9818138
          ],
          [
            153.4241725,
            -27.9818821
          ],
          [
            153.4240925,
            -27.9819991
          ]
        ]
      }
    }
  ]
}
