{
  "type": "FeatureCollection",
  "bbox": [
    -100.9931624,
    22.182488,
    -100.9900134,
    22.1838137
  ],
  "metadata": {
    "schemaVersion": 1,
    "trackId": "mx-autodromo-tangamanga-226300277",
    "layoutId": "main",
    "license": "ODbL-1.0",
    "attribution": "© OpenStreetMap contributors",
    "closed": true,
    "geometryStatus": "draft",
    "timingStatus": "missing",
    "timingMode": "shared",
    "lengthM": 881.7,
    "reviewedAt": null,
    "notes": [
      "Connected OSM course candidate. The selected loop is the longest simple source-node cycle after explicit exclusions; its association with a named circuit configuration requires review.",
      "Source way order and shared node IDs are retained. No nearby endpoints are joined and no reference boundaries are read.",
      "Some source ways lack one-way direction tags. Travel direction is provisional."
    ]
  },
  "features": [
    {
      "type": "Feature",
      "id": "trace",
      "properties": {
        "role": "trace",
        "sourceIds": [
          "osm-snapshot"
        ]
      },
      "geometry": {
        "type": "LineString",
        "coordinates": [
          [
            -100.9931624,
            22.1826354
          ],
          [
            -100.9930117,
            22.1826342
          ],
          [
            -100.9929275,
            22.1826569
          ],
          [
            -100.9928549,
            22.182695
          ],
          [
            -100.9928044,
            22.1827296
          ],
          [
            -100.9927457,
            22.1827866
          ],
          [
            -100.9927128,
            22.1828436
          ],
          [
            -100.9926774,
            22.1829384
          ],
          [
            -100.9926576,
            22.183054
          ],
          [
            -100.9926054,
            22.18361
          ],
          [
            -100.9925826,
            22.1836807
          ],
          [
            -100.9925451,
            22.183724
          ],
          [
            -100.9924915,
            22.1837694
          ],
          [
            -100.9924378,
            22.1837943
          ],
          [
            -100.9923776,
            22.1838126
          ],
          [
            -100.9923173,
            22.1838137
          ],
          [
            -100.9921982,
            22.1837743
          ],
          [
            -100.9914525,
            22.1834768
          ],
          [
            -100.9913691,
            22.1834597
          ],
          [
            -100.9913595,
            22.183459
          ],
          [
            -100.9905258,
            22.1834014
          ],
          [
            -100.9904289,
            22.1834039
          ],
          [
            -100.9903597,
            22.1834232
          ],
          [
            -100.9902831,
            22.1834734
          ],
          [
            -100.9902106,
            22.1834928
          ],
          [
            -100.9901346,
            22.1834781
          ],
          [
            -100.9900779,
            22.1834354
          ],
          [
            -100.9900229,
            22.1833384
          ],
          [
            -100.9900134,
            22.1832887
          ],
          [
            -100.990015,
            22.183239
          ],
          [
            -100.990033,
            22.1832007
          ],
          [
            -100.990062,
            22.183152
          ],
          [
            -100.9901195,
            22.1831168
          ],
          [
            -100.990224,
            22.1831013
          ],
          [
            -100.9910405,
            22.1831608
          ],
          [
            -100.9911256,
            22.1831538
          ],
          [
            -100.9911793,
            22.183131
          ],
          [
            -100.9913141,
            22.1829988
          ],
          [
            -100.9914949,
            22.1828388
          ],
          [
            -100.9915497,
            22.1827716
          ],
          [
            -100.991563,
            22.1826908
          ],
          [
            -100.9915446,
            22.1826229
          ],
          [
            -100.9914949,
            22.1825599
          ],
          [
            -100.9913875,
            22.1825065
          ],
          [
            -100.9912518,
            22.182488
          ],
          [
            -100.9931624,
            22.1826354
          ]
        ]
      }
    }
  ]
}
