{
  "type": "FeatureCollection",
  "bbox": [
    37.9836343,
    55.5624978,
    37.9884157,
    55.5671223
  ],
  "metadata": {
    "schemaVersion": 1,
    "trackId": "ru-osm-49185165",
    "layoutId": "adm-myachkovo-sprint",
    "license": "ODbL-1.0",
    "attribution": "© OpenStreetMap contributors",
    "closed": true,
    "geometryStatus": "draft",
    "timingStatus": "missing",
    "timingMode": "shared",
    "lengthM": 2101.7,
    "reviewedAt": null,
    "notes": [
      "Draft configuration: Sprint course with northern rounded return, southeastern linked bends and direct diagonal southwestern corner. Branch identity was checked against catalogue layout facts and circuit identification references. Independent source distance 2101.7 m; no coordinates are changed to match a diagram or distance. Travel direction and historical alignment remain provisional."
    ]
  },
  "features": [
    {
      "type": "Feature",
      "id": "trace",
      "properties": {
        "role": "trace",
        "sourceIds": [
          "osm-selection-49185165"
        ]
      },
      "geometry": {
        "type": "LineString",
        "coordinates": [
          [
            37.9841236,
            55.5654598
          ],
          [
            37.9843216,
            55.565451
          ],
          [
            37.9844895,
            55.5654176
          ],
          [
            37.9845907,
            55.5653775
          ],
          [
            37.9846703,
            55.5653258
          ],
          [
            37.9847421,
            55.5652602
          ],
          [
            37.9848059,
            55.5651368
          ],
          [
            37.9848621,
            55.5650087
          ],
          [
            37.9849345,
            55.5648252
          ],
          [
            37.9850389,
            55.5645742
          ],
          [
            37.9851287,
            55.5643491
          ],
          [
            37.9852545,
            55.5640766
          ],
          [
            37.9853496,
            55.5639576
          ],
          [
            37.9854714,
            55.5638574
          ],
          [
            37.985583,
            55.5637853
          ],
          [
            37.9857222,
            55.5637269
          ],
          [
            37.9858313,
            55.5636846
          ],
          [
            37.9859975,
            55.563645
          ],
          [
            37.9861788,
            55.5636129
          ],
          [
            37.9863556,
            55.563607
          ],
          [
            37.9866033,
            55.5636159
          ],
          [
            37.9868621,
            55.5636325
          ],
          [
            37.9875664,
            55.563685
          ],
          [
            37.987686,
            55.5637498
          ],
          [
            37.9877764,
            55.5638274
          ],
          [
            37.98783,
            55.5639231
          ],
          [
            37.9878601,
            55.5640092
          ],
          [
            37.9878484,
            55.5640717
          ],
          [
            37.9877915,
            55.5641436
          ],
          [
            37.987691,
            55.5642288
          ],
          [
            37.9875622,
            55.5642948
          ],
          [
            37.9872974,
            55.5643154
          ],
          [
            37.9870638,
            55.564342
          ],
          [
            37.9868117,
            55.5643843
          ],
          [
            37.9865996,
            55.5644482
          ],
          [
            37.9864303,
            55.5645201
          ],
          [
            37.9862848,
            55.5646042
          ],
          [
            37.9861517,
            55.5647134
          ],
          [
            37.9860471,
            55.5648267
          ],
          [
            37.9859843,
            55.5649606
          ],
          [
            37.9859466,
            55.5651211
          ],
          [
            37.9858954,
            55.5654133
          ],
          [
            37.9858164,
            55.5655624
          ],
          [
            37.985713,
            55.5656841
          ],
          [
            37.9855991,
            55.5657853
          ],
          [
            37.9854542,
            55.5658815
          ],
          [
            37.9852583,
            55.5659615
          ],
          [
            37.9850478,
            55.5660274
          ],
          [
            37.9848119,
            55.5660644
          ],
          [
            37.9845676,
            55.5660837
          ],
          [
            37.9842918,
            55.566111
          ],
          [
            37.9841035,
            55.5661478
          ],
          [
            37.9839311,
            55.5662041
          ],
          [
            37.9838144,
            55.5662758
          ],
          [
            37.9837254,
            55.5663606
          ],
          [
            37.9836751,
            55.5664658
          ],
          [
            37.9836573,
            55.566558
          ],
          [
            37.9836464,
            55.5666887
          ],
          [
            37.983678,
            55.5667756
          ],
          [
            37.9837306,
            55.5668509
          ],
          [
            37.983875,
            55.5669699
          ],
          [
            37.9840701,
            55.5670531
          ],
          [
            37.9842461,
            55.5670992
          ],
          [
            37.9844426,
            55.5671223
          ],
          [
            37.9846295,
            55.5671221
          ],
          [
            37.9848006,
            55.5670915
          ],
          [
            37.9850168,
            55.5670528
          ],
          [
            37.9861092,
            55.5668221
          ],
          [
            37.9863965,
            55.5667466
          ],
          [
            37.9865099,
            55.5666987
          ],
          [
            37.9865794,
            55.5666439
          ],
          [
            37.9866319,
            55.566556
          ],
          [
            37.9866341,
            55.5664636
          ],
          [
            37.9866217,
            55.5662894
          ],
          [
            37.9866103,
            55.5661162
          ],
          [
            37.9866691,
            55.5660084
          ],
          [
            37.9867783,
            55.5659274
          ],
          [
            37.9869012,
            55.5658763
          ],
          [
            37.9870725,
            55.5658353
          ],
          [
            37.9873478,
            55.5657933
          ],
          [
            37.9875122,
            55.5657503
          ],
          [
            37.9875884,
            55.5656848
          ],
          [
            37.9876172,
            55.5656104
          ],
          [
            37.9876487,
            55.5653555
          ],
          [
            37.987665,
            55.5652021
          ],
          [
            37.9877028,
            55.5649531
          ],
          [
            37.9877352,
            55.5648538
          ],
          [
            37.987802,
            55.5647883
          ],
          [
            37.9878989,
            55.5647325
          ],
          [
            37.9880514,
            55.5647019
          ],
          [
            37.9882184,
            55.5644985
          ],
          [
            37.9883331,
            55.5643665
          ],
          [
            37.9884157,
            55.5642526
          ],
          [
            37.9883527,
            55.5637289
          ],
          [
            37.9883115,
            55.5635737
          ],
          [
            37.9883564,
            55.5634305
          ],
          [
            37.988306,
            55.5630916
          ],
          [
            37.9882012,
            55.5629898
          ],
          [
            37.9881025,
            55.5629492
          ],
          [
            37.9859687,
            55.5626074
          ],
          [
            37.9854982,
            55.562532
          ],
          [
            37.9853075,
            55.5625004
          ],
          [
            37.985104,
            55.5624978
          ],
          [
            37.984979,
            55.5625243
          ],
          [
            37.9848798,
            55.5625786
          ],
          [
            37.9846579,
            55.5627549
          ],
          [
            37.9845095,
            55.5628674
          ],
          [
            37.9838995,
            55.5633264
          ],
          [
            37.9837941,
            55.5634258
          ],
          [
            37.9837254,
            55.563512
          ],
          [
            37.9836939,
            55.5636398
          ],
          [
            37.9836933,
            55.5642977
          ],
          [
            37.9836475,
            55.5646679
          ],
          [
            37.9836343,
            55.5651201
          ],
          [
            37.9836782,
            55.565266
          ],
          [
            37.9837781,
            55.5653588
          ],
          [
            37.9839327,
            55.5654347
          ],
          [
            37.9841236,
            55.5654598
          ]
        ]
      }
    }
  ]
}
