{
  "type": "FeatureCollection",
  "bbox": [
    139.919292,
    36.1484037,
    139.9242688,
    36.1525556
  ],
  "metadata": {
    "schemaVersion": 1,
    "trackId": "jp-osm-438021322",
    "layoutId": "tsukuba",
    "license": "ODbL-1.0",
    "attribution": "© OpenStreetMap contributors",
    "closed": true,
    "geometryStatus": "draft",
    "timingStatus": "missing",
    "timingMode": "shared",
    "lengthM": 2121.3,
    "reviewedAt": null,
    "notes": [
      "Draft configuration: Full course with the direct central return, both western hairpins and eastern long turnaround; excludes the central chicane branch. Branch identity was checked against catalogue layout facts and circuit identification references. Independent source distance 2121.3 m; no coordinates are changed to match a diagram or distance. Travel direction and historical alignment remain provisional."
    ]
  },
  "features": [
    {
      "type": "Feature",
      "id": "trace",
      "properties": {
        "role": "trace",
        "sourceIds": [
          "osm-selection-110390472"
        ]
      },
      "geometry": {
        "type": "LineString",
        "coordinates": [
          [
            139.922632,
            36.1507596
          ],
          [
            139.9227232,
            36.1508294
          ],
          [
            139.922803,
            36.1508949
          ],
          [
            139.9228788,
            36.1509729
          ],
          [
            139.9229526,
            36.1510525
          ],
          [
            139.9230934,
            36.1512106
          ],
          [
            139.9233729,
            36.1515284
          ],
          [
            139.9234453,
            36.1516384
          ],
          [
            139.923483,
            36.151712
          ],
          [
            139.9235151,
            36.1517791
          ],
          [
            139.9235702,
            36.1519177
          ],
          [
            139.9236211,
            36.1520617
          ],
          [
            139.9237122,
            36.1523477
          ],
          [
            139.9237431,
            36.1524234
          ],
          [
            139.923782,
            36.1524679
          ],
          [
            139.9238249,
            36.1525068
          ],
          [
            139.9238893,
            36.1525372
          ],
          [
            139.9239456,
            36.1525556
          ],
          [
            139.924018,
            36.1525556
          ],
          [
            139.9240958,
            36.1525415
          ],
          [
            139.9241361,
            36.152523
          ],
          [
            139.924171,
            36.1525003
          ],
          [
            139.9242273,
            36.1524538
          ],
          [
            139.9242474,
            36.1524245
          ],
          [
            139.9242594,
            36.1523985
          ],
          [
            139.9242682,
            36.1523606
          ],
          [
            139.9242688,
            36.1523222
          ],
          [
            139.924256,
            36.1522551
          ],
          [
            139.9242285,
            36.1521853
          ],
          [
            139.9242004,
            36.1521344
          ],
          [
            139.9241441,
            36.1520348
          ],
          [
            139.9223087,
            36.1499751
          ],
          [
            139.9217738,
            36.1493834
          ],
          [
            139.9212983,
            36.1488574
          ],
          [
            139.9211977,
            36.1487502
          ],
          [
            139.9210864,
            36.1486485
          ],
          [
            139.9209939,
            36.1485813
          ],
          [
            139.9208905,
            36.1485261
          ],
          [
            139.9207739,
            36.1484785
          ],
          [
            139.9206116,
            36.1484351
          ],
          [
            139.9204816,
            36.148408
          ],
          [
            139.9203246,
            36.1484037
          ],
          [
            139.9201905,
            36.1484102
          ],
          [
            139.9200457,
            36.1484265
          ],
          [
            139.9199049,
            36.1484643
          ],
          [
            139.9197815,
            36.1485131
          ],
          [
            139.9196688,
            36.1485716
          ],
          [
            139.9195602,
            36.1486441
          ],
          [
            139.9194945,
            36.1487059
          ],
          [
            139.9194369,
            36.1487785
          ],
          [
            139.9193912,
            36.1488521
          ],
          [
            139.9193711,
            36.1488856
          ],
          [
            139.9193095,
            36.1490848
          ],
          [
            139.919292,
            36.149217
          ],
          [
            139.9193013,
            36.1493177
          ],
          [
            139.9193228,
            36.1494433
          ],
          [
            139.9196916,
            36.150745
          ],
          [
            139.9199597,
            36.1516707
          ],
          [
            139.9200361,
            36.1519541
          ],
          [
            139.9200885,
            36.1520537
          ],
          [
            139.9201273,
            36.1521056
          ],
          [
            139.9201756,
            36.1521436
          ],
          [
            139.9202306,
            36.1521782
          ],
          [
            139.9202897,
            36.1521993
          ],
          [
            139.9203448,
            36.1522155
          ],
          [
            139.9203984,
            36.1522221
          ],
          [
            139.9204628,
            36.152221
          ],
          [
            139.9205432,
            36.1522123
          ],
          [
            139.9206102,
            36.1521896
          ],
          [
            139.9206674,
            36.152156
          ],
          [
            139.9207307,
            36.1521049
          ],
          [
            139.9207696,
            36.1520518
          ],
          [
            139.9207977,
            36.1519922
          ],
          [
            139.9208152,
            36.1519294
          ],
          [
            139.9208071,
            36.1518439
          ],
          [
            139.9207749,
            36.1517616
          ],
          [
            139.9203565,
            36.1507188
          ],
          [
            139.920335,
            36.1506387
          ],
          [
            139.9203243,
            36.1505715
          ],
          [
            139.920319,
            36.1504935
          ],
          [
            139.9203756,
            36.1499848
          ],
          [
            139.9203783,
            36.1499177
          ],
          [
            139.9203769,
            36.1498614
          ],
          [
            139.9203635,
            36.1497899
          ],
          [
            139.9203501,
            36.1497292
          ],
          [
            139.9203059,
            36.149635
          ],
          [
            139.920106,
            36.1492679
          ],
          [
            139.9200845,
            36.1492127
          ],
          [
            139.9200826,
            36.1491628
          ],
          [
            139.9200913,
            36.1491174
          ],
          [
            139.9201154,
            36.1490665
          ],
          [
            139.9201423,
            36.1490307
          ],
          [
            139.9201711,
            36.1490048
          ],
          [
            139.9202073,
            36.148976
          ],
          [
            139.9202649,
            36.1489528
          ],
          [
            139.9203388,
            36.1489436
          ],
          [
            139.9204198,
            36.1489485
          ],
          [
            139.9204662,
            36.1489571
          ],
          [
            139.920509,
            36.1489734
          ],
          [
            139.9205507,
            36.1489971
          ],
          [
            139.9205908,
            36.1490221
          ],
          [
            139.9206284,
            36.149067
          ],
          [
            139.9206552,
            36.1491114
          ],
          [
            139.9206667,
            36.1491444
          ],
          [
            139.9206761,
            36.1491753
          ],
          [
            139.9208778,
            36.1503108
          ],
          [
            139.920902,
            36.1503779
          ],
          [
            139.9209315,
            36.1504299
          ],
          [
            139.920969,
            36.1504749
          ],
          [
            139.9209993,
            36.1505029
          ],
          [
            139.9210354,
            36.1505257
          ],
          [
            139.9210723,
            36.1505446
          ],
          [
            139.9211132,
            36.1505587
          ],
          [
            139.9211783,
            36.1505766
          ],
          [
            139.9212172,
            36.1505836
          ],
          [
            139.9212507,
            36.1505879
          ],
          [
            139.9215598,
            36.1505953
          ],
          [
            139.9218401,
            36.1505985
          ],
          [
            139.9221197,
            36.150608
          ],
          [
            139.9222137,
            36.1506168
          ],
          [
            139.9223035,
            36.1506329
          ],
          [
            139.9223806,
            36.150654
          ],
          [
            139.922471,
            36.1506849
          ],
          [
            139.9225543,
            36.150719
          ],
          [
            139.922632,
            36.1507596
          ]
        ]
      }
    }
  ]
}
