{
  "type": "FeatureCollection",
  "bbox": [
    6.3884398,
    58.3439556,
    6.3970149,
    58.3493382
  ],
  "metadata": {
    "schemaVersion": 1,
    "trackId": "no-motorcentre-norway-reference",
    "layoutId": "main",
    "license": "ODbL-1.0",
    "attribution": "© OpenStreetMap contributors",
    "closed": true,
    "geometryStatus": "draft",
    "timingStatus": "missing",
    "timingMode": "shared",
    "lengthM": 2340.8,
    "reviewedAt": null,
    "notes": [
      "Single reference course at a unique connected OSM source cycle, with private timing proximity. Draft geometry; course identity and operating status require review. Timing coordinates remain private."
    ]
  },
  "features": [
    {
      "type": "Feature",
      "id": "trace",
      "properties": {
        "role": "trace",
        "sourceIds": [
          "osm-snapshot"
        ]
      },
      "geometry": {
        "type": "LineString",
        "coordinates": [
          [
            6.3922325,
            58.3448031
          ],
          [
            6.3945767,
            58.3462487
          ],
          [
            6.394853,
            58.3463162
          ],
          [
            6.3951132,
            58.3463275
          ],
          [
            6.3953519,
            58.3463064
          ],
          [
            6.3956174,
            58.3461994
          ],
          [
            6.3961968,
            58.3458588
          ],
          [
            6.3964918,
            58.3458011
          ],
          [
            6.3967654,
            58.3458194
          ],
          [
            6.3969371,
            58.3459165
          ],
          [
            6.3970149,
            58.3460685
          ],
          [
            6.3969585,
            58.3462318
          ],
          [
            6.3967305,
            58.3464711
          ],
          [
            6.3953025,
            58.3473886
          ],
          [
            6.3940886,
            58.3481686
          ],
          [
            6.393933,
            58.3482995
          ],
          [
            6.3939035,
            58.3484191
          ],
          [
            6.3939249,
            58.348581
          ],
          [
            6.3941154,
            58.3488442
          ],
          [
            6.3941234,
            58.3489187
          ],
          [
            6.3940832,
            58.3489807
          ],
          [
            6.3939732,
            58.3490201
          ],
          [
            6.3920367,
            58.3493255
          ],
          [
            6.3918704,
            58.3493382
          ],
          [
            6.3917202,
            58.3493227
          ],
          [
            6.3915861,
            58.3492594
          ],
          [
            6.3914493,
            58.3491116
          ],
          [
            6.3914171,
            58.3490412
          ],
          [
            6.3914171,
            58.3489624
          ],
          [
            6.3916022,
            58.348443
          ],
          [
            6.3917524,
            58.3483037
          ],
          [
            6.3920447,
            58.3481897
          ],
          [
            6.3930291,
            58.3479884
          ],
          [
            6.3934046,
            58.347842
          ],
          [
            6.3935226,
            58.3476253
          ],
          [
            6.3934207,
            58.3474423
          ],
          [
            6.3926589,
            58.3464739
          ],
          [
            6.3924658,
            58.3463345
          ],
          [
            6.3922137,
            58.3462782
          ],
          [
            6.3919616,
            58.3462754
          ],
          [
            6.3916773,
            58.3463064
          ],
          [
            6.3914305,
            58.34635
          ],
          [
            6.3911596,
            58.3464443
          ],
          [
            6.3910496,
            58.3465626
          ],
          [
            6.3910899,
            58.3467005
          ],
          [
            6.3912615,
            58.3467765
          ],
          [
            6.3915646,
            58.3468835
          ],
          [
            6.3916692,
            58.3469553
          ],
          [
            6.3916263,
            58.3471031
          ],
          [
            6.3907868,
            58.3478209
          ],
          [
            6.3905427,
            58.3479363
          ],
          [
            6.3902342,
            58.3479785
          ],
          [
            6.3899714,
            58.3479856
          ],
          [
            6.3897327,
            58.3479771
          ],
          [
            6.3894457,
            58.3479068
          ],
          [
            6.3891506,
            58.3477674
          ],
          [
            6.3887912,
            58.3475169
          ],
          [
            6.38859,
            58.3472874
          ],
          [
            6.3884613,
            58.3470172
          ],
          [
            6.3884398,
            58.3467709
          ],
          [
            6.3884452,
            58.3465879
          ],
          [
            6.38859,
            58.3463134
          ],
          [
            6.3888556,
            58.3460783
          ],
          [
            6.3897005,
            58.3454013
          ],
          [
            6.3897836,
            58.3452999
          ],
          [
            6.3897756,
            58.345231
          ],
          [
            6.3897085,
            58.3451437
          ],
          [
            6.3895181,
            58.3449607
          ],
          [
            6.3894671,
            58.3448791
          ],
          [
            6.3894671,
            58.3448087
          ],
          [
            6.3896066,
            58.3447101
          ],
          [
            6.3910872,
            58.3439951
          ],
          [
            6.3913152,
            58.3439556
          ],
          [
            6.3915083,
            58.343988
          ],
          [
            6.3915727,
            58.3440542
          ],
          [
            6.3917175,
            58.3444061
          ],
          [
            6.3919669,
            58.3446623
          ],
          [
            6.3922325,
            58.3448031
          ]
        ]
      }
    }
  ]
}
