{
  "type": "FeatureCollection",
  "bbox": [
    176.13994,
    -38.6699717,
    176.1477792,
    -38.6612281
  ],
  "metadata": {
    "schemaVersion": 1,
    "trackId": "nz-taupo-international-motorsport-park-90114324",
    "layoutId": "taupo-motorsport-park-track-4",
    "license": "ODbL-1.0",
    "attribution": "© OpenStreetMap contributors",
    "closed": true,
    "geometryStatus": "draft",
    "timingStatus": "missing",
    "timingMode": "shared",
    "lengthM": 3397.6,
    "reviewedAt": null,
    "notes": [
      "Draft configuration: Combined drag-and-road course with direct western shoulder and long southwestern parallel return; excludes the extra western spur. Branch identity was checked against catalogue layout facts and circuit identification references. Independent source distance 3397.6 m; no coordinates are changed to match a diagram or distance. Travel direction and historical alignment remain provisional."
    ]
  },
  "features": [
    {
      "type": "Feature",
      "id": "trace",
      "properties": {
        "role": "trace",
        "sourceIds": [
          "osm-selection-90114324"
        ]
      },
      "geometry": {
        "type": "LineString",
        "coordinates": [
          [
            176.1452252,
            -38.666191
          ],
          [
            176.1441121,
            -38.6671054
          ],
          [
            176.1440556,
            -38.6671518
          ],
          [
            176.1424229,
            -38.668465
          ],
          [
            176.1407896,
            -38.6698261
          ],
          [
            176.140717,
            -38.6698702
          ],
          [
            176.1406231,
            -38.6699278
          ],
          [
            176.1405466,
            -38.6699519
          ],
          [
            176.1404582,
            -38.6699694
          ],
          [
            176.1403629,
            -38.6699717
          ],
          [
            176.1402744,
            -38.6699581
          ],
          [
            176.1402087,
            -38.6699414
          ],
          [
            176.1401306,
            -38.6699021
          ],
          [
            176.140084,
            -38.6698671
          ],
          [
            176.1400364,
            -38.6698183
          ],
          [
            176.1399928,
            -38.6697498
          ],
          [
            176.139962,
            -38.6696727
          ],
          [
            176.1399471,
            -38.6696013
          ],
          [
            176.13994,
            -38.6695307
          ],
          [
            176.1399566,
            -38.6694315
          ],
          [
            176.1400112,
            -38.6693355
          ],
          [
            176.1400748,
            -38.6692528
          ],
          [
            176.140215,
            -38.669142
          ],
          [
            176.140375,
            -38.6690315
          ],
          [
            176.1405827,
            -38.6689254
          ],
          [
            176.1413414,
            -38.6686044
          ],
          [
            176.1415002,
            -38.6685289
          ],
          [
            176.1416008,
            -38.668464
          ],
          [
            176.1416812,
            -38.6683969
          ],
          [
            176.1419441,
            -38.6681896
          ],
          [
            176.1425073,
            -38.6677268
          ],
          [
            176.1431444,
            -38.6670996
          ],
          [
            176.1434149,
            -38.6667912
          ],
          [
            176.1437304,
            -38.6664315
          ],
          [
            176.1438358,
            -38.6663028
          ],
          [
            176.1439195,
            -38.6661959
          ],
          [
            176.1439705,
            -38.6661205
          ],
          [
            176.144008,
            -38.6660483
          ],
          [
            176.1440255,
            -38.6659823
          ],
          [
            176.1440375,
            -38.6659184
          ],
          [
            176.1440402,
            -38.6658493
          ],
          [
            176.1440268,
            -38.6657886
          ],
          [
            176.1440117,
            -38.665723
          ],
          [
            176.1439772,
            -38.6656765
          ],
          [
            176.1439182,
            -38.6656064
          ],
          [
            176.1438498,
            -38.6655174
          ],
          [
            176.1435278,
            -38.6651026
          ],
          [
            176.1434165,
            -38.6649633
          ],
          [
            176.1433388,
            -38.664866
          ],
          [
            176.1432356,
            -38.6647236
          ],
          [
            176.1431953,
            -38.6646524
          ],
          [
            176.1431524,
            -38.6645686
          ],
          [
            176.1431108,
            -38.6644828
          ],
          [
            176.1430894,
            -38.6643749
          ],
          [
            176.1430719,
            -38.6643016
          ],
          [
            176.1430639,
            -38.6642
          ],
          [
            176.1430626,
            -38.6640901
          ],
          [
            176.1430813,
            -38.6639634
          ],
          [
            176.1431068,
            -38.6638597
          ],
          [
            176.1431323,
            -38.6637749
          ],
          [
            176.1431967,
            -38.6636524
          ],
          [
            176.143261,
            -38.6635686
          ],
          [
            176.1433361,
            -38.663467
          ],
          [
            176.1434475,
            -38.6633571
          ],
          [
            176.1435655,
            -38.6632503
          ],
          [
            176.1440697,
            -38.6628167
          ],
          [
            176.1441274,
            -38.6627748
          ],
          [
            176.1441797,
            -38.6627476
          ],
          [
            176.1442427,
            -38.6627298
          ],
          [
            176.1442924,
            -38.6627204
          ],
          [
            176.1443514,
            -38.6627172
          ],
          [
            176.1444144,
            -38.6627214
          ],
          [
            176.1444855,
            -38.662734
          ],
          [
            176.1445458,
            -38.6627602
          ],
          [
            176.1446035,
            -38.6627874
          ],
          [
            176.1446518,
            -38.6628199
          ],
          [
            176.144692,
            -38.662867
          ],
          [
            176.1447188,
            -38.6629309
          ],
          [
            176.1447282,
            -38.6629822
          ],
          [
            176.1447255,
            -38.6630345
          ],
          [
            176.1447108,
            -38.6631005
          ],
          [
            176.1446638,
            -38.6631738
          ],
          [
            176.1445324,
            -38.6633445
          ],
          [
            176.1444814,
            -38.6634293
          ],
          [
            176.1444345,
            -38.6635162
          ],
          [
            176.1443809,
            -38.6636283
          ],
          [
            176.1443326,
            -38.6637581
          ],
          [
            176.1442991,
            -38.6638733
          ],
          [
            176.1442816,
            -38.6639676
          ],
          [
            176.1442763,
            -38.6640524
          ],
          [
            176.1442776,
            -38.6641498
          ],
          [
            176.1442856,
            -38.6642335
          ],
          [
            176.1443111,
            -38.6643676
          ],
          [
            176.1444935,
            -38.6650954
          ],
          [
            176.1445539,
            -38.6653299
          ],
          [
            176.144574,
            -38.6653865
          ],
          [
            176.1445941,
            -38.6654315
          ],
          [
            176.1446209,
            -38.6654755
          ],
          [
            176.1446531,
            -38.6655111
          ],
          [
            176.1446974,
            -38.6655467
          ],
          [
            176.144743,
            -38.6655729
          ],
          [
            176.1448114,
            -38.6655896
          ],
          [
            176.1448945,
            -38.6655938
          ],
          [
            176.1449616,
            -38.6655854
          ],
          [
            176.145034,
            -38.6655634
          ],
          [
            176.1450957,
            -38.6655331
          ],
          [
            176.1451896,
            -38.6654598
          ],
          [
            176.1457823,
            -38.6649561
          ],
          [
            176.1458427,
            -38.6649048
          ],
          [
            176.1458789,
            -38.6648702
          ],
          [
            176.145903,
            -38.6648315
          ],
          [
            176.1459231,
            -38.664777
          ],
          [
            176.1459352,
            -38.6647236
          ],
          [
            176.1459365,
            -38.6646671
          ],
          [
            176.1459325,
            -38.6646063
          ],
          [
            176.1459191,
            -38.6645582
          ],
          [
            176.1458869,
            -38.6644838
          ],
          [
            176.1455221,
            -38.6638032
          ],
          [
            176.1454739,
            -38.6637058
          ],
          [
            176.145447,
            -38.6636293
          ],
          [
            176.1454363,
            -38.6635738
          ],
          [
            176.1454296,
            -38.663512
          ],
          [
            176.1454363,
            -38.6634429
          ],
          [
            176.1454497,
            -38.6633717
          ],
          [
            176.1454739,
            -38.6633047
          ],
          [
            176.1455087,
            -38.6632335
          ],
          [
            176.1457019,
            -38.6628974
          ],
          [
            176.1457206,
            -38.6628481
          ],
          [
            176.1457354,
            -38.6627874
          ],
          [
            176.1457434,
            -38.6627235
          ],
          [
            176.1457381,
            -38.6626596
          ],
          [
            176.1457233,
            -38.6626031
          ],
          [
            176.1456858,
            -38.6625329
          ],
          [
            176.1456442,
            -38.6624806
          ],
          [
            176.1455919,
            -38.6624293
          ],
          [
            176.145502,
            -38.662379
          ],
          [
            176.1449656,
            -38.6621025
          ],
          [
            176.1445753,
            -38.6618983
          ],
          [
            176.1445123,
            -38.6618669
          ],
          [
            176.14446,
            -38.6618365
          ],
          [
            176.1444198,
            -38.661802
          ],
          [
            176.1443795,
            -38.6617559
          ],
          [
            176.1443473,
            -38.6617119
          ],
          [
            176.1443219,
            -38.6616491
          ],
          [
            176.1443058,
            -38.6616072
          ],
          [
            176.1443044,
            -38.6615737
          ],
          [
            176.1443004,
            -38.6615161
          ],
          [
            176.1443004,
            -38.6614721
          ],
          [
            176.1443111,
            -38.6614124
          ],
          [
            176.1443323,
            -38.6613645
          ],
          [
            176.1443795,
            -38.6613161
          ],
          [
            176.1444157,
            -38.6612931
          ],
          [
            176.1444882,
            -38.6612543
          ],
          [
            176.1445445,
            -38.6612365
          ],
          [
            176.1446035,
            -38.6612281
          ],
          [
            176.1446652,
            -38.6612292
          ],
          [
            176.1447054,
            -38.6612355
          ],
          [
            176.1447456,
            -38.6612417
          ],
          [
            176.144814,
            -38.6612658
          ],
          [
            176.1448932,
            -38.6613129
          ],
          [
            176.1449857,
            -38.6613747
          ],
          [
            176.1457193,
            -38.661935
          ],
          [
            176.1474587,
            -38.6631989
          ],
          [
            176.1475445,
            -38.6632576
          ],
          [
            176.1476143,
            -38.6633141
          ],
          [
            176.1476733,
            -38.6633633
          ],
          [
            176.1477229,
            -38.6634178
          ],
          [
            176.1477618,
            -38.6634827
          ],
          [
            176.1477792,
            -38.6635497
          ],
          [
            176.1477765,
            -38.6636147
          ],
          [
            176.1477725,
            -38.6636775
          ],
          [
            176.1477537,
            -38.6637403
          ],
          [
            176.1477001,
            -38.6638063
          ],
          [
            176.1476035,
            -38.6638733
          ],
          [
            176.1475301,
            -38.6639108
          ],
          [
            176.1473031,
            -38.6639749
          ],
          [
            176.1471838,
            -38.6640032
          ],
          [
            176.14711,
            -38.664022
          ],
          [
            176.147047,
            -38.6640545
          ],
          [
            176.1469907,
            -38.6640922
          ],
          [
            176.1469518,
            -38.6641424
          ],
          [
            176.146929,
            -38.6641917
          ],
          [
            176.1469196,
            -38.6642398
          ],
          [
            176.1469156,
            -38.6643121
          ],
          [
            176.1469356,
            -38.6644263
          ],
          [
            176.1469809,
            -38.6645742
          ],
          [
            176.1469857,
            -38.6646886
          ],
          [
            176.1469182,
            -38.6648021
          ],
          [
            176.1468377,
            -38.6649175
          ],
          [
            176.1452252,
            -38.666191
          ]
        ]
      }
    }
  ]
}
