{
  "type": "FeatureCollection",
  "bbox": [
    -2.6354245,
    53.505506,
    -2.6314979,
    53.5075888
  ],
  "metadata": {
    "schemaVersion": 1,
    "trackId": "gb-three-sisters-d8b843ac",
    "layoutId": "three-sisters-club",
    "license": "ODbL-1.0",
    "attribution": "© OpenStreetMap contributors",
    "closed": true,
    "geometryStatus": "draft",
    "timingStatus": "missing",
    "timingMode": "shared",
    "lengthM": 1045.3,
    "reviewedAt": null,
    "notes": [
      "The operator Club Circuit diagram identifies Lunar Bend, Rogerson's Straight, the inner Penrith climb and complete Joey Dunlop hairpin, bypassing the outer Coward's Summit and Lucy's Valley. The pinned source loop measures 1045.3 m; pit and angular service connectors are excluded. Exact source coordinates are unchanged; historical alignment and direction remain provisional."
    ]
  },
  "features": [
    {
      "type": "Feature",
      "id": "trace",
      "properties": {
        "role": "trace",
        "sourceIds": [
          "osm-components-893420087"
        ]
      },
      "geometry": {
        "type": "LineString",
        "coordinates": [
          [
            -2.631997,
            53.5055646
          ],
          [
            -2.6330225,
            53.5062651
          ],
          [
            -2.6331242,
            53.5063586
          ],
          [
            -2.6331488,
            53.5064777
          ],
          [
            -2.6331026,
            53.5065565
          ],
          [
            -2.6330287,
            53.5066316
          ],
          [
            -2.6329178,
            53.5066847
          ],
          [
            -2.6328264,
            53.5067484
          ],
          [
            -2.6326848,
            53.5068347
          ],
          [
            -2.6326211,
            53.5069
          ],
          [
            -2.632607,
            53.5069841
          ],
          [
            -2.6326202,
            53.5070491
          ],
          [
            -2.6327076,
            53.5071153
          ],
          [
            -2.6327828,
            53.507141
          ],
          [
            -2.6329306,
            53.5071445
          ],
          [
            -2.6342647,
            53.506965
          ],
          [
            -2.6344512,
            53.5068837
          ],
          [
            -2.634522,
            53.5068037
          ],
          [
            -2.6345432,
            53.506709
          ],
          [
            -2.6345065,
            53.5065946
          ],
          [
            -2.6344781,
            53.5065365
          ],
          [
            -2.6344659,
            53.5064664
          ],
          [
            -2.6344862,
            53.5063842
          ],
          [
            -2.634535,
            53.5063141
          ],
          [
            -2.6346204,
            53.506273
          ],
          [
            -2.6347749,
            53.5062319
          ],
          [
            -2.634905,
            53.5062295
          ],
          [
            -2.6350716,
            53.5062609
          ],
          [
            -2.6351733,
            53.5063141
          ],
          [
            -2.6352708,
            53.5064302
          ],
          [
            -2.6353926,
            53.5065658
          ],
          [
            -2.6354245,
            53.5066753
          ],
          [
            -2.6354103,
            53.5067742
          ],
          [
            -2.6353749,
            53.5068542
          ],
          [
            -2.6353218,
            53.506911
          ],
          [
            -2.63489,
            53.5071615
          ],
          [
            -2.6347015,
            53.5072426
          ],
          [
            -2.6321831,
            53.5075888
          ],
          [
            -2.632041,
            53.5075787
          ],
          [
            -2.6318852,
            53.5075366
          ],
          [
            -2.6317791,
            53.5074714
          ],
          [
            -2.6317295,
            53.5074082
          ],
          [
            -2.631733,
            53.5073367
          ],
          [
            -2.6318251,
            53.5071872
          ],
          [
            -2.6320347,
            53.5069718
          ],
          [
            -2.6320802,
            53.5069149
          ],
          [
            -2.6321436,
            53.5068357
          ],
          [
            -2.6322639,
            53.5067031
          ],
          [
            -2.6322736,
            53.5065845
          ],
          [
            -2.6322338,
            53.506466
          ],
          [
            -2.6321684,
            53.5064
          ],
          [
            -2.6321622,
            53.5063939
          ],
          [
            -2.6315723,
            53.5058152
          ],
          [
            -2.6315088,
            53.505746
          ],
          [
            -2.6314979,
            53.5056965
          ],
          [
            -2.6315071,
            53.5056379
          ],
          [
            -2.6315564,
            53.5055756
          ],
          [
            -2.6316119,
            53.5055408
          ],
          [
            -2.6316889,
            53.5055133
          ],
          [
            -2.6317721,
            53.505506
          ],
          [
            -2.6318799,
            53.5055206
          ],
          [
            -2.631997,
            53.5055646
          ]
        ]
      }
    }
  ]
}
