{
  "type": "FeatureCollection",
  "bbox": [
    -115.0214409,
    36.2796894,
    -115.0152047,
    36.284899
  ],
  "metadata": {
    "schemaVersion": 1,
    "trackId": "us-lvms-exotics-racing-dd5324f3",
    "layoutId": "lvms-exotics-racing",
    "license": "ODbL-1.0",
    "attribution": "© OpenStreetMap contributors",
    "closed": true,
    "geometryStatus": "draft",
    "timingStatus": "missing",
    "timingMode": "shared",
    "lengthM": 1825.8,
    "reviewedAt": null,
    "notes": [
      "Draft route hypothesis: the source cycle is the unique closest nominal-distance match within conservative timing and distance checks. Approximate OSM trace length 1825.8 m. Difference from the supplied layout distance 2.2 m. Course configuration still requires visual review."
    ]
  },
  "features": [
    {
      "type": "Feature",
      "id": "trace",
      "properties": {
        "role": "trace",
        "sourceIds": [
          "osm-network-486868842"
        ]
      },
      "geometry": {
        "type": "LineString",
        "coordinates": [
          [
            -115.0195169,
            36.2835278
          ],
          [
            -115.0161025,
            36.2848575
          ],
          [
            -115.0160224,
            36.2848801
          ],
          [
            -115.0159392,
            36.284894
          ],
          [
            -115.0158545,
            36.284899
          ],
          [
            -115.0157698,
            36.284895
          ],
          [
            -115.0156864,
            36.2848821
          ],
          [
            -115.0156059,
            36.2848604
          ],
          [
            -115.0155295,
            36.2848304
          ],
          [
            -115.0154588,
            36.2847926
          ],
          [
            -115.0153962,
            36.2847488
          ],
          [
            -115.0153411,
            36.2846988
          ],
          [
            -115.0152944,
            36.2846436
          ],
          [
            -115.0152569,
            36.284584
          ],
          [
            -115.0152291,
            36.284521
          ],
          [
            -115.0152116,
            36.2844556
          ],
          [
            -115.0152047,
            36.284389
          ],
          [
            -115.0152084,
            36.2843222
          ],
          [
            -115.0152227,
            36.2842564
          ],
          [
            -115.01555,
            36.2830716
          ],
          [
            -115.0158316,
            36.2818824
          ],
          [
            -115.0158499,
            36.2818239
          ],
          [
            -115.0158771,
            36.2817677
          ],
          [
            -115.0159127,
            36.2817147
          ],
          [
            -115.0159561,
            36.2816656
          ],
          [
            -115.0160068,
            36.2816213
          ],
          [
            -115.016064,
            36.2815823
          ],
          [
            -115.0161266,
            36.2815494
          ],
          [
            -115.0162007,
            36.2815208
          ],
          [
            -115.0162789,
            36.2815006
          ],
          [
            -115.0163598,
            36.2814891
          ],
          [
            -115.0164419,
            36.2814866
          ],
          [
            -115.0165236,
            36.2814932
          ],
          [
            -115.0168825,
            36.2815516
          ],
          [
            -115.0176126,
            36.2816705
          ],
          [
            -115.0176975,
            36.2816739
          ],
          [
            -115.0177823,
            36.2816707
          ],
          [
            -115.0178664,
            36.2816608
          ],
          [
            -115.017949,
            36.2816444
          ],
          [
            -115.0180291,
            36.2816216
          ],
          [
            -115.0181061,
            36.2815927
          ],
          [
            -115.0181813,
            36.2815567
          ],
          [
            -115.0182517,
            36.2815148
          ],
          [
            -115.0183166,
            36.2814675
          ],
          [
            -115.0183752,
            36.2814152
          ],
          [
            -115.0184271,
            36.2813584
          ],
          [
            -115.0184716,
            36.2812977
          ],
          [
            -115.0185084,
            36.2812337
          ],
          [
            -115.0185874,
            36.2810619
          ],
          [
            -115.0186586,
            36.2808878
          ],
          [
            -115.0187185,
            36.2807221
          ],
          [
            -115.0187713,
            36.2805548
          ],
          [
            -115.0189537,
            36.2800142
          ],
          [
            -115.0189771,
            36.2799606
          ],
          [
            -115.0190087,
            36.2799099
          ],
          [
            -115.0190481,
            36.2798628
          ],
          [
            -115.0190947,
            36.2798201
          ],
          [
            -115.0191476,
            36.2797825
          ],
          [
            -115.019206,
            36.2797507
          ],
          [
            -115.0192689,
            36.2797251
          ],
          [
            -115.0193354,
            36.2797062
          ],
          [
            -115.0194043,
            36.2796942
          ],
          [
            -115.0194776,
            36.2796894
          ],
          [
            -115.0195511,
            36.2796925
          ],
          [
            -115.0196235,
            36.2797034
          ],
          [
            -115.0196934,
            36.279722
          ],
          [
            -115.0197596,
            36.2797479
          ],
          [
            -115.0198209,
            36.2797849
          ],
          [
            -115.0198862,
            36.2798434
          ],
          [
            -115.0199459,
            36.2799096
          ],
          [
            -115.02,
            36.2799789
          ],
          [
            -115.020048,
            36.280051
          ],
          [
            -115.0200929,
            36.2801316
          ],
          [
            -115.0201304,
            36.2802146
          ],
          [
            -115.0201602,
            36.2802996
          ],
          [
            -115.0201821,
            36.2803861
          ],
          [
            -115.0205094,
            36.2813937
          ],
          [
            -115.0205211,
            36.2814488
          ],
          [
            -115.0205413,
            36.2815022
          ],
          [
            -115.0205697,
            36.2815532
          ],
          [
            -115.0206057,
            36.2816009
          ],
          [
            -115.0206488,
            36.2816445
          ],
          [
            -115.0206977,
            36.281683
          ],
          [
            -115.0207521,
            36.2817164
          ],
          [
            -115.0208113,
            36.2817441
          ],
          [
            -115.0208741,
            36.2817656
          ],
          [
            -115.0209761,
            36.2818089
          ],
          [
            -115.0210211,
            36.2818302
          ],
          [
            -115.0210619,
            36.2818564
          ],
          [
            -115.0211035,
            36.2818928
          ],
          [
            -115.021137,
            36.2819343
          ],
          [
            -115.0211966,
            36.2820094
          ],
          [
            -115.0212503,
            36.2820873
          ],
          [
            -115.0212979,
            36.2821678
          ],
          [
            -115.0213407,
            36.2822538
          ],
          [
            -115.0213765,
            36.2823418
          ],
          [
            -115.0214274,
            36.2824876
          ],
          [
            -115.0214394,
            36.2825455
          ],
          [
            -115.0214409,
            36.2826043
          ],
          [
            -115.021432,
            36.2826626
          ],
          [
            -115.0214128,
            36.2827193
          ],
          [
            -115.0213838,
            36.2827732
          ],
          [
            -115.021352,
            36.2828157
          ],
          [
            -115.021314,
            36.2828548
          ],
          [
            -115.0212705,
            36.2828899
          ],
          [
            -115.0212219,
            36.2829205
          ],
          [
            -115.0211692,
            36.2829462
          ],
          [
            -115.0195169,
            36.2835278
          ]
        ]
      }
    }
  ]
}
