{
  "type": "FeatureCollection",
  "bbox": [
    -65.3811142,
    -24.7864078,
    -65.370083,
    -24.7769161
  ],
  "metadata": {
    "schemaVersion": 1,
    "trackId": "ar-autodromo-martin-miguel-de-guemes-166054180",
    "layoutId": "main",
    "license": "ODbL-1.0",
    "attribution": "© OpenStreetMap contributors",
    "closed": true,
    "geometryStatus": "draft",
    "timingStatus": "missing",
    "timingMode": "shared",
    "lengthM": 4043.7,
    "reviewedAt": null,
    "notes": [
      "Closed named OSM raceway retained as a course candidate. Named-layout association requires review.",
      "Source way order and shared node IDs are retained. No nearby endpoints are joined and no Racelogic boundaries are read."
    ]
  },
  "features": [
    {
      "type": "Feature",
      "id": "trace",
      "properties": {
        "role": "trace",
        "sourceIds": [
          "osm-snapshot"
        ]
      },
      "geometry": {
        "type": "LineString",
        "coordinates": [
          [
            -65.3703327,
            -24.7837211
          ],
          [
            -65.3702232,
            -24.7836472
          ],
          [
            -65.3701708,
            -24.7835924
          ],
          [
            -65.3701352,
            -24.7835478
          ],
          [
            -65.3700949,
            -24.7834347
          ],
          [
            -65.370083,
            -24.7833344
          ],
          [
            -65.3700968,
            -24.7832108
          ],
          [
            -65.3701554,
            -24.7830953
          ],
          [
            -65.3702533,
            -24.7829828
          ],
          [
            -65.3703562,
            -24.7829043
          ],
          [
            -65.3704646,
            -24.7828731
          ],
          [
            -65.3706123,
            -24.7828739
          ],
          [
            -65.3707586,
            -24.782921
          ],
          [
            -65.3718748,
            -24.7835211
          ],
          [
            -65.3720314,
            -24.7835691
          ],
          [
            -65.372188,
            -24.7835849
          ],
          [
            -65.3724504,
            -24.7835814
          ],
          [
            -65.3726239,
            -24.7835543
          ],
          [
            -65.3727914,
            -24.7834894
          ],
          [
            -65.3729337,
            -24.7834137
          ],
          [
            -65.3748645,
            -24.7820259
          ],
          [
            -65.3759104,
            -24.7813075
          ],
          [
            -65.3760439,
            -24.7812005
          ],
          [
            -65.3761488,
            -24.7810732
          ],
          [
            -65.3762104,
            -24.7809781
          ],
          [
            -65.3762785,
            -24.7808417
          ],
          [
            -65.3763145,
            -24.7806789
          ],
          [
            -65.3763194,
            -24.7805586
          ],
          [
            -65.3762999,
            -24.7803976
          ],
          [
            -65.3760413,
            -24.7793025
          ],
          [
            -65.3759937,
            -24.7791729
          ],
          [
            -65.3759391,
            -24.7790516
          ],
          [
            -65.3758631,
            -24.7789036
          ],
          [
            -65.3752235,
            -24.7779338
          ],
          [
            -65.3751569,
            -24.7778268
          ],
          [
            -65.375107,
            -24.7777173
          ],
          [
            -65.375078,
            -24.7776017
          ],
          [
            -65.3750887,
            -24.7774577
          ],
          [
            -65.3751277,
            -24.7773089
          ],
          [
            -65.3752132,
            -24.7771671
          ],
          [
            -65.3752976,
            -24.7770658
          ],
          [
            -65.3754088,
            -24.7769798
          ],
          [
            -65.3754978,
            -24.7769414
          ],
          [
            -65.3756258,
            -24.7769161
          ],
          [
            -65.3757376,
            -24.7769204
          ],
          [
            -65.3758845,
            -24.7769376
          ],
          [
            -65.3760313,
            -24.776987
          ],
          [
            -65.3761248,
            -24.7770431
          ],
          [
            -65.3761903,
            -24.7770991
          ],
          [
            -65.3762598,
            -24.7771799
          ],
          [
            -65.3762957,
            -24.7772404
          ],
          [
            -65.3767566,
            -24.7783764
          ],
          [
            -65.3769082,
            -24.7786099
          ],
          [
            -65.3770048,
            -24.7787235
          ],
          [
            -65.3770954,
            -24.7788137
          ],
          [
            -65.3772416,
            -24.7789225
          ],
          [
            -65.377381,
            -24.7789927
          ],
          [
            -65.3775915,
            -24.7790578
          ],
          [
            -65.3777812,
            -24.7790876
          ],
          [
            -65.3779551,
            -24.7790739
          ],
          [
            -65.3788414,
            -24.7789066
          ],
          [
            -65.3790839,
            -24.7788768
          ],
          [
            -65.3793559,
            -24.7788783
          ],
          [
            -65.3795926,
            -24.7788991
          ],
          [
            -65.3797353,
            -24.7789281
          ],
          [
            -65.3799243,
            -24.7789664
          ],
          [
            -65.3808458,
            -24.7792405
          ],
          [
            -65.3809764,
            -24.7793044
          ],
          [
            -65.3810495,
            -24.779377
          ],
          [
            -65.3811031,
            -24.7794846
          ],
          [
            -65.3811142,
            -24.779573
          ],
          [
            -65.3810891,
            -24.7797236
          ],
          [
            -65.3810246,
            -24.7798149
          ],
          [
            -65.3809632,
            -24.7798726
          ],
          [
            -65.3809017,
            -24.77991
          ],
          [
            -65.3807447,
            -24.7799448
          ],
          [
            -65.3806018,
            -24.7799281
          ],
          [
            -65.380085,
            -24.7797607
          ],
          [
            -65.3798946,
            -24.7797141
          ],
          [
            -65.3796953,
            -24.7797114
          ],
          [
            -65.3794782,
            -24.7797479
          ],
          [
            -65.3792833,
            -24.7798121
          ],
          [
            -65.3791807,
            -24.7798808
          ],
          [
            -65.3790742,
            -24.7799653
          ],
          [
            -65.3786036,
            -24.7803336
          ],
          [
            -65.3772334,
            -24.7814001
          ],
          [
            -65.3761929,
            -24.7822276
          ],
          [
            -65.3753783,
            -24.7828373
          ],
          [
            -65.3750152,
            -24.7830992
          ],
          [
            -65.3744032,
            -24.7835566
          ],
          [
            -65.3738779,
            -24.7839391
          ],
          [
            -65.3738043,
            -24.784023
          ],
          [
            -65.3737511,
            -24.7841086
          ],
          [
            -65.3737198,
            -24.7842485
          ],
          [
            -65.3737339,
            -24.7843891
          ],
          [
            -65.3737508,
            -24.7844582
          ],
          [
            -65.3737836,
            -24.7845273
          ],
          [
            -65.373877,
            -24.7846205
          ],
          [
            -65.3740045,
            -24.7846945
          ],
          [
            -65.3748796,
            -24.7850901
          ],
          [
            -65.3758168,
            -24.7854973
          ],
          [
            -65.3759766,
            -24.7855925
          ],
          [
            -65.3760512,
            -24.7856585
          ],
          [
            -65.3761091,
            -24.7857295
          ],
          [
            -65.376156,
            -24.7858199
          ],
          [
            -65.3761663,
            -24.7859288
          ],
          [
            -65.3761526,
            -24.7860427
          ],
          [
            -65.3760989,
            -24.7861726
          ],
          [
            -65.3760222,
            -24.7862743
          ],
          [
            -65.375912,
            -24.7863465
          ],
          [
            -65.3757531,
            -24.7863982
          ],
          [
            -65.3756093,
            -24.7864078
          ],
          [
            -65.3754659,
            -24.7863731
          ],
          [
            -65.3752818,
            -24.7863014
          ],
          [
            -65.3743627,
            -24.7858221
          ],
          [
            -65.3703327,
            -24.7837211
          ]
        ]
      }
    }
  ]
}
