{
  "type": "FeatureCollection",
  "bbox": [
    -122.1546377,
    47.3190923,
    -122.1348644,
    47.3221415
  ],
  "metadata": {
    "schemaVersion": 1,
    "trackId": "us-pacific-raceways-120256339",
    "layoutId": "main",
    "license": "ODbL-1.0",
    "attribution": "© OpenStreetMap contributors",
    "closed": true,
    "geometryStatus": "draft",
    "timingStatus": "missing",
    "timingMode": "shared",
    "lengthM": 3622,
    "reviewedAt": null,
    "notes": [
      "Closed named OSM raceway retained as a course candidate. Named-layout association requires review.",
      "Source way order and shared node IDs are retained. No nearby endpoints are joined and no reference boundaries are read."
    ]
  },
  "features": [
    {
      "type": "Feature",
      "id": "trace",
      "properties": {
        "role": "trace",
        "sourceIds": [
          "osm-snapshot"
        ]
      },
      "geometry": {
        "type": "LineString",
        "coordinates": [
          [
            -122.1497727,
            47.321116
          ],
          [
            -122.1508738,
            47.3214359
          ],
          [
            -122.1522438,
            47.3218341
          ],
          [
            -122.153189,
            47.3221086
          ],
          [
            -122.1535493,
            47.3221415
          ],
          [
            -122.1539221,
            47.322107
          ],
          [
            -122.1542084,
            47.322007
          ],
          [
            -122.154429,
            47.3218688
          ],
          [
            -122.154576,
            47.3216833
          ],
          [
            -122.1546377,
            47.3214542
          ],
          [
            -122.1546296,
            47.3212142
          ],
          [
            -122.1544955,
            47.3210106
          ],
          [
            -122.1544746,
            47.3209778
          ],
          [
            -122.1543243,
            47.3208542
          ],
          [
            -122.1540803,
            47.3207306
          ],
          [
            -122.1535757,
            47.3205997
          ],
          [
            -122.152551,
            47.3203924
          ],
          [
            -122.1520365,
            47.3203087
          ],
          [
            -122.151419,
            47.3202743
          ],
          [
            -122.150094,
            47.3202998
          ],
          [
            -122.1493639,
            47.320309
          ],
          [
            -122.1490753,
            47.3202737
          ],
          [
            -122.1488447,
            47.3202142
          ],
          [
            -122.148626,
            47.320076
          ],
          [
            -122.1485641,
            47.3199699
          ],
          [
            -122.1485818,
            47.3198614
          ],
          [
            -122.1486356,
            47.3197908
          ],
          [
            -122.1487535,
            47.3197196
          ],
          [
            -122.1489106,
            47.3196978
          ],
          [
            -122.1491146,
            47.3197244
          ],
          [
            -122.1496636,
            47.3198033
          ],
          [
            -122.1498484,
            47.3198129
          ],
          [
            -122.1499939,
            47.3197596
          ],
          [
            -122.1500972,
            47.3196711
          ],
          [
            -122.150082,
            47.3195402
          ],
          [
            -122.1499819,
            47.3194432
          ],
          [
            -122.149649,
            47.3193571
          ],
          [
            -122.1490394,
            47.3192796
          ],
          [
            -122.1485,
            47.3192643
          ],
          [
            -122.1479605,
            47.3192624
          ],
          [
            -122.1473622,
            47.3192302
          ],
          [
            -122.146854,
            47.3191814
          ],
          [
            -122.1462563,
            47.3191097
          ],
          [
            -122.1453601,
            47.3190923
          ],
          [
            -122.1448971,
            47.3191141
          ],
          [
            -122.1444948,
            47.3191561
          ],
          [
            -122.143641,
            47.3192938
          ],
          [
            -122.1431096,
            47.3193353
          ],
          [
            -122.142694,
            47.3193291
          ],
          [
            -122.1424129,
            47.3192866
          ],
          [
            -122.1422427,
            47.3192792
          ],
          [
            -122.1420281,
            47.3193388
          ],
          [
            -122.1415544,
            47.3194843
          ],
          [
            -122.1412506,
            47.319566
          ],
          [
            -122.1408422,
            47.3195789
          ],
          [
            -122.1406565,
            47.3195908
          ],
          [
            -122.1405277,
            47.3195609
          ],
          [
            -122.1403043,
            47.3194436
          ],
          [
            -122.1400703,
            47.3193343
          ],
          [
            -122.1397753,
            47.3191981
          ],
          [
            -122.1396342,
            47.3191669
          ],
          [
            -122.1394378,
            47.3191864
          ],
          [
            -122.1391888,
            47.3192375
          ],
          [
            -122.1386716,
            47.3193945
          ],
          [
            -122.1381241,
            47.3195639
          ],
          [
            -122.1378029,
            47.3196461
          ],
          [
            -122.1374821,
            47.3197188
          ],
          [
            -122.1364814,
            47.3198786
          ],
          [
            -122.1362667,
            47.3199208
          ],
          [
            -122.1360568,
            47.3199965
          ],
          [
            -122.1358572,
            47.3201024
          ],
          [
            -122.1357048,
            47.3202243
          ],
          [
            -122.1351325,
            47.3209335
          ],
          [
            -122.1349374,
            47.3211762
          ],
          [
            -122.134895,
            47.3212553
          ],
          [
            -122.1348644,
            47.3213792
          ],
          [
            -122.1349035,
            47.3215103
          ],
          [
            -122.134987,
            47.3216526
          ],
          [
            -122.135105,
            47.321748
          ],
          [
            -122.135256,
            47.3218322
          ],
          [
            -122.135398,
            47.3218633
          ],
          [
            -122.1355731,
            47.3218833
          ],
          [
            -122.1357485,
            47.321863
          ],
          [
            -122.1359241,
            47.3218053
          ],
          [
            -122.1361186,
            47.3216907
          ],
          [
            -122.1361629,
            47.3216642
          ],
          [
            -122.1363348,
            47.3215633
          ],
          [
            -122.1371502,
            47.3209997
          ],
          [
            -122.1372558,
            47.320949
          ],
          [
            -122.1374037,
            47.3208777
          ],
          [
            -122.137574,
            47.320796
          ],
          [
            -122.1379197,
            47.3206652
          ],
          [
            -122.1381117,
            47.3206019
          ],
          [
            -122.1383327,
            47.3205833
          ],
          [
            -122.138663,
            47.3205815
          ],
          [
            -122.1395894,
            47.3206473
          ],
          [
            -122.1428633,
            47.3208797
          ],
          [
            -122.1434294,
            47.3209089
          ],
          [
            -122.1438893,
            47.320889
          ],
          [
            -122.145402,
            47.3208018
          ],
          [
            -122.1497727,
            47.321116
          ]
        ]
      }
    }
  ]
}
