{
  "type": "FeatureCollection",
  "bbox": [
    -74.7024849,
    41.6173653,
    -74.6956776,
    41.6285971
  ],
  "metadata": {
    "schemaVersion": 1,
    "trackId": "us-monticello-motor-club-235166661",
    "layoutId": "main",
    "license": "ODbL-1.0",
    "attribution": "© OpenStreetMap contributors",
    "closed": true,
    "geometryStatus": "draft",
    "timingStatus": "missing",
    "timingMode": "shared",
    "lengthM": 5513.5,
    "reviewedAt": null,
    "notes": [
      "Closed named OSM raceway retained as a course candidate. Named-layout association requires review.",
      "Source way order and shared node IDs are retained. No nearby endpoints are joined and no Racelogic boundaries are read."
    ]
  },
  "features": [
    {
      "type": "Feature",
      "id": "trace",
      "properties": {
        "role": "trace",
        "sourceIds": [
          "osm-snapshot"
        ]
      },
      "geometry": {
        "type": "LineString",
        "coordinates": [
          [
            -74.6991028,
            41.6210197
          ],
          [
            -74.6981851,
            41.6202492
          ],
          [
            -74.6977643,
            41.6198958
          ],
          [
            -74.6975766,
            41.6197454
          ],
          [
            -74.6973862,
            41.6196031
          ],
          [
            -74.697193,
            41.6194707
          ],
          [
            -74.6970026,
            41.6193605
          ],
          [
            -74.6967719,
            41.6192742
          ],
          [
            -74.6965493,
            41.6192662
          ],
          [
            -74.6963374,
            41.6193544
          ],
          [
            -74.6962194,
            41.6194647
          ],
          [
            -74.6960987,
            41.6195209
          ],
          [
            -74.6959512,
            41.6195309
          ],
          [
            -74.6958278,
            41.6194707
          ],
          [
            -74.6957259,
            41.6192823
          ],
          [
            -74.6956776,
            41.6190236
          ],
          [
            -74.6957071,
            41.6188892
          ],
          [
            -74.6957715,
            41.6187048
          ],
          [
            -74.6958734,
            41.6185243
          ],
          [
            -74.6959673,
            41.6183238
          ],
          [
            -74.6960933,
            41.6181172
          ],
          [
            -74.6961792,
            41.6179849
          ],
          [
            -74.6962838,
            41.6178686
          ],
          [
            -74.6964125,
            41.6177483
          ],
          [
            -74.6965788,
            41.617644
          ],
          [
            -74.6968765,
            41.6175277
          ],
          [
            -74.6977778,
            41.6173673
          ],
          [
            -74.6980379,
            41.6173653
          ],
          [
            -74.6982257,
            41.6174114
          ],
          [
            -74.6983732,
            41.6175157
          ],
          [
            -74.6984805,
            41.6176881
          ],
          [
            -74.6984885,
            41.6178445
          ],
          [
            -74.6984295,
            41.6179889
          ],
          [
            -74.6981399,
            41.6184421
          ],
          [
            -74.6980889,
            41.6186586
          ],
          [
            -74.6981238,
            41.6188792
          ],
          [
            -74.6981935,
            41.6190136
          ],
          [
            -74.6983222,
            41.619166
          ],
          [
            -74.6985395,
            41.6192983
          ],
          [
            -74.6987407,
            41.6194226
          ],
          [
            -74.6989606,
            41.619565
          ],
          [
            -74.6991135,
            41.6197334
          ],
          [
            -74.6992583,
            41.6200001
          ],
          [
            -74.6995641,
            41.6205836
          ],
          [
            -74.6997472,
            41.6207355
          ],
          [
            -74.699784,
            41.620766
          ],
          [
            -74.7000308,
            41.6208783
          ],
          [
            -74.7003956,
            41.6209184
          ],
          [
            -74.7006933,
            41.6208543
          ],
          [
            -74.7008998,
            41.620746
          ],
          [
            -74.7010259,
            41.6206437
          ],
          [
            -74.7011278,
            41.6204994
          ],
          [
            -74.7011788,
            41.620347
          ],
          [
            -74.7011788,
            41.6202066
          ],
          [
            -74.7011037,
            41.6199961
          ],
          [
            -74.7010232,
            41.6198637
          ],
          [
            -74.7009106,
            41.6197154
          ],
          [
            -74.7007496,
            41.6195429
          ],
          [
            -74.7005458,
            41.6193665
          ],
          [
            -74.7002737,
            41.6192024
          ],
          [
            -74.7001451,
            41.6191352
          ],
          [
            -74.7000106,
            41.6190716
          ],
          [
            -74.6998639,
            41.6190139
          ],
          [
            -74.699717,
            41.6189614
          ],
          [
            -74.6994729,
            41.6188872
          ],
          [
            -74.6993554,
            41.6188363
          ],
          [
            -74.6992649,
            41.6187606
          ],
          [
            -74.6991701,
            41.6185924
          ],
          [
            -74.6991714,
            41.6184251
          ],
          [
            -74.6991993,
            41.6182416
          ],
          [
            -74.6992744,
            41.6181172
          ],
          [
            -74.6993898,
            41.618015
          ],
          [
            -74.6995587,
            41.6179508
          ],
          [
            -74.6997384,
            41.6179288
          ],
          [
            -74.7012945,
            41.6179694
          ],
          [
            -74.7021203,
            41.6179909
          ],
          [
            -74.7021939,
            41.617998
          ],
          [
            -74.7023075,
            41.6180256
          ],
          [
            -74.7023441,
            41.6180434
          ],
          [
            -74.7023783,
            41.6180679
          ],
          [
            -74.7024071,
            41.6180955
          ],
          [
            -74.7024336,
            41.6181321
          ],
          [
            -74.7024611,
            41.6181817
          ],
          [
            -74.7024755,
            41.6182191
          ],
          [
            -74.7024822,
            41.6182567
          ],
          [
            -74.7024849,
            41.6182955
          ],
          [
            -74.7024738,
            41.6188089
          ],
          [
            -74.702476,
            41.6189053
          ],
          [
            -74.7024508,
            41.6200161
          ],
          [
            -74.7024394,
            41.6205154
          ],
          [
            -74.7023998,
            41.6222598
          ],
          [
            -74.7023835,
            41.6229797
          ],
          [
            -74.7023697,
            41.6235872
          ],
          [
            -74.702367,
            41.6237716
          ],
          [
            -74.7023563,
            41.6240223
          ],
          [
            -74.7023295,
            41.6242208
          ],
          [
            -74.7022705,
            41.6244854
          ],
          [
            -74.7022034,
            41.6246859
          ],
          [
            -74.7020747,
            41.6250328
          ],
          [
            -74.701911,
            41.6253676
          ],
          [
            -74.7017206,
            41.6256583
          ],
          [
            -74.7016838,
            41.6257097
          ],
          [
            -74.7015007,
            41.6259651
          ],
          [
            -74.7012861,
            41.6262538
          ],
          [
            -74.7011466,
            41.6264533
          ],
          [
            -74.7010366,
            41.6266107
          ],
          [
            -74.7002159,
            41.6277715
          ],
          [
            -74.700071,
            41.62796
          ],
          [
            -74.6999101,
            41.6281464
          ],
          [
            -74.6997519,
            41.6282988
          ],
          [
            -74.699681,
            41.6283577
          ],
          [
            -74.6995963,
            41.6284111
          ],
          [
            -74.6995234,
            41.6284447
          ],
          [
            -74.6994434,
            41.6284672
          ],
          [
            -74.6993668,
            41.6284798
          ],
          [
            -74.6993043,
            41.6284832
          ],
          [
            -74.6992364,
            41.6284798
          ],
          [
            -74.6991777,
            41.6284728
          ],
          [
            -74.699079,
            41.6284522
          ],
          [
            -74.6990007,
            41.6284299
          ],
          [
            -74.6989177,
            41.6284074
          ],
          [
            -74.6988408,
            41.6283888
          ],
          [
            -74.6988069,
            41.628383
          ],
          [
            -74.6987782,
            41.628381
          ],
          [
            -74.6987446,
            41.6283825
          ],
          [
            -74.69871,
            41.6283896
          ],
          [
            -74.6986789,
            41.6284008
          ],
          [
            -74.6986495,
            41.6284171
          ],
          [
            -74.6986329,
            41.6284352
          ],
          [
            -74.6986175,
            41.628468
          ],
          [
            -74.6985892,
            41.6285146
          ],
          [
            -74.6985605,
            41.6285482
          ],
          [
            -74.698537,
            41.628568
          ],
          [
            -74.6985129,
            41.6285798
          ],
          [
            -74.698476,
            41.6285913
          ],
          [
            -74.6984378,
            41.6285968
          ],
          [
            -74.6983925,
            41.6285971
          ],
          [
            -74.6983382,
            41.6285953
          ],
          [
            -74.6982551,
            41.6285875
          ],
          [
            -74.6981924,
            41.6285788
          ],
          [
            -74.6981277,
            41.6285612
          ],
          [
            -74.6980666,
            41.6285392
          ],
          [
            -74.6980053,
            41.6285121
          ],
          [
            -74.6979496,
            41.62848
          ],
          [
            -74.6978913,
            41.6284297
          ],
          [
            -74.6978524,
            41.628385
          ],
          [
            -74.6978061,
            41.6283282
          ],
          [
            -74.6970373,
            41.6273354
          ],
          [
            -74.6969974,
            41.6272681
          ],
          [
            -74.6969658,
            41.6271916
          ],
          [
            -74.6969461,
            41.627129
          ],
          [
            -74.6969382,
            41.6270638
          ],
          [
            -74.6969375,
            41.6269783
          ],
          [
            -74.6969463,
            41.6268954
          ],
          [
            -74.6972655,
            41.6256503
          ],
          [
            -74.6973054,
            41.625513
          ],
          [
            -74.6973211,
            41.6254596
          ],
          [
            -74.6973419,
            41.6254075
          ],
          [
            -74.6973868,
            41.6253152
          ],
          [
            -74.6976892,
            41.624704
          ],
          [
            -74.6977168,
            41.6245918
          ],
          [
            -74.6977303,
            41.6245235
          ],
          [
            -74.697736,
            41.6244842
          ],
          [
            -74.697738,
            41.6244322
          ],
          [
            -74.6977355,
            41.6243949
          ],
          [
            -74.6977303,
            41.6243587
          ],
          [
            -74.6977198,
            41.6242949
          ],
          [
            -74.6977035,
            41.624242
          ],
          [
            -74.6976791,
            41.6241666
          ],
          [
            -74.6976524,
            41.6240992
          ],
          [
            -74.6976127,
            41.6239784
          ],
          [
            -74.6975793,
            41.6238518
          ],
          [
            -74.6975629,
            41.6237406
          ],
          [
            -74.6975524,
            41.6236293
          ],
          [
            -74.6975471,
            41.6233867
          ],
          [
            -74.6975712,
            41.6231801
          ],
          [
            -74.6976571,
            41.6229075
          ],
          [
            -74.6977441,
            41.6226923
          ],
          [
            -74.6978537,
            41.6225143
          ],
          [
            -74.6979414,
            41.6223821
          ],
          [
            -74.6980341,
            41.6222759
          ],
          [
            -74.6980495,
            41.6222608
          ],
          [
            -74.6980655,
            41.6222477
          ],
          [
            -74.6980807,
            41.6222375
          ],
          [
            -74.6980974,
            41.6222283
          ],
          [
            -74.698126,
            41.6222188
          ],
          [
            -74.6981526,
            41.622214
          ],
          [
            -74.69818,
            41.6222118
          ],
          [
            -74.6982053,
            41.6222129
          ],
          [
            -74.6982281,
            41.6222168
          ],
          [
            -74.6982497,
            41.6222234
          ],
          [
            -74.6982738,
            41.6222338
          ],
          [
            -74.6982904,
            41.6222443
          ],
          [
            -74.6983079,
            41.6222595
          ],
          [
            -74.6983352,
            41.6222872
          ],
          [
            -74.6983711,
            41.6223361
          ],
          [
            -74.6984116,
            41.6224165
          ],
          [
            -74.6984381,
            41.6224865
          ],
          [
            -74.698451,
            41.6225646
          ],
          [
            -74.6984689,
            41.6248052
          ],
          [
            -74.6984954,
            41.6254016
          ],
          [
            -74.6985663,
            41.6264062
          ],
          [
            -74.6986092,
            41.6265906
          ],
          [
            -74.698628,
            41.6267029
          ],
          [
            -74.6986629,
            41.6267811
          ],
          [
            -74.698738,
            41.6268272
          ],
          [
            -74.6988292,
            41.6268553
          ],
          [
            -74.6990867,
            41.6269034
          ],
          [
            -74.6991596,
            41.6269031
          ],
          [
            -74.6992593,
            41.626867
          ],
          [
            -74.6993105,
            41.6268407
          ],
          [
            -74.6994181,
            41.6267847
          ],
          [
            -74.6995453,
            41.6266909
          ],
          [
            -74.6996312,
            41.6266167
          ],
          [
            -74.6996902,
            41.6265224
          ],
          [
            -74.6997331,
            41.6264443
          ],
          [
            -74.6998296,
            41.6260533
          ],
          [
            -74.6998806,
            41.6256543
          ],
          [
            -74.6998779,
            41.6253496
          ],
          [
            -74.6998323,
            41.6249867
          ],
          [
            -74.6997706,
            41.6247842
          ],
          [
            -74.6997036,
            41.6246097
          ],
          [
            -74.6996473,
            41.6244894
          ],
          [
            -74.6996231,
            41.6243912
          ],
          [
            -74.6996446,
            41.6242889
          ],
          [
            -74.6997009,
            41.6241827
          ],
          [
            -74.6998136,
            41.6240804
          ],
          [
            -74.6999208,
            41.6240223
          ],
          [
            -74.7000389,
            41.6239781
          ],
          [
            -74.7001676,
            41.6239641
          ],
          [
            -74.7003473,
            41.6239761
          ],
          [
            -74.7005351,
            41.6240303
          ],
          [
            -74.7007711,
            41.6241105
          ],
          [
            -74.7010474,
            41.6242047
          ],
          [
            -74.7012432,
            41.6242127
          ],
          [
            -74.7014175,
            41.6241827
          ],
          [
            -74.7015516,
            41.6241245
          ],
          [
            -74.7016589,
            41.6240503
          ],
          [
            -74.7017421,
            41.6239461
          ],
          [
            -74.7017716,
            41.6238458
          ],
          [
            -74.7017796,
            41.6237155
          ],
          [
            -74.7017555,
            41.6236152
          ],
          [
            -74.7016965,
            41.623523
          ],
          [
            -74.7016053,
            41.6233786
          ],
          [
            -74.7013914,
            41.6231065
          ],
          [
            -74.7012727,
            41.6229837
          ],
          [
            -74.7006907,
            41.6224523
          ],
          [
            -74.6997152,
            41.6215618
          ],
          [
            -74.6991725,
            41.6210814
          ],
          [
            -74.6991028,
            41.6210197
          ]
        ]
      }
    }
  ]
}
