{
  "type": "FeatureCollection",
  "bbox": [
    -74.699135,
    41.6173653,
    -74.6956776,
    41.6203309
  ],
  "metadata": {
    "schemaVersion": 1,
    "trackId": "us-monticello-motor-club-235166661",
    "layoutId": "monticello-motor-club-mushroom",
    "license": "ODbL-1.0",
    "attribution": "© OpenStreetMap contributors",
    "closed": true,
    "geometryStatus": "draft",
    "timingStatus": "missing",
    "timingMode": "shared",
    "lengthM": 1052.4,
    "reviewedAt": null,
    "notes": [
      "Draft route hypothesis: the source cycle is the unique closest nominal-distance match within conservative timing and distance checks. Approximate OSM trace length 1052.4 m. Difference from the supplied layout distance 13.4 m. Course configuration still requires visual review."
    ]
  },
  "features": [
    {
      "type": "Feature",
      "id": "trace",
      "properties": {
        "role": "trace",
        "sourceIds": [
          "osm-network-235166661"
        ]
      },
      "geometry": {
        "type": "LineString",
        "coordinates": [
          [
            -74.6958278,
            41.6194707
          ],
          [
            -74.6957259,
            41.6192823
          ],
          [
            -74.6956776,
            41.6190236
          ],
          [
            -74.6957071,
            41.6188892
          ],
          [
            -74.6957715,
            41.6187048
          ],
          [
            -74.6958734,
            41.6185243
          ],
          [
            -74.6959673,
            41.6183238
          ],
          [
            -74.6960933,
            41.6181172
          ],
          [
            -74.6961792,
            41.6179849
          ],
          [
            -74.6962838,
            41.6178686
          ],
          [
            -74.6964125,
            41.6177483
          ],
          [
            -74.6965788,
            41.617644
          ],
          [
            -74.6968765,
            41.6175277
          ],
          [
            -74.6977778,
            41.6173673
          ],
          [
            -74.6980379,
            41.6173653
          ],
          [
            -74.6982257,
            41.6174114
          ],
          [
            -74.6983732,
            41.6175157
          ],
          [
            -74.6984805,
            41.6176881
          ],
          [
            -74.6984885,
            41.6178445
          ],
          [
            -74.6984295,
            41.6179889
          ],
          [
            -74.6981399,
            41.6184421
          ],
          [
            -74.6980889,
            41.6186586
          ],
          [
            -74.6981238,
            41.6188792
          ],
          [
            -74.6981935,
            41.6190136
          ],
          [
            -74.6983222,
            41.619166
          ],
          [
            -74.6985395,
            41.6192983
          ],
          [
            -74.6987407,
            41.6194226
          ],
          [
            -74.6989606,
            41.619565
          ],
          [
            -74.6991135,
            41.6197334
          ],
          [
            -74.699135,
            41.6198718
          ],
          [
            -74.6991269,
            41.619976
          ],
          [
            -74.6990974,
            41.6200643
          ],
          [
            -74.6990384,
            41.6201445
          ],
          [
            -74.6989284,
            41.6202307
          ],
          [
            -74.6987648,
            41.6202969
          ],
          [
            -74.6985905,
            41.6203309
          ],
          [
            -74.6984537,
            41.6203309
          ],
          [
            -74.6982927,
            41.6202948
          ],
          [
            -74.6981851,
            41.6202492
          ],
          [
            -74.6977643,
            41.6198958
          ],
          [
            -74.6975766,
            41.6197454
          ],
          [
            -74.6973862,
            41.6196031
          ],
          [
            -74.697193,
            41.6194707
          ],
          [
            -74.6970026,
            41.6193605
          ],
          [
            -74.6967719,
            41.6192742
          ],
          [
            -74.6965493,
            41.6192662
          ],
          [
            -74.6963374,
            41.6193544
          ],
          [
            -74.6962194,
            41.6194647
          ],
          [
            -74.6960987,
            41.6195209
          ],
          [
            -74.6959512,
            41.6195309
          ],
          [
            -74.6958278,
            41.6194707
          ]
        ]
      }
    }
  ]
}
