{
  "type": "FeatureCollection",
  "bbox": [
    -3.5019782,
    51.4304716,
    -3.4937143,
    51.4327406
  ],
  "metadata": {
    "schemaVersion": 1,
    "trackId": "gb-llandow-circuit-84554110",
    "layoutId": "main",
    "license": "ODbL-1.0",
    "attribution": "© OpenStreetMap contributors",
    "closed": true,
    "geometryStatus": "draft",
    "timingStatus": "missing",
    "timingMode": "shared",
    "lengthM": 1438.8,
    "reviewedAt": null,
    "notes": [
      "Connected OSM course candidate. The selected loop is the longest simple source-node cycle after explicit exclusions; its association with a named circuit configuration requires review.",
      "Source way order and shared node IDs are retained. No nearby endpoints are joined and no Racelogic boundaries are read."
    ]
  },
  "features": [
    {
      "type": "Feature",
      "id": "trace",
      "properties": {
        "role": "trace",
        "sourceIds": [
          "osm-snapshot"
        ]
      },
      "geometry": {
        "type": "LineString",
        "coordinates": [
          [
            -3.498,
            51.4324603
          ],
          [
            -3.4977578,
            51.4324616
          ],
          [
            -3.4953137,
            51.4324751
          ],
          [
            -3.4952211,
            51.4325409
          ],
          [
            -3.4951179,
            51.4326955
          ],
          [
            -3.4950303,
            51.4327333
          ],
          [
            -3.4948179,
            51.4327406
          ],
          [
            -3.4947118,
            51.4326955
          ],
          [
            -3.4944709,
            51.4324938
          ],
          [
            -3.4942786,
            51.4324911
          ],
          [
            -3.4941848,
            51.4324794
          ],
          [
            -3.4941069,
            51.4324472
          ],
          [
            -3.4937401,
            51.4322486
          ],
          [
            -3.4937167,
            51.432209
          ],
          [
            -3.4937143,
            51.4321645
          ],
          [
            -3.4937145,
            51.4321204
          ],
          [
            -3.493721,
            51.4320658
          ],
          [
            -3.493806,
            51.4319843
          ],
          [
            -3.4938803,
            51.431881
          ],
          [
            -3.4939702,
            51.4317665
          ],
          [
            -3.4940803,
            51.4315791
          ],
          [
            -3.494163,
            51.431396
          ],
          [
            -3.4942406,
            51.4311131
          ],
          [
            -3.4943194,
            51.4309946
          ],
          [
            -3.4944782,
            51.4308319
          ],
          [
            -3.4945879,
            51.4307785
          ],
          [
            -3.494722,
            51.4307136
          ],
          [
            -3.4948955,
            51.4306582
          ],
          [
            -3.4950839,
            51.4306276
          ],
          [
            -3.4961596,
            51.4305949
          ],
          [
            -3.4972553,
            51.430557
          ],
          [
            -3.4996291,
            51.430492
          ],
          [
            -3.500026,
            51.4304716
          ],
          [
            -3.5001042,
            51.4304732
          ],
          [
            -3.5002084,
            51.4305252
          ],
          [
            -3.500263,
            51.4305446
          ],
          [
            -3.5003131,
            51.4305498
          ],
          [
            -3.5003587,
            51.4305441
          ],
          [
            -3.5004821,
            51.430496
          ],
          [
            -3.500577,
            51.4304778
          ],
          [
            -3.5007376,
            51.4304895
          ],
          [
            -3.50092,
            51.4305236
          ],
          [
            -3.5010602,
            51.4305714
          ],
          [
            -3.5013188,
            51.4306893
          ],
          [
            -3.5014997,
            51.4308301
          ],
          [
            -3.5015977,
            51.4309737
          ],
          [
            -3.5016661,
            51.431118
          ],
          [
            -3.5018036,
            51.4312841
          ],
          [
            -3.5018982,
            51.4314496
          ],
          [
            -3.5019782,
            51.4317619
          ],
          [
            -3.5019444,
            51.431926
          ],
          [
            -3.5018469,
            51.4320735
          ],
          [
            -3.5016681,
            51.432212
          ],
          [
            -3.5014497,
            51.4322873
          ],
          [
            -3.5009643,
            51.4323923
          ],
          [
            -3.5006385,
            51.4324216
          ],
          [
            -3.5003351,
            51.4324295
          ],
          [
            -3.498,
            51.4324603
          ]
        ]
      }
    }
  ]
}
