{
  "type": "FeatureCollection",
  "bbox": [
    101.7325941,
    2.7603231,
    101.7415848,
    2.7651602
  ],
  "metadata": {
    "schemaVersion": 1,
    "trackId": "my-sepang-international-circuit-23410503",
    "layoutId": "sepang-north-loop",
    "license": "ODbL-1.0",
    "attribution": "© OpenStreetMap contributors",
    "closed": true,
    "geometryStatus": "draft",
    "timingStatus": "missing",
    "timingMode": "shared",
    "lengthM": 2790.8,
    "reviewedAt": null,
    "notes": [
      "Draft configuration: North course with short southern closing straight, western hooked corner and eastern outer return. Branch identity was checked against catalogue layout facts and circuit identification references. Independent source distance 2790.8 m; no coordinates are changed to match a diagram or distance. Travel direction and historical alignment remain provisional."
    ]
  },
  "features": [
    {
      "type": "Feature",
      "id": "trace",
      "properties": {
        "role": "trace",
        "sourceIds": [
          "osm-selection-23410503"
        ]
      },
      "geometry": {
        "type": "LineString",
        "coordinates": [
          [
            101.7373129,
            2.76511
          ],
          [
            101.7373648,
            2.7651375
          ],
          [
            101.7374087,
            2.765154
          ],
          [
            101.7374638,
            2.7651602
          ],
          [
            101.737515,
            2.7651507
          ],
          [
            101.7375538,
            2.7651287
          ],
          [
            101.7375821,
            2.7651004
          ],
          [
            101.7376092,
            2.7650607
          ],
          [
            101.7376237,
            2.7650138
          ],
          [
            101.7376346,
            2.7649533
          ],
          [
            101.7377129,
            2.7644514
          ],
          [
            101.7379988,
            2.7630547
          ],
          [
            101.7380275,
            2.7629424
          ],
          [
            101.7380703,
            2.7628269
          ],
          [
            101.7381345,
            2.7627158
          ],
          [
            101.7382134,
            2.7626069
          ],
          [
            101.7383053,
            2.7625145
          ],
          [
            101.738407,
            2.7624289
          ],
          [
            101.7385377,
            2.7623432
          ],
          [
            101.7387092,
            2.7622692
          ],
          [
            101.7389234,
            2.7622154
          ],
          [
            101.7391252,
            2.7622163
          ],
          [
            101.7392759,
            2.7622364
          ],
          [
            101.7394276,
            2.7622843
          ],
          [
            101.7395388,
            2.762336
          ],
          [
            101.7396802,
            2.7624145
          ],
          [
            101.7397775,
            2.7624996
          ],
          [
            101.7398751,
            2.7626083
          ],
          [
            101.7399461,
            2.7626917
          ],
          [
            101.7400446,
            2.7627832
          ],
          [
            101.7401498,
            2.7628602
          ],
          [
            101.7402917,
            2.7629245
          ],
          [
            101.7404285,
            2.7629694
          ],
          [
            101.7405828,
            2.7629871
          ],
          [
            101.740736,
            2.7629843
          ],
          [
            101.7408954,
            2.7629453
          ],
          [
            101.7410528,
            2.7628715
          ],
          [
            101.7412025,
            2.7627728
          ],
          [
            101.7413231,
            2.7626466
          ],
          [
            101.7414229,
            2.7625307
          ],
          [
            101.7414567,
            2.762446
          ],
          [
            101.7414754,
            2.7623762
          ],
          [
            101.7415122,
            2.7621647
          ],
          [
            101.7415445,
            2.7620124
          ],
          [
            101.7415731,
            2.7618278
          ],
          [
            101.7415845,
            2.7616698
          ],
          [
            101.7415848,
            2.7615944
          ],
          [
            101.7415805,
            2.7615668
          ],
          [
            101.7415678,
            2.761535
          ],
          [
            101.7415359,
            2.7615085
          ],
          [
            101.7414901,
            2.7614843
          ],
          [
            101.7414143,
            2.7614524
          ],
          [
            101.7412958,
            2.7614101
          ],
          [
            101.7401505,
            2.7609813
          ],
          [
            101.7399275,
            2.7609092
          ],
          [
            101.7398278,
            2.7608816
          ],
          [
            101.7396534,
            2.7608487
          ],
          [
            101.7383513,
            2.7607601
          ],
          [
            101.7356558,
            2.7605454
          ],
          [
            101.7334217,
            2.7603589
          ],
          [
            101.7329437,
            2.7603231
          ],
          [
            101.7328307,
            2.760332
          ],
          [
            101.7327471,
            2.7603571
          ],
          [
            101.7326886,
            2.7604063
          ],
          [
            101.7326443,
            2.7604643
          ],
          [
            101.7326194,
            2.7605106
          ],
          [
            101.7326022,
            2.7605668
          ],
          [
            101.7325941,
            2.7606314
          ],
          [
            101.7325998,
            2.7607166
          ],
          [
            101.7326186,
            2.7607719
          ],
          [
            101.7326493,
            2.7608283
          ],
          [
            101.7326806,
            2.7608697
          ],
          [
            101.7327297,
            2.7609116
          ],
          [
            101.7327853,
            2.7609423
          ],
          [
            101.7328499,
            2.7609561
          ],
          [
            101.7329237,
            2.7609587
          ],
          [
            101.7329989,
            2.7609405
          ],
          [
            101.7332744,
            2.7608398
          ],
          [
            101.7333535,
            2.7608246
          ],
          [
            101.7333994,
            2.7608275
          ],
          [
            101.7334594,
            2.7608507
          ],
          [
            101.7335059,
            2.7608927
          ],
          [
            101.7335422,
            2.7609616
          ],
          [
            101.733551,
            2.7610234
          ],
          [
            101.7335515,
            2.7611067
          ],
          [
            101.733525,
            2.7611836
          ],
          [
            101.7334848,
            2.7612675
          ],
          [
            101.7334086,
            2.7613673
          ],
          [
            101.7333269,
            2.7614612
          ],
          [
            101.7332475,
            2.7615677
          ],
          [
            101.7331761,
            2.7616965
          ],
          [
            101.7331238,
            2.76181
          ],
          [
            101.733094,
            2.7619151
          ],
          [
            101.7330734,
            2.7620456
          ],
          [
            101.7330663,
            2.7622531
          ],
          [
            101.7330712,
            2.7624482
          ],
          [
            101.7331117,
            2.7627337
          ],
          [
            101.7331406,
            2.762889
          ],
          [
            101.7331945,
            2.763054
          ],
          [
            101.7332695,
            2.7632267
          ],
          [
            101.733375,
            2.7633865
          ],
          [
            101.7334915,
            2.7635183
          ],
          [
            101.7336237,
            2.7636376
          ],
          [
            101.7337909,
            2.763757
          ],
          [
            101.7339576,
            2.7638415
          ],
          [
            101.7341234,
            2.763905
          ],
          [
            101.7348914,
            2.7641499
          ],
          [
            101.7355631,
            2.764387
          ],
          [
            101.7365712,
            2.764779
          ],
          [
            101.7367474,
            2.7648544
          ],
          [
            101.7371949,
            2.7650612
          ],
          [
            101.7373129,
            2.76511
          ]
        ]
      }
    }
  ]
}
