{
  "type": "FeatureCollection",
  "bbox": [
    130.9661653,
    33.0328355,
    130.9794516,
    33.0407545
  ],
  "metadata": {
    "schemaVersion": 1,
    "trackId": "jp-autopolis-f9b919b2",
    "layoutId": "autopolis",
    "license": "ODbL-1.0",
    "attribution": "© OpenStreetMap contributors",
    "closed": true,
    "geometryStatus": "draft",
    "timingStatus": "missing",
    "timingMode": "shared",
    "lengthM": 4640.2,
    "reviewedAt": null,
    "notes": [
      "Draft configuration: Full course with western complex and central southern return; excludes the shortened western bypass. Branch identity was checked against catalogue layout facts and circuit identification references. Independent source distance 4640.2 m; no coordinates are changed to match a diagram or distance. Travel direction and historical alignment remain provisional."
    ]
  },
  "features": [
    {
      "type": "Feature",
      "id": "trace",
      "properties": {
        "role": "trace",
        "sourceIds": [
          "osm-selection-115069063"
        ]
      },
      "geometry": {
        "type": "LineString",
        "coordinates": [
          [
            130.9703151,
            33.0397597
          ],
          [
            130.9702663,
            33.0398306
          ],
          [
            130.9701582,
            33.0398678
          ],
          [
            130.9700471,
            33.0398726
          ],
          [
            130.9699077,
            33.0398393
          ],
          [
            130.9698145,
            33.0397515
          ],
          [
            130.9697462,
            33.0396434
          ],
          [
            130.9697107,
            33.039433
          ],
          [
            130.9691231,
            33.0362885
          ],
          [
            130.9690694,
            33.0359739
          ],
          [
            130.9690186,
            33.035762
          ],
          [
            130.968891,
            33.0355965
          ],
          [
            130.9686942,
            33.0354846
          ],
          [
            130.9682722,
            33.0354168
          ],
          [
            130.9676846,
            33.0353496
          ],
          [
            130.9672987,
            33.0353422
          ],
          [
            130.9670633,
            33.0354151
          ],
          [
            130.9668603,
            33.0355185
          ],
          [
            130.9666927,
            33.0356665
          ],
          [
            130.9665729,
            33.0358435
          ],
          [
            130.9665122,
            33.0360831
          ],
          [
            130.9665137,
            33.0362903
          ],
          [
            130.9665997,
            33.0365622
          ],
          [
            130.966731,
            33.0369807
          ],
          [
            130.9667508,
            33.0371868
          ],
          [
            130.9667165,
            33.037369
          ],
          [
            130.9666105,
            33.0376221
          ],
          [
            130.9663901,
            33.0378261
          ],
          [
            130.9662498,
            33.037978
          ],
          [
            130.9661653,
            33.0381655
          ],
          [
            130.9661657,
            33.0383905
          ],
          [
            130.9662232,
            33.038534
          ],
          [
            130.9663314,
            33.0386728
          ],
          [
            130.9664885,
            33.0388101
          ],
          [
            130.9666952,
            33.038892
          ],
          [
            130.9669597,
            33.0388815
          ],
          [
            130.9671873,
            33.0387742
          ],
          [
            130.9673458,
            33.0386144
          ],
          [
            130.9674439,
            33.0385571
          ],
          [
            130.9676352,
            33.0385056
          ],
          [
            130.9678185,
            33.0385014
          ],
          [
            130.968161,
            33.0384878
          ],
          [
            130.9685332,
            33.0384706
          ],
          [
            130.9687039,
            33.0385146
          ],
          [
            130.9688943,
            33.0386439
          ],
          [
            130.9690275,
            33.0388102
          ],
          [
            130.9691381,
            33.0390039
          ],
          [
            130.969186,
            33.0392356
          ],
          [
            130.9692112,
            33.0394816
          ],
          [
            130.9692525,
            33.0399992
          ],
          [
            130.9693015,
            33.0402888
          ],
          [
            130.9694264,
            33.0404673
          ],
          [
            130.969548,
            33.0405819
          ],
          [
            130.969714,
            33.0406746
          ],
          [
            130.9698992,
            33.0407461
          ],
          [
            130.9701626,
            33.0407545
          ],
          [
            130.9703694,
            33.040718
          ],
          [
            130.9705849,
            33.0406588
          ],
          [
            130.9707087,
            33.0405736
          ],
          [
            130.9708885,
            33.0404167
          ],
          [
            130.9711466,
            33.0399713
          ],
          [
            130.9711807,
            33.0399317
          ],
          [
            130.9712274,
            33.0398846
          ],
          [
            130.9712836,
            33.0398408
          ],
          [
            130.9713506,
            33.0397948
          ],
          [
            130.9716125,
            33.0396307
          ],
          [
            130.9721295,
            33.0393344
          ],
          [
            130.9725339,
            33.0392
          ],
          [
            130.9729653,
            33.0390012
          ],
          [
            130.9730055,
            33.0389923
          ],
          [
            130.9730591,
            33.0390069
          ],
          [
            130.9731086,
            33.0390203
          ],
          [
            130.9731636,
            33.0390113
          ],
          [
            130.9734034,
            33.038789
          ],
          [
            130.9735467,
            33.0387137
          ],
          [
            130.9746989,
            33.0380702
          ],
          [
            130.9757171,
            33.0375064
          ],
          [
            130.9759314,
            33.0373896
          ],
          [
            130.9763802,
            33.0371066
          ],
          [
            130.9767674,
            33.0368572
          ],
          [
            130.9772344,
            33.0364954
          ],
          [
            130.9782037,
            33.035958
          ],
          [
            130.9787161,
            33.0356699
          ],
          [
            130.9791842,
            33.0353936
          ],
          [
            130.9792782,
            33.0353223
          ],
          [
            130.9793507,
            33.0352588
          ],
          [
            130.9793844,
            33.0352163
          ],
          [
            130.9794134,
            33.0351751
          ],
          [
            130.979427,
            33.0351403
          ],
          [
            130.979436,
            33.0351094
          ],
          [
            130.9794485,
            33.0350617
          ],
          [
            130.9794516,
            33.0350192
          ],
          [
            130.9794375,
            33.0349499
          ],
          [
            130.9794109,
            33.0348832
          ],
          [
            130.9793852,
            33.0348204
          ],
          [
            130.9793487,
            33.0347679
          ],
          [
            130.9790214,
            33.0344291
          ],
          [
            130.9786746,
            33.0341007
          ],
          [
            130.9785213,
            33.033976
          ],
          [
            130.9783503,
            33.0338586
          ],
          [
            130.9781634,
            33.0337513
          ],
          [
            130.9779676,
            33.0336469
          ],
          [
            130.9777988,
            33.0335859
          ],
          [
            130.977631,
            33.0335249
          ],
          [
            130.9774166,
            33.0334666
          ],
          [
            130.9771861,
            33.0334084
          ],
          [
            130.9752968,
            33.0329696
          ],
          [
            130.9748636,
            33.0328685
          ],
          [
            130.9746772,
            33.0328438
          ],
          [
            130.9745763,
            33.0328355
          ],
          [
            130.9744594,
            33.0328451
          ],
          [
            130.9743611,
            33.0328652
          ],
          [
            130.9742682,
            33.0329034
          ],
          [
            130.9741641,
            33.0329692
          ],
          [
            130.974076,
            33.0330507
          ],
          [
            130.9740108,
            33.0331251
          ],
          [
            130.9739617,
            33.0331995
          ],
          [
            130.9738045,
            33.0334968
          ],
          [
            130.9736998,
            33.0336913
          ],
          [
            130.9736475,
            33.0337692
          ],
          [
            130.9735674,
            33.0338575
          ],
          [
            130.9735285,
            33.0338971
          ],
          [
            130.9734773,
            33.0339315
          ],
          [
            130.9733748,
            33.0339875
          ],
          [
            130.9733005,
            33.0340075
          ],
          [
            130.9732262,
            33.0340197
          ],
          [
            130.9730573,
            33.0340452
          ],
          [
            130.9728885,
            33.0340552
          ],
          [
            130.972715,
            33.0340489
          ],
          [
            130.9726273,
            33.0340341
          ],
          [
            130.9725437,
            33.0340058
          ],
          [
            130.9724211,
            33.0339531
          ],
          [
            130.9723107,
            33.0338788
          ],
          [
            130.9721982,
            33.0337719
          ],
          [
            130.972102,
            33.0336446
          ],
          [
            130.9720065,
            33.0335188
          ],
          [
            130.971911,
            33.0334066
          ],
          [
            130.9718747,
            33.033374
          ],
          [
            130.9717895,
            33.0333245
          ],
          [
            130.9717179,
            33.0332926
          ],
          [
            130.9716341,
            33.0332813
          ],
          [
            130.9715316,
            33.0332991
          ],
          [
            130.9714535,
            33.0333373
          ],
          [
            130.9714062,
            33.033384
          ],
          [
            130.9713793,
            33.0334136
          ],
          [
            130.971355,
            33.0334824
          ],
          [
            130.971345,
            33.0335392
          ],
          [
            130.9713507,
            33.033595
          ],
          [
            130.9713644,
            33.0336474
          ],
          [
            130.9713996,
            33.033739
          ],
          [
            130.9714469,
            33.0338238
          ],
          [
            130.971516,
            33.0339275
          ],
          [
            130.9715851,
            33.0340277
          ],
          [
            130.9716722,
            33.0341411
          ],
          [
            130.9717543,
            33.0342183
          ],
          [
            130.9718445,
            33.034292
          ],
          [
            130.9719445,
            33.0343627
          ],
          [
            130.9720689,
            33.0344317
          ],
          [
            130.9722134,
            33.0344914
          ],
          [
            130.9723824,
            33.0345529
          ],
          [
            130.9725615,
            33.0346145
          ],
          [
            130.9727405,
            33.0346792
          ],
          [
            130.9728733,
            33.034729
          ],
          [
            130.972999,
            33.0347848
          ],
          [
            130.9731158,
            33.0348451
          ],
          [
            130.9731751,
            33.0348849
          ],
          [
            130.9732273,
            33.0349276
          ],
          [
            130.9733184,
            33.0350115
          ],
          [
            130.9733847,
            33.0350916
          ],
          [
            130.9734519,
            33.0351934
          ],
          [
            130.9735029,
            33.0353042
          ],
          [
            130.9735181,
            33.035358
          ],
          [
            130.9735307,
            33.0354162
          ],
          [
            130.9735397,
            33.0355417
          ],
          [
            130.9735362,
            33.0356443
          ],
          [
            130.9735174,
            33.035757
          ],
          [
            130.9735014,
            33.0358073
          ],
          [
            130.9734733,
            33.0358678
          ],
          [
            130.9734471,
            33.035925
          ],
          [
            130.9733946,
            33.0359991
          ],
          [
            130.9733356,
            33.0360757
          ],
          [
            130.9732421,
            33.036166
          ],
          [
            130.9731774,
            33.0362195
          ],
          [
            130.9730964,
            33.0362799
          ],
          [
            130.9729467,
            33.0363598
          ],
          [
            130.9727541,
            33.036444
          ],
          [
            130.9725777,
            33.0365145
          ],
          [
            130.9722981,
            33.0366404
          ],
          [
            130.9721613,
            33.0367076
          ],
          [
            130.9720326,
            33.0367799
          ],
          [
            130.9719183,
            33.03685
          ],
          [
            130.971804,
            33.0369286
          ],
          [
            130.9717049,
            33.0370038
          ],
          [
            130.9716221,
            33.0370756
          ],
          [
            130.9715,
            33.0371861
          ],
          [
            130.9713981,
            33.0372967
          ],
          [
            130.9712969,
            33.0374133
          ],
          [
            130.971216,
            33.03753
          ],
          [
            130.9711055,
            33.0377097
          ],
          [
            130.9710451,
            33.0378331
          ],
          [
            130.9709846,
            33.0379702
          ],
          [
            130.9706456,
            33.0388604
          ],
          [
            130.9703151,
            33.0397597
          ]
        ]
      }
    }
  ]
}
