{
  "type": "FeatureCollection",
  "bbox": [
    126.4077597,
    34.7299687,
    126.420814,
    34.7370213
  ],
  "metadata": {
    "schemaVersion": 1,
    "trackId": "kr-korea-international-circuit-234764328",
    "layoutId": "korea-international-short-circuit",
    "license": "ODbL-1.0",
    "attribution": "© OpenStreetMap contributors",
    "closed": true,
    "geometryStatus": "draft",
    "timingStatus": "missing",
    "timingMode": "shared",
    "lengthM": 3306.4,
    "reviewedAt": null,
    "notes": [
      "Draft configuration: Northern short course uses the independently named GP Circuit branch and B Course connector, excluding the Permanent Circuit southern loop and overlapping duplicate course way. The catalogue diagram identifies the same northern perimeter and infield return. The operator distinguishes the 3.29 km B Course from the 3.04 km A Course. Branch identity was checked against catalogue layout facts and circuit identification references. Independent source distance 3306.4 m; no coordinates are changed to match a diagram or distance. Travel direction and historical alignment remain provisional."
    ]
  },
  "features": [
    {
      "type": "Feature",
      "id": "trace",
      "properties": {
        "role": "trace",
        "sourceIds": [
          "osm-selection-234764328"
        ]
      },
      "geometry": {
        "type": "LineString",
        "coordinates": [
          [
            126.4079601,
            34.7352057
          ],
          [
            126.4079474,
            34.735087
          ],
          [
            126.4077597,
            34.7339761
          ],
          [
            126.4077597,
            34.7338615
          ],
          [
            126.4077704,
            34.7337865
          ],
          [
            126.4077891,
            34.7337344
          ],
          [
            126.4077972,
            34.7337116
          ],
          [
            126.4078335,
            34.7336579
          ],
          [
            126.4078509,
            34.7336322
          ],
          [
            126.4078873,
            34.7336013
          ],
          [
            126.4079287,
            34.7335661
          ],
          [
            126.4079871,
            34.7335289
          ],
          [
            126.4080118,
            34.7335132
          ],
          [
            126.4081355,
            34.7334608
          ],
          [
            126.4098315,
            34.7327424
          ],
          [
            126.4098878,
            34.7327186
          ],
          [
            126.4099656,
            34.7326525
          ],
          [
            126.4099953,
            34.7326023
          ],
          [
            126.4100125,
            34.7325732
          ],
          [
            126.4100204,
            34.7325289
          ],
          [
            126.4100273,
            34.7324905
          ],
          [
            126.4100211,
            34.7324464
          ],
          [
            126.4100152,
            34.7324045
          ],
          [
            126.4099844,
            34.7323271
          ],
          [
            126.4099682,
            34.7322866
          ],
          [
            126.4099414,
            34.7322123
          ],
          [
            126.4099213,
            34.7321565
          ],
          [
            126.409877,
            34.7320034
          ],
          [
            126.409855,
            34.7318726
          ],
          [
            126.4098475,
            34.7318281
          ],
          [
            126.4098355,
            34.7316859
          ],
          [
            126.4098328,
            34.7315426
          ],
          [
            126.4098368,
            34.7314578
          ],
          [
            126.4098556,
            34.7313961
          ],
          [
            126.4098864,
            34.7313487
          ],
          [
            126.4099294,
            34.7313145
          ],
          [
            126.4099817,
            34.7312869
          ],
          [
            126.4100393,
            34.7312693
          ],
          [
            126.4101024,
            34.7312649
          ],
          [
            126.4101801,
            34.7312715
          ],
          [
            126.4102201,
            34.7312764
          ],
          [
            126.4110608,
            34.7313805
          ],
          [
            126.4111149,
            34.7313872
          ],
          [
            126.4111645,
            34.7314071
          ],
          [
            126.4112007,
            34.7314446
          ],
          [
            126.411431,
            34.7318746
          ],
          [
            126.4114987,
            34.732001
          ],
          [
            126.4115813,
            34.7321159
          ],
          [
            126.4116381,
            34.732195
          ],
          [
            126.4117048,
            34.7322608
          ],
          [
            126.411732,
            34.7322876
          ],
          [
            126.4118527,
            34.7323802
          ],
          [
            126.4118973,
            34.732408
          ],
          [
            126.4119868,
            34.7324639
          ],
          [
            126.4121209,
            34.7325168
          ],
          [
            126.4122711,
            34.7325631
          ],
          [
            126.412416,
            34.7325918
          ],
          [
            126.4125392,
            34.7325998
          ],
          [
            126.4126199,
            34.732605
          ],
          [
            126.4127647,
            34.7326006
          ],
          [
            126.4128915,
            34.7325757
          ],
          [
            126.4129649,
            34.7325613
          ],
          [
            126.4130594,
            34.7325323
          ],
          [
            126.4131241,
            34.7325124
          ],
          [
            126.4131886,
            34.7324833
          ],
          [
            126.4132694,
            34.7324468
          ],
          [
            126.413387,
            34.7323834
          ],
          [
            126.4134878,
            34.7323095
          ],
          [
            126.4135649,
            34.7322396
          ],
          [
            126.4136322,
            34.732186
          ],
          [
            126.4137079,
            34.7321368
          ],
          [
            126.4137338,
            34.7321237
          ],
          [
            126.4137745,
            34.7321031
          ],
          [
            126.413851,
            34.7320714
          ],
          [
            126.4147391,
            34.7317977
          ],
          [
            126.4157189,
            34.7314957
          ],
          [
            126.4161218,
            34.7313715
          ],
          [
            126.4161818,
            34.731353
          ],
          [
            126.4162644,
            34.731327
          ],
          [
            126.4165493,
            34.7312374
          ],
          [
            126.4175355,
            34.7309273
          ],
          [
            126.4181697,
            34.7307278
          ],
          [
            126.418355,
            34.7306705
          ],
          [
            126.4193557,
            34.7303614
          ],
          [
            126.420032,
            34.7301524
          ],
          [
            126.4205247,
            34.7300002
          ],
          [
            126.4205914,
            34.7299796
          ],
          [
            126.4206428,
            34.7299687
          ],
          [
            126.4206966,
            34.7299703
          ],
          [
            126.4207408,
            34.7299877
          ],
          [
            126.4207697,
            34.7300162
          ],
          [
            126.420787,
            34.7300541
          ],
          [
            126.4207937,
            34.7300925
          ],
          [
            126.4208015,
            34.7302844
          ],
          [
            126.4208044,
            34.7303548
          ],
          [
            126.4208101,
            34.7306128
          ],
          [
            126.420814,
            34.7307909
          ],
          [
            126.4207952,
            34.7308702
          ],
          [
            126.4207764,
            34.7309275
          ],
          [
            126.4207362,
            34.7309882
          ],
          [
            126.4206691,
            34.7310488
          ],
          [
            126.4204359,
            34.7312296
          ],
          [
            126.417252,
            34.7336981
          ],
          [
            126.4171152,
            34.7338041
          ],
          [
            126.4157118,
            34.7348844
          ],
          [
            126.4138038,
            34.736353
          ],
          [
            126.412976,
            34.7369902
          ],
          [
            126.4128972,
            34.7370213
          ],
          [
            126.4128194,
            34.7370213
          ],
          [
            126.412737,
            34.7370037
          ],
          [
            126.4126994,
            34.7369783
          ],
          [
            126.4125787,
            34.7368637
          ],
          [
            126.4124741,
            34.7367513
          ],
          [
            126.4123936,
            34.7366918
          ],
          [
            126.4122716,
            34.7366499
          ],
          [
            126.411888,
            34.736597
          ],
          [
            126.4117526,
            34.7365904
          ],
          [
            126.4115461,
            34.7365882
          ],
          [
            126.4109989,
            34.7366036
          ],
          [
            126.4108299,
            34.7365948
          ],
          [
            126.4106824,
            34.7365507
          ],
          [
            126.4105214,
            34.736467
          ],
          [
            126.410382,
            34.7363435
          ],
          [
            126.4098429,
            34.7357682
          ],
          [
            126.4097168,
            34.7356668
          ],
          [
            126.4095639,
            34.7355853
          ],
          [
            126.4093976,
            34.7355302
          ],
          [
            126.409234,
            34.7354949
          ],
          [
            126.4090918,
            34.7354905
          ],
          [
            126.408947,
            34.7355037
          ],
          [
            126.4087351,
            34.7355236
          ],
          [
            126.4083274,
            34.7354905
          ],
          [
            126.4081906,
            34.735453
          ],
          [
            126.4080967,
            34.7353891
          ],
          [
            126.4080109,
            34.7353075
          ],
          [
            126.4079601,
            34.7352057
          ]
        ]
      }
    }
  ]
}
