{
  "type": "FeatureCollection",
  "bbox": [
    -117.5064286,
    34.0860735,
    -117.4934738,
    34.0916623
  ],
  "metadata": {
    "schemaVersion": 1,
    "trackId": "us-fontana-raceway-road-course-33a99dd4",
    "layoutId": "fontana-raceway-road-course",
    "license": "ODbL-1.0",
    "attribution": "© OpenStreetMap contributors",
    "closed": true,
    "geometryStatus": "draft",
    "timingStatus": "missing",
    "timingMode": "shared",
    "lengthM": 4544.8,
    "reviewedAt": null,
    "notes": [
      "Draft configuration: The organizer identifies the historical 2.8-mile auto competition ROVAL. The pinned 2018 independent source retains the complete oval return, Northern rectangular infield hairpin, Eastern inner hairpin, Western infield S and short Southern diagonal chicane. The extra rectangular zigzag through the Northern paddock is excluded. Public-domain 2022 aerial imagery confirms these paved connections independently. The 4544.8 m trace remains unscaled against the 4509 m catalogue distance, with historical temporary barrier alignment and fine corner detail kept draft. Branch identity was checked against catalogue layout facts and circuit identification references. Independent source distance 4544.8 m; no coordinates are changed to match a diagram or distance. Travel direction and historical alignment remain provisional."
    ]
  },
  "features": [
    {
      "type": "Feature",
      "id": "trace",
      "properties": {
        "role": "trace",
        "sourceIds": [
          "osm-selection-fontana-raceway-infield-course-2018-independent-roads-7002869"
        ]
      },
      "geometry": {
        "type": "LineString",
        "coordinates": [
          [
            -117.5059999,
            34.0890174
          ],
          [
            -117.5064071,
            34.088265
          ],
          [
            -117.5064286,
            34.0882066
          ],
          [
            -117.5064194,
            34.0881507
          ],
          [
            -117.5062844,
            34.0876705
          ],
          [
            -117.50622,
            34.0875791
          ],
          [
            -117.5060544,
            34.0874419
          ],
          [
            -117.5054901,
            34.0869019
          ],
          [
            -117.5050542,
            34.0867435
          ],
          [
            -117.5047979,
            34.0866819
          ],
          [
            -117.5038829,
            34.0864502
          ],
          [
            -117.5031756,
            34.0863098
          ],
          [
            -117.5025997,
            34.0862187
          ],
          [
            -117.5020175,
            34.0861471
          ],
          [
            -117.5014759,
            34.0861038
          ],
          [
            -117.5009311,
            34.0860801
          ],
          [
            -117.5005578,
            34.0860755
          ],
          [
            -117.5003979,
            34.0860735
          ],
          [
            -117.4998617,
            34.0860846
          ],
          [
            -117.4993534,
            34.0861127
          ],
          [
            -117.4988544,
            34.0861541
          ],
          [
            -117.4980135,
            34.0862673
          ],
          [
            -117.4974535,
            34.0863703
          ],
          [
            -117.4969009,
            34.0864857
          ],
          [
            -117.4960917,
            34.0867137
          ],
          [
            -117.4957213,
            34.0868299
          ],
          [
            -117.4953313,
            34.0869831
          ],
          [
            -117.4949894,
            34.0871381
          ],
          [
            -117.4946619,
            34.0873101
          ],
          [
            -117.4944527,
            34.0874462
          ],
          [
            -117.4942585,
            34.0876015
          ],
          [
            -117.4940822,
            34.0877669
          ],
          [
            -117.4939563,
            34.0879122
          ],
          [
            -117.4939237,
            34.0879498
          ],
          [
            -117.4937833,
            34.0881407
          ],
          [
            -117.4936627,
            34.0883374
          ],
          [
            -117.4935475,
            34.0886514
          ],
          [
            -117.4934919,
            34.0889666
          ],
          [
            -117.4934738,
            34.0891876
          ],
          [
            -117.4934774,
            34.0894141
          ],
          [
            -117.4935519,
            34.0897824
          ],
          [
            -117.4936415,
            34.0900098
          ],
          [
            -117.4937349,
            34.090196
          ],
          [
            -117.4939459,
            34.0904984
          ],
          [
            -117.4942928,
            34.09085
          ],
          [
            -117.4946533,
            34.0911272
          ],
          [
            -117.4951339,
            34.0913475
          ],
          [
            -117.4957004,
            34.0915181
          ],
          [
            -117.4962377,
            34.0915997
          ],
          [
            -117.4967927,
            34.0916394
          ],
          [
            -117.497154,
            34.0916429
          ],
          [
            -117.4991555,
            34.0916623
          ],
          [
            -117.4992135,
            34.0916321
          ],
          [
            -117.499267,
            34.0915732
          ],
          [
            -117.4992994,
            34.0915222
          ],
          [
            -117.499313,
            34.0914596
          ],
          [
            -117.4993164,
            34.0910484
          ],
          [
            -117.4993207,
            34.0910058
          ],
          [
            -117.4993423,
            34.0909776
          ],
          [
            -117.4993736,
            34.0909604
          ],
          [
            -117.4994119,
            34.09095
          ],
          [
            -117.4994758,
            34.0909421
          ],
          [
            -117.5019576,
            34.0909506
          ],
          [
            -117.5027913,
            34.0909571
          ],
          [
            -117.5028303,
            34.0909517
          ],
          [
            -117.5028816,
            34.0909233
          ],
          [
            -117.5029223,
            34.0908812
          ],
          [
            -117.5029467,
            34.0908444
          ],
          [
            -117.5029761,
            34.0907705
          ],
          [
            -117.5029945,
            34.0907217
          ],
          [
            -117.5030074,
            34.0906649
          ],
          [
            -117.5030168,
            34.0906082
          ],
          [
            -117.503018,
            34.0905557
          ],
          [
            -117.5030162,
            34.0905064
          ],
          [
            -117.5030063,
            34.0904578
          ],
          [
            -117.5029438,
            34.0902844
          ],
          [
            -117.5029241,
            34.0902467
          ],
          [
            -117.5028956,
            34.0902188
          ],
          [
            -117.5028647,
            34.0902001
          ],
          [
            -117.5028227,
            34.0901813
          ],
          [
            -117.5017894,
            34.0901766
          ],
          [
            -117.4990214,
            34.0901601
          ],
          [
            -117.4980982,
            34.0901553
          ],
          [
            -117.4980248,
            34.0901657
          ],
          [
            -117.497972,
            34.0901755
          ],
          [
            -117.4979223,
            34.0901954
          ],
          [
            -117.497585,
            34.0904131
          ],
          [
            -117.497542,
            34.0904244
          ],
          [
            -117.4974989,
            34.0904381
          ],
          [
            -117.4964977,
            34.0904349
          ],
          [
            -117.4964136,
            34.0904356
          ],
          [
            -117.4962819,
            34.0904371
          ],
          [
            -117.4961443,
            34.0904277
          ],
          [
            -117.4959833,
            34.0904016
          ],
          [
            -117.4958453,
            34.0903663
          ],
          [
            -117.4957417,
            34.0903294
          ],
          [
            -117.4955957,
            34.0902725
          ],
          [
            -117.4954617,
            34.090206
          ],
          [
            -117.4953518,
            34.0901396
          ],
          [
            -117.4953096,
            34.0901002
          ],
          [
            -117.4952817,
            34.0900609
          ],
          [
            -117.4952639,
            34.0900195
          ],
          [
            -117.4952567,
            34.0899795
          ],
          [
            -117.495258,
            34.0899271
          ],
          [
            -117.49527,
            34.0898835
          ],
          [
            -117.4952921,
            34.0898436
          ],
          [
            -117.4953284,
            34.089811
          ],
          [
            -117.4953722,
            34.0897798
          ],
          [
            -117.4954325,
            34.0897582
          ],
          [
            -117.4976226,
            34.0892464
          ],
          [
            -117.4976555,
            34.0892435
          ],
          [
            -117.4976898,
            34.0892528
          ],
          [
            -117.4977204,
            34.0892699
          ],
          [
            -117.497741,
            34.0892952
          ],
          [
            -117.4977843,
            34.0893682
          ],
          [
            -117.4978112,
            34.0893968
          ],
          [
            -117.4978474,
            34.0894187
          ],
          [
            -117.497904,
            34.089439
          ],
          [
            -117.4979592,
            34.0894448
          ],
          [
            -117.4987516,
            34.0894171
          ],
          [
            -117.4993019,
            34.0893977
          ],
          [
            -117.5010387,
            34.0893412
          ],
          [
            -117.5033487,
            34.089265
          ],
          [
            -117.5034067,
            34.0892712
          ],
          [
            -117.503459,
            34.0892897
          ],
          [
            -117.5035022,
            34.0893157
          ],
          [
            -117.5035375,
            34.0893458
          ],
          [
            -117.5035643,
            34.0893837
          ],
          [
            -117.503578,
            34.0894252
          ],
          [
            -117.5035859,
            34.0895239
          ],
          [
            -117.5035948,
            34.0895714
          ],
          [
            -117.5036168,
            34.0896119
          ],
          [
            -117.503652,
            34.0896561
          ],
          [
            -117.5036944,
            34.0896876
          ],
          [
            -117.5037515,
            34.0897124
          ],
          [
            -117.5038141,
            34.089724
          ],
          [
            -117.5042525,
            34.0897235
          ],
          [
            -117.5043177,
            34.0897035
          ],
          [
            -117.5048759,
            34.0894001
          ],
          [
            -117.5049694,
            34.089361
          ],
          [
            -117.5050666,
            34.0893473
          ],
          [
            -117.5057998,
            34.0893234
          ],
          [
            -117.5058623,
            34.0893168
          ],
          [
            -117.5059172,
            34.0892903
          ],
          [
            -117.5059402,
            34.0892493
          ],
          [
            -117.5059492,
            34.0892079
          ],
          [
            -117.5059482,
            34.0891595
          ],
          [
            -117.5059597,
            34.0891107
          ],
          [
            -117.5059821,
            34.0890598
          ],
          [
            -117.5059999,
            34.0890174
          ]
        ]
      }
    }
  ]
}
