{
  "type": "FeatureCollection",
  "bbox": [
    119.4975454,
    40.0104823,
    119.5061319,
    40.0172583
  ],
  "metadata": {
    "schemaVersion": 1,
    "trackId": "cn-shougang-gt-circuit-e74fefe3",
    "layoutId": "shougang-gt-circuit",
    "license": "ODbL-1.0",
    "attribution": "© OpenStreetMap contributors",
    "closed": true,
    "geometryStatus": "draft",
    "timingStatus": "missing",
    "timingMode": "shared",
    "lengthM": 3735.5,
    "reviewedAt": null,
    "notes": [
      "Draft configuration selected from the independently named circuit relation 17857789. The source route passes timing and course-distance checks. Layout identity and travel direction still require visual review.",
      "Source one-way tags are preserved. Relation routes can follow a race-day direction different from ordinary road use; travel direction is provisional."
    ]
  },
  "features": [
    {
      "type": "Feature",
      "id": "trace",
      "properties": {
        "role": "trace",
        "sourceIds": [
          "osm-circuit-17857789"
        ]
      },
      "geometry": {
        "type": "LineString",
        "coordinates": [
          [
            119.5001787,
            40.0153766
          ],
          [
            119.4996682,
            40.0153795
          ],
          [
            119.49958,
            40.015416
          ],
          [
            119.4995029,
            40.0154751
          ],
          [
            119.4994662,
            40.015582
          ],
          [
            119.4994662,
            40.0170952
          ],
          [
            119.4994552,
            40.0171542
          ],
          [
            119.4993964,
            40.0172218
          ],
          [
            119.4992605,
            40.0172583
          ],
          [
            119.4978392,
            40.0171317
          ],
          [
            119.4977401,
            40.0170867
          ],
          [
            119.4976409,
            40.0170052
          ],
          [
            119.4975638,
            40.016887
          ],
          [
            119.4975454,
            40.016648
          ],
          [
            119.4975932,
            40.0146144
          ],
          [
            119.497663,
            40.0142487
          ],
          [
            119.4978135,
            40.0137087
          ],
          [
            119.4979935,
            40.0132671
          ],
          [
            119.4982506,
            40.012848
          ],
          [
            119.4986141,
            40.0123895
          ],
          [
            119.4992752,
            40.0114865
          ],
          [
            119.4998077,
            40.0108283
          ],
          [
            119.4999069,
            40.0107524
          ],
          [
            119.4999803,
            40.0107411
          ],
          [
            119.5000795,
            40.0107777
          ],
          [
            119.5007883,
            40.0113937
          ],
          [
            119.5010233,
            40.0116159
          ],
          [
            119.5011666,
            40.0117003
          ],
          [
            119.5013392,
            40.0117481
          ],
          [
            119.5015191,
            40.0117566
          ],
          [
            119.501644,
            40.01172
          ],
          [
            119.5017799,
            40.0116244
          ],
          [
            119.501868,
            40.0114809
          ],
          [
            119.5020627,
            40.0108818
          ],
          [
            119.5021545,
            40.0106455
          ],
          [
            119.5022537,
            40.0105386
          ],
          [
            119.5023675,
            40.0104823
          ],
          [
            119.5025034,
            40.0105077
          ],
          [
            119.5025879,
            40.0105752
          ],
          [
            119.5025952,
            40.0106821
          ],
          [
            119.5025879,
            40.0115456
          ],
          [
            119.5025218,
            40.0117819
          ],
          [
            119.5023602,
            40.0120632
          ],
          [
            119.5021398,
            40.012232
          ],
          [
            119.5018166,
            40.0124035
          ],
          [
            119.5014567,
            40.0125301
          ],
          [
            119.5010674,
            40.0126117
          ],
          [
            119.5005092,
            40.0126792
          ],
          [
            119.5000685,
            40.0127805
          ],
          [
            119.4996425,
            40.0129605
          ],
          [
            119.4992128,
            40.0132136
          ],
          [
            119.4989226,
            40.0135427
          ],
          [
            119.4987243,
            40.0138381
          ],
          [
            119.4986068,
            40.0142544
          ],
          [
            119.498537,
            40.0145975
          ],
          [
            119.4985591,
            40.0146819
          ],
          [
            119.4986545,
            40.0147269
          ],
          [
            119.4988455,
            40.0147325
          ],
          [
            119.4995947,
            40.014575
          ],
          [
            119.4996865,
            40.0145019
          ],
          [
            119.4997637,
            40.014395
          ],
          [
            119.4998077,
            40.01426
          ],
          [
            119.4998885,
            40.0139478
          ],
          [
            119.5000097,
            40.0137706
          ],
          [
            119.500197,
            40.0136777
          ],
          [
            119.5004247,
            40.0136187
          ],
          [
            119.5007589,
            40.0136018
          ],
          [
            119.5028803,
            40.0136175
          ],
          [
            119.5056985,
            40.0136384
          ],
          [
            119.5058307,
            40.013658
          ],
          [
            119.5059629,
            40.0137256
          ],
          [
            119.505974,
            40.0139253
          ],
          [
            119.5059372,
            40.0156692
          ],
          [
            119.5060805,
            40.0160545
          ],
          [
            119.5061319,
            40.0162261
          ],
          [
            119.5060915,
            40.0162992
          ],
          [
            119.505985,
            40.0163667
          ],
          [
            119.5028706,
            40.0163498
          ],
          [
            119.5027054,
            40.016333
          ],
          [
            119.5025658,
            40.0162598
          ],
          [
            119.5023822,
            40.0160432
          ],
          [
            119.5020039,
            40.0155201
          ],
          [
            119.5019231,
            40.0154666
          ],
          [
            119.5017432,
            40.015402
          ],
          [
            119.5015926,
            40.0153907
          ],
          [
            119.5001787,
            40.0153766
          ]
        ]
      }
    }
  ]
}
