{
  "type": "FeatureCollection",
  "bbox": [
    -5.7267577,
    37.4569578,
    -5.7165019,
    37.4627861
  ],
  "metadata": {
    "schemaVersion": 1,
    "trackId": "es-circuito-de-sevilla-1265898391",
    "layoutId": "main",
    "license": "ODbL-1.0",
    "attribution": "© OpenStreetMap contributors",
    "closed": true,
    "geometryStatus": "draft",
    "timingStatus": "missing",
    "timingMode": "shared",
    "lengthM": 4100.9,
    "reviewedAt": null,
    "notes": [
      "Closed named OSM raceway retained as a course candidate. Named-layout association requires review.",
      "Source way order and shared node IDs are retained. No nearby endpoints are joined and no reference boundaries are read.",
      "Some source ways lack one-way direction tags. Travel direction is provisional."
    ]
  },
  "features": [
    {
      "type": "Feature",
      "id": "trace",
      "properties": {
        "role": "trace",
        "sourceIds": [
          "osm-snapshot"
        ]
      },
      "geometry": {
        "type": "LineString",
        "coordinates": [
          [
            -5.7238131,
            37.458952
          ],
          [
            -5.7177378,
            37.4619222
          ],
          [
            -5.7173977,
            37.4621218
          ],
          [
            -5.7173779,
            37.4623068
          ],
          [
            -5.7176254,
            37.4627739
          ],
          [
            -5.7177707,
            37.4627861
          ],
          [
            -5.718015,
            37.4626049
          ],
          [
            -5.7182229,
            37.4624631
          ],
          [
            -5.7186767,
            37.4625429
          ],
          [
            -5.7190746,
            37.4625258
          ],
          [
            -5.7192453,
            37.4624513
          ],
          [
            -5.7195612,
            37.4621544
          ],
          [
            -5.7197318,
            37.461931
          ],
          [
            -5.7198995,
            37.461736
          ],
          [
            -5.7201211,
            37.4616267
          ],
          [
            -5.7204386,
            37.4615506
          ],
          [
            -5.720756,
            37.4615506
          ],
          [
            -5.7209837,
            37.4616457
          ],
          [
            -5.7212292,
            37.4618216
          ],
          [
            -5.7214269,
            37.461988
          ],
          [
            -5.7215467,
            37.4620736
          ],
          [
            -5.7217144,
            37.4621211
          ],
          [
            -5.721948,
            37.4621164
          ],
          [
            -5.7222115,
            37.4619928
          ],
          [
            -5.7240803,
            37.4610657
          ],
          [
            -5.7243798,
            37.4608327
          ],
          [
            -5.7244756,
            37.4606758
          ],
          [
            -5.7244576,
            37.4604856
          ],
          [
            -5.7244037,
            37.4602289
          ],
          [
            -5.7242839,
            37.4598961
          ],
          [
            -5.724248,
            37.4597534
          ],
          [
            -5.72426,
            37.4596536
          ],
          [
            -5.7243678,
            37.4595633
          ],
          [
            -5.7262845,
            37.4581322
          ],
          [
            -5.7266019,
            37.4578754
          ],
          [
            -5.7267038,
            37.4577518
          ],
          [
            -5.7267577,
            37.4576091
          ],
          [
            -5.7267457,
            37.457438
          ],
          [
            -5.7266618,
            37.4572335
          ],
          [
            -5.7265061,
            37.4570861
          ],
          [
            -5.7263084,
            37.4570053
          ],
          [
            -5.7260808,
            37.4569578
          ],
          [
            -5.7257814,
            37.4569768
          ],
          [
            -5.7252183,
            37.4571242
          ],
          [
            -5.7243498,
            37.4573429
          ],
          [
            -5.7238946,
            37.457457
          ],
          [
            -5.7234694,
            37.4575331
          ],
          [
            -5.7205165,
            37.4577423
          ],
          [
            -5.7200912,
            37.4577565
          ],
          [
            -5.719642,
            37.457747
          ],
          [
            -5.719067,
            37.4576947
          ],
          [
            -5.7187735,
            37.4576424
          ],
          [
            -5.718468,
            37.4575331
          ],
          [
            -5.7180128,
            37.4573476
          ],
          [
            -5.7177193,
            37.4573096
          ],
          [
            -5.717336,
            37.4573096
          ],
          [
            -5.7169586,
            37.4573952
          ],
          [
            -5.7166412,
            37.4575616
          ],
          [
            -5.7165019,
            37.4578829
          ],
          [
            -5.716589,
            37.4582123
          ],
          [
            -5.7174487,
            37.4593933
          ],
          [
            -5.7177102,
            37.4595149
          ],
          [
            -5.7179742,
            37.4594515
          ],
          [
            -5.7182588,
            37.4592023
          ],
          [
            -5.7185444,
            37.4588184
          ],
          [
            -5.7189675,
            37.4585158
          ],
          [
            -5.719455,
            37.4583835
          ],
          [
            -5.7200008,
            37.4584595
          ],
          [
            -5.7206633,
            37.4586116
          ],
          [
            -5.7213446,
            37.4585751
          ],
          [
            -5.724853,
            37.4577185
          ],
          [
            -5.7251045,
            37.4576852
          ],
          [
            -5.7252722,
            37.457728
          ],
          [
            -5.725422,
            37.4578421
          ],
          [
            -5.7254579,
            37.4580513
          ],
          [
            -5.7252962,
            37.4582368
          ],
          [
            -5.7249787,
            37.4583794
          ],
          [
            -5.7238131,
            37.458952
          ]
        ]
      }
    }
  ]
}
