{
  "type": "FeatureCollection",
  "bbox": [
    -112.3868437,
    40.5768452,
    -112.379355,
    40.5831262
  ],
  "metadata": {
    "schemaVersion": 1,
    "trackId": "us-utah-motorsports-campus-343796175",
    "layoutId": "miller-motorsports-park-west",
    "license": "ODbL-1.0",
    "attribution": "© OpenStreetMap contributors",
    "closed": true,
    "geometryStatus": "draft",
    "timingStatus": "missing",
    "timingMode": "shared",
    "lengthM": 3539.9,
    "reviewedAt": null,
    "notes": [
      "Draft route hypothesis: the source cycle is the unique closest nominal-distance match within conservative timing and distance checks. Approximate OSM trace length 3539.9 m. Difference from the supplied layout distance 9.9 m. Course configuration still requires visual review."
    ]
  },
  "features": [
    {
      "type": "Feature",
      "id": "trace",
      "properties": {
        "role": "trace",
        "sourceIds": [
          "osm-network-343796175"
        ]
      },
      "geometry": {
        "type": "LineString",
        "coordinates": [
          [
            -112.3797154,
            40.5794167
          ],
          [
            -112.3796108,
            40.5794774
          ],
          [
            -112.3795371,
            40.5795463
          ],
          [
            -112.3794554,
            40.579659
          ],
          [
            -112.379429,
            40.5797527
          ],
          [
            -112.379355,
            40.580211
          ],
          [
            -112.3793609,
            40.5803097
          ],
          [
            -112.3793963,
            40.5803815
          ],
          [
            -112.3794672,
            40.5804712
          ],
          [
            -112.3797627,
            40.580718
          ],
          [
            -112.3798749,
            40.5807854
          ],
          [
            -112.3800167,
            40.5808235
          ],
          [
            -112.3801349,
            40.5808448
          ],
          [
            -112.3802797,
            40.5808527
          ],
          [
            -112.3804584,
            40.5808246
          ],
          [
            -112.3815884,
            40.5804802
          ],
          [
            -112.3816711,
            40.5804533
          ],
          [
            -112.3817716,
            40.5804443
          ],
          [
            -112.3819016,
            40.5804174
          ],
          [
            -112.3820257,
            40.5804219
          ],
          [
            -112.3821793,
            40.5804578
          ],
          [
            -112.3822915,
            40.5804712
          ],
          [
            -112.3824511,
            40.5805026
          ],
          [
            -112.3826224,
            40.5805744
          ],
          [
            -112.3827524,
            40.5806642
          ],
          [
            -112.3828469,
            40.580745
          ],
          [
            -112.3835855,
            40.5814899
          ],
          [
            -112.383621,
            40.5815662
          ],
          [
            -112.3836328,
            40.5816694
          ],
          [
            -112.3836387,
            40.5817502
          ],
          [
            -112.3836387,
            40.5818354
          ],
          [
            -112.3836387,
            40.5819162
          ],
          [
            -112.3836092,
            40.5820059
          ],
          [
            -112.3835619,
            40.5820643
          ],
          [
            -112.3834792,
            40.5821451
          ],
          [
            -112.3833787,
            40.5822213
          ],
          [
            -112.3832605,
            40.5822842
          ],
          [
            -112.3831069,
            40.5823335
          ],
          [
            -112.3829356,
            40.5823829
          ],
          [
            -112.380519,
            40.5822707
          ],
          [
            -112.3803476,
            40.5822572
          ],
          [
            -112.3802235,
            40.5822752
          ],
          [
            -112.3801054,
            40.5823201
          ],
          [
            -112.3800049,
            40.5823784
          ],
          [
            -112.3799577,
            40.5824592
          ],
          [
            -112.3799163,
            40.5825534
          ],
          [
            -112.3799222,
            40.5826566
          ],
          [
            -112.3799517,
            40.5827419
          ],
          [
            -112.380057,
            40.5828462
          ],
          [
            -112.380259,
            40.5829303
          ],
          [
            -112.3807563,
            40.5831262
          ],
          [
            -112.3837349,
            40.583102
          ],
          [
            -112.3858368,
            40.5830849
          ],
          [
            -112.3859788,
            40.5830786
          ],
          [
            -112.3861543,
            40.5830595
          ],
          [
            -112.3862964,
            40.5830215
          ],
          [
            -112.3864217,
            40.5829707
          ],
          [
            -112.386547,
            40.5829009
          ],
          [
            -112.3866473,
            40.5828184
          ],
          [
            -112.3867058,
            40.5827549
          ],
          [
            -112.3867476,
            40.5826915
          ],
          [
            -112.3867998,
            40.5825963
          ],
          [
            -112.3868228,
            40.5825265
          ],
          [
            -112.3868395,
            40.582463
          ],
          [
            -112.3868437,
            40.5823757
          ],
          [
            -112.3868353,
            40.5822821
          ],
          [
            -112.3868082,
            40.5821838
          ],
          [
            -112.3867664,
            40.5820981
          ],
          [
            -112.3866975,
            40.5819997
          ],
          [
            -112.3852268,
            40.5808638
          ],
          [
            -112.38516,
            40.580794
          ],
          [
            -112.3850994,
            40.5807146
          ],
          [
            -112.3850597,
            40.580648
          ],
          [
            -112.3850179,
            40.5805591
          ],
          [
            -112.3850012,
            40.5804941
          ],
          [
            -112.3849928,
            40.5804132
          ],
          [
            -112.3849907,
            40.5803307
          ],
          [
            -112.3849928,
            40.5802291
          ],
          [
            -112.3850137,
            40.5801197
          ],
          [
            -112.385068,
            40.5800007
          ],
          [
            -112.3862309,
            40.5786708
          ],
          [
            -112.3863094,
            40.5785595
          ],
          [
            -112.3863625,
            40.5784698
          ],
          [
            -112.3864039,
            40.578371
          ],
          [
            -112.3864119,
            40.5782768
          ],
          [
            -112.3864157,
            40.578196
          ],
          [
            -112.3864039,
            40.5781108
          ],
          [
            -112.3863685,
            40.578012
          ],
          [
            -112.3863153,
            40.5779178
          ],
          [
            -112.386268,
            40.577855
          ],
          [
            -112.3861794,
            40.5777428
          ],
          [
            -112.3850581,
            40.5770113
          ],
          [
            -112.3849504,
            40.5769529
          ],
          [
            -112.3848322,
            40.5769036
          ],
          [
            -112.3846786,
            40.5768632
          ],
          [
            -112.3845309,
            40.5768452
          ],
          [
            -112.384395,
            40.5768452
          ],
          [
            -112.3799222,
            40.5768452
          ],
          [
            -112.3798158,
            40.5768677
          ],
          [
            -112.3797261,
            40.5769017
          ],
          [
            -112.3796379,
            40.5769732
          ],
          [
            -112.3795913,
            40.5770427
          ],
          [
            -112.3795677,
            40.577119
          ],
          [
            -112.3795771,
            40.5771783
          ],
          [
            -112.3796017,
            40.5772509
          ],
          [
            -112.3799291,
            40.5775873
          ],
          [
            -112.3800167,
            40.5776446
          ],
          [
            -112.3801231,
            40.5776844
          ],
          [
            -112.3802531,
            40.5777113
          ],
          [
            -112.3826933,
            40.5779941
          ],
          [
            -112.382841,
            40.5780345
          ],
          [
            -112.3829592,
            40.5780883
          ],
          [
            -112.3830597,
            40.5781556
          ],
          [
            -112.3831337,
            40.5782565
          ],
          [
            -112.3831778,
            40.5783531
          ],
          [
            -112.3832011,
            40.5784428
          ],
          [
            -112.3832039,
            40.578508
          ],
          [
            -112.3831778,
            40.5785909
          ],
          [
            -112.3831365,
            40.5786582
          ],
          [
            -112.3830892,
            40.5787211
          ],
          [
            -112.3830183,
            40.578766
          ],
          [
            -112.3828653,
            40.5788214
          ],
          [
            -112.3797154,
            40.5794167
          ]
        ]
      }
    }
  ]
}
