{
  "type": "FeatureCollection",
  "bbox": [
    -112.3787913,
    40.5766441,
    -112.3713879,
    40.5831681
  ],
  "metadata": {
    "schemaVersion": 1,
    "trackId": "us-utah-motorsports-campus-343796175",
    "layoutId": "miller-motorsports-park-east",
    "license": "ODbL-1.0",
    "attribution": "© OpenStreetMap contributors",
    "closed": true,
    "geometryStatus": "draft",
    "timingStatus": "missing",
    "timingMode": "shared",
    "lengthM": 3585.1,
    "reviewedAt": null,
    "notes": [
      "Draft route hypothesis: the source cycle is the unique closest nominal-distance match within conservative timing and distance checks. Approximate OSM trace length 3585.1 m. Difference from the supplied layout distance 6.9 m. Course configuration still requires visual review."
    ]
  },
  "features": [
    {
      "type": "Feature",
      "id": "trace",
      "properties": {
        "role": "trace",
        "sourceIds": [
          "osm-network-343796175"
        ]
      },
      "geometry": {
        "type": "LineString",
        "coordinates": [
          [
            -112.3783506,
            40.5821718
          ],
          [
            -112.3777155,
            40.5821385
          ],
          [
            -112.3775421,
            40.5821099
          ],
          [
            -112.3773353,
            40.5820718
          ],
          [
            -112.3770199,
            40.581956
          ],
          [
            -112.3767358,
            40.5818497
          ],
          [
            -112.3762365,
            40.5816641
          ],
          [
            -112.3759273,
            40.5815483
          ],
          [
            -112.375756,
            40.5814832
          ],
          [
            -112.3755785,
            40.581388
          ],
          [
            -112.3754489,
            40.581296
          ],
          [
            -112.3753215,
            40.5811802
          ],
          [
            -112.3752233,
            40.581066
          ],
          [
            -112.3751293,
            40.5809026
          ],
          [
            -112.3748473,
            40.5802838
          ],
          [
            -112.3747638,
            40.5801029
          ],
          [
            -112.3747178,
            40.5800236
          ],
          [
            -112.3746697,
            40.5799443
          ],
          [
            -112.3745862,
            40.579876
          ],
          [
            -112.374488,
            40.5798046
          ],
          [
            -112.3743898,
            40.5797475
          ],
          [
            -112.3742687,
            40.5797142
          ],
          [
            -112.3741162,
            40.5796809
          ],
          [
            -112.3730884,
            40.5795857
          ],
          [
            -112.3729986,
            40.5795619
          ],
          [
            -112.3729213,
            40.5795349
          ],
          [
            -112.3728628,
            40.5795064
          ],
          [
            -112.3728022,
            40.5794746
          ],
          [
            -112.3727541,
            40.5794413
          ],
          [
            -112.3727061,
            40.5794064
          ],
          [
            -112.3726643,
            40.5793651
          ],
          [
            -112.3726288,
            40.5793176
          ],
          [
            -112.37261,
            40.5792731
          ],
          [
            -112.3725933,
            40.5792176
          ],
          [
            -112.3725766,
            40.5791525
          ],
          [
            -112.3725724,
            40.5791034
          ],
          [
            -112.3725828,
            40.5790431
          ],
          [
            -112.3726058,
            40.5789621
          ],
          [
            -112.372633,
            40.5789034
          ],
          [
            -112.3726831,
            40.578832
          ],
          [
            -112.3734602,
            40.5781911
          ],
          [
            -112.3735521,
            40.5781276
          ],
          [
            -112.3736106,
            40.5780879
          ],
          [
            -112.3736712,
            40.5780594
          ],
          [
            -112.3737443,
            40.5780292
          ],
          [
            -112.3738237,
            40.5780038
          ],
          [
            -112.3739094,
            40.5779848
          ],
          [
            -112.3739866,
            40.5779769
          ],
          [
            -112.3740995,
            40.5779753
          ],
          [
            -112.3741976,
            40.5779848
          ],
          [
            -112.374323,
            40.5780054
          ],
          [
            -112.3744483,
            40.5780387
          ],
          [
            -112.3745549,
            40.5780847
          ],
          [
            -112.3746865,
            40.5781736
          ],
          [
            -112.3747763,
            40.5782672
          ],
          [
            -112.3762281,
            40.5802901
          ],
          [
            -112.3762929,
            40.5803552
          ],
          [
            -112.3763702,
            40.5804123
          ],
          [
            -112.3764538,
            40.5804662
          ],
          [
            -112.3765394,
            40.5805075
          ],
          [
            -112.3766167,
            40.5805234
          ],
          [
            -112.3767295,
            40.5805297
          ],
          [
            -112.3768528,
            40.5805297
          ],
          [
            -112.3773144,
            40.5804345
          ],
          [
            -112.3773875,
            40.5803996
          ],
          [
            -112.3774439,
            40.5803631
          ],
          [
            -112.377515,
            40.5803108
          ],
          [
            -112.3775672,
            40.5802584
          ],
          [
            -112.3776173,
            40.5802076
          ],
          [
            -112.3776507,
            40.5801553
          ],
          [
            -112.3776779,
            40.580087
          ],
          [
            -112.3776967,
            40.5800204
          ],
          [
            -112.377703,
            40.5799395
          ],
          [
            -112.3776758,
            40.5798253
          ],
          [
            -112.3772949,
            40.5788362
          ],
          [
            -112.3768131,
            40.577585
          ],
          [
            -112.376788,
            40.5775262
          ],
          [
            -112.3767462,
            40.5774771
          ],
          [
            -112.3766961,
            40.577439
          ],
          [
            -112.3766376,
            40.5774088
          ],
          [
            -112.3765791,
            40.5773834
          ],
          [
            -112.3765122,
            40.5773676
          ],
          [
            -112.3764266,
            40.5773533
          ],
          [
            -112.3759043,
            40.5773105
          ],
          [
            -112.3758229,
            40.5772882
          ],
          [
            -112.3757498,
            40.577266
          ],
          [
            -112.375685,
            40.5772311
          ],
          [
            -112.3756077,
            40.5771724
          ],
          [
            -112.3755471,
            40.5771121
          ],
          [
            -112.3753111,
            40.5768361
          ],
          [
            -112.3752735,
            40.5768027
          ],
          [
            -112.3752275,
            40.5767615
          ],
          [
            -112.3751607,
            40.5767218
          ],
          [
            -112.375098,
            40.5767012
          ],
          [
            -112.3750228,
            40.5766806
          ],
          [
            -112.37491,
            40.5766568
          ],
          [
            -112.3747575,
            40.5766441
          ],
          [
            -112.3719624,
            40.5767218
          ],
          [
            -112.3718726,
            40.5767329
          ],
          [
            -112.3717702,
            40.5767615
          ],
          [
            -112.3716804,
            40.5768059
          ],
          [
            -112.3716094,
            40.5768599
          ],
          [
            -112.3715571,
            40.5769106
          ],
          [
            -112.371507,
            40.5769741
          ],
          [
            -112.3714715,
            40.577055
          ],
          [
            -112.3714485,
            40.5771566
          ],
          [
            -112.37139,
            40.5782275
          ],
          [
            -112.3713879,
            40.5783164
          ],
          [
            -112.3713879,
            40.5784084
          ],
          [
            -112.3713942,
            40.5784877
          ],
          [
            -112.3714234,
            40.5786147
          ],
          [
            -112.3718224,
            40.5805535
          ],
          [
            -112.3718538,
            40.5806392
          ],
          [
            -112.3718851,
            40.5806995
          ],
          [
            -112.3719248,
            40.5807455
          ],
          [
            -112.3719729,
            40.5807947
          ],
          [
            -112.372046,
            40.5808438
          ],
          [
            -112.3721295,
            40.5808756
          ],
          [
            -112.372259,
            40.5808978
          ],
          [
            -112.3735417,
            40.581058
          ],
          [
            -112.3736336,
            40.5810739
          ],
          [
            -112.3737213,
            40.5810961
          ],
          [
            -112.3737819,
            40.5811231
          ],
          [
            -112.3738362,
            40.5811532
          ],
          [
            -112.3739177,
            40.5812072
          ],
          [
            -112.3739574,
            40.5812405
          ],
          [
            -112.3739929,
            40.5812865
          ],
          [
            -112.374018,
            40.5813309
          ],
          [
            -112.3740493,
            40.5813817
          ],
          [
            -112.3740702,
            40.5814325
          ],
          [
            -112.3740807,
            40.5814864
          ],
          [
            -112.3740848,
            40.5815451
          ],
          [
            -112.3740681,
            40.5816149
          ],
          [
            -112.3740535,
            40.5816784
          ],
          [
            -112.3740201,
            40.581745
          ],
          [
            -112.3739678,
            40.5818069
          ],
          [
            -112.3739261,
            40.5818529
          ],
          [
            -112.373853,
            40.5819053
          ],
          [
            -112.3737297,
            40.5819719
          ],
          [
            -112.3731165,
            40.5822189
          ],
          [
            -112.373009,
            40.5822622
          ],
          [
            -112.372915,
            40.5823162
          ],
          [
            -112.3728502,
            40.5823749
          ],
          [
            -112.3727959,
            40.5824352
          ],
          [
            -112.372752,
            40.5825192
          ],
          [
            -112.372727,
            40.5826065
          ],
          [
            -112.3727207,
            40.5826906
          ],
          [
            -112.3727437,
            40.5827826
          ],
          [
            -112.3727813,
            40.5828699
          ],
          [
            -112.3728398,
            40.5829524
          ],
          [
            -112.3729087,
            40.5830253
          ],
          [
            -112.3729965,
            40.583084
          ],
          [
            -112.3730758,
            40.5831221
          ],
          [
            -112.3731907,
            40.5831554
          ],
          [
            -112.3733098,
            40.5831681
          ],
          [
            -112.378173,
            40.5831364
          ],
          [
            -112.3782607,
            40.5831237
          ],
          [
            -112.378361,
            40.5831031
          ],
          [
            -112.3784529,
            40.5830729
          ],
          [
            -112.3785407,
            40.5830317
          ],
          [
            -112.3785971,
            40.5829841
          ],
          [
            -112.3786472,
            40.5829381
          ],
          [
            -112.3787516,
            40.5827509
          ],
          [
            -112.3787788,
            40.5826842
          ],
          [
            -112.3787913,
            40.5826398
          ],
          [
            -112.3787913,
            40.5825811
          ],
          [
            -112.3787851,
            40.5825161
          ],
          [
            -112.3787642,
            40.5824637
          ],
          [
            -112.3787308,
            40.5823955
          ],
          [
            -112.3786681,
            40.582332
          ],
          [
            -112.3785929,
            40.582267
          ],
          [
            -112.3784989,
            40.582221
          ],
          [
            -112.3783506,
            40.5821718
          ]
        ]
      }
    }
  ]
}
