{
  "type": "FeatureCollection",
  "bbox": [
    -1.8055181,
    47.3435404,
    -1.7920776,
    47.3471096
  ],
  "metadata": {
    "schemaVersion": 1,
    "trackId": "fr-circuit-automobile-de-loire-atlantique-205747014",
    "layoutId": "main",
    "license": "ODbL-1.0",
    "attribution": "© OpenStreetMap contributors",
    "closed": true,
    "geometryStatus": "draft",
    "timingStatus": "missing",
    "timingMode": "shared",
    "lengthM": 3082.6,
    "reviewedAt": null,
    "notes": [
      "Closed named OSM raceway retained as a course candidate. Named-layout association requires review.",
      "Source way order and shared node IDs are retained. No nearby endpoints are joined and no reference boundaries are read.",
      "Some source ways lack one-way direction tags. Travel direction is provisional."
    ]
  },
  "features": [
    {
      "type": "Feature",
      "id": "trace",
      "properties": {
        "role": "trace",
        "sourceIds": [
          "osm-snapshot"
        ]
      },
      "geometry": {
        "type": "LineString",
        "coordinates": [
          [
            -1.7931558,
            47.3453929
          ],
          [
            -1.7930409,
            47.345367
          ],
          [
            -1.7929388,
            47.3453381
          ],
          [
            -1.7928463,
            47.3453067
          ],
          [
            -1.7927571,
            47.3452717
          ],
          [
            -1.7926889,
            47.3452375
          ],
          [
            -1.7926108,
            47.3451927
          ],
          [
            -1.7925411,
            47.3451423
          ],
          [
            -1.7924789,
            47.3450915
          ],
          [
            -1.7923985,
            47.3450256
          ],
          [
            -1.7923429,
            47.3449615
          ],
          [
            -1.7922804,
            47.3448712
          ],
          [
            -1.7922321,
            47.3447851
          ],
          [
            -1.7921689,
            47.3446147
          ],
          [
            -1.7921374,
            47.3444885
          ],
          [
            -1.7921047,
            47.344345
          ],
          [
            -1.7920893,
            47.3442239
          ],
          [
            -1.7920792,
            47.344089
          ],
          [
            -1.7920776,
            47.3440355
          ],
          [
            -1.7920813,
            47.3439725
          ],
          [
            -1.7920946,
            47.3439152
          ],
          [
            -1.7921132,
            47.3438667
          ],
          [
            -1.792138,
            47.3438225
          ],
          [
            -1.7921712,
            47.343776
          ],
          [
            -1.7922076,
            47.3437367
          ],
          [
            -1.7922427,
            47.3437027
          ],
          [
            -1.7923011,
            47.3436631
          ],
          [
            -1.7923633,
            47.3436317
          ],
          [
            -1.7924605,
            47.3435927
          ],
          [
            -1.7925356,
            47.3435721
          ],
          [
            -1.7926146,
            47.3435548
          ],
          [
            -1.7927235,
            47.343542
          ],
          [
            -1.792793,
            47.3435404
          ],
          [
            -1.7928687,
            47.343544
          ],
          [
            -1.79294,
            47.3435542
          ],
          [
            -1.793018,
            47.3435695
          ],
          [
            -1.7931252,
            47.3436049
          ],
          [
            -1.7932346,
            47.3436484
          ],
          [
            -1.793478,
            47.3437898
          ],
          [
            -1.793554,
            47.3438242
          ],
          [
            -1.7936402,
            47.3438496
          ],
          [
            -1.7937282,
            47.3438673
          ],
          [
            -1.7938327,
            47.3438792
          ],
          [
            -1.7939457,
            47.3438811
          ],
          [
            -1.7940768,
            47.3438743
          ],
          [
            -1.7949656,
            47.3437626
          ],
          [
            -1.7950535,
            47.3437574
          ],
          [
            -1.7951451,
            47.3437595
          ],
          [
            -1.7952595,
            47.3437814
          ],
          [
            -1.7953395,
            47.3438071
          ],
          [
            -1.7954176,
            47.3438477
          ],
          [
            -1.7955149,
            47.3439087
          ],
          [
            -1.7955772,
            47.3439714
          ],
          [
            -1.7956232,
            47.3440535
          ],
          [
            -1.7956461,
            47.3441584
          ],
          [
            -1.7956531,
            47.3444543
          ],
          [
            -1.7956681,
            47.3448528
          ],
          [
            -1.7956827,
            47.3449475
          ],
          [
            -1.7956963,
            47.3450022
          ],
          [
            -1.795724,
            47.345056
          ],
          [
            -1.7957617,
            47.3450934
          ],
          [
            -1.7958321,
            47.3451275
          ],
          [
            -1.7959198,
            47.3451512
          ],
          [
            -1.7960167,
            47.3451669
          ],
          [
            -1.7964738,
            47.3452373
          ],
          [
            -1.7999309,
            47.3457695
          ],
          [
            -1.8005824,
            47.3458698
          ],
          [
            -1.8013798,
            47.3459925
          ],
          [
            -1.8014735,
            47.3459992
          ],
          [
            -1.8015661,
            47.3459963
          ],
          [
            -1.8016752,
            47.3459818
          ],
          [
            -1.801759,
            47.34596
          ],
          [
            -1.8018279,
            47.3459333
          ],
          [
            -1.8018915,
            47.3459019
          ],
          [
            -1.8019579,
            47.3458617
          ],
          [
            -1.8020164,
            47.3458184
          ],
          [
            -1.802066,
            47.3457657
          ],
          [
            -1.8020924,
            47.3457149
          ],
          [
            -1.802111,
            47.3456509
          ],
          [
            -1.8021173,
            47.3455982
          ],
          [
            -1.8021083,
            47.3455298
          ],
          [
            -1.8020921,
            47.3454777
          ],
          [
            -1.8020609,
            47.3454188
          ],
          [
            -1.8020176,
            47.3453743
          ],
          [
            -1.8019527,
            47.3453256
          ],
          [
            -1.8018854,
            47.3452994
          ],
          [
            -1.8017645,
            47.3452625
          ],
          [
            -1.801081,
            47.3451587
          ],
          [
            -1.8010011,
            47.3451385
          ],
          [
            -1.800933,
            47.3451149
          ],
          [
            -1.8008822,
            47.3450873
          ],
          [
            -1.8008359,
            47.345052
          ],
          [
            -1.8007635,
            47.3449572
          ],
          [
            -1.8006964,
            47.3448697
          ],
          [
            -1.8006672,
            47.3448438
          ],
          [
            -1.8006229,
            47.3448168
          ],
          [
            -1.8005814,
            47.3448041
          ],
          [
            -1.8005306,
            47.3447957
          ],
          [
            -1.8004591,
            47.344792
          ],
          [
            -1.8003982,
            47.3447948
          ],
          [
            -1.8003325,
            47.3448052
          ],
          [
            -1.8002665,
            47.344821
          ],
          [
            -1.7997075,
            47.3449994
          ],
          [
            -1.7996196,
            47.3450223
          ],
          [
            -1.7995453,
            47.3450353
          ],
          [
            -1.7994676,
            47.3450436
          ],
          [
            -1.7993636,
            47.3450443
          ],
          [
            -1.7992739,
            47.3450388
          ],
          [
            -1.7992033,
            47.3450246
          ],
          [
            -1.7991426,
            47.3450071
          ],
          [
            -1.7990963,
            47.344982
          ],
          [
            -1.7990605,
            47.3449513
          ],
          [
            -1.7990436,
            47.3449278
          ],
          [
            -1.7990289,
            47.3448897
          ],
          [
            -1.7990275,
            47.3448559
          ],
          [
            -1.7990411,
            47.3448185
          ],
          [
            -1.7990589,
            47.3447908
          ],
          [
            -1.7990896,
            47.3447603
          ],
          [
            -1.799524,
            47.3443899
          ],
          [
            -1.7995636,
            47.3443648
          ],
          [
            -1.7996122,
            47.3443383
          ],
          [
            -1.7996562,
            47.3443205
          ],
          [
            -1.799711,
            47.3443048
          ],
          [
            -1.7997717,
            47.3442957
          ],
          [
            -1.7998402,
            47.3442913
          ],
          [
            -1.7999017,
            47.3442934
          ],
          [
            -1.7999667,
            47.3442997
          ],
          [
            -1.802106,
            47.3446279
          ],
          [
            -1.8022351,
            47.3446521
          ],
          [
            -1.8023527,
            47.3446845
          ],
          [
            -1.8024562,
            47.3447213
          ],
          [
            -1.8025495,
            47.3447666
          ],
          [
            -1.802622,
            47.3448125
          ],
          [
            -1.8026921,
            47.3448634
          ],
          [
            -1.8027505,
            47.3449151
          ],
          [
            -1.8027974,
            47.3449714
          ],
          [
            -1.802843,
            47.3450397
          ],
          [
            -1.8028694,
            47.3451018
          ],
          [
            -1.80296,
            47.3454768
          ],
          [
            -1.8029812,
            47.3455485
          ],
          [
            -1.8030077,
            47.3456071
          ],
          [
            -1.8030468,
            47.3456652
          ],
          [
            -1.8031014,
            47.345726
          ],
          [
            -1.8031663,
            47.3457854
          ],
          [
            -1.8032521,
            47.3458446
          ],
          [
            -1.8033286,
            47.3458876
          ],
          [
            -1.8034081,
            47.3459243
          ],
          [
            -1.8035183,
            47.345958
          ],
          [
            -1.8036,
            47.3459792
          ],
          [
            -1.8036841,
            47.3459922
          ],
          [
            -1.8037863,
            47.346002
          ],
          [
            -1.8038818,
            47.3460063
          ],
          [
            -1.8050617,
            47.3459956
          ],
          [
            -1.805206,
            47.3460038
          ],
          [
            -1.8052909,
            47.3460213
          ],
          [
            -1.8053579,
            47.3460476
          ],
          [
            -1.805407,
            47.3460772
          ],
          [
            -1.8054552,
            47.3461176
          ],
          [
            -1.8054918,
            47.3461592
          ],
          [
            -1.8055117,
            47.3462096
          ],
          [
            -1.8055181,
            47.3462548
          ],
          [
            -1.8055177,
            47.3463048
          ],
          [
            -1.805511,
            47.3463488
          ],
          [
            -1.8055007,
            47.3463865
          ],
          [
            -1.8053394,
            47.3467751
          ],
          [
            -1.8053014,
            47.346834
          ],
          [
            -1.8052623,
            47.3468783
          ],
          [
            -1.8051932,
            47.3469358
          ],
          [
            -1.8051256,
            47.3469832
          ],
          [
            -1.8050467,
            47.3470237
          ],
          [
            -1.8049737,
            47.3470513
          ],
          [
            -1.8049001,
            47.3470725
          ],
          [
            -1.8048302,
            47.3470889
          ],
          [
            -1.8047554,
            47.347101
          ],
          [
            -1.8046766,
            47.3471084
          ],
          [
            -1.8045973,
            47.3471096
          ],
          [
            -1.8044896,
            47.3471045
          ],
          [
            -1.7975516,
            47.3460542
          ],
          [
            -1.7931558,
            47.3453929
          ]
        ]
      }
    }
  ]
}
