{
  "type": "FeatureCollection",
  "bbox": [
    -0.9913685,
    51.9859282,
    -0.9870764,
    51.9892023
  ],
  "metadata": {
    "schemaVersion": 1,
    "trackId": "gb-bucks-estate-combo-9cbbe60a",
    "layoutId": "lenborough-return",
    "license": "ODbL-1.0",
    "attribution": "© OpenStreetMap contributors",
    "closed": true,
    "geometryStatus": "draft",
    "timingStatus": "missing",
    "timingMode": "shared",
    "lengthM": 1061,
    "reviewedAt": null,
    "notes": [
      "The supplied Combo configuration identifies the inner Lenborough Road return between the A421 and Osier Way. Exact public OSM nodes retain this historical estate-road alternative as a separate closed course. The council describes Lenborough Road and the estate network; its present footway classification and historic vehicle-use correspondence remain explicit draft limitations. No private diagram coordinates are imported. Exact source coordinates are unchanged; historical alignment and direction remain provisional."
    ]
  },
  "features": [
    {
      "type": "Feature",
      "id": "trace",
      "properties": {
        "role": "trace",
        "sourceIds": [
          "osm-components-8598020"
        ]
      },
      "geometry": {
        "type": "LineString",
        "coordinates": [
          [
            -0.987083,
            51.9859284
          ],
          [
            -0.9870764,
            51.986505
          ],
          [
            -0.9871289,
            51.9869716
          ],
          [
            -0.9872765,
            51.9876281
          ],
          [
            -0.98736,
            51.9879047
          ],
          [
            -0.9874241,
            51.9881169
          ],
          [
            -0.9876143,
            51.9883007
          ],
          [
            -0.9879981,
            51.98864
          ],
          [
            -0.9882441,
            51.9890238
          ],
          [
            -0.9883099,
            51.9891573
          ],
          [
            -0.9885111,
            51.9891839
          ],
          [
            -0.9886525,
            51.9892023
          ],
          [
            -0.9888883,
            51.9891987
          ],
          [
            -0.9889363,
            51.9891743
          ],
          [
            -0.9889913,
            51.9891521
          ],
          [
            -0.9890693,
            51.9891398
          ],
          [
            -0.9891835,
            51.9891462
          ],
          [
            -0.989278,
            51.9891781
          ],
          [
            -0.9892239,
            51.9889329
          ],
          [
            -0.9894277,
            51.9886565
          ],
          [
            -0.9895748,
            51.9885162
          ],
          [
            -0.9897121,
            51.9884302
          ],
          [
            -0.9899315,
            51.9883216
          ],
          [
            -0.9901826,
            51.9882473
          ],
          [
            -0.9907087,
            51.9881533
          ],
          [
            -0.9911507,
            51.988027
          ],
          [
            -0.9912916,
            51.9879481
          ],
          [
            -0.9913429,
            51.9878889
          ],
          [
            -0.9913685,
            51.987814
          ],
          [
            -0.9913301,
            51.9876798
          ],
          [
            -0.9910687,
            51.9873472
          ],
          [
            -0.9910418,
            51.987313
          ],
          [
            -0.9907663,
            51.9870447
          ],
          [
            -0.9904429,
            51.9868194
          ],
          [
            -0.9903884,
            51.9867883
          ],
          [
            -0.9902832,
            51.9867341
          ],
          [
            -0.9899207,
            51.9865476
          ],
          [
            -0.9894531,
            51.9863859
          ],
          [
            -0.9877299,
            51.986019
          ],
          [
            -0.9871341,
            51.9859282
          ],
          [
            -0.987083,
            51.9859284
          ]
        ]
      }
    }
  ]
}
