{
  "type": "FeatureCollection",
  "bbox": [
    -87.9084847,
    45.7698232,
    -87.906566,
    45.7712635
  ],
  "metadata": {
    "schemaVersion": 1,
    "trackId": "us-norway-speedway-28bd57a2",
    "layoutId": "norway-speedway",
    "license": "ODbL-1.0",
    "attribution": "© OpenStreetMap contributors",
    "closed": true,
    "geometryStatus": "draft",
    "timingStatus": "missing",
    "timingMode": "shared",
    "lengthM": 467.4,
    "reviewedAt": null,
    "notes": [
      "Draft route hypothesis: the source cycle is the unique closest nominal-distance match within conservative timing and distance checks. Approximate OSM trace length 467.4 m. Difference from the supplied layout distance 10.6 m. Course configuration still requires visual review."
    ]
  },
  "features": [
    {
      "type": "Feature",
      "id": "trace",
      "properties": {
        "role": "trace",
        "sourceIds": [
          "osm-network-17776203"
        ]
      },
      "geometry": {
        "type": "LineString",
        "coordinates": [
          [
            -87.9083822,
            45.7704696
          ],
          [
            -87.9075826,
            45.7711527
          ],
          [
            -87.9073989,
            45.7712406
          ],
          [
            -87.9071741,
            45.7712635
          ],
          [
            -87.9069671,
            45.7712522
          ],
          [
            -87.9067861,
            45.7711853
          ],
          [
            -87.9066482,
            45.7710781
          ],
          [
            -87.906566,
            45.770924
          ],
          [
            -87.9065695,
            45.7707573
          ],
          [
            -87.9066988,
            45.770605
          ],
          [
            -87.9074344,
            45.7699681
          ],
          [
            -87.9076915,
            45.769846
          ],
          [
            -87.9079483,
            45.7698232
          ],
          [
            -87.9080873,
            45.7698554
          ],
          [
            -87.9081758,
            45.769876
          ],
          [
            -87.9083644,
            45.7699899
          ],
          [
            -87.9084672,
            45.7701335
          ],
          [
            -87.9084847,
            45.7702934
          ],
          [
            -87.9083822,
            45.7704696
          ]
        ]
      }
    }
  ]
}
