{
  "type": "FeatureCollection",
  "bbox": [
    3.2609947,
    45.5327136,
    3.2691726,
    45.5411859
  ],
  "metadata": {
    "schemaVersion": 1,
    "trackId": "fr-ceerta-circuit-d-issoire-86413454",
    "layoutId": "main",
    "license": "ODbL-1.0",
    "attribution": "© OpenStreetMap contributors",
    "closed": true,
    "geometryStatus": "draft",
    "timingStatus": "missing",
    "timingMode": "shared",
    "lengthM": 2465.6,
    "reviewedAt": null,
    "notes": [
      "Closed named OSM raceway retained as a course candidate. Named-layout association requires review.",
      "Source way order and shared node IDs are retained. No nearby endpoints are joined and no reference boundaries are read."
    ]
  },
  "features": [
    {
      "type": "Feature",
      "id": "trace",
      "properties": {
        "role": "trace",
        "sourceIds": [
          "osm-snapshot"
        ]
      },
      "geometry": {
        "type": "LineString",
        "coordinates": [
          [
            3.2624548,
            45.5329464
          ],
          [
            3.2623906,
            45.5328793
          ],
          [
            3.2623523,
            45.5328516
          ],
          [
            3.2622938,
            45.5328181
          ],
          [
            3.2621536,
            45.532772
          ],
          [
            3.2620731,
            45.5327497
          ],
          [
            3.2619716,
            45.5327273
          ],
          [
            3.2618907,
            45.5327164
          ],
          [
            3.2617794,
            45.5327136
          ],
          [
            3.261683,
            45.5327171
          ],
          [
            3.2615826,
            45.5327363
          ],
          [
            3.2614115,
            45.5327923
          ],
          [
            3.2612639,
            45.5328592
          ],
          [
            3.2611558,
            45.5329356
          ],
          [
            3.2610715,
            45.5330246
          ],
          [
            3.2610164,
            45.5331306
          ],
          [
            3.2609954,
            45.5331917
          ],
          [
            3.2609947,
            45.5332493
          ],
          [
            3.2609968,
            45.533296
          ],
          [
            3.2610084,
            45.5333489
          ],
          [
            3.2610387,
            45.5333984
          ],
          [
            3.2610848,
            45.533452
          ],
          [
            3.2615571,
            45.5338405
          ],
          [
            3.2619491,
            45.5341501
          ],
          [
            3.2628533,
            45.534851
          ],
          [
            3.2632476,
            45.5351764
          ],
          [
            3.2632747,
            45.5352062
          ],
          [
            3.2633147,
            45.5352594
          ],
          [
            3.2633878,
            45.5353627
          ],
          [
            3.263436,
            45.5354298
          ],
          [
            3.2634979,
            45.5355251
          ],
          [
            3.2635505,
            45.5356419
          ],
          [
            3.2635892,
            45.5357535
          ],
          [
            3.2636137,
            45.5358785
          ],
          [
            3.2636261,
            45.5359752
          ],
          [
            3.263627,
            45.5360285
          ],
          [
            3.263628,
            45.5360985
          ],
          [
            3.2636118,
            45.5362438
          ],
          [
            3.2634701,
            45.5369989
          ],
          [
            3.2634553,
            45.5371006
          ],
          [
            3.2634529,
            45.5371635
          ],
          [
            3.2634598,
            45.5372157
          ],
          [
            3.2634683,
            45.537271
          ],
          [
            3.263486,
            45.5373303
          ],
          [
            3.2635189,
            45.5373904
          ],
          [
            3.263574,
            45.5374552
          ],
          [
            3.2643103,
            45.5381108
          ],
          [
            3.2643489,
            45.5381397
          ],
          [
            3.2644154,
            45.5381815
          ],
          [
            3.2644566,
            45.5382035
          ],
          [
            3.2645058,
            45.538226
          ],
          [
            3.2656005,
            45.53862
          ],
          [
            3.2663112,
            45.5388755
          ],
          [
            3.2664105,
            45.538934
          ],
          [
            3.2664944,
            45.5390202
          ],
          [
            3.2665282,
            45.5390743
          ],
          [
            3.2665405,
            45.5391129
          ],
          [
            3.2665533,
            45.539203
          ],
          [
            3.2665308,
            45.5392674
          ],
          [
            3.2664889,
            45.5393685
          ],
          [
            3.2664638,
            45.5394388
          ],
          [
            3.2664584,
            45.5394672
          ],
          [
            3.2664571,
            45.5394999
          ],
          [
            3.2664714,
            45.539552
          ],
          [
            3.266502,
            45.5396141
          ],
          [
            3.2665404,
            45.5396703
          ],
          [
            3.26661,
            45.5397545
          ],
          [
            3.2671772,
            45.540393
          ],
          [
            3.2677668,
            45.5410587
          ],
          [
            3.2678045,
            45.5410893
          ],
          [
            3.2678422,
            45.5411132
          ],
          [
            3.2678929,
            45.54114
          ],
          [
            3.2679609,
            45.5411614
          ],
          [
            3.2680289,
            45.5411758
          ],
          [
            3.2680969,
            45.5411821
          ],
          [
            3.2681727,
            45.5411859
          ],
          [
            3.2682465,
            45.541183
          ],
          [
            3.2683123,
            45.5411726
          ],
          [
            3.2683628,
            45.5411594
          ],
          [
            3.268457,
            45.5411223
          ],
          [
            3.2685047,
            45.541099
          ],
          [
            3.2685596,
            45.5410648
          ],
          [
            3.2685918,
            45.5410327
          ],
          [
            3.2686138,
            45.541002
          ],
          [
            3.2686783,
            45.540858
          ],
          [
            3.2687681,
            45.5405059
          ],
          [
            3.2689057,
            45.5399948
          ],
          [
            3.2691647,
            45.5390064
          ],
          [
            3.2691704,
            45.5389673
          ],
          [
            3.2691726,
            45.5389318
          ],
          [
            3.2691705,
            45.5389051
          ],
          [
            3.2691608,
            45.5388681
          ],
          [
            3.2691362,
            45.5388267
          ],
          [
            3.2691107,
            45.538801
          ],
          [
            3.2690829,
            45.5387816
          ],
          [
            3.2690249,
            45.5387492
          ],
          [
            3.2689622,
            45.5387242
          ],
          [
            3.2689271,
            45.5387151
          ],
          [
            3.268892,
            45.5387105
          ],
          [
            3.2688429,
            45.5387075
          ],
          [
            3.2688097,
            45.5387095
          ],
          [
            3.2687938,
            45.5387104
          ],
          [
            3.2687435,
            45.5387203
          ],
          [
            3.268699,
            45.538733
          ],
          [
            3.2685147,
            45.5388079
          ],
          [
            3.2684584,
            45.5388272
          ],
          [
            3.2684116,
            45.5388396
          ],
          [
            3.2683473,
            45.5388527
          ],
          [
            3.2682952,
            45.5388605
          ],
          [
            3.2682347,
            45.5388677
          ],
          [
            3.2681819,
            45.5388727
          ],
          [
            3.2680947,
            45.5388763
          ],
          [
            3.2680138,
            45.5388759
          ],
          [
            3.26795,
            45.5388715
          ],
          [
            3.2678965,
            45.5388655
          ],
          [
            3.267827,
            45.538856
          ],
          [
            3.2677706,
            45.5388458
          ],
          [
            3.2676972,
            45.5388271
          ],
          [
            3.2676341,
            45.5388073
          ],
          [
            3.2675818,
            45.5387863
          ],
          [
            3.2675238,
            45.5387599
          ],
          [
            3.2674131,
            45.5386982
          ],
          [
            3.2673543,
            45.5386616
          ],
          [
            3.2672548,
            45.5385872
          ],
          [
            3.2672234,
            45.5385527
          ],
          [
            3.2666311,
            45.5378608
          ],
          [
            3.2626573,
            45.5331898
          ],
          [
            3.2624548,
            45.5329464
          ]
        ]
      }
    }
  ]
}
