{
  "type": "FeatureCollection",
  "bbox": [
    -90.2105997,
    29.8799506,
    -90.1954673,
    29.8885693
  ],
  "metadata": {
    "schemaVersion": 1,
    "trackId": "us-nola-motorsports-park-298904844",
    "layoutId": "nola-motorsports-park-course-a",
    "license": "ODbL-1.0",
    "attribution": "© OpenStreetMap contributors",
    "closed": true,
    "geometryStatus": "draft",
    "timingStatus": "missing",
    "timingMode": "shared",
    "lengthM": 4434.7,
    "reviewedAt": null,
    "notes": [
      "Draft configuration: Course A with western inner hairpin and direct northeastern return bends. Branch identity was checked against catalogue layout facts and circuit identification references. Independent source distance 4434.7 m; no coordinates are changed to match a diagram or distance. Travel direction and historical alignment remain provisional."
    ]
  },
  "features": [
    {
      "type": "Feature",
      "id": "trace",
      "properties": {
        "role": "trace",
        "sourceIds": [
          "osm-selection-298904844"
        ]
      },
      "geometry": {
        "type": "LineString",
        "coordinates": [
          [
            -90.2064507,
            29.8811226
          ],
          [
            -90.2062896,
            29.8812803
          ],
          [
            -90.2061568,
            29.8814602
          ],
          [
            -90.2060588,
            29.8816704
          ],
          [
            -90.2060323,
            29.8818014
          ],
          [
            -90.2060456,
            29.8819252
          ],
          [
            -90.206092,
            29.8820202
          ],
          [
            -90.2061684,
            29.8821081
          ],
          [
            -90.2062631,
            29.8821743
          ],
          [
            -90.2063909,
            29.8822146
          ],
          [
            -90.2065636,
            29.8822232
          ],
          [
            -90.2066815,
            29.8821973
          ],
          [
            -90.2068209,
            29.8821282
          ],
          [
            -90.2076727,
            29.8814689
          ],
          [
            -90.2078238,
            29.8813868
          ],
          [
            -90.2079948,
            29.8813451
          ],
          [
            -90.2081409,
            29.8813307
          ],
          [
            -90.2083318,
            29.8813336
          ],
          [
            -90.2085062,
            29.8813652
          ],
          [
            -90.2087187,
            29.8814545
          ],
          [
            -90.2088034,
            29.8815221
          ],
          [
            -90.2088582,
            29.88162
          ],
          [
            -90.2088499,
            29.8817453
          ],
          [
            -90.2088183,
            29.8818389
          ],
          [
            -90.2087287,
            29.8819267
          ],
          [
            -90.2073987,
            29.8826758
          ],
          [
            -90.2063677,
            29.8832597
          ],
          [
            -90.2062066,
            29.8833418
          ],
          [
            -90.2059858,
            29.8834195
          ],
          [
            -90.2057882,
            29.8834512
          ],
          [
            -90.2055475,
            29.8834483
          ],
          [
            -90.2052934,
            29.8834023
          ],
          [
            -90.205046,
            29.883336
          ],
          [
            -90.2043005,
            29.8828638
          ],
          [
            -90.2039357,
            29.8826205
          ],
          [
            -90.2038405,
            29.882676
          ],
          [
            -90.2016536,
            29.8839508
          ],
          [
            -90.2006083,
            29.884567
          ],
          [
            -90.1972242,
            29.8865621
          ],
          [
            -90.1966614,
            29.8869162
          ],
          [
            -90.1962164,
            29.8872459
          ],
          [
            -90.1955971,
            29.8877612
          ],
          [
            -90.1955404,
            29.8878237
          ],
          [
            -90.1954939,
            29.8879158
          ],
          [
            -90.195469,
            29.8880165
          ],
          [
            -90.1954673,
            29.8881216
          ],
          [
            -90.195479,
            29.8882109
          ],
          [
            -90.1955122,
            29.8883001
          ],
          [
            -90.1955902,
            29.8884009
          ],
          [
            -90.1956965,
            29.8884714
          ],
          [
            -90.1958276,
            29.8885247
          ],
          [
            -90.1964719,
            29.8885693
          ],
          [
            -90.1965897,
            29.8885621
          ],
          [
            -90.1966811,
            29.8885247
          ],
          [
            -90.1967774,
            29.88847
          ],
          [
            -90.1968637,
            29.8883851
          ],
          [
            -90.1969218,
            29.888267
          ],
          [
            -90.1969488,
            29.8879109
          ],
          [
            -90.1969616,
            29.8877416
          ],
          [
            -90.1969783,
            29.8876336
          ],
          [
            -90.1969951,
            29.8875884
          ],
          [
            -90.1970164,
            29.8875446
          ],
          [
            -90.197042,
            29.8875026
          ],
          [
            -90.1970717,
            29.8874627
          ],
          [
            -90.1971053,
            29.8874252
          ],
          [
            -90.1971425,
            29.8873903
          ],
          [
            -90.1971831,
            29.8873584
          ],
          [
            -90.1972267,
            29.8873296
          ],
          [
            -90.1972731,
            29.8873043
          ],
          [
            -90.1973218,
            29.8872825
          ],
          [
            -90.1973725,
            29.8872645
          ],
          [
            -90.1974248,
            29.8872503
          ],
          [
            -90.1974783,
            29.8872402
          ],
          [
            -90.1975327,
            29.8872341
          ],
          [
            -90.1975874,
            29.8872322
          ],
          [
            -90.1976421,
            29.8872343
          ],
          [
            -90.1976965,
            29.8872406
          ],
          [
            -90.1977499,
            29.8872509
          ],
          [
            -90.1978022,
            29.8872653
          ],
          [
            -90.1978528,
            29.8872835
          ],
          [
            -90.1979014,
            29.8873054
          ],
          [
            -90.1983065,
            29.8875588
          ],
          [
            -90.1983945,
            29.8875789
          ],
          [
            -90.1984726,
            29.8875746
          ],
          [
            -90.198544,
            29.8875444
          ],
          [
            -90.1998623,
            29.886672
          ],
          [
            -90.2000283,
            29.8865482
          ],
          [
            -90.2001711,
            29.8863899
          ],
          [
            -90.2003438,
            29.8860674
          ],
          [
            -90.2004235,
            29.8859422
          ],
          [
            -90.2005878,
            29.8857781
          ],
          [
            -90.2007555,
            29.8856456
          ],
          [
            -90.2009149,
            29.8855449
          ],
          [
            -90.201149,
            29.8854499
          ],
          [
            -90.2013848,
            29.885398
          ],
          [
            -90.2019967,
            29.885344
          ],
          [
            -90.2025768,
            29.8849723
          ],
          [
            -90.2029644,
            29.8847334
          ],
          [
            -90.2032719,
            29.8845502
          ],
          [
            -90.2033705,
            29.8844551
          ],
          [
            -90.2035167,
            29.8843443
          ],
          [
            -90.2036794,
            29.8842593
          ],
          [
            -90.2038902,
            29.8841787
          ],
          [
            -90.2041659,
            29.8841341
          ],
          [
            -90.204385,
            29.8841327
          ],
          [
            -90.204664,
            29.8841845
          ],
          [
            -90.204908,
            29.8842622
          ],
          [
            -90.2051953,
            29.8843126
          ],
          [
            -90.2054991,
            29.8843356
          ],
          [
            -90.2058029,
            29.8843169
          ],
          [
            -90.2061533,
            29.8842406
          ],
          [
            -90.2080333,
            29.8835269
          ],
          [
            -90.2096267,
            29.882922
          ],
          [
            -90.2097894,
            29.882827
          ],
          [
            -90.2099405,
            29.882696
          ],
          [
            -90.21007,
            29.8825002
          ],
          [
            -90.2105897,
            29.8813255
          ],
          [
            -90.2105997,
            29.8812017
          ],
          [
            -90.2105847,
            29.8811326
          ],
          [
            -90.2104071,
            29.8808259
          ],
          [
            -90.2102908,
            29.8806877
          ],
          [
            -90.2100584,
            29.8805337
          ],
          [
            -90.2087434,
            29.8799751
          ],
          [
            -90.2085375,
            29.8799506
          ],
          [
            -90.2083781,
            29.8799837
          ],
          [
            -90.2082237,
            29.8800773
          ],
          [
            -90.2064507,
            29.8811226
          ]
        ]
      }
    }
  ]
}
