{
  "type": "FeatureCollection",
  "bbox": [
    92.7388063,
    56.1231777,
    92.7426576,
    56.1302961
  ],
  "metadata": {
    "schemaVersion": 1,
    "trackId": "ru-osm-156001847",
    "layoutId": "main",
    "license": "ODbL-1.0",
    "attribution": "© OpenStreetMap contributors",
    "closed": true,
    "geometryStatus": "draft",
    "timingStatus": "missing",
    "timingMode": "shared",
    "lengthM": 1928.7,
    "reviewedAt": null,
    "notes": [
      "Connected OSM course candidate. The selected loop is the longest simple source-node cycle after explicit exclusions; its association with a named circuit configuration requires review.",
      "Source way order and shared node IDs are retained. No nearby endpoints are joined and no Racelogic boundaries are read.",
      "Some source ways lack one-way direction tags. Travel direction is provisional."
    ]
  },
  "features": [
    {
      "type": "Feature",
      "id": "trace",
      "properties": {
        "role": "trace",
        "sourceIds": [
          "osm-snapshot"
        ]
      },
      "geometry": {
        "type": "LineString",
        "coordinates": [
          [
            92.7392111,
            56.1269754
          ],
          [
            92.7399852,
            56.1275226
          ],
          [
            92.7399669,
            56.1276382
          ],
          [
            92.7398602,
            56.1277198
          ],
          [
            92.7392595,
            56.1278914
          ],
          [
            92.739145,
            56.1279537
          ],
          [
            92.7390793,
            56.1280285
          ],
          [
            92.7390038,
            56.1285939
          ],
          [
            92.7388063,
            56.1301362
          ],
          [
            92.7388524,
            56.130206
          ],
          [
            92.7389972,
            56.1302579
          ],
          [
            92.7392137,
            56.1302961
          ],
          [
            92.7393357,
            56.1302961
          ],
          [
            92.7394577,
            56.1302485
          ],
          [
            92.7402809,
            56.1291167
          ],
          [
            92.7403053,
            56.1290487
          ],
          [
            92.7402749,
            56.1289638
          ],
          [
            92.7401468,
            56.1288788
          ],
          [
            92.7396223,
            56.1287395
          ],
          [
            92.7395125,
            56.1286409
          ],
          [
            92.739482,
            56.1284777
          ],
          [
            92.7395613,
            56.1283214
          ],
          [
            92.7397382,
            56.128148
          ],
          [
            92.7399882,
            56.1280189
          ],
          [
            92.7402992,
            56.1279271
          ],
          [
            92.7404883,
            56.1278795
          ],
          [
            92.7405859,
            56.1278149
          ],
          [
            92.7406408,
            56.1277266
          ],
          [
            92.7406347,
            56.1275362
          ],
          [
            92.7406774,
            56.1273527
          ],
          [
            92.7409835,
            56.1267439
          ],
          [
            92.7409469,
            56.1266589
          ],
          [
            92.7408524,
            56.126596
          ],
          [
            92.7404682,
            56.1264634
          ],
          [
            92.7403035,
            56.1263547
          ],
          [
            92.7402303,
            56.1262493
          ],
          [
            92.740212,
            56.1260216
          ],
          [
            92.7402486,
            56.1258788
          ],
          [
            92.7403401,
            56.1257632
          ],
          [
            92.7425235,
            56.1238508
          ],
          [
            92.7426211,
            56.1237318
          ],
          [
            92.7426576,
            56.1236128
          ],
          [
            92.742615,
            56.1234666
          ],
          [
            92.7424808,
            56.1233307
          ],
          [
            92.7422673,
            56.1232355
          ],
          [
            92.7420295,
            56.1231845
          ],
          [
            92.7404195,
            56.1231777
          ],
          [
            92.7401573,
            56.1232423
          ],
          [
            92.7399438,
            56.1233477
          ],
          [
            92.7397853,
            56.12347
          ],
          [
            92.7397365,
            56.123572
          ],
          [
            92.7392111,
            56.1269754
          ]
        ]
      }
    }
  ]
}
