{
  "type": "FeatureCollection",
  "bbox": [
    19.9512948,
    44.8365417,
    19.9647015,
    44.838481
  ],
  "metadata": {
    "schemaVersion": 1,
    "trackId": "rs-navak-driving-academy-old-817978d9",
    "layoutId": "navak-driving-academy-old",
    "license": "ODbL-1.0",
    "attribution": "© OpenStreetMap contributors",
    "closed": true,
    "geometryStatus": "draft",
    "timingStatus": "missing",
    "timingMode": "shared",
    "lengthM": 2836.3,
    "reviewedAt": null,
    "notes": [
      "Draft configuration: Historical 2020 source preserves the original small northwest loop, central plateau, inner southeastern hairpin, outer southeast hairpin and uninterrupted southern straight. The enlarged current configuration is excluded. No source nodes are adjusted to match the supplied scalar distance. Branch identity was checked against catalogue layout facts and circuit identification references. Independent source distance 2836.3 m; no coordinates are changed to match a diagram or distance. Travel direction and historical alignment remain provisional."
    ]
  },
  "features": [
    {
      "type": "Feature",
      "id": "trace",
      "properties": {
        "role": "trace",
        "sourceIds": [
          "osm-selection-navak-2020-232052574"
        ]
      },
      "geometry": {
        "type": "LineString",
        "coordinates": [
          [
            19.9638858,
            44.8365417
          ],
          [
            19.964307,
            44.83663
          ],
          [
            19.9644803,
            44.8367402
          ],
          [
            19.9646238,
            44.8368843
          ],
          [
            19.9646865,
            44.8370326
          ],
          [
            19.9647015,
            44.8371852
          ],
          [
            19.9646536,
            44.8373505
          ],
          [
            19.964561,
            44.8374882
          ],
          [
            19.9644355,
            44.8376005
          ],
          [
            19.9642502,
            44.8376916
          ],
          [
            19.9640411,
            44.8377488
          ],
          [
            19.963796,
            44.8377637
          ],
          [
            19.963554,
            44.8377276
          ],
          [
            19.9633478,
            44.8376535
          ],
          [
            19.9626586,
            44.8372499
          ],
          [
            19.9624035,
            44.8371386
          ],
          [
            19.9620778,
            44.837039
          ],
          [
            19.9602762,
            44.8373367
          ],
          [
            19.9601494,
            44.8373847
          ],
          [
            19.9601114,
            44.8374716
          ],
          [
            19.9601452,
            44.8375405
          ],
          [
            19.9604199,
            44.8377563
          ],
          [
            19.9605509,
            44.8378192
          ],
          [
            19.9607495,
            44.8378642
          ],
          [
            19.960927,
            44.8378821
          ],
          [
            19.961113,
            44.8378701
          ],
          [
            19.9612862,
            44.8378312
          ],
          [
            19.9618821,
            44.8376334
          ],
          [
            19.9620638,
            44.8376004
          ],
          [
            19.9622709,
            44.8376214
          ],
          [
            19.9624272,
            44.8376724
          ],
          [
            19.9625118,
            44.8377233
          ],
          [
            19.9627231,
            44.837984
          ],
          [
            19.9627357,
            44.8380619
          ],
          [
            19.9626808,
            44.8381309
          ],
          [
            19.9625752,
            44.8381668
          ],
          [
            19.9625033,
            44.8381698
          ],
          [
            19.9606396,
            44.8383166
          ],
          [
            19.9604241,
            44.8383047
          ],
          [
            19.9602593,
            44.8382687
          ],
          [
            19.9601114,
            44.8382238
          ],
          [
            19.9600015,
            44.8381728
          ],
          [
            19.9599043,
            44.8381039
          ],
          [
            19.9593423,
            44.8376574
          ],
          [
            19.9592028,
            44.8375915
          ],
          [
            19.9591352,
            44.8375899
          ],
          [
            19.9590718,
            44.8375885
          ],
          [
            19.9589704,
            44.8376154
          ],
          [
            19.9584928,
            44.8378252
          ],
          [
            19.9583703,
            44.8378612
          ],
          [
            19.9582224,
            44.8378851
          ],
          [
            19.9564432,
            44.8380979
          ],
          [
            19.9562827,
            44.8381009
          ],
          [
            19.9561347,
            44.8380619
          ],
          [
            19.9560629,
            44.838002
          ],
          [
            19.9559108,
            44.8378402
          ],
          [
            19.9558432,
            44.8377653
          ],
          [
            19.955734,
            44.8376956
          ],
          [
            19.9525562,
            44.8381319
          ],
          [
            19.9520343,
            44.8384181
          ],
          [
            19.9518315,
            44.838481
          ],
          [
            19.9516159,
            44.838472
          ],
          [
            19.9514985,
            44.8384247
          ],
          [
            19.95143,
            44.8383971
          ],
          [
            19.9513243,
            44.8382773
          ],
          [
            19.9512948,
            44.8381334
          ],
          [
            19.9513581,
            44.8379836
          ],
          [
            19.9515077,
            44.8378305
          ],
          [
            19.9535359,
            44.8376193
          ],
          [
            19.9567628,
            44.8372833
          ],
          [
            19.9580339,
            44.837151
          ],
          [
            19.9601348,
            44.8369322
          ],
          [
            19.9609648,
            44.8368458
          ],
          [
            19.9638858,
            44.8365417
          ]
        ]
      }
    }
  ]
}
