{
  "type": "FeatureCollection",
  "bbox": [
    9.2708455,
    54.8655861,
    9.2787152,
    54.8714019
  ],
  "metadata": {
    "schemaVersion": 1,
    "trackId": "dk-padborg-park-95222745",
    "layoutId": "main",
    "license": "ODbL-1.0",
    "attribution": "© OpenStreetMap contributors",
    "closed": true,
    "geometryStatus": "draft",
    "timingStatus": "missing",
    "timingMode": "shared",
    "lengthM": 2080.9,
    "reviewedAt": null,
    "notes": [
      "Connected OSM course candidate. The selected loop is the longest simple source-node cycle after explicit exclusions; its association with a named circuit configuration requires review.",
      "Source way order and shared node IDs are retained. No nearby endpoints are joined and no reference boundaries are read."
    ]
  },
  "features": [
    {
      "type": "Feature",
      "id": "trace",
      "properties": {
        "role": "trace",
        "sourceIds": [
          "osm-snapshot"
        ]
      },
      "geometry": {
        "type": "LineString",
        "coordinates": [
          [
            9.2733458,
            54.8682731
          ],
          [
            9.2733186,
            54.868252
          ],
          [
            9.2732965,
            54.868228
          ],
          [
            9.2732936,
            54.8682006
          ],
          [
            9.2732957,
            54.8681748
          ],
          [
            9.2733247,
            54.8680714
          ],
          [
            9.2733202,
            54.8680403
          ],
          [
            9.2733004,
            54.8680076
          ],
          [
            9.2732742,
            54.8679765
          ],
          [
            9.2732353,
            54.8679512
          ],
          [
            9.2725364,
            54.8675838
          ],
          [
            9.2711289,
            54.8668439
          ],
          [
            9.2710355,
            54.8667919
          ],
          [
            9.2709542,
            54.8667295
          ],
          [
            9.2709009,
            54.8666614
          ],
          [
            9.2708595,
            54.8665739
          ],
          [
            9.2708455,
            54.8664882
          ],
          [
            9.270852,
            54.8664062
          ],
          [
            9.2708798,
            54.8663347
          ],
          [
            9.270922,
            54.8662598
          ],
          [
            9.2709854,
            54.8661919
          ],
          [
            9.2710601,
            54.8661384
          ],
          [
            9.2711409,
            54.8660884
          ],
          [
            9.2712475,
            54.8660307
          ],
          [
            9.2713541,
            54.8659765
          ],
          [
            9.2715658,
            54.865883
          ],
          [
            9.2718131,
            54.8657885
          ],
          [
            9.2719666,
            54.8657325
          ],
          [
            9.2721353,
            54.8656835
          ],
          [
            9.2723725,
            54.8656256
          ],
          [
            9.2724634,
            54.8656062
          ],
          [
            9.2725633,
            54.8655937
          ],
          [
            9.2727192,
            54.8655861
          ],
          [
            9.2729505,
            54.8655881
          ],
          [
            9.2731711,
            54.865597
          ],
          [
            9.2733796,
            54.8656163
          ],
          [
            9.2735639,
            54.8656496
          ],
          [
            9.2736759,
            54.8656851
          ],
          [
            9.2737667,
            54.8657312
          ],
          [
            9.2738191,
            54.865763
          ],
          [
            9.2738562,
            54.8658036
          ],
          [
            9.2738661,
            54.8658409
          ],
          [
            9.2738462,
            54.8658709
          ],
          [
            9.2738165,
            54.8658968
          ],
          [
            9.2737742,
            54.8659191
          ],
          [
            9.2737273,
            54.8659356
          ],
          [
            9.2736731,
            54.8659491
          ],
          [
            9.2718727,
            54.8662967
          ],
          [
            9.2717673,
            54.866325
          ],
          [
            9.2716746,
            54.8663636
          ],
          [
            9.2716127,
            54.8664078
          ],
          [
            9.2715611,
            54.8664593
          ],
          [
            9.2715344,
            54.866513
          ],
          [
            9.2715281,
            54.8665705
          ],
          [
            9.271538,
            54.8666268
          ],
          [
            9.2715505,
            54.8666766
          ],
          [
            9.2715836,
            54.86676
          ],
          [
            9.2716231,
            54.8668166
          ],
          [
            9.2716683,
            54.8668545
          ],
          [
            9.2717033,
            54.8668792
          ],
          [
            9.274666,
            54.8685406
          ],
          [
            9.2786873,
            54.8708038
          ],
          [
            9.2787073,
            54.870834
          ],
          [
            9.2787133,
            54.8708517
          ],
          [
            9.2787152,
            54.870871
          ],
          [
            9.2787098,
            54.8708934
          ],
          [
            9.2786997,
            54.8709111
          ],
          [
            9.278681,
            54.8709283
          ],
          [
            9.2785189,
            54.8710117
          ],
          [
            9.2784888,
            54.8710233
          ],
          [
            9.2784547,
            54.8710313
          ],
          [
            9.278418,
            54.8710358
          ],
          [
            9.2783738,
            54.8710392
          ],
          [
            9.2783385,
            54.8710392
          ],
          [
            9.2783024,
            54.8710372
          ],
          [
            9.2782601,
            54.8710327
          ],
          [
            9.2782196,
            54.8710251
          ],
          [
            9.2781404,
            54.8710015
          ],
          [
            9.2772571,
            54.8706761
          ],
          [
            9.2772011,
            54.8706602
          ],
          [
            9.2771487,
            54.8706546
          ],
          [
            9.2770781,
            54.8706517
          ],
          [
            9.2770179,
            54.8706551
          ],
          [
            9.2769568,
            54.8706652
          ],
          [
            9.2768933,
            54.8706912
          ],
          [
            9.2759181,
            54.8713626
          ],
          [
            9.2758698,
            54.8713849
          ],
          [
            9.2758197,
            54.8714004
          ],
          [
            9.2757754,
            54.8714019
          ],
          [
            9.2757278,
            54.8713967
          ],
          [
            9.2756868,
            54.8713843
          ],
          [
            9.2754049,
            54.8712291
          ],
          [
            9.2753615,
            54.8712047
          ],
          [
            9.2753271,
            54.8711782
          ],
          [
            9.2752954,
            54.8711533
          ],
          [
            9.2752692,
            54.8711242
          ],
          [
            9.2752489,
            54.8710821
          ],
          [
            9.2752411,
            54.871044
          ],
          [
            9.2752405,
            54.8710117
          ],
          [
            9.2752474,
            54.8709636
          ],
          [
            9.275263,
            54.8709288
          ],
          [
            9.2752858,
            54.8708971
          ],
          [
            9.2753414,
            54.8708378
          ],
          [
            9.2754216,
            54.870767
          ],
          [
            9.2755108,
            54.8706996
          ],
          [
            9.2756923,
            54.870564
          ],
          [
            9.276282,
            54.8701367
          ],
          [
            9.276303,
            54.8701177
          ],
          [
            9.2763197,
            54.8700967
          ],
          [
            9.2763338,
            54.8700746
          ],
          [
            9.2763403,
            54.8700506
          ],
          [
            9.2763415,
            54.8700214
          ],
          [
            9.2763352,
            54.8699922
          ],
          [
            9.2763262,
            54.8699618
          ],
          [
            9.2763141,
            54.8699308
          ],
          [
            9.2762736,
            54.8698719
          ],
          [
            9.2761866,
            54.8697853
          ],
          [
            9.2760834,
            54.8697019
          ],
          [
            9.2733458,
            54.8682731
          ]
        ]
      }
    }
  ]
}
