{
  "type": "FeatureCollection",
  "bbox": [
    113.5489663,
    23.0587788,
    113.5513259,
    23.0620698
  ],
  "metadata": {
    "schemaVersion": 1,
    "trackId": "cn-guangdong-international-circuit-1135943127",
    "layoutId": "main",
    "license": "ODbL-1.0",
    "attribution": "© OpenStreetMap contributors",
    "closed": true,
    "geometryStatus": "draft",
    "timingStatus": "missing",
    "timingMode": "shared",
    "lengthM": 1590.9,
    "reviewedAt": null,
    "notes": [
      "Connected OSM course candidate. The selected loop is the longest simple source-node cycle after explicit exclusions; its association with a named circuit configuration requires review.",
      "Source way order and shared node IDs are retained. No nearby endpoints are joined and no Racelogic boundaries are read.",
      "Some source ways lack one-way direction tags. Travel direction is provisional."
    ]
  },
  "features": [
    {
      "type": "Feature",
      "id": "trace",
      "properties": {
        "role": "trace",
        "sourceIds": [
          "osm-snapshot"
        ]
      },
      "geometry": {
        "type": "LineString",
        "coordinates": [
          [
            113.5494176,
            23.0601602
          ],
          [
            113.5494097,
            23.0602504
          ],
          [
            113.5494107,
            23.0603217
          ],
          [
            113.5494154,
            23.0603907
          ],
          [
            113.549421,
            23.0604397
          ],
          [
            113.5494312,
            23.0604819
          ],
          [
            113.5494446,
            23.0605179
          ],
          [
            113.549461,
            23.0605424
          ],
          [
            113.5494867,
            23.0605651
          ],
          [
            113.5495171,
            23.0605815
          ],
          [
            113.5495509,
            23.060591
          ],
          [
            113.5495861,
            23.060593
          ],
          [
            113.5496174,
            23.0605886
          ],
          [
            113.5496424,
            23.0605814
          ],
          [
            113.5496806,
            23.0605659
          ],
          [
            113.5497071,
            23.060559
          ],
          [
            113.5497336,
            23.060558
          ],
          [
            113.549762,
            23.0605617
          ],
          [
            113.5497919,
            23.0605723
          ],
          [
            113.5498292,
            23.0605968
          ],
          [
            113.5498649,
            23.0606244
          ],
          [
            113.5501504,
            23.0608886
          ],
          [
            113.550191,
            23.0609331
          ],
          [
            113.5502252,
            23.0609772
          ],
          [
            113.5502507,
            23.0610285
          ],
          [
            113.5502707,
            23.0610854
          ],
          [
            113.5502994,
            23.0611969
          ],
          [
            113.5503145,
            23.0612758
          ],
          [
            113.5503307,
            23.0613917
          ],
          [
            113.5503345,
            23.0614583
          ],
          [
            113.5503264,
            23.0615247
          ],
          [
            113.5503171,
            23.061574
          ],
          [
            113.5503035,
            23.0616153
          ],
          [
            113.5502847,
            23.0616579
          ],
          [
            113.5502557,
            23.0617062
          ],
          [
            113.5501783,
            23.0618187
          ],
          [
            113.5501131,
            23.0618894
          ],
          [
            113.5500376,
            23.0619596
          ],
          [
            113.5499965,
            23.0619917
          ],
          [
            113.5499554,
            23.0620189
          ],
          [
            113.5499157,
            23.0620374
          ],
          [
            113.5498712,
            23.0620515
          ],
          [
            113.5498237,
            23.0620633
          ],
          [
            113.5497674,
            23.0620697
          ],
          [
            113.5497203,
            23.0620698
          ],
          [
            113.54967,
            23.0620648
          ],
          [
            113.5496274,
            23.0620522
          ],
          [
            113.5495972,
            23.0620338
          ],
          [
            113.5495797,
            23.0620171
          ],
          [
            113.5495599,
            23.061984
          ],
          [
            113.5495451,
            23.0619376
          ],
          [
            113.5493457,
            23.0610586
          ],
          [
            113.5493245,
            23.0609829
          ],
          [
            113.5492958,
            23.0609085
          ],
          [
            113.5492556,
            23.0608213
          ],
          [
            113.5492193,
            23.060737
          ],
          [
            113.5491783,
            23.0606297
          ],
          [
            113.5491478,
            23.0605364
          ],
          [
            113.549121,
            23.0604502
          ],
          [
            113.5491011,
            23.0603677
          ],
          [
            113.5490837,
            23.0602818
          ],
          [
            113.5490334,
            23.0600278
          ],
          [
            113.5490187,
            23.0599783
          ],
          [
            113.548969,
            23.0597155
          ],
          [
            113.5489663,
            23.0596397
          ],
          [
            113.5489739,
            23.0595808
          ],
          [
            113.5489883,
            23.059523
          ],
          [
            113.5490093,
            23.0594669
          ],
          [
            113.5490403,
            23.0594069
          ],
          [
            113.549079,
            23.0593554
          ],
          [
            113.5491183,
            23.0593154
          ],
          [
            113.5491807,
            23.0592759
          ],
          [
            113.5496449,
            23.059077
          ],
          [
            113.550202,
            23.0588258
          ],
          [
            113.5502559,
            23.0588048
          ],
          [
            113.5503124,
            23.0587874
          ],
          [
            113.5503706,
            23.0587788
          ],
          [
            113.5504265,
            23.0587805
          ],
          [
            113.5504787,
            23.0587879
          ],
          [
            113.5505392,
            23.0588054
          ],
          [
            113.5505875,
            23.0588249
          ],
          [
            113.5506389,
            23.0588591
          ],
          [
            113.5506368,
            23.0589011
          ],
          [
            113.5506307,
            23.0589422
          ],
          [
            113.5506224,
            23.0589721
          ],
          [
            113.5506101,
            23.059002
          ],
          [
            113.5505979,
            23.0590271
          ],
          [
            113.5505816,
            23.0590504
          ],
          [
            113.5505542,
            23.0590819
          ],
          [
            113.550528,
            23.0591102
          ],
          [
            113.5505144,
            23.0591303
          ],
          [
            113.5505052,
            23.0591519
          ],
          [
            113.5505013,
            23.0591774
          ],
          [
            113.5505031,
            23.0592035
          ],
          [
            113.5505108,
            23.059227
          ],
          [
            113.5505247,
            23.0592476
          ],
          [
            113.550545,
            23.0592646
          ],
          [
            113.5505736,
            23.0592772
          ],
          [
            113.5506375,
            23.0592982
          ],
          [
            113.5508236,
            23.059355
          ],
          [
            113.5508784,
            23.0593742
          ],
          [
            113.5509359,
            23.0593989
          ],
          [
            113.5509879,
            23.0594262
          ],
          [
            113.5510377,
            23.0594568
          ],
          [
            113.55109,
            23.0594914
          ],
          [
            113.551305,
            23.0598129
          ],
          [
            113.5513193,
            23.0598488
          ],
          [
            113.5513254,
            23.0598793
          ],
          [
            113.5513259,
            23.0599107
          ],
          [
            113.5513184,
            23.0599472
          ],
          [
            113.5513024,
            23.0599864
          ],
          [
            113.5512781,
            23.0600181
          ],
          [
            113.551245,
            23.0600483
          ],
          [
            113.5512039,
            23.0600756
          ],
          [
            113.5511596,
            23.0600931
          ],
          [
            113.5511132,
            23.0601027
          ],
          [
            113.5510635,
            23.0601052
          ],
          [
            113.5510203,
            23.0601031
          ],
          [
            113.5509673,
            23.0600908
          ],
          [
            113.5509152,
            23.0600641
          ],
          [
            113.5508662,
            23.0600255
          ],
          [
            113.5504845,
            23.0596767
          ],
          [
            113.5504465,
            23.0596576
          ],
          [
            113.5504052,
            23.0596453
          ],
          [
            113.5503623,
            23.0596402
          ],
          [
            113.550319,
            23.0596427
          ],
          [
            113.550277,
            23.0596525
          ],
          [
            113.5502377,
            23.0596693
          ],
          [
            113.5502009,
            23.0596939
          ],
          [
            113.55017,
            23.0597246
          ],
          [
            113.5501462,
            23.0597603
          ],
          [
            113.5501304,
            23.0597996
          ],
          [
            113.5501233,
            23.0598409
          ],
          [
            113.5501251,
            23.0598828
          ],
          [
            113.5501358,
            23.0599235
          ],
          [
            113.5503285,
            23.0603494
          ],
          [
            113.5503408,
            23.0603828
          ],
          [
            113.5503469,
            23.0604119
          ],
          [
            113.5503449,
            23.0604439
          ],
          [
            113.5503366,
            23.0604751
          ],
          [
            113.5503222,
            23.0605043
          ],
          [
            113.5503021,
            23.0605306
          ],
          [
            113.5502757,
            23.060554
          ],
          [
            113.5502449,
            23.0605722
          ],
          [
            113.5502109,
            23.0605846
          ],
          [
            113.5501749,
            23.0605907
          ],
          [
            113.5501382,
            23.0605903
          ],
          [
            113.5501024,
            23.0605833
          ],
          [
            113.5500687,
            23.0605701
          ],
          [
            113.5500331,
            23.0605437
          ],
          [
            113.5497656,
            23.0602023
          ],
          [
            113.5497415,
            23.0601435
          ],
          [
            113.5497236,
            23.0600828
          ],
          [
            113.5497119,
            23.0600208
          ],
          [
            113.5497066,
            23.059958
          ],
          [
            113.5497082,
            23.0598894
          ],
          [
            113.5497175,
            23.0598214
          ],
          [
            113.5497343,
            23.0597545
          ],
          [
            113.5497585,
            23.0596896
          ],
          [
            113.5497787,
            23.0596522
          ],
          [
            113.5498079,
            23.0596107
          ],
          [
            113.5498437,
            23.0595677
          ],
          [
            113.5498976,
            23.0595177
          ],
          [
            113.5499533,
            23.0594748
          ],
          [
            113.5500977,
            23.0594024
          ],
          [
            113.5501252,
            23.0593841
          ],
          [
            113.5501461,
            23.0593614
          ],
          [
            113.5501606,
            23.0593307
          ],
          [
            113.5501683,
            23.0592998
          ],
          [
            113.5501672,
            23.0592742
          ],
          [
            113.5501623,
            23.0592468
          ],
          [
            113.5501502,
            23.0592215
          ],
          [
            113.5501316,
            23.0591996
          ],
          [
            113.5501067,
            23.0591822
          ],
          [
            113.5500777,
            23.0591713
          ],
          [
            113.5500467,
            23.0591676
          ],
          [
            113.5500157,
            23.0591714
          ],
          [
            113.5499868,
            23.0591824
          ],
          [
            113.5498869,
            23.0592317
          ],
          [
            113.5497874,
            23.0592905
          ],
          [
            113.5497111,
            23.0593381
          ],
          [
            113.5496342,
            23.0593904
          ],
          [
            113.5495764,
            23.0594355
          ],
          [
            113.5495123,
            23.0594898
          ],
          [
            113.549429,
            23.0595685
          ],
          [
            113.5493821,
            23.0596166
          ],
          [
            113.5493457,
            23.0596577
          ],
          [
            113.5493267,
            23.059682
          ],
          [
            113.5493143,
            23.059706
          ],
          [
            113.5493053,
            23.0597353
          ],
          [
            113.5493024,
            23.0597653
          ],
          [
            113.5493043,
            23.059797
          ],
          [
            113.5493132,
            23.0598318
          ],
          [
            113.5493269,
            23.0598658
          ],
          [
            113.5493472,
            23.0598997
          ],
          [
            113.5494205,
            23.0599959
          ],
          [
            113.5494346,
            23.0600278
          ],
          [
            113.5494375,
            23.0600569
          ],
          [
            113.5494336,
            23.0600859
          ],
          [
            113.549423,
            23.0601134
          ],
          [
            113.5494053,
            23.0601423
          ],
          [
            113.5493746,
            23.0601668
          ],
          [
            113.5494176,
            23.0601602
          ]
        ]
      }
    }
  ]
}
