{
  "type": "FeatureCollection",
  "bbox": [
    -84.181677,
    34.4319886,
    -84.1745992,
    34.4384283
  ],
  "metadata": {
    "schemaVersion": 1,
    "trackId": "us-atlanta-motorsports-park-297294975",
    "layoutId": "atlanta-motorsport-park",
    "license": "ODbL-1.0",
    "attribution": "© OpenStreetMap contributors",
    "closed": true,
    "geometryStatus": "draft",
    "timingStatus": "missing",
    "timingMode": "shared",
    "lengthM": 2952.3,
    "reviewedAt": null,
    "notes": [
      "Draft route hypothesis: the source cycle is the unique closest nominal-distance match within conservative timing and distance checks. Approximate OSM trace length 2952.3 m. Difference from the supplied layout distance 16.3 m. Course configuration still requires visual review."
    ]
  },
  "features": [
    {
      "type": "Feature",
      "id": "trace",
      "properties": {
        "role": "trace",
        "sourceIds": [
          "osm-network-297294975"
        ]
      },
      "geometry": {
        "type": "LineString",
        "coordinates": [
          [
            -84.1746667,
            34.4344741
          ],
          [
            -84.1747218,
            34.4345615
          ],
          [
            -84.1747683,
            34.4346165
          ],
          [
            -84.1748389,
            34.4346969
          ],
          [
            -84.1748924,
            34.4347595
          ],
          [
            -84.174923,
            34.434836
          ],
          [
            -84.1749468,
            34.4349347
          ],
          [
            -84.1749348,
            34.4350296
          ],
          [
            -84.1749116,
            34.4351127
          ],
          [
            -84.1748642,
            34.4351847
          ],
          [
            -84.1748079,
            34.4352496
          ],
          [
            -84.1747395,
            34.4353145
          ],
          [
            -84.1746824,
            34.4354575
          ],
          [
            -84.1746936,
            34.4356221
          ],
          [
            -84.1748101,
            34.4357672
          ],
          [
            -84.1749659,
            34.4358589
          ],
          [
            -84.1751476,
            34.4358934
          ],
          [
            -84.1753672,
            34.43588
          ],
          [
            -84.1755054,
            34.4358197
          ],
          [
            -84.1756436,
            34.4357258
          ],
          [
            -84.1757331,
            34.4355782
          ],
          [
            -84.1757819,
            34.4354307
          ],
          [
            -84.1757819,
            34.4352899
          ],
          [
            -84.1757575,
            34.4351558
          ],
          [
            -84.1756843,
            34.4350552
          ],
          [
            -84.1755948,
            34.434968
          ],
          [
            -84.1754973,
            34.4348674
          ],
          [
            -84.1753916,
            34.4347601
          ],
          [
            -84.1752696,
            34.4346058
          ],
          [
            -84.1751558,
            34.4343845
          ],
          [
            -84.1750907,
            34.434123
          ],
          [
            -84.1750617,
            34.4338849
          ],
          [
            -84.1752215,
            34.4330993
          ],
          [
            -84.175251,
            34.4329953
          ],
          [
            -84.1753234,
            34.4329179
          ],
          [
            -84.1753985,
            34.4328847
          ],
          [
            -84.1755065,
            34.4328806
          ],
          [
            -84.175661,
            34.4329878
          ],
          [
            -84.1758196,
            34.4332711
          ],
          [
            -84.1759802,
            34.4335763
          ],
          [
            -84.1762159,
            34.4339921
          ],
          [
            -84.176535,
            34.4343878
          ],
          [
            -84.1767058,
            34.4345705
          ],
          [
            -84.1769131,
            34.4347952
          ],
          [
            -84.1770046,
            34.4349511
          ],
          [
            -84.1770717,
            34.4351539
          ],
          [
            -84.1771408,
            34.4354273
          ],
          [
            -84.1772283,
            34.4356637
          ],
          [
            -84.1773664,
            34.4358899
          ],
          [
            -84.1774742,
            34.4360324
          ],
          [
            -84.1776022,
            34.4361498
          ],
          [
            -84.1777425,
            34.436175
          ],
          [
            -84.178025,
            34.4361464
          ],
          [
            -84.1784804,
            34.4361347
          ],
          [
            -84.1786166,
            34.4361179
          ],
          [
            -84.1788719,
            34.4360956
          ],
          [
            -84.1791992,
            34.4360655
          ],
          [
            -84.1793516,
            34.4360638
          ],
          [
            -84.1794433,
            34.436107
          ],
          [
            -84.1795831,
            34.4363393
          ],
          [
            -84.1797465,
            34.4365673
          ],
          [
            -84.1798148,
            34.4366914
          ],
          [
            -84.1799649,
            34.4369388
          ],
          [
            -84.180109,
            34.4371852
          ],
          [
            -84.1801077,
            34.4373496
          ],
          [
            -84.1799859,
            34.437474
          ],
          [
            -84.1796278,
            34.4375833
          ],
          [
            -84.1794326,
            34.4377376
          ],
          [
            -84.1793513,
            34.4379455
          ],
          [
            -84.1794164,
            34.4381466
          ],
          [
            -84.179579,
            34.4382942
          ],
          [
            -84.1798392,
            34.4383746
          ],
          [
            -84.1801075,
            34.4384283
          ],
          [
            -84.1804328,
            34.4384283
          ],
          [
            -84.1806686,
            34.4383948
          ],
          [
            -84.1809206,
            34.438321
          ],
          [
            -84.181136,
            34.4382181
          ],
          [
            -84.1813254,
            34.4380762
          ],
          [
            -84.1814786,
            34.4379173
          ],
          [
            -84.1816007,
            34.4376916
          ],
          [
            -84.1816539,
            34.4374709
          ],
          [
            -84.181677,
            34.4372509
          ],
          [
            -84.1816708,
            34.437036
          ],
          [
            -84.1816395,
            34.4368232
          ],
          [
            -84.1816024,
            34.4366865
          ],
          [
            -84.1815454,
            34.4365421
          ],
          [
            -84.1814472,
            34.4363424
          ],
          [
            -84.1813107,
            34.4361389
          ],
          [
            -84.1811583,
            34.4359526
          ],
          [
            -84.1810328,
            34.4358272
          ],
          [
            -84.1808706,
            34.4357018
          ],
          [
            -84.1806614,
            34.4355574
          ],
          [
            -84.1804434,
            34.4354441
          ],
          [
            -84.1802051,
            34.4353358
          ],
          [
            -84.1799477,
            34.4352622
          ],
          [
            -84.1797776,
            34.4352277
          ],
          [
            -84.1795752,
            34.435191
          ],
          [
            -84.1793636,
            34.4351727
          ],
          [
            -84.1792513,
            34.4351709
          ],
          [
            -84.179,
            34.4351668
          ],
          [
            -84.1787845,
            34.4351467
          ],
          [
            -84.178523,
            34.4351035
          ],
          [
            -84.178336,
            34.4350517
          ],
          [
            -84.1781184,
            34.434967
          ],
          [
            -84.1778732,
            34.4348443
          ],
          [
            -84.1776574,
            34.4347046
          ],
          [
            -84.1773695,
            34.4344524
          ],
          [
            -84.177151,
            34.4342225
          ],
          [
            -84.1769165,
            34.4339601
          ],
          [
            -84.1767228,
            34.4336861
          ],
          [
            -84.1751731,
            34.4320489
          ],
          [
            -84.1750512,
            34.4319886
          ],
          [
            -84.1749129,
            34.4320288
          ],
          [
            -84.1748451,
            34.4321227
          ],
          [
            -84.1747798,
            34.4327534
          ],
          [
            -84.1746894,
            34.433336
          ],
          [
            -84.1746263,
            34.4338681
          ],
          [
            -84.1745992,
            34.434197
          ],
          [
            -84.174614,
            34.4343344
          ],
          [
            -84.1746667,
            34.4344741
          ]
        ]
      }
    }
  ]
}
