{
  "type": "FeatureCollection",
  "bbox": [
    -82.1498772,
    28.6718235,
    -82.1486323,
    28.6735584
  ],
  "metadata": {
    "schemaVersion": 1,
    "trackId": "us-bushnell-motorsports-park-16aaa9aa",
    "layoutId": "bushnell-motorsports-park",
    "license": "ODbL-1.0",
    "attribution": "© OpenStreetMap contributors",
    "closed": true,
    "geometryStatus": "draft",
    "timingStatus": "missing",
    "timingMode": "shared",
    "lengthM": 1088,
    "reviewedAt": null,
    "notes": [
      "Draft route hypothesis: the source cycle is the unique closest nominal-distance match within conservative timing and distance checks. Approximate OSM trace length 1088 m. Difference from the supplied layout distance 7.0 m. Course configuration still requires visual review."
    ]
  },
  "features": [
    {
      "type": "Feature",
      "id": "trace",
      "properties": {
        "role": "trace",
        "sourceIds": [
          "osm-network-1410074352"
        ]
      },
      "geometry": {
        "type": "LineString",
        "coordinates": [
          [
            -82.1497047,
            28.671828
          ],
          [
            -82.1497183,
            28.6718243
          ],
          [
            -82.1497313,
            28.6718235
          ],
          [
            -82.1497439,
            28.6718244
          ],
          [
            -82.1497579,
            28.6718271
          ],
          [
            -82.1497721,
            28.671832
          ],
          [
            -82.149783,
            28.6718405
          ],
          [
            -82.1497915,
            28.6718506
          ],
          [
            -82.1497973,
            28.6718613
          ],
          [
            -82.1498043,
            28.6718767
          ],
          [
            -82.1498058,
            28.671892
          ],
          [
            -82.1498043,
            28.67191
          ],
          [
            -82.1497993,
            28.671928
          ],
          [
            -82.1497675,
            28.6719934
          ],
          [
            -82.1496875,
            28.6721523
          ],
          [
            -82.1496777,
            28.6721729
          ],
          [
            -82.1496699,
            28.6721935
          ],
          [
            -82.1496627,
            28.6722159
          ],
          [
            -82.1496569,
            28.6722383
          ],
          [
            -82.149651,
            28.6722836
          ],
          [
            -82.1496498,
            28.6723295
          ],
          [
            -82.1496505,
            28.6723764
          ],
          [
            -82.1496522,
            28.6723874
          ],
          [
            -82.1496556,
            28.6723984
          ],
          [
            -82.149661,
            28.6724089
          ],
          [
            -82.1496674,
            28.6724187
          ],
          [
            -82.149675,
            28.6724268
          ],
          [
            -82.1496847,
            28.6724332
          ],
          [
            -82.1496947,
            28.6724375
          ],
          [
            -82.1497067,
            28.6724406
          ],
          [
            -82.1497507,
            28.6724514
          ],
          [
            -82.149794,
            28.6724631
          ],
          [
            -82.1498156,
            28.67247
          ],
          [
            -82.1498337,
            28.6724816
          ],
          [
            -82.1498449,
            28.6724911
          ],
          [
            -82.1498541,
            28.6725024
          ],
          [
            -82.1498614,
            28.6725132
          ],
          [
            -82.1498667,
            28.6725252
          ],
          [
            -82.149874,
            28.6725477
          ],
          [
            -82.1498772,
            28.6725702
          ],
          [
            -82.1498757,
            28.673085
          ],
          [
            -82.1498745,
            28.6734644
          ],
          [
            -82.1498737,
            28.6734813
          ],
          [
            -82.1498701,
            28.6734982
          ],
          [
            -82.149863,
            28.6735155
          ],
          [
            -82.1498507,
            28.673532
          ],
          [
            -82.1498347,
            28.6735452
          ],
          [
            -82.1498144,
            28.6735522
          ],
          [
            -82.1497905,
            28.6735568
          ],
          [
            -82.1497666,
            28.6735584
          ],
          [
            -82.1488721,
            28.6735537
          ],
          [
            -82.1488511,
            28.6735534
          ],
          [
            -82.1488295,
            28.6735516
          ],
          [
            -82.1488057,
            28.6735477
          ],
          [
            -82.1487829,
            28.6735418
          ],
          [
            -82.1487611,
            28.6735336
          ],
          [
            -82.1487404,
            28.6735233
          ],
          [
            -82.1487197,
            28.6735107
          ],
          [
            -82.1487008,
            28.6734971
          ],
          [
            -82.1486855,
            28.6734824
          ],
          [
            -82.1486726,
            28.6734661
          ],
          [
            -82.14866,
            28.6734493
          ],
          [
            -82.1486502,
            28.6734315
          ],
          [
            -82.148644,
            28.6734135
          ],
          [
            -82.1486395,
            28.6733956
          ],
          [
            -82.1486371,
            28.6733776
          ],
          [
            -82.1486358,
            28.6733596
          ],
          [
            -82.1486323,
            28.6727285
          ],
          [
            -82.1486328,
            28.6727204
          ],
          [
            -82.1486341,
            28.6727122
          ],
          [
            -82.1486352,
            28.6727044
          ],
          [
            -82.1486375,
            28.6726969
          ],
          [
            -82.14864,
            28.6726904
          ],
          [
            -82.1486426,
            28.6726838
          ],
          [
            -82.1486459,
            28.6726779
          ],
          [
            -82.1486497,
            28.6726721
          ],
          [
            -82.1486536,
            28.6726668
          ],
          [
            -82.1486579,
            28.6726618
          ],
          [
            -82.1486623,
            28.6726569
          ],
          [
            -82.1486672,
            28.672653
          ],
          [
            -82.1486727,
            28.67265
          ],
          [
            -82.1486791,
            28.6726476
          ],
          [
            -82.1486856,
            28.672646
          ],
          [
            -82.1486925,
            28.6726447
          ],
          [
            -82.1487002,
            28.6726437
          ],
          [
            -82.1487079,
            28.6726433
          ],
          [
            -82.1487158,
            28.672644
          ],
          [
            -82.1487238,
            28.6726457
          ],
          [
            -82.148731,
            28.6726483
          ],
          [
            -82.1487383,
            28.6726519
          ],
          [
            -82.1487438,
            28.6726552
          ],
          [
            -82.1487497,
            28.6726595
          ],
          [
            -82.1487597,
            28.6726691
          ],
          [
            -82.1487675,
            28.6726787
          ],
          [
            -82.1487743,
            28.6726895
          ],
          [
            -82.1487792,
            28.6727013
          ],
          [
            -82.148942,
            28.6732339
          ],
          [
            -82.1489501,
            28.6732522
          ],
          [
            -82.1489551,
            28.6732608
          ],
          [
            -82.1489609,
            28.6732695
          ],
          [
            -82.1489681,
            28.6732785
          ],
          [
            -82.1489757,
            28.6732866
          ],
          [
            -82.1489838,
            28.6732939
          ],
          [
            -82.1489931,
            28.6733006
          ],
          [
            -82.1490032,
            28.6733052
          ],
          [
            -82.1490133,
            28.6733083
          ],
          [
            -82.1490234,
            28.6733103
          ],
          [
            -82.1490334,
            28.6733113
          ],
          [
            -82.1490457,
            28.6733121
          ],
          [
            -82.1490575,
            28.6733117
          ],
          [
            -82.1490698,
            28.6733102
          ],
          [
            -82.1490809,
            28.6733076
          ],
          [
            -82.1490904,
            28.6733045
          ],
          [
            -82.1490991,
            28.6733001
          ],
          [
            -82.1491069,
            28.6732951
          ],
          [
            -82.1491143,
            28.6732888
          ],
          [
            -82.1491215,
            28.673282
          ],
          [
            -82.1491272,
            28.6732745
          ],
          [
            -82.1491323,
            28.673267
          ],
          [
            -82.1491354,
            28.6732592
          ],
          [
            -82.1491387,
            28.673251
          ],
          [
            -82.1491412,
            28.6732427
          ],
          [
            -82.1491423,
            28.673234
          ],
          [
            -82.1491419,
            28.6732252
          ],
          [
            -82.14914,
            28.6732072
          ],
          [
            -82.1491331,
            28.6731912
          ],
          [
            -82.1490313,
            28.673008
          ],
          [
            -82.1490229,
            28.6729931
          ],
          [
            -82.1490156,
            28.6729781
          ],
          [
            -82.149013,
            28.6729705
          ],
          [
            -82.149011,
            28.6729629
          ],
          [
            -82.1490103,
            28.6729552
          ],
          [
            -82.1490106,
            28.6729476
          ],
          [
            -82.1490114,
            28.6729378
          ],
          [
            -82.149013,
            28.6729279
          ],
          [
            -82.1490161,
            28.6729179
          ],
          [
            -82.1490205,
            28.6729084
          ],
          [
            -82.1490245,
            28.6729007
          ],
          [
            -82.1490301,
            28.6728934
          ],
          [
            -82.1490437,
            28.6728791
          ],
          [
            -82.1490541,
            28.6728681
          ],
          [
            -82.1490629,
            28.6728563
          ],
          [
            -82.1490695,
            28.6728428
          ],
          [
            -82.1490729,
            28.6728294
          ],
          [
            -82.1490741,
            28.672815
          ],
          [
            -82.1490738,
            28.6728017
          ],
          [
            -82.1490687,
            28.6727875
          ],
          [
            -82.1490605,
            28.6727735
          ],
          [
            -82.1486553,
            28.6722837
          ],
          [
            -82.1486461,
            28.6722685
          ],
          [
            -82.148642,
            28.6722608
          ],
          [
            -82.1486393,
            28.6722532
          ],
          [
            -82.1486366,
            28.6722446
          ],
          [
            -82.1486353,
            28.672236
          ],
          [
            -82.1486355,
            28.6722273
          ],
          [
            -82.1486371,
            28.6722187
          ],
          [
            -82.1486404,
            28.6722086
          ],
          [
            -82.1486453,
            28.6721995
          ],
          [
            -82.1486513,
            28.672191
          ],
          [
            -82.1486581,
            28.6721828
          ],
          [
            -82.1486665,
            28.6721749
          ],
          [
            -82.1486759,
            28.6721678
          ],
          [
            -82.148696,
            28.6721564
          ],
          [
            -82.1489013,
            28.672064
          ],
          [
            -82.1489323,
            28.6720537
          ],
          [
            -82.1489477,
            28.6720488
          ],
          [
            -82.1489642,
            28.6720455
          ],
          [
            -82.1489811,
            28.6720425
          ],
          [
            -82.148998,
            28.672042
          ],
          [
            -82.149016,
            28.6720439
          ],
          [
            -82.1490318,
            28.6720479
          ],
          [
            -82.1490436,
            28.6720536
          ],
          [
            -82.1490526,
            28.6720606
          ],
          [
            -82.1490612,
            28.6720695
          ],
          [
            -82.1490674,
            28.6720794
          ],
          [
            -82.1490703,
            28.6720929
          ],
          [
            -82.1490717,
            28.6721063
          ],
          [
            -82.1490729,
            28.6721339
          ],
          [
            -82.1490747,
            28.6725344
          ],
          [
            -82.1490754,
            28.6725419
          ],
          [
            -82.1490772,
            28.6725493
          ],
          [
            -82.1490789,
            28.6725567
          ],
          [
            -82.1490822,
            28.6725641
          ],
          [
            -82.1490864,
            28.6725718
          ],
          [
            -82.1490917,
            28.6725787
          ],
          [
            -82.1490975,
            28.6725857
          ],
          [
            -82.1491048,
            28.6725923
          ],
          [
            -82.1491119,
            28.672598
          ],
          [
            -82.149119,
            28.6726028
          ],
          [
            -82.1491264,
            28.6726076
          ],
          [
            -82.1491349,
            28.6726115
          ],
          [
            -82.1491439,
            28.6726142
          ],
          [
            -82.149153,
            28.672616
          ],
          [
            -82.1491618,
            28.6726174
          ],
          [
            -82.1491711,
            28.6726183
          ],
          [
            -82.1492908,
            28.672619
          ],
          [
            -82.1493759,
            28.6726195
          ],
          [
            -82.1494304,
            28.6726198
          ],
          [
            -82.1494861,
            28.6726218
          ],
          [
            -82.1495074,
            28.6726227
          ],
          [
            -82.1495175,
            28.6726233
          ],
          [
            -82.1495277,
            28.6726247
          ],
          [
            -82.1495377,
            28.6726265
          ],
          [
            -82.1495472,
            28.6726298
          ],
          [
            -82.1495556,
            28.672634
          ],
          [
            -82.1495631,
            28.6726389
          ],
          [
            -82.1495696,
            28.6726464
          ],
          [
            -82.1495744,
            28.6726543
          ],
          [
            -82.149578,
            28.6726618
          ],
          [
            -82.1495803,
            28.6726697
          ],
          [
            -82.149582,
            28.6726786
          ],
          [
            -82.1495828,
            28.6726875
          ],
          [
            -82.1495834,
            28.6727052
          ],
          [
            -82.1495834,
            28.6730616
          ],
          [
            -82.1495802,
            28.6731109
          ],
          [
            -82.1495744,
            28.6731603
          ],
          [
            -82.14957,
            28.6731846
          ],
          [
            -82.149563,
            28.6732089
          ],
          [
            -82.1495533,
            28.6732329
          ],
          [
            -82.1495433,
            28.673256
          ],
          [
            -82.1495312,
            28.6732797
          ],
          [
            -82.1495229,
            28.6732909
          ],
          [
            -82.149512,
            28.6733016
          ],
          [
            -82.1495005,
            28.6733099
          ],
          [
            -82.149487,
            28.6733159
          ],
          [
            -82.1494733,
            28.6733191
          ],
          [
            -82.1494596,
            28.6733193
          ],
          [
            -82.1494469,
            28.6733189
          ],
          [
            -82.1494342,
            28.6733178
          ],
          [
            -82.1494208,
            28.6733148
          ],
          [
            -82.1494095,
            28.6733094
          ],
          [
            -82.1493981,
            28.6732999
          ],
          [
            -82.1493884,
            28.6732881
          ],
          [
            -82.14938,
            28.6732763
          ],
          [
            -82.1493734,
            28.6732639
          ],
          [
            -82.1493623,
            28.6732418
          ],
          [
            -82.1493528,
            28.673219
          ],
          [
            -82.1493451,
            28.6731966
          ],
          [
            -82.149339,
            28.6731742
          ],
          [
            -82.1493313,
            28.6731271
          ],
          [
            -82.1493269,
            28.6730794
          ],
          [
            -82.1493291,
            28.6726656
          ],
          [
            -82.1493273,
            28.672557
          ],
          [
            -82.149326,
            28.6720772
          ],
          [
            -82.1493282,
            28.672051
          ],
          [
            -82.1493348,
            28.6720247
          ],
          [
            -82.1493441,
            28.6720012
          ],
          [
            -82.1493578,
            28.6719785
          ],
          [
            -82.1493757,
            28.6719564
          ],
          [
            -82.1493945,
            28.6719366
          ],
          [
            -82.1494138,
            28.6719207
          ],
          [
            -82.1494366,
            28.671908
          ],
          [
            -82.1497047,
            28.671828
          ]
        ]
      }
    }
  ]
}
