{
  "type": "FeatureCollection",
  "bbox": [
    18.1971291,
    47.0023939,
    18.2108386,
    47.0103508
  ],
  "metadata": {
    "schemaVersion": 1,
    "trackId": "hu-balaton-park-dba456ce",
    "layoutId": "balaton-park",
    "license": "ODbL-1.0",
    "attribution": "© OpenStreetMap contributors",
    "closed": true,
    "geometryStatus": "draft",
    "timingStatus": "missing",
    "timingMode": "shared",
    "lengthM": 4115.1,
    "reviewedAt": null,
    "notes": [
      "Draft route hypothesis: the source cycle is the unique closest nominal-distance match within conservative timing and distance checks. Approximate OSM trace length 4115.1 m. Difference from the supplied layout distance 3.9 m. Course configuration still requires visual review."
    ]
  },
  "features": [
    {
      "type": "Feature",
      "id": "trace",
      "properties": {
        "role": "trace",
        "sourceIds": [
          "osm-network-338856660"
        ]
      },
      "geometry": {
        "type": "LineString",
        "coordinates": [
          [
            18.1988182,
            47.0046239
          ],
          [
            18.1989156,
            47.0046839
          ],
          [
            18.1989811,
            47.0047596
          ],
          [
            18.1991885,
            47.0050333
          ],
          [
            18.2023934,
            47.0092637
          ],
          [
            18.2024398,
            47.0093413
          ],
          [
            18.2024635,
            47.0094077
          ],
          [
            18.2024647,
            47.0094833
          ],
          [
            18.2023416,
            47.0100017
          ],
          [
            18.2023456,
            47.0100671
          ],
          [
            18.2023743,
            47.0101163
          ],
          [
            18.20241,
            47.010155
          ],
          [
            18.2024414,
            47.0101835
          ],
          [
            18.2024964,
            47.0102142
          ],
          [
            18.2025729,
            47.0102367
          ],
          [
            18.2036254,
            47.0103508
          ],
          [
            18.2037182,
            47.0103482
          ],
          [
            18.2038222,
            47.0103273
          ],
          [
            18.2039117,
            47.0102914
          ],
          [
            18.2039945,
            47.0102506
          ],
          [
            18.2045997,
            47.0098618
          ],
          [
            18.2046365,
            47.0098305
          ],
          [
            18.2046696,
            47.0098023
          ],
          [
            18.2046995,
            47.0097479
          ],
          [
            18.2047045,
            47.0096851
          ],
          [
            18.2046795,
            47.009622
          ],
          [
            18.2045802,
            47.0094938
          ],
          [
            18.2045613,
            47.0094397
          ],
          [
            18.2045626,
            47.0093879
          ],
          [
            18.204587,
            47.0093255
          ],
          [
            18.2046474,
            47.0092788
          ],
          [
            18.2068255,
            47.0084903
          ],
          [
            18.2071948,
            47.0083317
          ],
          [
            18.2076052,
            47.0081244
          ],
          [
            18.2080069,
            47.0078891
          ],
          [
            18.2083847,
            47.0076246
          ],
          [
            18.2087095,
            47.0073594
          ],
          [
            18.2089663,
            47.0071177
          ],
          [
            18.2091279,
            47.0069445
          ],
          [
            18.2091389,
            47.0069316
          ],
          [
            18.2092423,
            47.0068096
          ],
          [
            18.209262,
            47.0067863
          ],
          [
            18.2094526,
            47.0065289
          ],
          [
            18.2096924,
            47.0061317
          ],
          [
            18.2098468,
            47.0057771
          ],
          [
            18.2098623,
            47.0057414
          ],
          [
            18.2098729,
            47.0057171
          ],
          [
            18.2098965,
            47.0056631
          ],
          [
            18.2099039,
            47.0056461
          ],
          [
            18.210829,
            47.0027779
          ],
          [
            18.2108386,
            47.0026804
          ],
          [
            18.2108149,
            47.002597
          ],
          [
            18.2107461,
            47.0025141
          ],
          [
            18.2106499,
            47.0024508
          ],
          [
            18.2105017,
            47.0024034
          ],
          [
            18.2103542,
            47.0023939
          ],
          [
            18.2102283,
            47.0024137
          ],
          [
            18.2101173,
            47.0024665
          ],
          [
            18.2100288,
            47.0025328
          ],
          [
            18.209974,
            47.0026359
          ],
          [
            18.2097783,
            47.0036756
          ],
          [
            18.2097426,
            47.0037414
          ],
          [
            18.2096709,
            47.0037934
          ],
          [
            18.209578,
            47.0038277
          ],
          [
            18.2094845,
            47.0038308
          ],
          [
            18.2093553,
            47.0038008
          ],
          [
            18.2092418,
            47.0037844
          ],
          [
            18.2091512,
            47.0037991
          ],
          [
            18.2090788,
            47.0038319
          ],
          [
            18.209024,
            47.0038699
          ],
          [
            18.2089927,
            47.0039177
          ],
          [
            18.2076764,
            47.0072274
          ],
          [
            18.2075403,
            47.0074249
          ],
          [
            18.2073035,
            47.0076349
          ],
          [
            18.2070463,
            47.007803
          ],
          [
            18.2067537,
            47.0079372
          ],
          [
            18.2064004,
            47.0080295
          ],
          [
            18.2060643,
            47.0080731
          ],
          [
            18.2057344,
            47.008081
          ],
          [
            18.2043652,
            47.0079523
          ],
          [
            18.2041989,
            47.007953
          ],
          [
            18.2040375,
            47.0079757
          ],
          [
            18.2039423,
            47.0080134
          ],
          [
            18.203845,
            47.0080737
          ],
          [
            18.2033703,
            47.0084311
          ],
          [
            18.2032673,
            47.0084677
          ],
          [
            18.2031535,
            47.0084804
          ],
          [
            18.2030317,
            47.0084649
          ],
          [
            18.2029369,
            47.0084295
          ],
          [
            18.2028707,
            47.0083763
          ],
          [
            18.1998331,
            47.0043667
          ],
          [
            18.199411,
            47.0038095
          ],
          [
            18.1992979,
            47.0037037
          ],
          [
            18.1991519,
            47.0036139
          ],
          [
            18.1989801,
            47.0035536
          ],
          [
            18.1987719,
            47.0035233
          ],
          [
            18.1985687,
            47.0035287
          ],
          [
            18.1983829,
            47.0035637
          ],
          [
            18.1982005,
            47.0036333
          ],
          [
            18.1980829,
            47.0037136
          ],
          [
            18.197307,
            47.0043997
          ],
          [
            18.1972173,
            47.0045136
          ],
          [
            18.1971566,
            47.0046521
          ],
          [
            18.1971291,
            47.0048091
          ],
          [
            18.1971525,
            47.0049695
          ],
          [
            18.1972071,
            47.0051014
          ],
          [
            18.1972968,
            47.0052285
          ],
          [
            18.1975793,
            47.0056227
          ],
          [
            18.1976541,
            47.0056861
          ],
          [
            18.1977678,
            47.0057379
          ],
          [
            18.1978952,
            47.0057611
          ],
          [
            18.1980475,
            47.005758
          ],
          [
            18.1981719,
            47.0057236
          ],
          [
            18.1982839,
            47.0056583
          ],
          [
            18.1983646,
            47.0055779
          ],
          [
            18.1983895,
            47.0054913
          ],
          [
            18.198401,
            47.0048334
          ],
          [
            18.1984184,
            47.0047121
          ],
          [
            18.1984775,
            47.0046413
          ],
          [
            18.1985787,
            47.0046036
          ],
          [
            18.1987071,
            47.0045997
          ],
          [
            18.1988182,
            47.0046239
          ]
        ]
      }
    }
  ]
}
