{
  "type": "FeatureCollection",
  "bbox": [
    1.6853327,
    41.585448,
    1.6949898,
    41.5925329
  ],
  "metadata": {
    "schemaVersion": 1,
    "trackId": "es-parcmotor-castelloli-31877576",
    "layoutId": "main",
    "license": "ODbL-1.0",
    "attribution": "© OpenStreetMap contributors",
    "closed": true,
    "geometryStatus": "draft",
    "timingStatus": "missing",
    "timingMode": "shared",
    "lengthM": 4125.6,
    "reviewedAt": null,
    "notes": [
      "Connected OSM course candidate. The selected loop is the longest simple source-node cycle after explicit exclusions; its association with a named circuit configuration requires review.",
      "Source way order and shared node IDs are retained. No nearby endpoints are joined and no reference boundaries are read."
    ]
  },
  "features": [
    {
      "type": "Feature",
      "id": "trace",
      "properties": {
        "role": "trace",
        "sourceIds": [
          "osm-snapshot"
        ]
      },
      "geometry": {
        "type": "LineString",
        "coordinates": [
          [
            1.6938702,
            41.5905131
          ],
          [
            1.6928019,
            41.5901627
          ],
          [
            1.6911097,
            41.5896273
          ],
          [
            1.6909462,
            41.5895842
          ],
          [
            1.690701,
            41.5895972
          ],
          [
            1.6904644,
            41.5896445
          ],
          [
            1.6903225,
            41.5897563
          ],
          [
            1.6901977,
            41.5898596
          ],
          [
            1.6900988,
            41.5899671
          ],
          [
            1.689905,
            41.5903662
          ],
          [
            1.689835,
            41.5906011
          ],
          [
            1.6898999,
            41.5907576
          ],
          [
            1.6900882,
            41.5909096
          ],
          [
            1.6903712,
            41.5909702
          ],
          [
            1.6916863,
            41.591163
          ],
          [
            1.6918703,
            41.5912246
          ],
          [
            1.6919835,
            41.5913463
          ],
          [
            1.6920003,
            41.5915289
          ],
          [
            1.6919657,
            41.5916715
          ],
          [
            1.6919185,
            41.5917861
          ],
          [
            1.6917978,
            41.5919177
          ],
          [
            1.6916659,
            41.5919947
          ],
          [
            1.6914553,
            41.5920248
          ],
          [
            1.6912367,
            41.5920328
          ],
          [
            1.6906284,
            41.5919594
          ],
          [
            1.6901866,
            41.5919187
          ],
          [
            1.6898846,
            41.5918629
          ],
          [
            1.6895963,
            41.5917792
          ],
          [
            1.68929,
            41.5916836
          ],
          [
            1.6891046,
            41.5916019
          ],
          [
            1.6889198,
            41.591491
          ],
          [
            1.6887954,
            41.5913686
          ],
          [
            1.6886025,
            41.5912027
          ],
          [
            1.6884327,
            41.5910264
          ],
          [
            1.6882158,
            41.5908127
          ],
          [
            1.688002,
            41.5906695
          ],
          [
            1.6877861,
            41.5905834
          ],
          [
            1.687483,
            41.5905154
          ],
          [
            1.6871611,
            41.5905237
          ],
          [
            1.6868725,
            41.5905873
          ],
          [
            1.6865592,
            41.5907166
          ],
          [
            1.6863452,
            41.5908631
          ],
          [
            1.6860523,
            41.5910446
          ],
          [
            1.6856719,
            41.5912842
          ],
          [
            1.6854906,
            41.5914069
          ],
          [
            1.6853754,
            41.5915144
          ],
          [
            1.6853327,
            41.591634
          ],
          [
            1.685337,
            41.5917399
          ],
          [
            1.6854319,
            41.5918444
          ],
          [
            1.6855609,
            41.591905
          ],
          [
            1.6857041,
            41.5919293
          ],
          [
            1.6858707,
            41.5919558
          ],
          [
            1.686074,
            41.591983
          ],
          [
            1.6882351,
            41.5921808
          ],
          [
            1.6918201,
            41.5925245
          ],
          [
            1.6920167,
            41.5925329
          ],
          [
            1.6921704,
            41.5925263
          ],
          [
            1.6923134,
            41.5924888
          ],
          [
            1.6924244,
            41.5924129
          ],
          [
            1.6924861,
            41.5923154
          ],
          [
            1.6925027,
            41.5921507
          ],
          [
            1.6925309,
            41.5919323
          ],
          [
            1.6925853,
            41.5916344
          ],
          [
            1.6927326,
            41.5912801
          ],
          [
            1.6934055,
            41.5901777
          ],
          [
            1.6934475,
            41.5899928
          ],
          [
            1.6933467,
            41.5897912
          ],
          [
            1.6932375,
            41.5896484
          ],
          [
            1.6931198,
            41.5894887
          ],
          [
            1.6911635,
            41.5876499
          ],
          [
            1.6910546,
            41.5875504
          ],
          [
            1.6909116,
            41.5874379
          ],
          [
            1.690722,
            41.5873566
          ],
          [
            1.6905471,
            41.5872874
          ],
          [
            1.6903376,
            41.5872491
          ],
          [
            1.690111,
            41.5872415
          ],
          [
            1.6898492,
            41.5872854
          ],
          [
            1.6895531,
            41.5873667
          ],
          [
            1.6893976,
            41.5874205
          ],
          [
            1.6875203,
            41.587996
          ],
          [
            1.6874047,
            41.587998
          ],
          [
            1.6873231,
            41.5879673
          ],
          [
            1.6872853,
            41.5878851
          ],
          [
            1.687289,
            41.5878068
          ],
          [
            1.6873287,
            41.587719
          ],
          [
            1.6874103,
            41.5875922
          ],
          [
            1.6882769,
            41.5860679
          ],
          [
            1.6883831,
            41.5859337
          ],
          [
            1.6884909,
            41.5858045
          ],
          [
            1.6886065,
            41.5856699
          ],
          [
            1.6888423,
            41.5855419
          ],
          [
            1.6891658,
            41.5854544
          ],
          [
            1.6895434,
            41.585448
          ],
          [
            1.6898194,
            41.5854965
          ],
          [
            1.69003,
            41.5855984
          ],
          [
            1.6902192,
            41.5857342
          ],
          [
            1.690449,
            41.5859445
          ],
          [
            1.6949038,
            41.5901521
          ],
          [
            1.6949898,
            41.5902596
          ],
          [
            1.694969,
            41.5903832
          ],
          [
            1.6949138,
            41.5905158
          ],
          [
            1.6948341,
            41.5905676
          ],
          [
            1.6947298,
            41.5906163
          ],
          [
            1.6945581,
            41.5906346
          ],
          [
            1.6943746,
            41.5906218
          ],
          [
            1.694123,
            41.5905756
          ],
          [
            1.6938702,
            41.5905131
          ]
        ]
      }
    }
  ]
}
