{
  "type": "FeatureCollection",
  "bbox": [
    -115.3216016,
    33.7471754,
    -115.3108264,
    33.7558016
  ],
  "metadata": {
    "schemaVersion": 1,
    "trackId": "us-chuckwalla-valley-raceway-f9c21c83",
    "layoutId": "chuckwalla-valley-raceway",
    "license": "ODbL-1.0",
    "attribution": "© OpenStreetMap contributors",
    "closed": true,
    "geometryStatus": "draft",
    "timingStatus": "missing",
    "timingMode": "shared",
    "lengthM": 4311.3,
    "reviewedAt": null,
    "notes": [
      "Draft configuration: Full main course with direct northern shoulder and southern inner return; excludes the extra northern detour. Branch identity was checked against catalogue layout facts and circuit identification references. Independent source distance 4311.3 m; no coordinates are changed to match a diagram or distance. Travel direction and historical alignment remain provisional."
    ]
  },
  "features": [
    {
      "type": "Feature",
      "id": "trace",
      "properties": {
        "role": "trace",
        "sourceIds": [
          "osm-selection-218017846"
        ]
      },
      "geometry": {
        "type": "LineString",
        "coordinates": [
          [
            -115.3214916,
            33.7513643
          ],
          [
            -115.3214004,
            33.7512706
          ],
          [
            -115.3212942,
            33.7512012
          ],
          [
            -115.3211781,
            33.7511539
          ],
          [
            -115.3210436,
            33.7511268
          ],
          [
            -115.3209132,
            33.7511191
          ],
          [
            -115.3207697,
            33.751133
          ],
          [
            -115.3185857,
            33.7518891
          ],
          [
            -115.3184647,
            33.7519134
          ],
          [
            -115.3183362,
            33.7519213
          ],
          [
            -115.3181971,
            33.7519065
          ],
          [
            -115.3180682,
            33.7518744
          ],
          [
            -115.3179469,
            33.7518193
          ],
          [
            -115.3178375,
            33.7517462
          ],
          [
            -115.3177469,
            33.7516584
          ],
          [
            -115.3171486,
            33.7506916
          ],
          [
            -115.317089,
            33.7505674
          ],
          [
            -115.31707,
            33.7504588
          ],
          [
            -115.3170658,
            33.7503438
          ],
          [
            -115.3170839,
            33.7502393
          ],
          [
            -115.3171271,
            33.7501354
          ],
          [
            -115.3171871,
            33.7500386
          ],
          [
            -115.3190481,
            33.7484142
          ],
          [
            -115.3191449,
            33.748293
          ],
          [
            -115.319216,
            33.7481524
          ],
          [
            -115.3192543,
            33.7480019
          ],
          [
            -115.3192578,
            33.7478653
          ],
          [
            -115.3192369,
            33.7477329
          ],
          [
            -115.319179,
            33.7476067
          ],
          [
            -115.3190912,
            33.7474813
          ],
          [
            -115.3189693,
            33.7473726
          ],
          [
            -115.3188271,
            33.7472834
          ],
          [
            -115.3186627,
            33.7472186
          ],
          [
            -115.3184947,
            33.7471879
          ],
          [
            -115.3183254,
            33.7471754
          ],
          [
            -115.3181658,
            33.7471893
          ],
          [
            -115.3180048,
            33.7472297
          ],
          [
            -115.3178571,
            33.7472952
          ],
          [
            -115.3166712,
            33.7481486
          ],
          [
            -115.3165335,
            33.7482347
          ],
          [
            -115.3164088,
            33.7482828
          ],
          [
            -115.3162833,
            33.7483086
          ],
          [
            -115.3161635,
            33.7483114
          ],
          [
            -115.3160241,
            33.7482932
          ],
          [
            -115.3158896,
            33.7482507
          ],
          [
            -115.3156169,
            33.7481467
          ],
          [
            -115.3154807,
            33.7481078
          ],
          [
            -115.3153302,
            33.748089
          ],
          [
            -115.3151957,
            33.7480855
          ],
          [
            -115.3150766,
            33.7480994
          ],
          [
            -115.3149658,
            33.7481266
          ],
          [
            -115.3148466,
            33.7481642
          ],
          [
            -115.3147386,
            33.7482193
          ],
          [
            -115.3111393,
            33.7503173
          ],
          [
            -115.3110424,
            33.7503817
          ],
          [
            -115.3109685,
            33.7504535
          ],
          [
            -115.3109051,
            33.7505322
          ],
          [
            -115.3108542,
            33.7506263
          ],
          [
            -115.3108333,
            33.7507134
          ],
          [
            -115.3108264,
            33.7507991
          ],
          [
            -115.3108333,
            33.7508855
          ],
          [
            -115.3108647,
            33.7509754
          ],
          [
            -115.3109107,
            33.7510597
          ],
          [
            -115.3109999,
            33.7511629
          ],
          [
            -115.3111107,
            33.7512423
          ],
          [
            -115.3113553,
            33.7513462
          ],
          [
            -115.3114354,
            33.7513998
          ],
          [
            -115.3115149,
            33.751489
          ],
          [
            -115.3115602,
            33.7515866
          ],
          [
            -115.3115783,
            33.7516807
          ],
          [
            -115.3115658,
            33.7517782
          ],
          [
            -115.3115212,
            33.7518779
          ],
          [
            -115.3112605,
            33.7522152
          ],
          [
            -115.3112124,
            33.7523065
          ],
          [
            -115.3111943,
            33.7523963
          ],
          [
            -115.3111971,
            33.752503
          ],
          [
            -115.3122209,
            33.7551866
          ],
          [
            -115.3122589,
            33.7552562
          ],
          [
            -115.3123222,
            33.7553333
          ],
          [
            -115.3123946,
            33.7554092
          ],
          [
            -115.3124813,
            33.7554694
          ],
          [
            -115.3125814,
            33.7555221
          ],
          [
            -115.3126918,
            33.7555556
          ],
          [
            -115.3128061,
            33.7555802
          ],
          [
            -115.3129401,
            33.7555802
          ],
          [
            -115.3130825,
            33.755561
          ],
          [
            -115.3132141,
            33.7555172
          ],
          [
            -115.3133368,
            33.7554585
          ],
          [
            -115.3137037,
            33.7551783
          ],
          [
            -115.3137859,
            33.7550981
          ],
          [
            -115.3138465,
            33.7550048
          ],
          [
            -115.313896,
            33.7548898
          ],
          [
            -115.3139148,
            33.7547762
          ],
          [
            -115.3139113,
            33.7546765
          ],
          [
            -115.3138786,
            33.7545574
          ],
          [
            -115.3132007,
            33.7531267
          ],
          [
            -115.3131687,
            33.7530319
          ],
          [
            -115.3131513,
            33.7529225
          ],
          [
            -115.313152,
            33.7528013
          ],
          [
            -115.3131743,
            33.7526947
          ],
          [
            -115.3132112,
            33.7525978
          ],
          [
            -115.3132704,
            33.7524898
          ],
          [
            -115.3133345,
            33.752402
          ],
          [
            -115.3138035,
            33.7520271
          ],
          [
            -115.3139136,
            33.7519622
          ],
          [
            -115.3140398,
            33.751903
          ],
          [
            -115.3141715,
            33.7518633
          ],
          [
            -115.3142983,
            33.7518361
          ],
          [
            -115.3144244,
            33.7518257
          ],
          [
            -115.3145534,
            33.7518319
          ],
          [
            -115.3146649,
            33.7518577
          ],
          [
            -115.314791,
            33.7518891
          ],
          [
            -115.3148941,
            33.7519406
          ],
          [
            -115.3149882,
            33.752002
          ],
          [
            -115.3150893,
            33.7520814
          ],
          [
            -115.315168,
            33.7521643
          ],
          [
            -115.3152391,
            33.7522703
          ],
          [
            -115.3152907,
            33.7523769
          ],
          [
            -115.315322,
            33.7525065
          ],
          [
            -115.315762,
            33.7551579
          ],
          [
            -115.3157961,
            33.7552947
          ],
          [
            -115.3158445,
            33.7553989
          ],
          [
            -115.3159093,
            33.755493
          ],
          [
            -115.3159817,
            33.7555703
          ],
          [
            -115.3160654,
            33.7556379
          ],
          [
            -115.3161803,
            33.7557048
          ],
          [
            -115.316303,
            33.7557564
          ],
          [
            -115.3164319,
            33.7557857
          ],
          [
            -115.3165772,
            33.755799
          ],
          [
            -115.3174683,
            33.7558016
          ],
          [
            -115.3176265,
            33.7557963
          ],
          [
            -115.317744,
            33.7557743
          ],
          [
            -115.3178518,
            33.7557389
          ],
          [
            -115.3179587,
            33.7556921
          ],
          [
            -115.3180568,
            33.7556294
          ],
          [
            -115.3181495,
            33.7555472
          ],
          [
            -115.3182238,
            33.7554526
          ],
          [
            -115.3182626,
            33.7553599
          ],
          [
            -115.3182821,
            33.7552494
          ],
          [
            -115.3183042,
            33.7551284
          ],
          [
            -115.3183458,
            33.755031
          ],
          [
            -115.3184287,
            33.754922
          ],
          [
            -115.3196227,
            33.7536714
          ],
          [
            -115.3208057,
            33.7524166
          ],
          [
            -115.3209043,
            33.7523358
          ],
          [
            -115.3210224,
            33.7522758
          ],
          [
            -115.3211645,
            33.7522375
          ],
          [
            -115.3212804,
            33.7522014
          ],
          [
            -115.3213767,
            33.7521427
          ],
          [
            -115.3214572,
            33.752064
          ],
          [
            -115.3215197,
            33.7519734
          ],
          [
            -115.3215691,
            33.7518772
          ],
          [
            -115.3215972,
            33.7517735
          ],
          [
            -115.3216016,
            33.751681
          ],
          [
            -115.3215941,
            33.7515786
          ],
          [
            -115.321561,
            33.7514667
          ],
          [
            -115.3214916,
            33.7513643
          ]
        ]
      }
    }
  ]
}
