{
  "type": "FeatureCollection",
  "bbox": [
    5.5963425,
    43.5793753,
    5.606229,
    43.5824702
  ],
  "metadata": {
    "schemaVersion": 1,
    "trackId": "fr-grand-sambuc-0f3e4f66",
    "layoutId": "grand-sambuc",
    "license": "ODbL-1.0",
    "attribution": "© OpenStreetMap contributors",
    "closed": true,
    "geometryStatus": "draft",
    "timingStatus": "missing",
    "timingMode": "shared",
    "lengthM": 1848.6,
    "reviewedAt": null,
    "notes": [
      "Draft route hypothesis: the source cycle is the unique closest nominal-distance match within conservative timing and distance checks. Approximate OSM trace length 1848.6 m. Difference from the supplied layout distance 0.4 m. Course configuration still requires visual review."
    ]
  },
  "features": [
    {
      "type": "Feature",
      "id": "trace",
      "properties": {
        "role": "trace",
        "sourceIds": [
          "osm-network-51352838"
        ]
      },
      "geometry": {
        "type": "LineString",
        "coordinates": [
          [
            5.6018151,
            43.5817665
          ],
          [
            5.601191,
            43.5814829
          ],
          [
            5.5994431,
            43.5806643
          ],
          [
            5.5983776,
            43.5801626
          ],
          [
            5.5975508,
            43.5797772
          ],
          [
            5.597464,
            43.5797429
          ],
          [
            5.5974231,
            43.579734
          ],
          [
            5.5973642,
            43.5797299
          ],
          [
            5.5965234,
            43.5797437
          ],
          [
            5.5964364,
            43.5797438
          ],
          [
            5.5964043,
            43.5797384
          ],
          [
            5.5963746,
            43.5797263
          ],
          [
            5.5963579,
            43.5797094
          ],
          [
            5.5963458,
            43.5796924
          ],
          [
            5.5963425,
            43.5796693
          ],
          [
            5.5963439,
            43.5796478
          ],
          [
            5.5963516,
            43.5796247
          ],
          [
            5.5963687,
            43.5796016
          ],
          [
            5.5963902,
            43.5795863
          ],
          [
            5.5964234,
            43.5795705
          ],
          [
            5.5969829,
            43.5793858
          ],
          [
            5.597009,
            43.579378
          ],
          [
            5.5970444,
            43.5793753
          ],
          [
            5.5970733,
            43.5793767
          ],
          [
            5.5971093,
            43.5793848
          ],
          [
            5.5984859,
            43.579883
          ],
          [
            5.5985897,
            43.5799163
          ],
          [
            5.5986435,
            43.5799289
          ],
          [
            5.5986962,
            43.5799364
          ],
          [
            5.5987488,
            43.5799411
          ],
          [
            5.5987944,
            43.5799442
          ],
          [
            5.5988441,
            43.579946
          ],
          [
            5.5989218,
            43.5799428
          ],
          [
            5.5993083,
            43.5799152
          ],
          [
            5.5995752,
            43.5798954
          ],
          [
            5.5996259,
            43.5798963
          ],
          [
            5.5996837,
            43.5799022
          ],
          [
            5.5997444,
            43.5799114
          ],
          [
            5.5998144,
            43.579929
          ],
          [
            5.5998545,
            43.5799472
          ],
          [
            5.5998988,
            43.579976
          ],
          [
            5.5999335,
            43.5800053
          ],
          [
            5.5999683,
            43.5800379
          ],
          [
            5.5999948,
            43.5800704
          ],
          [
            5.6000645,
            43.5802154
          ],
          [
            5.600096,
            43.5802619
          ],
          [
            5.6001286,
            43.580292
          ],
          [
            5.6001577,
            43.5803129
          ],
          [
            5.6001912,
            43.58033
          ],
          [
            5.6002189,
            43.580342
          ],
          [
            5.6002688,
            43.5803598
          ],
          [
            5.6018276,
            43.5808509
          ],
          [
            5.6018725,
            43.5808724
          ],
          [
            5.6019065,
            43.580894
          ],
          [
            5.6019375,
            43.5809245
          ],
          [
            5.6019754,
            43.5809811
          ],
          [
            5.6019941,
            43.5810294
          ],
          [
            5.6020004,
            43.58108
          ],
          [
            5.6019942,
            43.5811244
          ],
          [
            5.6019818,
            43.581166
          ],
          [
            5.601967,
            43.5811954
          ],
          [
            5.6018811,
            43.5813142
          ],
          [
            5.6018741,
            43.5813396
          ],
          [
            5.6018787,
            43.5813763
          ],
          [
            5.6018881,
            43.5814023
          ],
          [
            5.6019047,
            43.58143
          ],
          [
            5.6019194,
            43.5814455
          ],
          [
            5.6019546,
            43.5814652
          ],
          [
            5.6019932,
            43.5814752
          ],
          [
            5.602039,
            43.5814834
          ],
          [
            5.6058584,
            43.581872
          ],
          [
            5.6059753,
            43.5818912
          ],
          [
            5.6060515,
            43.5819108
          ],
          [
            5.6060933,
            43.5819297
          ],
          [
            5.606129,
            43.5819501
          ],
          [
            5.6061574,
            43.5819761
          ],
          [
            5.6061817,
            43.5820035
          ],
          [
            5.6062014,
            43.5820406
          ],
          [
            5.606219,
            43.5820836
          ],
          [
            5.606227,
            43.5821128
          ],
          [
            5.606229,
            43.5821434
          ],
          [
            5.6062287,
            43.5821696
          ],
          [
            5.6062224,
            43.5822032
          ],
          [
            5.6062148,
            43.5822321
          ],
          [
            5.6062011,
            43.5822625
          ],
          [
            5.6061822,
            43.5822942
          ],
          [
            5.6061602,
            43.5823259
          ],
          [
            5.6061285,
            43.5823595
          ],
          [
            5.6060989,
            43.5823842
          ],
          [
            5.6060715,
            43.582404
          ],
          [
            5.6060262,
            43.5824304
          ],
          [
            5.6060023,
            43.5824406
          ],
          [
            5.6059652,
            43.5824516
          ],
          [
            5.6059241,
            43.5824609
          ],
          [
            5.6058769,
            43.5824683
          ],
          [
            5.605825,
            43.5824702
          ],
          [
            5.6057797,
            43.582469
          ],
          [
            5.6057085,
            43.5824611
          ],
          [
            5.6030013,
            43.5820955
          ],
          [
            5.602789,
            43.5820607
          ],
          [
            5.6026557,
            43.5820329
          ],
          [
            5.6025336,
            43.5820038
          ],
          [
            5.6024062,
            43.5819708
          ],
          [
            5.6022446,
            43.5819235
          ],
          [
            5.6020777,
            43.5818684
          ],
          [
            5.6019285,
            43.5818128
          ],
          [
            5.6018151,
            43.5817665
          ]
        ]
      }
    }
  ]
}
