{
  "type": "FeatureCollection",
  "bbox": [
    -71.2219123,
    -29.9846443,
    -71.217551,
    -29.9800311
  ],
  "metadata": {
    "schemaVersion": 1,
    "trackId": "cl-huachalalume-505109409",
    "layoutId": "huachalalume-chica",
    "license": "ODbL-1.0",
    "attribution": "© OpenStreetMap contributors",
    "closed": true,
    "geometryStatus": "draft",
    "timingStatus": "missing",
    "timingMode": "shared",
    "lengthM": 1419.3,
    "reviewedAt": null,
    "notes": [
      "Draft route hypothesis: the source cycle is the unique closest nominal-distance match within conservative timing and distance checks. Approximate OSM trace length 1419.3 m. Difference from the supplied layout distance 2.3 m. Course configuration still requires visual review."
    ]
  },
  "features": [
    {
      "type": "Feature",
      "id": "trace",
      "properties": {
        "role": "trace",
        "sourceIds": [
          "osm-network-505109409"
        ]
      },
      "geometry": {
        "type": "LineString",
        "coordinates": [
          [
            -71.2188044,
            -29.9810796
          ],
          [
            -71.2189291,
            -29.9807092
          ],
          [
            -71.2191526,
            -29.9802715
          ],
          [
            -71.2191853,
            -29.9802191
          ],
          [
            -71.2192266,
            -29.9801713
          ],
          [
            -71.2192754,
            -29.9801293
          ],
          [
            -71.2193307,
            -29.9800939
          ],
          [
            -71.2193915,
            -29.9800659
          ],
          [
            -71.2194563,
            -29.9800458
          ],
          [
            -71.2195238,
            -29.9800341
          ],
          [
            -71.2195925,
            -29.9800311
          ],
          [
            -71.219661,
            -29.9800368
          ],
          [
            -71.2197278,
            -29.9800511
          ],
          [
            -71.2197861,
            -29.9800714
          ],
          [
            -71.2198407,
            -29.9800982
          ],
          [
            -71.2198908,
            -29.9801311
          ],
          [
            -71.2199353,
            -29.9801694
          ],
          [
            -71.2219123,
            -29.9842068
          ],
          [
            -71.221912,
            -29.9842625
          ],
          [
            -71.2219029,
            -29.9843177
          ],
          [
            -71.2218854,
            -29.9843712
          ],
          [
            -71.2218597,
            -29.9844223
          ],
          [
            -71.2218262,
            -29.9844699
          ],
          [
            -71.2217857,
            -29.9845131
          ],
          [
            -71.2217388,
            -29.9845512
          ],
          [
            -71.2216859,
            -29.9845838
          ],
          [
            -71.2216283,
            -29.9846098
          ],
          [
            -71.2215672,
            -29.9846287
          ],
          [
            -71.2215037,
            -29.9846403
          ],
          [
            -71.2214389,
            -29.9846443
          ],
          [
            -71.2213741,
            -29.9846406
          ],
          [
            -71.2213105,
            -29.9846293
          ],
          [
            -71.2212493,
            -29.9846106
          ],
          [
            -71.2211916,
            -29.9845849
          ],
          [
            -71.2208078,
            -29.9843407
          ],
          [
            -71.2200466,
            -29.9835202
          ],
          [
            -71.2193728,
            -29.9828093
          ],
          [
            -71.2193201,
            -29.9827585
          ],
          [
            -71.2192623,
            -29.982712
          ],
          [
            -71.2191999,
            -29.9826704
          ],
          [
            -71.2191333,
            -29.9826338
          ],
          [
            -71.2190634,
            -29.9826028
          ],
          [
            -71.2189906,
            -29.9825774
          ],
          [
            -71.2189154,
            -29.9825578
          ],
          [
            -71.2188385,
            -29.9825442
          ],
          [
            -71.2177171,
            -29.982205
          ],
          [
            -71.2176685,
            -29.9821597
          ],
          [
            -71.2176274,
            -29.9821091
          ],
          [
            -71.2175946,
            -29.9820542
          ],
          [
            -71.2175706,
            -29.9819959
          ],
          [
            -71.217556,
            -29.9819354
          ],
          [
            -71.217551,
            -29.9818737
          ],
          [
            -71.2175561,
            -29.9818089
          ],
          [
            -71.2175718,
            -29.9817455
          ],
          [
            -71.2175978,
            -29.9816846
          ],
          [
            -71.2176335,
            -29.9816275
          ],
          [
            -71.2176781,
            -29.9815754
          ],
          [
            -71.2177309,
            -29.9815293
          ],
          [
            -71.2181586,
            -29.9814422
          ],
          [
            -71.21851,
            -29.9813563
          ],
          [
            -71.2185605,
            -29.9813357
          ],
          [
            -71.2186081,
            -29.9813104
          ],
          [
            -71.2186522,
            -29.9812807
          ],
          [
            -71.2186924,
            -29.9812471
          ],
          [
            -71.2187282,
            -29.9812095
          ],
          [
            -71.2187591,
            -29.9811687
          ],
          [
            -71.2187846,
            -29.9811253
          ],
          [
            -71.2188044,
            -29.9810796
          ]
        ]
      }
    }
  ]
}
