{
  "type": "FeatureCollection",
  "bbox": [
    14.4982825,
    45.3802555,
    14.518387,
    45.3853873
  ],
  "metadata": {
    "schemaVersion": 1,
    "trackId": "hr-automotodrom-grobnik-92343850",
    "layoutId": "main",
    "license": "ODbL-1.0",
    "attribution": "© OpenStreetMap contributors",
    "closed": true,
    "geometryStatus": "draft",
    "timingStatus": "missing",
    "timingMode": "shared",
    "lengthM": 4159,
    "reviewedAt": null,
    "notes": [
      "Closed named OSM raceway retained as a course candidate. Named-layout association requires review.",
      "Source way order and shared node IDs are retained. No nearby endpoints are joined and no reference boundaries are read.",
      "Some source ways lack one-way direction tags. Travel direction is provisional.",
      "Draft association of the supplied venue-level entry to the existing independently mapped full course at Automotodrom Grobnik. This venue has one supplied entry and one retained independent course, with a timing point on that course. Source trace distance 4159 m; supplied distance 4154 m. The association preserves the independent source geometry and remains provisional where corner configurations or historical distances differ."
    ]
  },
  "features": [
    {
      "type": "Feature",
      "id": "trace",
      "properties": {
        "role": "trace",
        "sourceIds": [
          "osm-snapshot"
        ]
      },
      "geometry": {
        "type": "LineString",
        "coordinates": [
          [
            14.5039611,
            45.3827257
          ],
          [
            14.5038803,
            45.3826981
          ],
          [
            14.5038079,
            45.3826613
          ],
          [
            14.5037489,
            45.3826246
          ],
          [
            14.5036925,
            45.3825888
          ],
          [
            14.5036483,
            45.3825417
          ],
          [
            14.503592,
            45.3824833
          ],
          [
            14.503549,
            45.3824136
          ],
          [
            14.503364,
            45.3821169
          ],
          [
            14.5030448,
            45.3815668
          ],
          [
            14.5029616,
            45.3814368
          ],
          [
            14.5029026,
            45.381352
          ],
          [
            14.5028476,
            45.3812908
          ],
          [
            14.502798,
            45.3812409
          ],
          [
            14.5027323,
            45.3811881
          ],
          [
            14.5026532,
            45.3811316
          ],
          [
            14.502558,
            45.3810826
          ],
          [
            14.5024493,
            45.3810449
          ],
          [
            14.50233,
            45.3810148
          ],
          [
            14.5022227,
            45.3809959
          ],
          [
            14.5021127,
            45.3809884
          ],
          [
            14.5020215,
            45.3809865
          ],
          [
            14.5019357,
            45.3809912
          ],
          [
            14.5018271,
            45.3810044
          ],
          [
            14.5017278,
            45.3810242
          ],
          [
            14.5016299,
            45.3810468
          ],
          [
            14.5014717,
            45.3811033
          ],
          [
            14.5006992,
            45.3814368
          ],
          [
            14.5005691,
            45.3814905
          ],
          [
            14.5004551,
            45.3815423
          ],
          [
            14.500329,
            45.3816205
          ],
          [
            14.5002177,
            45.3816911
          ],
          [
            14.5001346,
            45.3817505
          ],
          [
            14.5000514,
            45.3818202
          ],
          [
            14.4999602,
            45.3819031
          ],
          [
            14.4998811,
            45.3819812
          ],
          [
            14.4998328,
            45.3820397
          ],
          [
            14.4997872,
            45.3821046
          ],
          [
            14.4997443,
            45.3821838
          ],
          [
            14.4997068,
            45.3822591
          ],
          [
            14.4996893,
            45.3823109
          ],
          [
            14.4996652,
            45.3823844
          ],
          [
            14.4996491,
            45.3824485
          ],
          [
            14.4996397,
            45.3825408
          ],
          [
            14.4996344,
            45.3826303
          ],
          [
            14.4996478,
            45.3827245
          ],
          [
            14.4996665,
            45.3828083
          ],
          [
            14.499688,
            45.3828799
          ],
          [
            14.4997255,
            45.3829807
          ],
          [
            14.4998999,
            45.3834026
          ],
          [
            14.499924,
            45.3834742
          ],
          [
            14.4999428,
            45.3835618
          ],
          [
            14.4999468,
            45.3836494
          ],
          [
            14.4999468,
            45.3837012
          ],
          [
            14.4999374,
            45.3837596
          ],
          [
            14.499916,
            45.3838425
          ],
          [
            14.4998959,
            45.3839047
          ],
          [
            14.4998382,
            45.3839932
          ],
          [
            14.4997805,
            45.3840648
          ],
          [
            14.4997068,
            45.3841317
          ],
          [
            14.499629,
            45.3841788
          ],
          [
            14.4995244,
            45.3842245
          ],
          [
            14.4994419,
            45.3842518
          ],
          [
            14.4993514,
            45.3842749
          ],
          [
            14.4992334,
            45.3842937
          ],
          [
            14.4991288,
            45.3842994
          ],
          [
            14.4990107,
            45.3842956
          ],
          [
            14.4989115,
            45.3842815
          ],
          [
            14.4988109,
            45.3842617
          ],
          [
            14.498709,
            45.3842297
          ],
          [
            14.4986272,
            45.3841986
          ],
          [
            14.4985534,
            45.3841534
          ],
          [
            14.498481,
            45.3840969
          ],
          [
            14.4984193,
            45.3840337
          ],
          [
            14.4983643,
            45.3839622
          ],
          [
            14.4983281,
            45.3838972
          ],
          [
            14.4983067,
            45.3838303
          ],
          [
            14.4982919,
            45.3837436
          ],
          [
            14.4982852,
            45.3836711
          ],
          [
            14.4982825,
            45.3835892
          ],
          [
            14.4982892,
            45.3835081
          ],
          [
            14.4983657,
            45.3831182
          ],
          [
            14.4985132,
            45.3823627
          ],
          [
            14.4986393,
            45.3817053
          ],
          [
            14.4986607,
            45.381629
          ],
          [
            14.4986795,
            45.3815724
          ],
          [
            14.4987184,
            45.3815037
          ],
          [
            14.4987452,
            45.3814585
          ],
          [
            14.4987948,
            45.3814001
          ],
          [
            14.4988713,
            45.3813332
          ],
          [
            14.4989464,
            45.3812814
          ],
          [
            14.4990416,
            45.3812296
          ],
          [
            14.4991502,
            45.3811825
          ],
          [
            14.4994064,
            45.3810883
          ],
          [
            14.4998114,
            45.3809479
          ],
          [
            14.4998851,
            45.3809187
          ],
          [
            14.4999549,
            45.3808904
          ],
          [
            14.5000219,
            45.3808594
          ],
          [
            14.5000689,
            45.380833
          ],
          [
            14.5001252,
            45.3807991
          ],
          [
            14.5001748,
            45.3807661
          ],
          [
            14.5002352,
            45.3807152
          ],
          [
            14.5004471,
            45.380524
          ],
          [
            14.5005275,
            45.3804543
          ],
          [
            14.5006147,
            45.3803921
          ],
          [
            14.5006911,
            45.3803497
          ],
          [
            14.5007743,
            45.3803074
          ],
          [
            14.5008601,
            45.38028
          ],
          [
            14.5009513,
            45.3802631
          ],
          [
            14.5010573,
            45.3802555
          ],
          [
            14.5011981,
            45.380264
          ],
          [
            14.5013268,
            45.3802772
          ],
          [
            14.5015052,
            45.3803026
          ],
          [
            14.5022978,
            45.3804722
          ],
          [
            14.5033224,
            45.38067
          ],
          [
            14.5034337,
            45.3807011
          ],
          [
            14.5035383,
            45.380736
          ],
          [
            14.503663,
            45.3807915
          ],
          [
            14.5037958,
            45.3808603
          ],
          [
            14.5039004,
            45.38093
          ],
          [
            14.5040064,
            45.3810063
          ],
          [
            14.5041029,
            45.3810939
          ],
          [
            14.5046286,
            45.3816469
          ],
          [
            14.5047051,
            45.3817118
          ],
          [
            14.5047909,
            45.3817702
          ],
          [
            14.5048714,
            45.3818042
          ],
          [
            14.5049612,
            45.3818343
          ],
          [
            14.5050578,
            45.3818494
          ],
          [
            14.5051771,
            45.381855
          ],
          [
            14.5052817,
            45.3818503
          ],
          [
            14.5053568,
            45.381839
          ],
          [
            14.5054454,
            45.3818239
          ],
          [
            14.5055433,
            45.3817938
          ],
          [
            14.5060717,
            45.3816431
          ],
          [
            14.5063493,
            45.3815687
          ],
          [
            14.5064633,
            45.3815498
          ],
          [
            14.5065625,
            45.3815376
          ],
          [
            14.5066658,
            45.3815338
          ],
          [
            14.5067945,
            45.3815395
          ],
          [
            14.5069246,
            45.3815574
          ],
          [
            14.50706,
            45.3815884
          ],
          [
            14.5071861,
            45.3816233
          ],
          [
            14.5077574,
            45.38187
          ],
          [
            14.5084663,
            45.3821629
          ],
          [
            14.5085953,
            45.3822071
          ],
          [
            14.508723,
            45.3822375
          ],
          [
            14.5088341,
            45.3822517
          ],
          [
            14.5089644,
            45.3822544
          ],
          [
            14.5091066,
            45.382245
          ],
          [
            14.5092343,
            45.3822324
          ],
          [
            14.5093748,
            45.3822149
          ],
          [
            14.5098147,
            45.3821338
          ],
          [
            14.5099837,
            45.3821112
          ],
          [
            14.5101137,
            45.3820944
          ],
          [
            14.5102385,
            45.3820886
          ],
          [
            14.5103955,
            45.3820834
          ],
          [
            14.5105094,
            45.3820867
          ],
          [
            14.5106623,
            45.3820999
          ],
          [
            14.5108286,
            45.382132
          ],
          [
            14.5110863,
            45.3821852
          ],
          [
            14.5113409,
            45.3822318
          ],
          [
            14.5119953,
            45.3823599
          ],
          [
            14.5134476,
            45.3826423
          ],
          [
            14.5136073,
            45.3826858
          ],
          [
            14.5137924,
            45.382731
          ],
          [
            14.5139404,
            45.3827727
          ],
          [
            14.5141357,
            45.3828365
          ],
          [
            14.5143502,
            45.3829167
          ],
          [
            14.5145997,
            45.3830174
          ],
          [
            14.5162573,
            45.3837502
          ],
          [
            14.5180323,
            45.384533
          ],
          [
            14.5181092,
            45.3845763
          ],
          [
            14.5182073,
            45.3846394
          ],
          [
            14.5182878,
            45.3847091
          ],
          [
            14.518337,
            45.3847674
          ],
          [
            14.5183709,
            45.3848485
          ],
          [
            14.518387,
            45.3849521
          ],
          [
            14.518374,
            45.3850363
          ],
          [
            14.5183521,
            45.3851122
          ],
          [
            14.5182837,
            45.385196
          ],
          [
            14.5182019,
            45.3852592
          ],
          [
            14.5181107,
            45.3853044
          ],
          [
            14.5180077,
            45.3853413
          ],
          [
            14.5178801,
            45.3853647
          ],
          [
            14.5177603,
            45.3853812
          ],
          [
            14.5176655,
            45.3853873
          ],
          [
            14.5175663,
            45.3853873
          ],
          [
            14.5172256,
            45.3853798
          ],
          [
            14.51702,
            45.3853594
          ],
          [
            14.5168769,
            45.3853402
          ],
          [
            14.516767,
            45.3853195
          ],
          [
            14.5166708,
            45.3852835
          ],
          [
            14.5166005,
            45.3852386
          ],
          [
            14.5165229,
            45.3851763
          ],
          [
            14.5164356,
            45.3850662
          ],
          [
            14.5161965,
            45.3847113
          ],
          [
            14.5161313,
            45.3846206
          ],
          [
            14.5160481,
            45.3845264
          ],
          [
            14.5159435,
            45.3844287
          ],
          [
            14.5158362,
            45.3843512
          ],
          [
            14.5156431,
            45.384241
          ],
          [
            14.5153078,
            45.3840724
          ],
          [
            14.5147151,
            45.3837841
          ],
          [
            14.5138057,
            45.3833512
          ],
          [
            14.5135215,
            45.3832453
          ],
          [
            14.5133606,
            45.3831794
          ],
          [
            14.5131379,
            45.3831078
          ],
          [
            14.5129455,
            45.3830611
          ],
          [
            14.5127866,
            45.3830362
          ],
          [
            14.5125832,
            45.3830111
          ],
          [
            14.5122478,
            45.3829779
          ],
          [
            14.5116815,
            45.3829345
          ],
          [
            14.510783,
            45.3828648
          ],
          [
            14.5093533,
            45.3827586
          ],
          [
            14.5090851,
            45.3827386
          ],
          [
            14.5087123,
            45.3827103
          ],
          [
            14.5078325,
            45.3826406
          ],
          [
            14.5070842,
            45.3825822
          ],
          [
            14.5062705,
            45.3825224
          ],
          [
            14.5061079,
            45.3825135
          ],
          [
            14.5059523,
            45.3825125
          ],
          [
            14.5057891,
            45.3825158
          ],
          [
            14.5056143,
            45.382521
          ],
          [
            14.5054494,
            45.3825361
          ],
          [
            14.5053112,
            45.3825492
          ],
          [
            14.505154,
            45.382571
          ],
          [
            14.5048901,
            45.3826284
          ],
          [
            14.5045455,
            45.3827084
          ],
          [
            14.5044288,
            45.3827318
          ],
          [
            14.504343,
            45.3827452
          ],
          [
            14.5042169,
            45.3827518
          ],
          [
            14.5040975,
            45.3827518
          ],
          [
            14.5040224,
            45.3827423
          ],
          [
            14.5039611,
            45.3827257
          ]
        ]
      }
    }
  ]
}
