{
  "type": "FeatureCollection",
  "bbox": [
    -58.3178383,
    -32.459536,
    -58.3131402,
    -32.4510681
  ],
  "metadata": {
    "schemaVersion": 1,
    "trackId": "ar-autodromo-ciudad-de-concepcion-del-uruguay-252762414",
    "layoutId": "autodromo-del-concepion-no-5",
    "license": "ODbL-1.0",
    "attribution": "© OpenStreetMap contributors",
    "closed": true,
    "geometryStatus": "draft",
    "timingStatus": "missing",
    "timingMode": "shared",
    "lengthM": 2494.5,
    "reviewedAt": null,
    "notes": [
      "Draft route hypothesis: the source cycle is the unique closest nominal-distance match within conservative timing and distance checks. Approximate OSM trace length 2494.5 m. Difference from the supplied layout distance 2.5 m. Course configuration still requires visual review."
    ]
  },
  "features": [
    {
      "type": "Feature",
      "id": "trace",
      "properties": {
        "role": "trace",
        "sourceIds": [
          "osm-network-252762414"
        ]
      },
      "geometry": {
        "type": "LineString",
        "coordinates": [
          [
            -58.3173621,
            -32.4511634
          ],
          [
            -58.3175219,
            -32.4512516
          ],
          [
            -58.317671,
            -32.4513669
          ],
          [
            -58.3177754,
            -32.4515081
          ],
          [
            -58.3178368,
            -32.4516403
          ],
          [
            -58.3178383,
            -32.4518236
          ],
          [
            -58.3177403,
            -32.4537927
          ],
          [
            -58.3175923,
            -32.4572798
          ],
          [
            -58.3175505,
            -32.4580294
          ],
          [
            -58.3174525,
            -32.458401
          ],
          [
            -58.3173362,
            -32.4586252
          ],
          [
            -58.3171663,
            -32.4588494
          ],
          [
            -58.3169215,
            -32.459084
          ],
          [
            -58.3166766,
            -32.4592372
          ],
          [
            -58.3164161,
            -32.4593652
          ],
          [
            -58.3161341,
            -32.4594661
          ],
          [
            -58.3156143,
            -32.459536
          ],
          [
            -58.3146647,
            -32.4595162
          ],
          [
            -58.3133781,
            -32.4594814
          ],
          [
            -58.3131977,
            -32.4593038
          ],
          [
            -58.3131402,
            -32.4591789
          ],
          [
            -58.3131418,
            -32.4590088
          ],
          [
            -58.3132278,
            -32.4588556
          ],
          [
            -58.3137005,
            -32.4583285
          ],
          [
            -58.3139341,
            -32.4582963
          ],
          [
            -58.3154335,
            -32.4579647
          ],
          [
            -58.3157212,
            -32.4578417
          ],
          [
            -58.3159445,
            -32.4576734
          ],
          [
            -58.3161333,
            -32.4574642
          ],
          [
            -58.3162523,
            -32.4572549
          ],
          [
            -58.3162999,
            -32.456955
          ],
          [
            -58.3161398,
            -32.4537329
          ],
          [
            -58.3159996,
            -32.4514365
          ],
          [
            -58.3160271,
            -32.4512999
          ],
          [
            -58.316119,
            -32.4511634
          ],
          [
            -58.3162449,
            -32.4511022
          ],
          [
            -58.3164137,
            -32.4510681
          ],
          [
            -58.3173621,
            -32.4511634
          ]
        ]
      }
    }
  ]
}
