{
  "type": "FeatureCollection",
  "bbox": [
    -74.6154777,
    46.1815614,
    -74.6059196,
    46.1941125
  ],
  "metadata": {
    "schemaVersion": 1,
    "trackId": "ca-circuit-mont-tremblant-176774725",
    "layoutId": "main",
    "license": "ODbL-1.0",
    "attribution": "© OpenStreetMap contributors",
    "closed": true,
    "geometryStatus": "draft",
    "timingStatus": "missing",
    "timingMode": "shared",
    "lengthM": 4305.1,
    "reviewedAt": null,
    "notes": [
      "Connected OSM course candidate. The selected loop is the longest simple source-node cycle after explicit exclusions; its association with a named circuit configuration requires review.",
      "Source way order and shared node IDs are retained. No nearby endpoints are joined and no reference boundaries are read."
    ]
  },
  "features": [
    {
      "type": "Feature",
      "id": "trace",
      "properties": {
        "role": "trace",
        "sourceIds": [
          "osm-snapshot"
        ]
      },
      "geometry": {
        "type": "LineString",
        "coordinates": [
          [
            -74.6092885,
            46.1879014
          ],
          [
            -74.6087765,
            46.1874462
          ],
          [
            -74.60843,
            46.187138
          ],
          [
            -74.6078338,
            46.1866051
          ],
          [
            -74.6077922,
            46.1865655
          ],
          [
            -74.6077506,
            46.1865259
          ],
          [
            -74.6077193,
            46.1864935
          ],
          [
            -74.6076833,
            46.1864536
          ],
          [
            -74.6076573,
            46.1864226
          ],
          [
            -74.6076311,
            46.1863883
          ],
          [
            -74.6076078,
            46.1863558
          ],
          [
            -74.607592,
            46.1863318
          ],
          [
            -74.6075756,
            46.1863044
          ],
          [
            -74.6075505,
            46.1862614
          ],
          [
            -74.6075276,
            46.186218
          ],
          [
            -74.6075022,
            46.1861645
          ],
          [
            -74.6074849,
            46.1861151
          ],
          [
            -74.607471,
            46.1860654
          ],
          [
            -74.6074592,
            46.1860143
          ],
          [
            -74.6074522,
            46.1859682
          ],
          [
            -74.6074493,
            46.1859228
          ],
          [
            -74.6074481,
            46.1858834
          ],
          [
            -74.6074508,
            46.185837
          ],
          [
            -74.6074564,
            46.1857803
          ],
          [
            -74.607468,
            46.1857267
          ],
          [
            -74.6074829,
            46.1856739
          ],
          [
            -74.6075009,
            46.1856258
          ],
          [
            -74.607525,
            46.1855685
          ],
          [
            -74.6075522,
            46.1855132
          ],
          [
            -74.6075803,
            46.1854634
          ],
          [
            -74.6076124,
            46.1854157
          ],
          [
            -74.6076543,
            46.1853651
          ],
          [
            -74.6076952,
            46.1853186
          ],
          [
            -74.6083545,
            46.1847429
          ],
          [
            -74.6084069,
            46.1846914
          ],
          [
            -74.608482,
            46.1846135
          ],
          [
            -74.6085393,
            46.1845509
          ],
          [
            -74.6086316,
            46.1844472
          ],
          [
            -74.60872,
            46.1843408
          ],
          [
            -74.6087953,
            46.1842414
          ],
          [
            -74.608843,
            46.184179
          ],
          [
            -74.608889,
            46.1841117
          ],
          [
            -74.6089341,
            46.1840433
          ],
          [
            -74.6089757,
            46.1839761
          ],
          [
            -74.6090148,
            46.1839062
          ],
          [
            -74.6090522,
            46.183831
          ],
          [
            -74.609078,
            46.1837797
          ],
          [
            -74.6091563,
            46.1836081
          ],
          [
            -74.6098296,
            46.1820802
          ],
          [
            -74.6098904,
            46.1819329
          ],
          [
            -74.6099103,
            46.1818855
          ],
          [
            -74.6099317,
            46.18184
          ],
          [
            -74.6099566,
            46.1818005
          ],
          [
            -74.6099875,
            46.1817612
          ],
          [
            -74.6100248,
            46.1817293
          ],
          [
            -74.6100591,
            46.1817012
          ],
          [
            -74.6100988,
            46.181675
          ],
          [
            -74.6101448,
            46.1816482
          ],
          [
            -74.6101926,
            46.1816263
          ],
          [
            -74.6102429,
            46.1816064
          ],
          [
            -74.6102933,
            46.1815907
          ],
          [
            -74.6103417,
            46.1815797
          ],
          [
            -74.6103945,
            46.1815705
          ],
          [
            -74.6104494,
            46.1815642
          ],
          [
            -74.6105043,
            46.1815614
          ],
          [
            -74.6105618,
            46.1815617
          ],
          [
            -74.6106192,
            46.1815628
          ],
          [
            -74.6106767,
            46.1815687
          ],
          [
            -74.6107386,
            46.1815781
          ],
          [
            -74.6107938,
            46.1815897
          ],
          [
            -74.6108572,
            46.1816061
          ],
          [
            -74.6109077,
            46.1816217
          ],
          [
            -74.6109767,
            46.1816457
          ],
          [
            -74.6110403,
            46.1816704
          ],
          [
            -74.6111057,
            46.1816975
          ],
          [
            -74.6111553,
            46.1817246
          ],
          [
            -74.6112045,
            46.181755
          ],
          [
            -74.6112536,
            46.1817903
          ],
          [
            -74.6112919,
            46.1818219
          ],
          [
            -74.6113342,
            46.1818567
          ],
          [
            -74.6113787,
            46.1818982
          ],
          [
            -74.6114052,
            46.1819284
          ],
          [
            -74.6114272,
            46.1819566
          ],
          [
            -74.6114562,
            46.181995
          ],
          [
            -74.6114868,
            46.1820402
          ],
          [
            -74.6115119,
            46.1820846
          ],
          [
            -74.611537,
            46.1821338
          ],
          [
            -74.6115545,
            46.1821784
          ],
          [
            -74.6115708,
            46.1822272
          ],
          [
            -74.6115793,
            46.1822685
          ],
          [
            -74.6115855,
            46.1823135
          ],
          [
            -74.6115876,
            46.1823516
          ],
          [
            -74.6115868,
            46.1823919
          ],
          [
            -74.6115817,
            46.1824393
          ],
          [
            -74.6115496,
            46.1826028
          ],
          [
            -74.6111141,
            46.184644
          ],
          [
            -74.6111017,
            46.184712
          ],
          [
            -74.611092,
            46.1847745
          ],
          [
            -74.6110854,
            46.1848197
          ],
          [
            -74.6110778,
            46.184866
          ],
          [
            -74.6110695,
            46.1849208
          ],
          [
            -74.6110648,
            46.1849792
          ],
          [
            -74.6110592,
            46.1850432
          ],
          [
            -74.6110563,
            46.1850996
          ],
          [
            -74.6110545,
            46.1851651
          ],
          [
            -74.6110533,
            46.1852735
          ],
          [
            -74.6110553,
            46.1853342
          ],
          [
            -74.6110589,
            46.185394
          ],
          [
            -74.6110642,
            46.1854754
          ],
          [
            -74.6110703,
            46.1855574
          ],
          [
            -74.6110806,
            46.1856458
          ],
          [
            -74.611092,
            46.1857269
          ],
          [
            -74.6111035,
            46.1858054
          ],
          [
            -74.6111166,
            46.1859098
          ],
          [
            -74.6111768,
            46.1863607
          ],
          [
            -74.6112928,
            46.1872089
          ],
          [
            -74.6115299,
            46.1886946
          ],
          [
            -74.6115942,
            46.1891596
          ],
          [
            -74.6116118,
            46.1893285
          ],
          [
            -74.6116144,
            46.1893927
          ],
          [
            -74.6116096,
            46.18944
          ],
          [
            -74.6116014,
            46.189483
          ],
          [
            -74.6115893,
            46.1895267
          ],
          [
            -74.6115765,
            46.1895604
          ],
          [
            -74.6115611,
            46.1895953
          ],
          [
            -74.6115438,
            46.1896286
          ],
          [
            -74.6115239,
            46.1896625
          ],
          [
            -74.6114943,
            46.1897023
          ],
          [
            -74.6114689,
            46.1897335
          ],
          [
            -74.6114481,
            46.1897576
          ],
          [
            -74.6114254,
            46.1897821
          ],
          [
            -74.6113842,
            46.1898189
          ],
          [
            -74.6113464,
            46.1898526
          ],
          [
            -74.6113077,
            46.1898835
          ],
          [
            -74.611269,
            46.1899122
          ],
          [
            -74.6112277,
            46.1899392
          ],
          [
            -74.6111865,
            46.1899642
          ],
          [
            -74.6111489,
            46.1899849
          ],
          [
            -74.6111044,
            46.1900069
          ],
          [
            -74.6110589,
            46.1900283
          ],
          [
            -74.6110111,
            46.1900479
          ],
          [
            -74.6101411,
            46.190341
          ],
          [
            -74.6097873,
            46.1904618
          ],
          [
            -74.6097402,
            46.1904806
          ],
          [
            -74.6096947,
            46.1905032
          ],
          [
            -74.6096536,
            46.1905271
          ],
          [
            -74.6096187,
            46.1905544
          ],
          [
            -74.6095811,
            46.1905902
          ],
          [
            -74.6095462,
            46.1906292
          ],
          [
            -74.6095219,
            46.1906634
          ],
          [
            -74.6094972,
            46.1907031
          ],
          [
            -74.6094793,
            46.1907403
          ],
          [
            -74.6094664,
            46.190774
          ],
          [
            -74.6094579,
            46.1908057
          ],
          [
            -74.609452,
            46.1908389
          ],
          [
            -74.6094486,
            46.1908733
          ],
          [
            -74.6094464,
            46.1910607
          ],
          [
            -74.6094467,
            46.1911532
          ],
          [
            -74.6094509,
            46.1912401
          ],
          [
            -74.6094565,
            46.1912957
          ],
          [
            -74.6094656,
            46.1913483
          ],
          [
            -74.6094794,
            46.1914049
          ],
          [
            -74.6094951,
            46.1914611
          ],
          [
            -74.6095108,
            46.1915168
          ],
          [
            -74.6095312,
            46.1915948
          ],
          [
            -74.6095845,
            46.1917807
          ],
          [
            -74.6096457,
            46.1920084
          ],
          [
            -74.6096781,
            46.1921051
          ],
          [
            -74.609688,
            46.1921295
          ],
          [
            -74.6096996,
            46.1921479
          ],
          [
            -74.6097236,
            46.1921785
          ],
          [
            -74.6097443,
            46.1921986
          ],
          [
            -74.6097686,
            46.1922199
          ],
          [
            -74.6098011,
            46.192241
          ],
          [
            -74.6098336,
            46.1922574
          ],
          [
            -74.609867,
            46.1922731
          ],
          [
            -74.6098975,
            46.1922853
          ],
          [
            -74.6099369,
            46.1922999
          ],
          [
            -74.6099735,
            46.1923106
          ],
          [
            -74.6100129,
            46.1923195
          ],
          [
            -74.6100496,
            46.1923254
          ],
          [
            -74.6100879,
            46.1923286
          ],
          [
            -74.61012,
            46.1923311
          ],
          [
            -74.6101566,
            46.1923325
          ],
          [
            -74.6101976,
            46.1923324
          ],
          [
            -74.6102383,
            46.1923296
          ],
          [
            -74.6102763,
            46.1923261
          ],
          [
            -74.6103195,
            46.1923186
          ],
          [
            -74.6103592,
            46.1923111
          ],
          [
            -74.6104047,
            46.1923002
          ],
          [
            -74.6104469,
            46.1922887
          ],
          [
            -74.6104943,
            46.1922746
          ],
          [
            -74.6105412,
            46.1922591
          ],
          [
            -74.6105878,
            46.1922423
          ],
          [
            -74.6106425,
            46.1922185
          ],
          [
            -74.6107612,
            46.1921646
          ],
          [
            -74.6111232,
            46.1919953
          ],
          [
            -74.6111712,
            46.1919714
          ],
          [
            -74.6112164,
            46.19195
          ],
          [
            -74.6112606,
            46.1919299
          ],
          [
            -74.611289,
            46.191918
          ],
          [
            -74.611303,
            46.1919123
          ],
          [
            -74.6113314,
            46.1919012
          ],
          [
            -74.6113593,
            46.1918909
          ],
          [
            -74.6113814,
            46.191883
          ],
          [
            -74.611404,
            46.1918756
          ],
          [
            -74.6114345,
            46.1918667
          ],
          [
            -74.6114648,
            46.1918579
          ],
          [
            -74.6115107,
            46.191845
          ],
          [
            -74.6115572,
            46.191833
          ],
          [
            -74.6116017,
            46.191822
          ],
          [
            -74.6116475,
            46.1918113
          ],
          [
            -74.6116934,
            46.1918016
          ],
          [
            -74.6117369,
            46.1917935
          ],
          [
            -74.6117928,
            46.1917845
          ],
          [
            -74.6118459,
            46.1917768
          ],
          [
            -74.611889,
            46.1917711
          ],
          [
            -74.6119479,
            46.1917654
          ],
          [
            -74.6119952,
            46.1917626
          ],
          [
            -74.612047,
            46.1917612
          ],
          [
            -74.6122216,
            46.191761
          ],
          [
            -74.6123834,
            46.191764
          ],
          [
            -74.6125453,
            46.1917707
          ],
          [
            -74.6127076,
            46.1917792
          ],
          [
            -74.6129231,
            46.1917913
          ],
          [
            -74.6129908,
            46.1917964
          ],
          [
            -74.6130586,
            46.1918025
          ],
          [
            -74.6131281,
            46.1918106
          ],
          [
            -74.6131976,
            46.1918207
          ],
          [
            -74.6132533,
            46.1918289
          ],
          [
            -74.6133001,
            46.191837
          ],
          [
            -74.6133645,
            46.1918482
          ],
          [
            -74.6134297,
            46.191861
          ],
          [
            -74.6134938,
            46.1918749
          ],
          [
            -74.6135556,
            46.1918894
          ],
          [
            -74.6136643,
            46.1919169
          ],
          [
            -74.613755,
            46.191942
          ],
          [
            -74.6138633,
            46.191973
          ],
          [
            -74.6139555,
            46.1920007
          ],
          [
            -74.6140508,
            46.1920285
          ],
          [
            -74.6141457,
            46.1920576
          ],
          [
            -74.614261,
            46.1920923
          ],
          [
            -74.6143702,
            46.1921281
          ],
          [
            -74.614387,
            46.1921341
          ],
          [
            -74.6144952,
            46.1921729
          ],
          [
            -74.6145584,
            46.1921975
          ],
          [
            -74.6147236,
            46.1922685
          ],
          [
            -74.614883,
            46.1923372
          ],
          [
            -74.6153011,
            46.1925155
          ],
          [
            -74.615347,
            46.1925357
          ],
          [
            -74.6153787,
            46.1925514
          ],
          [
            -74.61541,
            46.1925692
          ],
          [
            -74.6154309,
            46.192585
          ],
          [
            -74.6154492,
            46.1926017
          ],
          [
            -74.6154639,
            46.1926215
          ],
          [
            -74.6154704,
            46.1926362
          ],
          [
            -74.6154753,
            46.1926535
          ],
          [
            -74.6154766,
            46.1926716
          ],
          [
            -74.6154777,
            46.1926884
          ],
          [
            -74.6154733,
            46.1927088
          ],
          [
            -74.6154619,
            46.1927318
          ],
          [
            -74.6154464,
            46.1927531
          ],
          [
            -74.6154273,
            46.1927737
          ],
          [
            -74.6154053,
            46.1927906
          ],
          [
            -74.6153808,
            46.1928068
          ],
          [
            -74.6153523,
            46.1928226
          ],
          [
            -74.6153239,
            46.1928381
          ],
          [
            -74.6152932,
            46.1928537
          ],
          [
            -74.6152605,
            46.1928683
          ],
          [
            -74.6152286,
            46.1928817
          ],
          [
            -74.6151976,
            46.1928927
          ],
          [
            -74.6151689,
            46.1929016
          ],
          [
            -74.6151467,
            46.1929077
          ],
          [
            -74.6151208,
            46.1929132
          ],
          [
            -74.6150676,
            46.1929242
          ],
          [
            -74.615022,
            46.1929326
          ],
          [
            -74.6149837,
            46.1929388
          ],
          [
            -74.6149335,
            46.1929455
          ],
          [
            -74.6148863,
            46.19295
          ],
          [
            -74.6148375,
            46.192953
          ],
          [
            -74.6147906,
            46.1929536
          ],
          [
            -74.6147518,
            46.1929523
          ],
          [
            -74.614718,
            46.1929499
          ],
          [
            -74.6146946,
            46.1929473
          ],
          [
            -74.6146526,
            46.1929408
          ],
          [
            -74.6146141,
            46.1929339
          ],
          [
            -74.6145733,
            46.192926
          ],
          [
            -74.6144707,
            46.1929039
          ],
          [
            -74.6135797,
            46.1926995
          ],
          [
            -74.6135117,
            46.1926864
          ],
          [
            -74.6134383,
            46.1926727
          ],
          [
            -74.613383,
            46.1926658
          ],
          [
            -74.6133227,
            46.1926619
          ],
          [
            -74.613268,
            46.1926619
          ],
          [
            -74.6132039,
            46.1926645
          ],
          [
            -74.6131486,
            46.1926706
          ],
          [
            -74.6131032,
            46.1926785
          ],
          [
            -74.61307,
            46.1926864
          ],
          [
            -74.6130202,
            46.1927018
          ],
          [
            -74.6129578,
            46.1927232
          ],
          [
            -74.6128848,
            46.1927545
          ],
          [
            -74.6126978,
            46.1928331
          ],
          [
            -74.6115204,
            46.1933057
          ],
          [
            -74.6102102,
            46.1938344
          ],
          [
            -74.6100283,
            46.1939067
          ],
          [
            -74.6099164,
            46.1939485
          ],
          [
            -74.6098313,
            46.1939798
          ],
          [
            -74.6097397,
            46.194008
          ],
          [
            -74.6096411,
            46.194033
          ],
          [
            -74.6095077,
            46.1940598
          ],
          [
            -74.6094057,
            46.1940779
          ],
          [
            -74.6093094,
            46.194092
          ],
          [
            -74.6091869,
            46.194103
          ],
          [
            -74.6090785,
            46.1941096
          ],
          [
            -74.6089725,
            46.1941125
          ],
          [
            -74.6088285,
            46.1941125
          ],
          [
            -74.6086467,
            46.1941102
          ],
          [
            -74.6085209,
            46.194107
          ],
          [
            -74.6084472,
            46.1941051
          ],
          [
            -74.6083572,
            46.1941
          ],
          [
            -74.608272,
            46.1940925
          ],
          [
            -74.6082023,
            46.1940836
          ],
          [
            -74.608135,
            46.1940722
          ],
          [
            -74.6080433,
            46.1940566
          ],
          [
            -74.607953,
            46.1940382
          ],
          [
            -74.6078635,
            46.1940159
          ],
          [
            -74.6078065,
            46.1940006
          ],
          [
            -74.6077789,
            46.1939782
          ],
          [
            -74.6077698,
            46.1939668
          ],
          [
            -74.6077628,
            46.1939517
          ],
          [
            -74.6077571,
            46.1939399
          ],
          [
            -74.6077531,
            46.1939269
          ],
          [
            -74.6077478,
            46.1939075
          ],
          [
            -74.6077395,
            46.1938843
          ],
          [
            -74.6077349,
            46.1938563
          ],
          [
            -74.6077274,
            46.1938313
          ],
          [
            -74.6077185,
            46.1938025
          ],
          [
            -74.6076967,
            46.1937728
          ],
          [
            -74.6076821,
            46.1937551
          ],
          [
            -74.6076622,
            46.1937399
          ],
          [
            -74.6076389,
            46.1937244
          ],
          [
            -74.6076103,
            46.1937095
          ],
          [
            -74.607582,
            46.1936988
          ],
          [
            -74.6075502,
            46.1936893
          ],
          [
            -74.6075077,
            46.1936819
          ],
          [
            -74.6074482,
            46.1936788
          ],
          [
            -74.6073922,
            46.1936784
          ],
          [
            -74.6073365,
            46.1936786
          ],
          [
            -74.6072997,
            46.1936783
          ],
          [
            -74.6072577,
            46.1936755
          ],
          [
            -74.607205,
            46.1936675
          ],
          [
            -74.6071434,
            46.1936543
          ],
          [
            -74.6070962,
            46.1936396
          ],
          [
            -74.6070561,
            46.1936229
          ],
          [
            -74.6070137,
            46.1936038
          ],
          [
            -74.6069649,
            46.1935615
          ],
          [
            -74.6068828,
            46.1934842
          ],
          [
            -74.6068125,
            46.1934098
          ],
          [
            -74.6067561,
            46.1933412
          ],
          [
            -74.6067048,
            46.1932823
          ],
          [
            -74.6066165,
            46.1931757
          ],
          [
            -74.606542,
            46.1930868
          ],
          [
            -74.6064898,
            46.193023
          ],
          [
            -74.6064516,
            46.1929723
          ],
          [
            -74.6064184,
            46.1929239
          ],
          [
            -74.6063707,
            46.192849
          ],
          [
            -74.6063381,
            46.192795
          ],
          [
            -74.6062943,
            46.192721
          ],
          [
            -74.6062287,
            46.1926103
          ],
          [
            -74.6061667,
            46.1925045
          ],
          [
            -74.6060819,
            46.1923603
          ],
          [
            -74.6060176,
            46.1922506
          ],
          [
            -74.605984,
            46.1921907
          ],
          [
            -74.6059584,
            46.1921338
          ],
          [
            -74.6059425,
            46.1920793
          ],
          [
            -74.605931,
            46.1920316
          ],
          [
            -74.6059249,
            46.191977
          ],
          [
            -74.605921,
            46.1919301
          ],
          [
            -74.6059196,
            46.1918795
          ],
          [
            -74.6059202,
            46.1918345
          ],
          [
            -74.6059256,
            46.1917868
          ],
          [
            -74.6059357,
            46.1917439
          ],
          [
            -74.6059532,
            46.1916915
          ],
          [
            -74.6059702,
            46.1916458
          ],
          [
            -74.6059978,
            46.191582
          ],
          [
            -74.6060686,
            46.1914359
          ],
          [
            -74.6061424,
            46.191277
          ],
          [
            -74.6062485,
            46.1910384
          ],
          [
            -74.6062683,
            46.1910022
          ],
          [
            -74.6062905,
            46.1909709
          ],
          [
            -74.6063142,
            46.1909423
          ],
          [
            -74.6063362,
            46.1909175
          ],
          [
            -74.6063663,
            46.1908898
          ],
          [
            -74.6063956,
            46.190868
          ],
          [
            -74.6064288,
            46.1908464
          ],
          [
            -74.6064694,
            46.1908242
          ],
          [
            -74.6065079,
            46.1908076
          ],
          [
            -74.6065233,
            46.1908022
          ],
          [
            -74.6065675,
            46.1907856
          ],
          [
            -74.6066071,
            46.1907742
          ],
          [
            -74.6066581,
            46.1907634
          ],
          [
            -74.6067005,
            46.190756
          ],
          [
            -74.6067545,
            46.1907478
          ],
          [
            -74.6067911,
            46.1907421
          ],
          [
            -74.6068272,
            46.1907373
          ],
          [
            -74.6068683,
            46.1907319
          ],
          [
            -74.6069042,
            46.1907283
          ],
          [
            -74.6069445,
            46.1907241
          ],
          [
            -74.6069804,
            46.1907225
          ],
          [
            -74.6070125,
            46.1907212
          ],
          [
            -74.6070463,
            46.1907215
          ],
          [
            -74.6070692,
            46.1907221
          ],
          [
            -74.6070896,
            46.1907241
          ],
          [
            -74.6071134,
            46.1907267
          ],
          [
            -74.6071361,
            46.1907307
          ],
          [
            -74.6071704,
            46.1907382
          ],
          [
            -74.6072036,
            46.1907471
          ],
          [
            -74.607234,
            46.1907572
          ],
          [
            -74.6072634,
            46.1907687
          ],
          [
            -74.6073066,
            46.1907887
          ],
          [
            -74.6073498,
            46.1908088
          ],
          [
            -74.6076752,
            46.1909735
          ],
          [
            -74.6077159,
            46.1909914
          ],
          [
            -74.6077358,
            46.1910003
          ],
          [
            -74.6077662,
            46.191011
          ],
          [
            -74.6078073,
            46.1910237
          ],
          [
            -74.6078283,
            46.1910279
          ],
          [
            -74.6078492,
            46.1910316
          ],
          [
            -74.6078644,
            46.191034
          ],
          [
            -74.6078804,
            46.1910363
          ],
          [
            -74.607909,
            46.1910374
          ],
          [
            -74.607938,
            46.1910382
          ],
          [
            -74.6079665,
            46.1910363
          ],
          [
            -74.6080054,
            46.1910329
          ],
          [
            -74.6080438,
            46.1910268
          ],
          [
            -74.6080815,
            46.1910192
          ],
          [
            -74.6081158,
            46.1910081
          ],
          [
            -74.6081478,
            46.190996
          ],
          [
            -74.6081771,
            46.1909802
          ],
          [
            -74.608205,
            46.1909638
          ],
          [
            -74.608228,
            46.1909447
          ],
          [
            -74.6082503,
            46.1909256
          ],
          [
            -74.6083223,
            46.1908547
          ],
          [
            -74.6083998,
            46.190775
          ],
          [
            -74.6090606,
            46.1901059
          ],
          [
            -74.6095292,
            46.1896338
          ],
          [
            -74.6100698,
            46.1890988
          ],
          [
            -74.6102284,
            46.188948
          ],
          [
            -74.6102665,
            46.1889062
          ],
          [
            -74.6102907,
            46.1888737
          ],
          [
            -74.6103123,
            46.1888302
          ],
          [
            -74.6103265,
            46.1887784
          ],
          [
            -74.6103399,
            46.1886872
          ],
          [
            -74.6103522,
            46.1884817
          ],
          [
            -74.6103568,
            46.1883366
          ],
          [
            -74.6103562,
            46.1882877
          ],
          [
            -74.6103464,
            46.1882453
          ],
          [
            -74.6103178,
            46.1881993
          ],
          [
            -74.6102775,
            46.1881594
          ],
          [
            -74.6102236,
            46.1881277
          ],
          [
            -74.6101488,
            46.1880983
          ],
          [
            -74.6100604,
            46.1880813
          ],
          [
            -74.6097967,
            46.1880639
          ],
          [
            -74.6096921,
            46.1880541
          ],
          [
            -74.6096398,
            46.1880464
          ],
          [
            -74.6095874,
            46.1880349
          ],
          [
            -74.6095309,
            46.1880194
          ],
          [
            -74.6094744,
            46.1880002
          ],
          [
            -74.6093815,
            46.187957
          ],
          [
            -74.6092885,
            46.1879014
          ]
        ]
      }
    }
  ]
}
