{
  "type": "FeatureCollection",
  "bbox": [
    -76.6788112,
    45.3003364,
    -76.6663428,
    45.3082947
  ],
  "metadata": {
    "schemaVersion": 1,
    "trackId": "ca-calabogie-motorsports-park-279357480",
    "layoutId": "main",
    "license": "ODbL-1.0",
    "attribution": "© OpenStreetMap contributors",
    "closed": true,
    "geometryStatus": "draft",
    "timingStatus": "missing",
    "timingMode": "shared",
    "lengthM": 4988.5,
    "reviewedAt": null,
    "notes": [
      "Closed named OSM raceway retained as a course candidate. Named-layout association requires review.",
      "Source way order and shared node IDs are retained. No nearby endpoints are joined and no Racelogic boundaries are read."
    ]
  },
  "features": [
    {
      "type": "Feature",
      "id": "trace",
      "properties": {
        "role": "trace",
        "sourceIds": [
          "osm-snapshot"
        ]
      },
      "geometry": {
        "type": "LineString",
        "coordinates": [
          [
            -76.6741024,
            45.3027005
          ],
          [
            -76.6740278,
            45.30278
          ],
          [
            -76.6739988,
            45.3028985
          ],
          [
            -76.674021,
            45.303048
          ],
          [
            -76.674252,
            45.3039751
          ],
          [
            -76.6742698,
            45.3042366
          ],
          [
            -76.6742196,
            45.3044379
          ],
          [
            -76.6734534,
            45.3059099
          ],
          [
            -76.673348,
            45.3061043
          ],
          [
            -76.6732172,
            45.3062533
          ],
          [
            -76.672137,
            45.3071926
          ],
          [
            -76.6719712,
            45.3072995
          ],
          [
            -76.671771,
            45.3073549
          ],
          [
            -76.6715136,
            45.3073748
          ],
          [
            -76.6710053,
            45.307343
          ],
          [
            -76.6707461,
            45.3072827
          ],
          [
            -76.6704791,
            45.3071588
          ],
          [
            -76.6703192,
            45.307006
          ],
          [
            -76.6700232,
            45.3066787
          ],
          [
            -76.6698646,
            45.306506
          ],
          [
            -76.6697574,
            45.3063468
          ],
          [
            -76.6697614,
            45.3061949
          ],
          [
            -76.669823,
            45.3061123
          ],
          [
            -76.669934,
            45.3060258
          ],
          [
            -76.670189,
            45.3059584
          ],
          [
            -76.6704034,
            45.3059633
          ],
          [
            -76.67059,
            45.3060248
          ],
          [
            -76.6708347,
            45.3061645
          ],
          [
            -76.6709948,
            45.3062354
          ],
          [
            -76.6711433,
            45.3062898
          ],
          [
            -76.6714278,
            45.3063501
          ],
          [
            -76.6715417,
            45.3063682
          ],
          [
            -76.6716672,
            45.306374
          ],
          [
            -76.6718338,
            45.3063655
          ],
          [
            -76.6719719,
            45.3063402
          ],
          [
            -76.6721216,
            45.3062984
          ],
          [
            -76.6723652,
            45.3061839
          ],
          [
            -76.6728904,
            45.3058427
          ],
          [
            -76.6730176,
            45.3057277
          ],
          [
            -76.6730766,
            45.3056066
          ],
          [
            -76.673062,
            45.3054996
          ],
          [
            -76.672992,
            45.3054036
          ],
          [
            -76.6728216,
            45.3053073
          ],
          [
            -76.6726606,
            45.3052463
          ],
          [
            -76.6723798,
            45.3051993
          ],
          [
            -76.6696888,
            45.3050593
          ],
          [
            -76.6693822,
            45.3050178
          ],
          [
            -76.6692291,
            45.304968
          ],
          [
            -76.6690934,
            45.3049099
          ],
          [
            -76.6688238,
            45.3047513
          ],
          [
            -76.668628,
            45.3046149
          ],
          [
            -76.6684912,
            45.3045057
          ],
          [
            -76.668366,
            45.3043883
          ],
          [
            -76.6682274,
            45.3041865
          ],
          [
            -76.668143,
            45.3039884
          ],
          [
            -76.6681058,
            45.303817
          ],
          [
            -76.6680946,
            45.3036656
          ],
          [
            -76.6680364,
            45.3027861
          ],
          [
            -76.6680394,
            45.3025824
          ],
          [
            -76.6680218,
            45.3025062
          ],
          [
            -76.6679926,
            45.3024465
          ],
          [
            -76.667879,
            45.302307
          ],
          [
            -76.6664609,
            45.3012823
          ],
          [
            -76.6664114,
            45.3012233
          ],
          [
            -76.6663678,
            45.3011561
          ],
          [
            -76.6663428,
            45.301073
          ],
          [
            -76.6663528,
            45.3009858
          ],
          [
            -76.666411,
            45.3008394
          ],
          [
            -76.6665168,
            45.3006997
          ],
          [
            -76.6666792,
            45.3005132
          ],
          [
            -76.6667466,
            45.3004667
          ],
          [
            -76.6668141,
            45.3004367
          ],
          [
            -76.666892,
            45.3004135
          ],
          [
            -76.6669874,
            45.3004027
          ],
          [
            -76.6670972,
            45.3004101
          ],
          [
            -76.6672362,
            45.300434
          ],
          [
            -76.6675364,
            45.3005132
          ],
          [
            -76.6677104,
            45.3005786
          ],
          [
            -76.6678066,
            45.300668
          ],
          [
            -76.6678459,
            45.3007355
          ],
          [
            -76.6678544,
            45.3008173
          ],
          [
            -76.6678584,
            45.3010447
          ],
          [
            -76.6678796,
            45.3012308
          ],
          [
            -76.6679018,
            45.301345
          ],
          [
            -76.6679414,
            45.3014182
          ],
          [
            -76.667999,
            45.3014644
          ],
          [
            -76.6680861,
            45.3015245
          ],
          [
            -76.6681848,
            45.301564
          ],
          [
            -76.6682972,
            45.3015924
          ],
          [
            -76.6684301,
            45.3016146
          ],
          [
            -76.6689217,
            45.3016338
          ],
          [
            -76.6727547,
            45.3018413
          ],
          [
            -76.6730504,
            45.3018571
          ],
          [
            -76.6743032,
            45.3019241
          ],
          [
            -76.6748242,
            45.3019361
          ],
          [
            -76.675021,
            45.3019189
          ],
          [
            -76.6752094,
            45.3018953
          ],
          [
            -76.6754929,
            45.3018314
          ],
          [
            -76.6757098,
            45.3017099
          ],
          [
            -76.6760087,
            45.3014881
          ],
          [
            -76.6761816,
            45.3013618
          ],
          [
            -76.6775132,
            45.3004522
          ],
          [
            -76.67772,
            45.3003596
          ],
          [
            -76.6779142,
            45.3003364
          ],
          [
            -76.6780948,
            45.300374
          ],
          [
            -76.6782472,
            45.3004475
          ],
          [
            -76.6783844,
            45.3005708
          ],
          [
            -76.6787794,
            45.3012939
          ],
          [
            -76.6788112,
            45.3014899
          ],
          [
            -76.6787664,
            45.3016498
          ],
          [
            -76.6786642,
            45.3017724
          ],
          [
            -76.6783774,
            45.3019153
          ],
          [
            -76.6773952,
            45.3024073
          ],
          [
            -76.6771946,
            45.3025283
          ],
          [
            -76.6770828,
            45.3026512
          ],
          [
            -76.676976,
            45.3028736
          ],
          [
            -76.6746902,
            45.3071942
          ],
          [
            -76.6746228,
            45.3073296
          ],
          [
            -76.6745844,
            45.3074719
          ],
          [
            -76.674469,
            45.3079316
          ],
          [
            -76.6744064,
            45.3080371
          ],
          [
            -76.6743438,
            45.3080975
          ],
          [
            -76.6742426,
            45.3081753
          ],
          [
            -76.6741298,
            45.3082204
          ],
          [
            -76.6739628,
            45.3082599
          ],
          [
            -76.6737312,
            45.3082875
          ],
          [
            -76.673552,
            45.3082947
          ],
          [
            -76.6732207,
            45.3082805
          ],
          [
            -76.6730672,
            45.3082553
          ],
          [
            -76.6729486,
            45.3082138
          ],
          [
            -76.6728419,
            45.3081537
          ],
          [
            -76.6727818,
            45.3080936
          ],
          [
            -76.6727303,
            45.3080319
          ],
          [
            -76.6726962,
            45.3079579
          ],
          [
            -76.672696,
            45.307791
          ],
          [
            -76.6727363,
            45.3076826
          ],
          [
            -76.6728058,
            45.3075866
          ],
          [
            -76.6729083,
            45.3074891
          ],
          [
            -76.6730166,
            45.3074121
          ],
          [
            -76.673226,
            45.307302
          ],
          [
            -76.673927,
            45.306952
          ],
          [
            -76.6741072,
            45.306849
          ],
          [
            -76.6742352,
            45.3067544
          ],
          [
            -76.6743078,
            45.306666
          ],
          [
            -76.6743844,
            45.3065424
          ],
          [
            -76.6744522,
            45.3063963
          ],
          [
            -76.675526,
            45.303581
          ],
          [
            -76.6755858,
            45.303351
          ],
          [
            -76.675589,
            45.3031561
          ],
          [
            -76.675538,
            45.303014
          ],
          [
            -76.6753994,
            45.3028083
          ],
          [
            -76.675218,
            45.302663
          ],
          [
            -76.6750198,
            45.302581
          ],
          [
            -76.6748122,
            45.3025519
          ],
          [
            -76.6746064,
            45.3025399
          ],
          [
            -76.6743712,
            45.3025832
          ],
          [
            -76.6742252,
            45.3026324
          ],
          [
            -76.6741024,
            45.3027005
          ]
        ]
      }
    }
  ]
}
