{
  "type": "FeatureCollection",
  "bbox": [
    -46.6723573,
    -22.8836246,
    -46.6701566,
    -22.879646
  ],
  "metadata": {
    "schemaVersion": 1,
    "trackId": "br-haras-tuiuti-4cd9359e",
    "layoutId": "haras-tuiuti",
    "license": "ODbL-1.0",
    "attribution": "© OpenStreetMap contributors",
    "closed": true,
    "geometryStatus": "draft",
    "timingStatus": "missing",
    "timingMode": "shared",
    "lengthM": 1886.9,
    "reviewedAt": null,
    "notes": [
      "Draft configuration: The full double hairpin configuration retains the outer northern curve, inner parallel return and southern spiral. The sharper northern alternative, shortened southern return and cross-facility shortcuts are excluded. Exact independent service-road nodes measure 1886.9 m against the catalogue distance of 1865 m. Branch identity was checked against catalogue layout facts and circuit identification references. Independent source distance 1886.9 m; no coordinates are changed to match a diagram or distance. Travel direction and historical alignment remain provisional."
    ]
  },
  "features": [
    {
      "type": "Feature",
      "id": "trace",
      "properties": {
        "role": "trace",
        "sourceIds": [
          "osm-selection-haras-tuiuti-independent-roads-441313263"
        ]
      },
      "geometry": {
        "type": "LineString",
        "coordinates": [
          [
            -46.6712898,
            -22.8818342
          ],
          [
            -46.6713783,
            -22.881938
          ],
          [
            -46.6714561,
            -22.8819726
          ],
          [
            -46.671546,
            -22.8819677
          ],
          [
            -46.6716385,
            -22.8818923
          ],
          [
            -46.6716895,
            -22.881749
          ],
          [
            -46.6717029,
            -22.8815871
          ],
          [
            -46.6717015,
            -22.8813301
          ],
          [
            -46.6716895,
            -22.8810113
          ],
          [
            -46.6716506,
            -22.8808173
          ],
          [
            -46.6715795,
            -22.8805739
          ],
          [
            -46.6714534,
            -22.880354
          ],
          [
            -46.6712911,
            -22.8801538
          ],
          [
            -46.6711329,
            -22.8799351
          ],
          [
            -46.6709384,
            -22.8797498
          ],
          [
            -46.6707949,
            -22.879651
          ],
          [
            -46.6706219,
            -22.879646
          ],
          [
            -46.6704489,
            -22.879672
          ],
          [
            -46.6703162,
            -22.8797412
          ],
          [
            -46.670237,
            -22.8798215
          ],
          [
            -46.670178,
            -22.8799215
          ],
          [
            -46.6701566,
            -22.88005
          ],
          [
            -46.670178,
            -22.8801971
          ],
          [
            -46.6702276,
            -22.8803664
          ],
          [
            -46.6702934,
            -22.8806135
          ],
          [
            -46.6703765,
            -22.8809372
          ],
          [
            -46.670457,
            -22.881235
          ],
          [
            -46.6705415,
            -22.8815352
          ],
          [
            -46.6706045,
            -22.881812
          ],
          [
            -46.6706769,
            -22.8821048
          ],
          [
            -46.6707627,
            -22.8824322
          ],
          [
            -46.6708325,
            -22.8827041
          ],
          [
            -46.670913,
            -22.8829994
          ],
          [
            -46.6709706,
            -22.8832181
          ],
          [
            -46.6710269,
            -22.8834022
          ],
          [
            -46.671145,
            -22.8835307
          ],
          [
            -46.6712777,
            -22.8835961
          ],
          [
            -46.6714172,
            -22.8836246
          ],
          [
            -46.6715795,
            -22.8836048
          ],
          [
            -46.6717257,
            -22.8835504
          ],
          [
            -46.6719054,
            -22.8834528
          ],
          [
            -46.6721387,
            -22.883333
          ],
          [
            -46.6722876,
            -22.8832292
          ],
          [
            -46.6723412,
            -22.883139
          ],
          [
            -46.6723573,
            -22.883034
          ],
          [
            -46.6723506,
            -22.8829401
          ],
          [
            -46.6723144,
            -22.8827831
          ],
          [
            -46.6722634,
            -22.8825657
          ],
          [
            -46.6722259,
            -22.882452
          ],
          [
            -46.672191,
            -22.8823853
          ],
          [
            -46.6720609,
            -22.8823136
          ],
          [
            -46.6719215,
            -22.8822976
          ],
          [
            -46.6717914,
            -22.8823124
          ],
          [
            -46.6716559,
            -22.882347
          ],
          [
            -46.6715527,
            -22.8824026
          ],
          [
            -46.6714869,
            -22.882494
          ],
          [
            -46.6714856,
            -22.8825546
          ],
          [
            -46.6714776,
            -22.8826855
          ],
          [
            -46.6715567,
            -22.882701
          ],
          [
            -46.6716492,
            -22.8827424
          ],
          [
            -46.6717491,
            -22.8827961
          ],
          [
            -46.6718008,
            -22.8828567
          ],
          [
            -46.671841,
            -22.8829419
          ],
          [
            -46.671845,
            -22.8830537
          ],
          [
            -46.6718081,
            -22.8831408
          ],
          [
            -46.6717337,
            -22.8832131
          ],
          [
            -46.6716465,
            -22.883265
          ],
          [
            -46.6715386,
            -22.8832786
          ],
          [
            -46.6714065,
            -22.8832483
          ],
          [
            -46.6712945,
            -22.8831791
          ],
          [
            -46.6712328,
            -22.8830883
          ],
          [
            -46.6711926,
            -22.8829759
          ],
          [
            -46.6711765,
            -22.8828919
          ],
          [
            -46.6711664,
            -22.8827943
          ],
          [
            -46.6711228,
            -22.8827207
          ],
          [
            -46.6710591,
            -22.8824718
          ],
          [
            -46.6710095,
            -22.8822939
          ],
          [
            -46.6709639,
            -22.8821073
          ],
          [
            -46.6708834,
            -22.8817774
          ],
          [
            -46.6708258,
            -22.8815488
          ],
          [
            -46.670744,
            -22.8812832
          ],
          [
            -46.6706796,
            -22.8810385
          ],
          [
            -46.6706125,
            -22.8807766
          ],
          [
            -46.6705509,
            -22.8805183
          ],
          [
            -46.6705113,
            -22.8802632
          ],
          [
            -46.6704849,
            -22.8802295
          ],
          [
            -46.6704681,
            -22.880191
          ],
          [
            -46.6704618,
            -22.8801499
          ],
          [
            -46.6704663,
            -22.8801085
          ],
          [
            -46.6704815,
            -22.8800694
          ],
          [
            -46.6705063,
            -22.8800348
          ],
          [
            -46.6705395,
            -22.8800066
          ],
          [
            -46.670579,
            -22.8799866
          ],
          [
            -46.6706225,
            -22.8799758
          ],
          [
            -46.6706676,
            -22.879975
          ],
          [
            -46.6707116,
            -22.8799842
          ],
          [
            -46.6707519,
            -22.8800027
          ],
          [
            -46.6707862,
            -22.8800296
          ],
          [
            -46.6708126,
            -22.8800633
          ],
          [
            -46.6708294,
            -22.8801019
          ],
          [
            -46.6708357,
            -22.880143
          ],
          [
            -46.6708312,
            -22.8801843
          ],
          [
            -46.6710457,
            -22.8809174
          ],
          [
            -46.6711074,
            -22.8811818
          ],
          [
            -46.6711852,
            -22.8815056
          ],
          [
            -46.6712898,
            -22.8818342
          ]
        ]
      }
    }
  ]
}
