{
  "type": "FeatureCollection",
  "bbox": [
    -2.1698903,
    42.5556249,
    -2.1620776,
    42.564555
  ],
  "metadata": {
    "schemaVersion": 1,
    "trackId": "es-navarra-f7a7574d",
    "layoutId": "navarra-historical-western",
    "license": "ODbL-1.0",
    "attribution": "© OpenStreetMap contributors",
    "closed": true,
    "geometryStatus": "draft",
    "timingStatus": "missing",
    "timingMode": "shared",
    "lengthM": 2641,
    "reviewedAt": null,
    "notes": [
      "The independent 2023 Western closure joins the Northern narrow loop to the Southern triangular sector through the central connection. The 2641 m source route remains a descriptively named historical draft; current operator Medium course distances follow later reconstruction and are not substituted for this trace. Exact source coordinates are unchanged; historical alignment and direction remain provisional."
    ]
  },
  "features": [
    {
      "type": "Feature",
      "id": "trace",
      "properties": {
        "role": "trace",
        "sourceIds": [
          "osm-components-103746067"
        ]
      },
      "geometry": {
        "type": "LineString",
        "coordinates": [
          [
            -2.1645622,
            42.5590335
          ],
          [
            -2.1651204,
            42.5592175
          ],
          [
            -2.1673549,
            42.5599539
          ],
          [
            -2.1675834,
            42.5600527
          ],
          [
            -2.167747,
            42.5601362
          ],
          [
            -2.1679206,
            42.5602575
          ],
          [
            -2.1680112,
            42.5603366
          ],
          [
            -2.1680848,
            42.5604396
          ],
          [
            -2.168192,
            42.560674
          ],
          [
            -2.1683073,
            42.5609262
          ],
          [
            -2.1691474,
            42.5627628
          ],
          [
            -2.169178,
            42.5628645
          ],
          [
            -2.1691906,
            42.562971
          ],
          [
            -2.1691632,
            42.5630905
          ],
          [
            -2.1691099,
            42.5631674
          ],
          [
            -2.1689924,
            42.5633167
          ],
          [
            -2.1683081,
            42.5642472
          ],
          [
            -2.1682446,
            42.5643604
          ],
          [
            -2.1682416,
            42.564435
          ],
          [
            -2.1682875,
            42.5645016
          ],
          [
            -2.168339,
            42.564548
          ],
          [
            -2.1684452,
            42.564555
          ],
          [
            -2.1692228,
            42.5643193
          ],
          [
            -2.1693674,
            42.5642738
          ],
          [
            -2.169494,
            42.5642065
          ],
          [
            -2.169543,
            42.5641057
          ],
          [
            -2.169675,
            42.5635261
          ],
          [
            -2.1697099,
            42.5633696
          ],
          [
            -2.1698779,
            42.5627933
          ],
          [
            -2.1698903,
            42.562673
          ],
          [
            -2.1698766,
            42.5625242
          ],
          [
            -2.1698456,
            42.5624259
          ],
          [
            -2.1697551,
            42.5622612
          ],
          [
            -2.1661854,
            42.555764
          ],
          [
            -2.1661596,
            42.5557203
          ],
          [
            -2.1661221,
            42.5556847
          ],
          [
            -2.1660704,
            42.5556487
          ],
          [
            -2.1659992,
            42.5556265
          ],
          [
            -2.1659329,
            42.5556249
          ],
          [
            -2.1658529,
            42.5556372
          ],
          [
            -2.1657942,
            42.5556605
          ],
          [
            -2.1657579,
            42.5557008
          ],
          [
            -2.1657267,
            42.5557566
          ],
          [
            -2.1656968,
            42.5558107
          ],
          [
            -2.1650867,
            42.556874
          ],
          [
            -2.1650423,
            42.5569392
          ],
          [
            -2.1649988,
            42.5569989
          ],
          [
            -2.1649358,
            42.5570594
          ],
          [
            -2.1648807,
            42.5571052
          ],
          [
            -2.1648022,
            42.5571447
          ],
          [
            -2.1647341,
            42.5571734
          ],
          [
            -2.1628393,
            42.5577487
          ],
          [
            -2.1622065,
            42.5579408
          ],
          [
            -2.1621554,
            42.557966
          ],
          [
            -2.1621063,
            42.5580077
          ],
          [
            -2.1620806,
            42.5580452
          ],
          [
            -2.1620776,
            42.558128
          ],
          [
            -2.1620983,
            42.558194
          ],
          [
            -2.1621688,
            42.5582404
          ],
          [
            -2.1622653,
            42.5582801
          ],
          [
            -2.1623624,
            42.5583082
          ],
          [
            -2.1625547,
            42.5583745
          ],
          [
            -2.1627836,
            42.5584478
          ],
          [
            -2.1635624,
            42.5587043
          ],
          [
            -2.1645622,
            42.5590335
          ]
        ]
      }
    }
  ]
}
