{
  "type": "FeatureCollection",
  "bbox": [
    -2.1698903,
    42.5556249,
    -2.1609235,
    42.564555
  ],
  "metadata": {
    "schemaVersion": 1,
    "trackId": "es-navarra-f7a7574d",
    "layoutId": "navarra-historical-main",
    "license": "ODbL-1.0",
    "attribution": "© OpenStreetMap contributors",
    "closed": true,
    "geometryStatus": "draft",
    "timingStatus": "missing",
    "timingMode": "shared",
    "lengthM": 3924.9,
    "reviewedAt": null,
    "notes": [
      "The operator identifies the former 3.9 km main course before the 2024 reconstruction. This 3924.9 m pinned 2023 source route retains the Northern narrow return, central hairpin, Eastern technical return and Southern triangular sector. Later extensions, pit access and adjacent karting are excluded. Direction and fine historical corner alignment remain draft. Exact source coordinates are unchanged; historical alignment and direction remain provisional."
    ]
  },
  "features": [
    {
      "type": "Feature",
      "id": "trace",
      "properties": {
        "role": "trace",
        "sourceIds": [
          "osm-components-103746067"
        ]
      },
      "geometry": {
        "type": "LineString",
        "coordinates": [
          [
            -2.1663574,
            42.5620072
          ],
          [
            -2.1663892,
            42.5619359
          ],
          [
            -2.1664085,
            42.5618925
          ],
          [
            -2.1664226,
            42.5618305
          ],
          [
            -2.166429,
            42.5617319
          ],
          [
            -2.1664196,
            42.5616451
          ],
          [
            -2.1664085,
            42.5615758
          ],
          [
            -2.1663908,
            42.5615025
          ],
          [
            -2.1663646,
            42.5614124
          ],
          [
            -2.166319,
            42.5613358
          ],
          [
            -2.1662624,
            42.5612624
          ],
          [
            -2.1661566,
            42.5611636
          ],
          [
            -2.1660719,
            42.5610883
          ],
          [
            -2.1659949,
            42.5610257
          ],
          [
            -2.1659056,
            42.5609731
          ],
          [
            -2.1657842,
            42.5609183
          ],
          [
            -2.1656587,
            42.560873
          ],
          [
            -2.1655642,
            42.5608316
          ],
          [
            -2.1654937,
            42.56076
          ],
          [
            -2.1654673,
            42.5606845
          ],
          [
            -2.165461,
            42.5605982
          ],
          [
            -2.1654995,
            42.5605152
          ],
          [
            -2.165571,
            42.5604403
          ],
          [
            -2.1656887,
            42.5603518
          ],
          [
            -2.1658056,
            42.5602793
          ],
          [
            -2.1660382,
            42.5601564
          ],
          [
            -2.1663625,
            42.5600276
          ],
          [
            -2.1666481,
            42.5599616
          ],
          [
            -2.1668745,
            42.5599308
          ],
          [
            -2.1670944,
            42.5599205
          ],
          [
            -2.1673549,
            42.5599539
          ],
          [
            -2.1675834,
            42.5600527
          ],
          [
            -2.167747,
            42.5601362
          ],
          [
            -2.1679206,
            42.5602575
          ],
          [
            -2.1680112,
            42.5603366
          ],
          [
            -2.1680848,
            42.5604396
          ],
          [
            -2.168192,
            42.560674
          ],
          [
            -2.1683073,
            42.5609262
          ],
          [
            -2.1691474,
            42.5627628
          ],
          [
            -2.169178,
            42.5628645
          ],
          [
            -2.1691906,
            42.562971
          ],
          [
            -2.1691632,
            42.5630905
          ],
          [
            -2.1691099,
            42.5631674
          ],
          [
            -2.1689924,
            42.5633167
          ],
          [
            -2.1683081,
            42.5642472
          ],
          [
            -2.1682446,
            42.5643604
          ],
          [
            -2.1682416,
            42.564435
          ],
          [
            -2.1682875,
            42.5645016
          ],
          [
            -2.168339,
            42.564548
          ],
          [
            -2.1684452,
            42.564555
          ],
          [
            -2.1692228,
            42.5643193
          ],
          [
            -2.1693674,
            42.5642738
          ],
          [
            -2.169494,
            42.5642065
          ],
          [
            -2.169543,
            42.5641057
          ],
          [
            -2.169675,
            42.5635261
          ],
          [
            -2.1697099,
            42.5633696
          ],
          [
            -2.1698779,
            42.5627933
          ],
          [
            -2.1698903,
            42.562673
          ],
          [
            -2.1698766,
            42.5625242
          ],
          [
            -2.1698456,
            42.5624259
          ],
          [
            -2.1697551,
            42.5622612
          ],
          [
            -2.1661854,
            42.555764
          ],
          [
            -2.1661596,
            42.5557203
          ],
          [
            -2.1661221,
            42.5556847
          ],
          [
            -2.1660704,
            42.5556487
          ],
          [
            -2.1659992,
            42.5556265
          ],
          [
            -2.1659329,
            42.5556249
          ],
          [
            -2.1658529,
            42.5556372
          ],
          [
            -2.1657942,
            42.5556605
          ],
          [
            -2.1657579,
            42.5557008
          ],
          [
            -2.1657267,
            42.5557566
          ],
          [
            -2.1656968,
            42.5558107
          ],
          [
            -2.1650867,
            42.556874
          ],
          [
            -2.1650423,
            42.5569392
          ],
          [
            -2.1649988,
            42.5569989
          ],
          [
            -2.1649358,
            42.5570594
          ],
          [
            -2.1648807,
            42.5571052
          ],
          [
            -2.1648022,
            42.5571447
          ],
          [
            -2.1647341,
            42.5571734
          ],
          [
            -2.1628393,
            42.5577487
          ],
          [
            -2.1622065,
            42.5579408
          ],
          [
            -2.1621554,
            42.557966
          ],
          [
            -2.1621063,
            42.5580077
          ],
          [
            -2.1620806,
            42.5580452
          ],
          [
            -2.1620776,
            42.558128
          ],
          [
            -2.1620983,
            42.558194
          ],
          [
            -2.1621688,
            42.5582404
          ],
          [
            -2.1622653,
            42.5582801
          ],
          [
            -2.1623624,
            42.5583082
          ],
          [
            -2.1625547,
            42.5583745
          ],
          [
            -2.1627836,
            42.5584478
          ],
          [
            -2.1635624,
            42.5587043
          ],
          [
            -2.1645622,
            42.5590335
          ],
          [
            -2.1646146,
            42.5590686
          ],
          [
            -2.1646506,
            42.5591021
          ],
          [
            -2.164673,
            42.5591352
          ],
          [
            -2.164689,
            42.5591717
          ],
          [
            -2.1646943,
            42.5592052
          ],
          [
            -2.1646958,
            42.559244
          ],
          [
            -2.1646839,
            42.5592832
          ],
          [
            -2.1646695,
            42.5593097
          ],
          [
            -2.1646058,
            42.559401
          ],
          [
            -2.164024,
            42.5602344
          ],
          [
            -2.1639858,
            42.5602765
          ],
          [
            -2.1639568,
            42.5603132
          ],
          [
            -2.1639046,
            42.5603574
          ],
          [
            -2.1638396,
            42.5603789
          ],
          [
            -2.1637708,
            42.5603852
          ],
          [
            -2.1636982,
            42.5603773
          ],
          [
            -2.1636336,
            42.5603574
          ],
          [
            -2.1634584,
            42.5601441
          ],
          [
            -2.1629309,
            42.5595481
          ],
          [
            -2.1628587,
            42.5594956
          ],
          [
            -2.1627979,
            42.5594507
          ],
          [
            -2.1627246,
            42.559411
          ],
          [
            -2.1626508,
            42.5593721
          ],
          [
            -2.1625765,
            42.5593394
          ],
          [
            -2.162501,
            42.5593219
          ],
          [
            -2.1623793,
            42.5592981
          ],
          [
            -2.1621625,
            42.5592843
          ],
          [
            -2.1619779,
            42.5592821
          ],
          [
            -2.1618666,
            42.559284
          ],
          [
            -2.1617236,
            42.5592926
          ],
          [
            -2.1615644,
            42.5593138
          ],
          [
            -2.1614166,
            42.559338
          ],
          [
            -2.1612391,
            42.5593805
          ],
          [
            -2.1611779,
            42.5593961
          ],
          [
            -2.1611012,
            42.5594228
          ],
          [
            -2.1610297,
            42.5594577
          ],
          [
            -2.1609699,
            42.5594985
          ],
          [
            -2.1609464,
            42.5595405
          ],
          [
            -2.1609294,
            42.5595829
          ],
          [
            -2.1609235,
            42.5596122
          ],
          [
            -2.160931,
            42.5596514
          ],
          [
            -2.1609513,
            42.5596916
          ],
          [
            -2.160971,
            42.5597149
          ],
          [
            -2.1653576,
            42.5630016
          ],
          [
            -2.1654136,
            42.5630243
          ],
          [
            -2.1654835,
            42.5630333
          ],
          [
            -2.1655404,
            42.5630355
          ],
          [
            -2.1656078,
            42.5630287
          ],
          [
            -2.1656567,
            42.5630048
          ],
          [
            -2.1657039,
            42.5629811
          ],
          [
            -2.1657333,
            42.5629551
          ],
          [
            -2.1663052,
            42.5621066
          ],
          [
            -2.1663574,
            42.5620072
          ]
        ]
      }
    }
  ]
}
