{
  "type": "FeatureCollection",
  "bbox": [
    10.0011158,
    45.5095855,
    10.0094831,
    45.5139443
  ],
  "metadata": {
    "schemaVersion": 1,
    "trackId": "it-franciacorta-circuit-83179212",
    "layoutId": "main",
    "license": "ODbL-1.0",
    "attribution": "© OpenStreetMap contributors",
    "closed": true,
    "geometryStatus": "draft",
    "timingStatus": "missing",
    "timingMode": "shared",
    "lengthM": 2524.5,
    "reviewedAt": null,
    "notes": [
      "Closed named OSM raceway retained as a course candidate. Named-layout association requires review.",
      "Source way order and shared node IDs are retained. No nearby endpoints are joined and no Racelogic boundaries are read."
    ]
  },
  "features": [
    {
      "type": "Feature",
      "id": "trace",
      "properties": {
        "role": "trace",
        "sourceIds": [
          "osm-snapshot"
        ]
      },
      "geometry": {
        "type": "LineString",
        "coordinates": [
          [
            10.0040795,
            45.5125141
          ],
          [
            10.004015,
            45.5124692
          ],
          [
            10.0039808,
            45.5123971
          ],
          [
            10.0039567,
            45.5122656
          ],
          [
            10.003922,
            45.512194
          ],
          [
            10.0038539,
            45.5121476
          ],
          [
            10.0037751,
            45.512122
          ],
          [
            10.0030017,
            45.5121035
          ],
          [
            10.0029035,
            45.5121012
          ],
          [
            10.0027685,
            45.5121248
          ],
          [
            10.0026639,
            45.5121623
          ],
          [
            10.002571,
            45.5122107
          ],
          [
            10.0024915,
            45.5122878
          ],
          [
            10.002293,
            45.5125734
          ],
          [
            10.0022321,
            45.5126269
          ],
          [
            10.0021217,
            45.5126492
          ],
          [
            10.0019986,
            45.5126446
          ],
          [
            10.0018888,
            45.5126056
          ],
          [
            10.0018177,
            45.5125287
          ],
          [
            10.00173,
            45.5121062
          ],
          [
            10.0017537,
            45.5119201
          ],
          [
            10.0018329,
            45.5117545
          ],
          [
            10.001955,
            45.5116163
          ],
          [
            10.0021188,
            45.5114991
          ],
          [
            10.0022911,
            45.5114037
          ],
          [
            10.0033177,
            45.510955
          ],
          [
            10.0034686,
            45.5108416
          ],
          [
            10.0035652,
            45.5106899
          ],
          [
            10.0035901,
            45.5105191
          ],
          [
            10.0035537,
            45.5103659
          ],
          [
            10.00346,
            45.5102328
          ],
          [
            10.0033247,
            45.5101234
          ],
          [
            10.0031634,
            45.5100541
          ],
          [
            10.0014461,
            45.5095855
          ],
          [
            10.0013238,
            45.5095909
          ],
          [
            10.0011963,
            45.5096274
          ],
          [
            10.001139,
            45.5097131
          ],
          [
            10.0011158,
            45.5098264
          ],
          [
            10.0012791,
            45.5129139
          ],
          [
            10.0013202,
            45.5136917
          ],
          [
            10.0013631,
            45.5137998
          ],
          [
            10.0014379,
            45.5138851
          ],
          [
            10.0015362,
            45.5139234
          ],
          [
            10.0016465,
            45.5139443
          ],
          [
            10.0017688,
            45.5139382
          ],
          [
            10.0018549,
            45.5139017
          ],
          [
            10.0019151,
            45.5138399
          ],
          [
            10.001943,
            45.5137519
          ],
          [
            10.00193,
            45.5136534
          ],
          [
            10.001891,
            45.5134547
          ],
          [
            10.0019118,
            45.5133416
          ],
          [
            10.0019821,
            45.5132687
          ],
          [
            10.0020809,
            45.5132231
          ],
          [
            10.0021928,
            45.5132049
          ],
          [
            10.0056767,
            45.5132278
          ],
          [
            10.0069947,
            45.51322
          ],
          [
            10.0076711,
            45.5131959
          ],
          [
            10.0083795,
            45.513178
          ],
          [
            10.0089539,
            45.5131607
          ],
          [
            10.009104,
            45.5131158
          ],
          [
            10.0092251,
            45.5130326
          ],
          [
            10.0092962,
            45.5129351
          ],
          [
            10.0094324,
            45.512284
          ],
          [
            10.0094831,
            45.5120085
          ],
          [
            10.0094666,
            45.5119195
          ],
          [
            10.0094037,
            45.5118372
          ],
          [
            10.0093173,
            45.5117833
          ],
          [
            10.0091944,
            45.5117419
          ],
          [
            10.007676,
            45.5116668
          ],
          [
            10.0075431,
            45.511674
          ],
          [
            10.0074378,
            45.5117004
          ],
          [
            10.0073542,
            45.5117608
          ],
          [
            10.0073094,
            45.511807
          ],
          [
            10.0070752,
            45.5122965
          ],
          [
            10.0070248,
            45.5123547
          ],
          [
            10.0069383,
            45.512404
          ],
          [
            10.0068203,
            45.5124271
          ],
          [
            10.004199,
            45.5125349
          ],
          [
            10.0040795,
            45.5125141
          ]
        ]
      }
    }
  ]
}
