{
  "type": "FeatureCollection",
  "bbox": [
    -56.7212134,
    -36.7162487,
    -56.7138928,
    -36.7007301
  ],
  "metadata": {
    "schemaVersion": 1,
    "trackId": "ar-autodromo-luis-ruben-di-palma-144463794",
    "layoutId": "main",
    "license": "ODbL-1.0",
    "attribution": "© OpenStreetMap contributors",
    "closed": true,
    "geometryStatus": "draft",
    "timingStatus": "missing",
    "timingMode": "shared",
    "lengthM": 5000.7,
    "reviewedAt": null,
    "notes": [
      "Connected OSM course candidate. The selected loop is the longest simple source-node cycle after explicit exclusions; its association with a named circuit configuration requires review.",
      "Source way order and shared node IDs are retained. No nearby endpoints are joined and no reference boundaries are read.",
      "Some source ways lack one-way direction tags. Travel direction is provisional."
    ]
  },
  "features": [
    {
      "type": "Feature",
      "id": "trace",
      "properties": {
        "role": "trace",
        "sourceIds": [
          "osm-snapshot"
        ]
      },
      "geometry": {
        "type": "LineString",
        "coordinates": [
          [
            -56.720906,
            -36.7019185
          ],
          [
            -56.720745,
            -36.7016035
          ],
          [
            -56.7205163,
            -36.701324
          ],
          [
            -56.7201786,
            -36.7010707
          ],
          [
            -56.7198191,
            -36.7008698
          ],
          [
            -56.7194378,
            -36.7007737
          ],
          [
            -56.7190566,
            -36.7007301
          ],
          [
            -56.7186644,
            -36.700765
          ],
          [
            -56.7182722,
            -36.7008698
          ],
          [
            -56.7148953,
            -36.7020314
          ],
          [
            -56.7146665,
            -36.7021449
          ],
          [
            -56.7144064,
            -36.7023256
          ],
          [
            -56.7141785,
            -36.7025063
          ],
          [
            -56.7139694,
            -36.7027301
          ],
          [
            -56.7138931,
            -36.7029572
          ],
          [
            -56.7138928,
            -36.7032252
          ],
          [
            -56.7139585,
            -36.7035064
          ],
          [
            -56.7141437,
            -36.7037257
          ],
          [
            -56.7143021,
            -36.7038261
          ],
          [
            -56.7145249,
            -36.7039092
          ],
          [
            -56.7171284,
            -36.7047301
          ],
          [
            -56.7174226,
            -36.7048611
          ],
          [
            -56.7175581,
            -36.7049876
          ],
          [
            -56.7176077,
            -36.7050969
          ],
          [
            -56.7177276,
            -36.7058393
          ],
          [
            -56.7184683,
            -36.7114983
          ],
          [
            -56.7185664,
            -36.7123977
          ],
          [
            -56.7186052,
            -36.7125639
          ],
          [
            -56.7187298,
            -36.7127732
          ],
          [
            -56.7189694,
            -36.7129741
          ],
          [
            -56.7187189,
            -36.7129828
          ],
          [
            -56.7185723,
            -36.7130177
          ],
          [
            -56.718474,
            -36.7130484
          ],
          [
            -56.7184247,
            -36.7128431
          ],
          [
            -56.7183424,
            -36.7126902
          ],
          [
            -56.7181742,
            -36.7125374
          ],
          [
            -56.7177557,
            -36.712236
          ],
          [
            -56.7171938,
            -36.7118912
          ],
          [
            -56.7168125,
            -36.7116467
          ],
          [
            -56.7165511,
            -36.7115332
          ],
          [
            -56.7162352,
            -36.7114721
          ],
          [
            -56.7158975,
            -36.711507
          ],
          [
            -56.7155707,
            -36.711638
          ],
          [
            -56.7152875,
            -36.7118563
          ],
          [
            -56.7150987,
            -36.712144
          ],
          [
            -56.7139367,
            -36.7147206
          ],
          [
            -56.7138931,
            -36.7148952
          ],
          [
            -56.7139258,
            -36.715262
          ],
          [
            -56.7140347,
            -36.7155589
          ],
          [
            -56.7141496,
            -36.715716
          ],
          [
            -56.7143288,
            -36.7158645
          ],
          [
            -56.7144873,
            -36.7159736
          ],
          [
            -56.7147101,
            -36.7160828
          ],
          [
            -56.7152221,
            -36.7162225
          ],
          [
            -56.7156905,
            -36.7162487
          ],
          [
            -56.7161807,
            -36.7161876
          ],
          [
            -56.7165729,
            -36.7160566
          ],
          [
            -56.716965,
            -36.7158208
          ],
          [
            -56.7172809,
            -36.7155239
          ],
          [
            -56.7174552,
            -36.7152532
          ],
          [
            -56.7175424,
            -36.7150087
          ],
          [
            -56.7176077,
            -36.7145546
          ],
          [
            -56.7176731,
            -36.7139783
          ],
          [
            -56.7177278,
            -36.7138343
          ],
          [
            -56.7178147,
            -36.7137076
          ],
          [
            -56.7181197,
            -36.713498
          ],
          [
            -56.7186163,
            -36.7133153
          ],
          [
            -56.7193812,
            -36.7132103
          ],
          [
            -56.7198082,
            -36.7131225
          ],
          [
            -56.7201459,
            -36.7129828
          ],
          [
            -56.7203964,
            -36.7128082
          ],
          [
            -56.7204945,
            -36.7125986
          ],
          [
            -56.720647,
            -36.7118301
          ],
          [
            -56.7206522,
            -36.711699
          ],
          [
            -56.7206252,
            -36.7115507
          ],
          [
            -56.7204182,
            -36.7109918
          ],
          [
            -56.7204236,
            -36.7108557
          ],
          [
            -56.7204945,
            -36.7105115
          ],
          [
            -56.7210283,
            -36.7070357
          ],
          [
            -56.7208952,
            -36.7066753
          ],
          [
            -56.7211595,
            -36.7049583
          ],
          [
            -56.7212134,
            -36.7046078
          ],
          [
            -56.7212134,
            -36.7043808
          ],
          [
            -56.7211263,
            -36.7042323
          ],
          [
            -56.7208322,
            -36.7038655
          ],
          [
            -56.7207781,
            -36.7037042
          ],
          [
            -56.7207777,
            -36.703586
          ],
          [
            -56.7208199,
            -36.7033422
          ],
          [
            -56.720906,
            -36.7027543
          ],
          [
            -56.7209698,
            -36.7022596
          ],
          [
            -56.720906,
            -36.7019185
          ]
        ]
      }
    }
  ]
}
