{
  "type": "FeatureCollection",
  "bbox": [
    -86.2389575,
    39.7881201,
    -86.2303276,
    39.801918
  ],
  "metadata": {
    "schemaVersion": 1,
    "trackId": "us-indianapolis-motor-speedway-51308226",
    "layoutId": "main",
    "license": "ODbL-1.0",
    "attribution": "© OpenStreetMap contributors",
    "closed": true,
    "geometryStatus": "draft",
    "timingStatus": "missing",
    "timingMode": "shared",
    "lengthM": 7347,
    "reviewedAt": null,
    "notes": [
      "Connected OSM course candidate. The selected loop is the longest simple source-node cycle after explicit exclusions; its association with a named circuit configuration requires review.",
      "Source way order and shared node IDs are retained. No nearby endpoints are joined and no Racelogic boundaries are read.",
      "Some source ways lack one-way direction tags. Travel direction is provisional."
    ]
  },
  "features": [
    {
      "type": "Feature",
      "id": "trace",
      "properties": {
        "role": "trace",
        "sourceIds": [
          "osm-snapshot"
        ]
      },
      "geometry": {
        "type": "LineString",
        "coordinates": [
          [
            -86.2375148,
            39.8005371
          ],
          [
            -86.2374804,
            39.8005844
          ],
          [
            -86.2374379,
            39.8006319
          ],
          [
            -86.2373917,
            39.8006795
          ],
          [
            -86.2373364,
            39.800729
          ],
          [
            -86.2372811,
            39.8007714
          ],
          [
            -86.2372186,
            39.8008196
          ],
          [
            -86.2371281,
            39.8008764
          ],
          [
            -86.2370574,
            39.800915
          ],
          [
            -86.2369832,
            39.8009491
          ],
          [
            -86.2368325,
            39.8010067
          ],
          [
            -86.2364743,
            39.8011365
          ],
          [
            -86.2362682,
            39.8012082
          ],
          [
            -86.2362502,
            39.8012138
          ],
          [
            -86.2362355,
            39.801218
          ],
          [
            -86.2361997,
            39.8012255
          ],
          [
            -86.2361645,
            39.8012306
          ],
          [
            -86.2361286,
            39.8012343
          ],
          [
            -86.2360914,
            39.8012351
          ],
          [
            -86.236059,
            39.8012329
          ],
          [
            -86.2360256,
            39.8012287
          ],
          [
            -86.2359917,
            39.8012224
          ],
          [
            -86.2359624,
            39.8012153
          ],
          [
            -86.2359377,
            39.801208
          ],
          [
            -86.2359073,
            39.8011965
          ],
          [
            -86.2358808,
            39.8011843
          ],
          [
            -86.2358029,
            39.8011435
          ],
          [
            -86.2357277,
            39.8011014
          ],
          [
            -86.2356515,
            39.8010412
          ],
          [
            -86.2356004,
            39.8009907
          ],
          [
            -86.2355585,
            39.8009397
          ],
          [
            -86.2355307,
            39.8009029
          ],
          [
            -86.2355114,
            39.8008666
          ],
          [
            -86.2354921,
            39.8008272
          ],
          [
            -86.2354732,
            39.8007729
          ],
          [
            -86.2354624,
            39.8007131
          ],
          [
            -86.2354569,
            39.8006402
          ],
          [
            -86.2354539,
            39.8004659
          ],
          [
            -86.2354527,
            39.8002445
          ],
          [
            -86.2354434,
            39.7997837
          ],
          [
            -86.2354432,
            39.799673
          ],
          [
            -86.2354495,
            39.7996118
          ],
          [
            -86.235468,
            39.7995479
          ],
          [
            -86.2354873,
            39.7995035
          ],
          [
            -86.2355102,
            39.7994609
          ],
          [
            -86.2355434,
            39.7994139
          ],
          [
            -86.2355798,
            39.7993708
          ],
          [
            -86.2356229,
            39.7993313
          ],
          [
            -86.2356768,
            39.799292
          ],
          [
            -86.2357545,
            39.7992428
          ],
          [
            -86.2358541,
            39.7991876
          ],
          [
            -86.2368221,
            39.7986533
          ],
          [
            -86.2370475,
            39.798535
          ],
          [
            -86.2371236,
            39.7984853
          ],
          [
            -86.2372007,
            39.7984245
          ],
          [
            -86.2372563,
            39.7983594
          ],
          [
            -86.2372952,
            39.7982896
          ],
          [
            -86.2373241,
            39.7982132
          ],
          [
            -86.2373314,
            39.7981508
          ],
          [
            -86.237324,
            39.7980853
          ],
          [
            -86.2373101,
            39.7980311
          ],
          [
            -86.2372896,
            39.7979762
          ],
          [
            -86.2372667,
            39.7979283
          ],
          [
            -86.2372339,
            39.7978827
          ],
          [
            -86.2371816,
            39.7978284
          ],
          [
            -86.2371587,
            39.7978067
          ],
          [
            -86.2371234,
            39.7977788
          ],
          [
            -86.2370562,
            39.7977346
          ],
          [
            -86.2369975,
            39.7976992
          ],
          [
            -86.2369357,
            39.7976707
          ],
          [
            -86.2368586,
            39.7976432
          ],
          [
            -86.2367818,
            39.7976215
          ],
          [
            -86.2366807,
            39.7976056
          ],
          [
            -86.2365814,
            39.7976013
          ],
          [
            -86.2365171,
            39.7976015
          ],
          [
            -86.2364625,
            39.7976066
          ],
          [
            -86.236375,
            39.7976211
          ],
          [
            -86.2362785,
            39.797644
          ],
          [
            -86.236204,
            39.7976728
          ],
          [
            -86.2361038,
            39.7977264
          ],
          [
            -86.2358,
            39.7978902
          ],
          [
            -86.2357045,
            39.797931
          ],
          [
            -86.2356413,
            39.7979508
          ],
          [
            -86.2355727,
            39.7979623
          ],
          [
            -86.235504,
            39.7979624
          ],
          [
            -86.2354334,
            39.7979527
          ],
          [
            -86.2353766,
            39.7979365
          ],
          [
            -86.2353246,
            39.7979151
          ],
          [
            -86.2352818,
            39.7978935
          ],
          [
            -86.2352349,
            39.7978647
          ],
          [
            -86.2351926,
            39.7978318
          ],
          [
            -86.2351571,
            39.797798
          ],
          [
            -86.2351249,
            39.7977625
          ],
          [
            -86.2350936,
            39.7977236
          ],
          [
            -86.2350703,
            39.7976846
          ],
          [
            -86.235047,
            39.7976461
          ],
          [
            -86.235026,
            39.7976012
          ],
          [
            -86.2350103,
            39.7975563
          ],
          [
            -86.2349939,
            39.7974949
          ],
          [
            -86.2349829,
            39.7974336
          ],
          [
            -86.2349771,
            39.7971283
          ],
          [
            -86.2349399,
            39.7946664
          ],
          [
            -86.2349132,
            39.7928071
          ],
          [
            -86.2349197,
            39.7924355
          ],
          [
            -86.2349041,
            39.7923339
          ],
          [
            -86.2348853,
            39.7922913
          ],
          [
            -86.2348524,
            39.7922615
          ],
          [
            -86.2348309,
            39.7922426
          ],
          [
            -86.234784,
            39.7922215
          ],
          [
            -86.2346787,
            39.7922138
          ],
          [
            -86.2338626,
            39.7922389
          ],
          [
            -86.2335119,
            39.7922486
          ],
          [
            -86.2333816,
            39.7922345
          ],
          [
            -86.2332512,
            39.7921956
          ],
          [
            -86.2331506,
            39.7921497
          ],
          [
            -86.2330537,
            39.7920777
          ],
          [
            -86.2330052,
            39.7920255
          ],
          [
            -86.2329701,
            39.791965
          ],
          [
            -86.2329435,
            39.7919011
          ],
          [
            -86.2329174,
            39.7918276
          ],
          [
            -86.2328511,
            39.7917178
          ],
          [
            -86.2328024,
            39.7916691
          ],
          [
            -86.2327403,
            39.7916266
          ],
          [
            -86.2326109,
            39.7915713
          ],
          [
            -86.2325334,
            39.7915526
          ],
          [
            -86.2324559,
            39.7915421
          ],
          [
            -86.232277,
            39.7915395
          ],
          [
            -86.2318871,
            39.7915609
          ],
          [
            -86.2314998,
            39.7915802
          ],
          [
            -86.2314161,
            39.7915821
          ],
          [
            -86.231351,
            39.7915729
          ],
          [
            -86.2313015,
            39.7915609
          ],
          [
            -86.2312589,
            39.7915409
          ],
          [
            -86.2312286,
            39.7915227
          ],
          [
            -86.2311979,
            39.7915009
          ],
          [
            -86.2311672,
            39.791473
          ],
          [
            -86.2311373,
            39.7914323
          ],
          [
            -86.2311136,
            39.7913952
          ],
          [
            -86.2310905,
            39.791354
          ],
          [
            -86.2310655,
            39.7913029
          ],
          [
            -86.2310438,
            39.7912497
          ],
          [
            -86.2310095,
            39.7911537
          ],
          [
            -86.230981,
            39.7910504
          ],
          [
            -86.2309695,
            39.7909916
          ],
          [
            -86.2309633,
            39.7909228
          ],
          [
            -86.2309596,
            39.7908335
          ],
          [
            -86.2309669,
            39.790746
          ],
          [
            -86.2309762,
            39.7906643
          ],
          [
            -86.2310747,
            39.7901647
          ],
          [
            -86.2311513,
            39.7897667
          ],
          [
            -86.2311961,
            39.7895468
          ],
          [
            -86.2312087,
            39.7894939
          ],
          [
            -86.2312257,
            39.7894364
          ],
          [
            -86.231253,
            39.7893631
          ],
          [
            -86.2312757,
            39.789306
          ],
          [
            -86.2312997,
            39.7892572
          ],
          [
            -86.2313416,
            39.789171
          ],
          [
            -86.2313996,
            39.7890791
          ],
          [
            -86.2314507,
            39.7890097
          ],
          [
            -86.2315421,
            39.7889115
          ],
          [
            -86.2316364,
            39.7888263
          ],
          [
            -86.2317261,
            39.7887499
          ],
          [
            -86.2318206,
            39.7886671
          ],
          [
            -86.2320433,
            39.7885268
          ],
          [
            -86.2321765,
            39.7884663
          ],
          [
            -86.2323221,
            39.788409
          ],
          [
            -86.232473,
            39.7883597
          ],
          [
            -86.2326571,
            39.7883145
          ],
          [
            -86.2327682,
            39.7882922
          ],
          [
            -86.232894,
            39.7882695
          ],
          [
            -86.2331825,
            39.7882357
          ],
          [
            -86.2350456,
            39.7881631
          ],
          [
            -86.2352445,
            39.7881858
          ],
          [
            -86.2352963,
            39.7882088
          ],
          [
            -86.235368,
            39.7882453
          ],
          [
            -86.2355672,
            39.7882928
          ],
          [
            -86.2357528,
            39.7883569
          ],
          [
            -86.2359,
            39.7884259
          ],
          [
            -86.2359518,
            39.788463
          ],
          [
            -86.2359862,
            39.7884929
          ],
          [
            -86.2360111,
            39.7885316
          ],
          [
            -86.2360252,
            39.7885745
          ],
          [
            -86.2360255,
            39.7886116
          ],
          [
            -86.2360138,
            39.7886477
          ],
          [
            -86.2359985,
            39.7886858
          ],
          [
            -86.2359752,
            39.7887197
          ],
          [
            -86.2359341,
            39.7887572
          ],
          [
            -86.2358737,
            39.7887862
          ],
          [
            -86.2357943,
            39.7888066
          ],
          [
            -86.2356822,
            39.7888283
          ],
          [
            -86.2356161,
            39.7888451
          ],
          [
            -86.2355607,
            39.7888701
          ],
          [
            -86.2355005,
            39.7889061
          ],
          [
            -86.235451,
            39.7889462
          ],
          [
            -86.2353753,
            39.7890236
          ],
          [
            -86.2353127,
            39.7891132
          ],
          [
            -86.2352843,
            39.7892142
          ],
          [
            -86.2352996,
            39.7893155
          ],
          [
            -86.2353303,
            39.7893848
          ],
          [
            -86.2353763,
            39.7894504
          ],
          [
            -86.2354446,
            39.789524
          ],
          [
            -86.2355057,
            39.7895672
          ],
          [
            -86.2355469,
            39.7895829
          ],
          [
            -86.2355787,
            39.7895897
          ],
          [
            -86.2356208,
            39.789596
          ],
          [
            -86.2356699,
            39.7895928
          ],
          [
            -86.2357218,
            39.7895794
          ],
          [
            -86.2357978,
            39.7895567
          ],
          [
            -86.2366945,
            39.7892766
          ],
          [
            -86.2368211,
            39.7892486
          ],
          [
            -86.2369568,
            39.7892234
          ],
          [
            -86.2370284,
            39.7892167
          ],
          [
            -86.2371296,
            39.7892105
          ],
          [
            -86.2372597,
            39.7892125
          ],
          [
            -86.2373683,
            39.7892239
          ],
          [
            -86.2374769,
            39.7892393
          ],
          [
            -86.2375654,
            39.7892579
          ],
          [
            -86.2376607,
            39.7892847
          ],
          [
            -86.2377626,
            39.7893228
          ],
          [
            -86.2378565,
            39.7893609
          ],
          [
            -86.2379557,
            39.7894135
          ],
          [
            -86.2380925,
            39.7895052
          ],
          [
            -86.2381837,
            39.7895835
          ],
          [
            -86.238291,
            39.7896866
          ],
          [
            -86.238411,
            39.7898546
          ],
          [
            -86.2385791,
            39.7901249
          ],
          [
            -86.2386713,
            39.7903181
          ],
          [
            -86.2387041,
            39.7903944
          ],
          [
            -86.2387276,
            39.7904727
          ],
          [
            -86.2387571,
            39.790617
          ],
          [
            -86.2387866,
            39.7907922
          ],
          [
            -86.2388108,
            39.7909921
          ],
          [
            -86.2388197,
            39.7912315
          ],
          [
            -86.2388217,
            39.7913269
          ],
          [
            -86.2388225,
            39.7915101
          ],
          [
            -86.2388253,
            39.7916763
          ],
          [
            -86.238828,
            39.7918777
          ],
          [
            -86.2388354,
            39.7923488
          ],
          [
            -86.2388387,
            39.7925851
          ],
          [
            -86.2388408,
            39.7928296
          ],
          [
            -86.2388449,
            39.7930691
          ],
          [
            -86.2388466,
            39.7931571
          ],
          [
            -86.238857,
            39.7931571
          ],
          [
            -86.2388282,
            39.7912311
          ],
          [
            -86.2388226,
            39.7907287
          ],
          [
            -86.2388184,
            39.7905799
          ],
          [
            -86.2388131,
            39.7904865
          ],
          [
            -86.2387926,
            39.790224
          ],
          [
            -86.2387574,
            39.7900167
          ],
          [
            -86.2386817,
            39.789757
          ],
          [
            -86.2386067,
            39.7895884
          ],
          [
            -86.2385308,
            39.789447
          ],
          [
            -86.2384122,
            39.789291
          ],
          [
            -86.2382709,
            39.7891218
          ],
          [
            -86.2381193,
            39.7889686
          ],
          [
            -86.237791,
            39.7887025
          ],
          [
            -86.2374517,
            39.7885008
          ],
          [
            -86.2372349,
            39.7883972
          ],
          [
            -86.2370016,
            39.7883103
          ],
          [
            -86.2367739,
            39.7882347
          ],
          [
            -86.2365349,
            39.7881786
          ],
          [
            -86.2362961,
            39.7881431
          ],
          [
            -86.2360296,
            39.7881203
          ],
          [
            -86.2356222,
            39.7881201
          ],
          [
            -86.2351956,
            39.7881224
          ],
          [
            -86.2344085,
            39.7881275
          ],
          [
            -86.2331666,
            39.7881386
          ],
          [
            -86.2328519,
            39.7881658
          ],
          [
            -86.2325816,
            39.7882081
          ],
          [
            -86.2323526,
            39.7882613
          ],
          [
            -86.2321355,
            39.7883305
          ],
          [
            -86.2318751,
            39.7884313
          ],
          [
            -86.2316948,
            39.788522
          ],
          [
            -86.2315535,
            39.7886008
          ],
          [
            -86.2314109,
            39.7886899
          ],
          [
            -86.2312791,
            39.7887841
          ],
          [
            -86.2311539,
            39.7888784
          ],
          [
            -86.2309156,
            39.789085
          ],
          [
            -86.2307707,
            39.7892526
          ],
          [
            -86.2306474,
            39.7894073
          ],
          [
            -86.2305358,
            39.7896086
          ],
          [
            -86.230425,
            39.789854
          ],
          [
            -86.2303816,
            39.7899811
          ],
          [
            -86.2303543,
            39.7900899
          ],
          [
            -86.2303357,
            39.7902162
          ],
          [
            -86.2303276,
            39.7903426
          ],
          [
            -86.2303324,
            39.7906151
          ],
          [
            -86.2303293,
            39.7912849
          ],
          [
            -86.2303579,
            39.7927418
          ],
          [
            -86.2304581,
            39.7981062
          ],
          [
            -86.2304766,
            39.7992151
          ],
          [
            -86.230482,
            39.7995376
          ],
          [
            -86.2304972,
            39.799799
          ],
          [
            -86.2305129,
            39.7999227
          ],
          [
            -86.2305384,
            39.8000506
          ],
          [
            -86.2305654,
            39.8001528
          ],
          [
            -86.2305968,
            39.8002386
          ],
          [
            -86.2306452,
            39.8003547
          ],
          [
            -86.2306907,
            39.8004504
          ],
          [
            -86.2307649,
            39.800584
          ],
          [
            -86.2308549,
            39.8007173
          ],
          [
            -86.2309195,
            39.8007962
          ],
          [
            -86.2310237,
            39.800913
          ],
          [
            -86.2311477,
            39.8010425
          ],
          [
            -86.2312921,
            39.801171
          ],
          [
            -86.2314227,
            39.8012728
          ],
          [
            -86.2315491,
            39.8013578
          ],
          [
            -86.2316337,
            39.8014135
          ],
          [
            -86.2317213,
            39.8014684
          ],
          [
            -86.2318934,
            39.8015637
          ],
          [
            -86.2320284,
            39.8016293
          ],
          [
            -86.2322324,
            39.8017152
          ],
          [
            -86.232398,
            39.8017729
          ],
          [
            -86.2325712,
            39.8018191
          ],
          [
            -86.2327548,
            39.8018572
          ],
          [
            -86.2329397,
            39.8018852
          ],
          [
            -86.2331821,
            39.8019082
          ],
          [
            -86.2333572,
            39.8019146
          ],
          [
            -86.2335336,
            39.801918
          ],
          [
            -86.2358445,
            39.8018998
          ],
          [
            -86.2361085,
            39.8018982
          ],
          [
            -86.236275,
            39.8018903
          ],
          [
            -86.2364592,
            39.8018724
          ],
          [
            -86.2366662,
            39.8018379
          ],
          [
            -86.2368761,
            39.8017865
          ],
          [
            -86.2370695,
            39.8017302
          ],
          [
            -86.2372648,
            39.801661
          ],
          [
            -86.237441,
            39.8015917
          ],
          [
            -86.2376398,
            39.8014966
          ],
          [
            -86.2378012,
            39.8014016
          ],
          [
            -86.2379593,
            39.8012988
          ],
          [
            -86.2380918,
            39.8012063
          ],
          [
            -86.2382088,
            39.8011095
          ],
          [
            -86.238323,
            39.8009963
          ],
          [
            -86.2384065,
            39.8009018
          ],
          [
            -86.2385479,
            39.8007335
          ],
          [
            -86.2386728,
            39.8005461
          ],
          [
            -86.2387889,
            39.8003281
          ],
          [
            -86.2388418,
            39.8002018
          ],
          [
            -86.2388898,
            39.8000546
          ],
          [
            -86.238935,
            39.7998548
          ],
          [
            -86.2389534,
            39.7997063
          ],
          [
            -86.2389557,
            39.7995578
          ],
          [
            -86.2389566,
            39.7994186
          ],
          [
            -86.2389575,
            39.7993289
          ],
          [
            -86.2389528,
            39.7989239
          ],
          [
            -86.2389368,
            39.7983761
          ],
          [
            -86.2389183,
            39.7973536
          ],
          [
            -86.2389049,
            39.7976908
          ],
          [
            -86.2387311,
            39.7992588
          ],
          [
            -86.2387195,
            39.7993691
          ],
          [
            -86.2386971,
            39.7994872
          ],
          [
            -86.238633,
            39.7996088
          ],
          [
            -86.238586,
            39.7996868
          ],
          [
            -86.2385071,
            39.7997533
          ],
          [
            -86.2384414,
            39.7997926
          ],
          [
            -86.2383746,
            39.799817
          ],
          [
            -86.2382924,
            39.7998358
          ],
          [
            -86.2381215,
            39.7998461
          ],
          [
            -86.2380325,
            39.7998597
          ],
          [
            -86.2379433,
            39.7998885
          ],
          [
            -86.2378603,
            39.7999282
          ],
          [
            -86.2377876,
            39.7999741
          ],
          [
            -86.237737,
            39.8000379
          ],
          [
            -86.2376869,
            39.8001523
          ],
          [
            -86.2376721,
            39.8002111
          ],
          [
            -86.2376566,
            39.8002574
          ],
          [
            -86.2376309,
            39.8003266
          ],
          [
            -86.2375979,
            39.8003989
          ],
          [
            -86.2375718,
            39.8004488
          ],
          [
            -86.2375427,
            39.8004964
          ],
          [
            -86.2375148,
            39.8005371
          ]
        ]
      }
    }
  ]
}
