{
  "type": "FeatureCollection",
  "bbox": [
    4.6473896,
    50.2996422,
    4.6560309,
    50.3022198
  ],
  "metadata": {
    "schemaVersion": 1,
    "trackId": "be-mettet-4f8315c9",
    "layoutId": "mettet",
    "license": "ODbL-1.0",
    "attribution": "© OpenStreetMap contributors",
    "closed": true,
    "geometryStatus": "draft",
    "timingStatus": "missing",
    "timingMode": "shared",
    "lengthM": 2284.5,
    "reviewedAt": null,
    "notes": [
      "Draft route hypothesis: the source cycle is the unique closest nominal-distance match within conservative timing and distance checks. Approximate OSM trace length 2284.5 m. Difference from the supplied layout distance 2.5 m. Course configuration still requires visual review."
    ]
  },
  "features": [
    {
      "type": "Feature",
      "id": "trace",
      "properties": {
        "role": "trace",
        "sourceIds": [
          "osm-network-178240072"
        ]
      },
      "geometry": {
        "type": "LineString",
        "coordinates": [
          [
            4.6479802,
            50.299647
          ],
          [
            4.6488166,
            50.2997199
          ],
          [
            4.6489357,
            50.2997389
          ],
          [
            4.6490399,
            50.299769
          ],
          [
            4.6491193,
            50.2998039
          ],
          [
            4.6491838,
            50.2998451
          ],
          [
            4.6492509,
            50.2999022
          ],
          [
            4.6492955,
            50.2999561
          ],
          [
            4.6493327,
            50.3000401
          ],
          [
            4.6493576,
            50.3001625
          ],
          [
            4.6494047,
            50.3003144
          ],
          [
            4.6494345,
            50.3003746
          ],
          [
            4.6494916,
            50.3004428
          ],
          [
            4.6495958,
            50.3005078
          ],
          [
            4.6497273,
            50.3005545
          ],
          [
            4.6498179,
            50.3005775
          ],
          [
            4.6513063,
            50.3009031
          ],
          [
            4.6514213,
            50.3009281
          ],
          [
            4.6521964,
            50.3010975
          ],
          [
            4.6527267,
            50.3012134
          ],
          [
            4.6530005,
            50.3012733
          ],
          [
            4.6533064,
            50.3013402
          ],
          [
            4.654393,
            50.3015778
          ],
          [
            4.6544873,
            50.3015857
          ],
          [
            4.6545717,
            50.3015857
          ],
          [
            4.6546287,
            50.3015667
          ],
          [
            4.6546784,
            50.3015413
          ],
          [
            4.6547057,
            50.3015128
          ],
          [
            4.6547131,
            50.3014652
          ],
          [
            4.6547057,
            50.3014082
          ],
          [
            4.654661,
            50.3013495
          ],
          [
            4.6545865,
            50.3012877
          ],
          [
            4.6544898,
            50.3012401
          ],
          [
            4.6544007,
            50.3012163
          ],
          [
            4.6542986,
            50.3011897
          ],
          [
            4.6531242,
            50.3009318
          ],
          [
            4.6530853,
            50.3008603
          ],
          [
            4.6531116,
            50.3007673
          ],
          [
            4.6531423,
            50.3006888
          ],
          [
            4.653152,
            50.3006328
          ],
          [
            4.6531362,
            50.3005992
          ],
          [
            4.6531028,
            50.3005633
          ],
          [
            4.6530537,
            50.3005342
          ],
          [
            4.6529625,
            50.3005039
          ],
          [
            4.6526676,
            50.3004232
          ],
          [
            4.6525571,
            50.3004075
          ],
          [
            4.652152,
            50.300392
          ],
          [
            4.652026,
            50.3003943
          ],
          [
            4.6518491,
            50.3003976
          ],
          [
            4.6512052,
            50.3004096
          ],
          [
            4.6506704,
            50.3004206
          ],
          [
            4.6505438,
            50.3004126
          ],
          [
            4.6504346,
            50.3003904
          ],
          [
            4.6503403,
            50.3003572
          ],
          [
            4.6502336,
            50.3002906
          ],
          [
            4.6501567,
            50.3002192
          ],
          [
            4.6501427,
            50.3001965
          ],
          [
            4.650107,
            50.3001384
          ],
          [
            4.6501021,
            50.3000782
          ],
          [
            4.6501219,
            50.3000195
          ],
          [
            4.6501567,
            50.2999735
          ],
          [
            4.6502162,
            50.2999371
          ],
          [
            4.6502957,
            50.2999117
          ],
          [
            4.65038,
            50.2999006
          ],
          [
            4.6504892,
            50.2999054
          ],
          [
            4.6519261,
            50.3000211
          ],
          [
            4.6532243,
            50.3001708
          ],
          [
            4.6534797,
            50.3002002
          ],
          [
            4.6538991,
            50.3002605
          ],
          [
            4.6540952,
            50.3002937
          ],
          [
            4.6542416,
            50.3003429
          ],
          [
            4.6543682,
            50.3003984
          ],
          [
            4.6544997,
            50.300484
          ],
          [
            4.6546039,
            50.3005949
          ],
          [
            4.6547247,
            50.300718
          ],
          [
            4.6551136,
            50.3011139
          ],
          [
            4.6552789,
            50.3012823
          ],
          [
            4.6556402,
            50.3016503
          ],
          [
            4.6559147,
            50.301932
          ],
          [
            4.6559912,
            50.3020169
          ],
          [
            4.6560235,
            50.3020676
          ],
          [
            4.6560309,
            50.3021104
          ],
          [
            4.6560135,
            50.3021468
          ],
          [
            4.6559738,
            50.302177
          ],
          [
            4.6559167,
            50.3022071
          ],
          [
            4.6558398,
            50.3022166
          ],
          [
            4.6557654,
            50.3022198
          ],
          [
            4.6556537,
            50.3022055
          ],
          [
            4.6548752,
            50.302036
          ],
          [
            4.6532357,
            50.3016791
          ],
          [
            4.6525462,
            50.301529
          ],
          [
            4.651895,
            50.3013872
          ],
          [
            4.6514237,
            50.3012857
          ],
          [
            4.6487617,
            50.3007052
          ],
          [
            4.6478391,
            50.3005043
          ],
          [
            4.6475707,
            50.3004459
          ],
          [
            4.6474764,
            50.3004063
          ],
          [
            4.6474218,
            50.3003413
          ],
          [
            4.6473945,
            50.300262
          ],
          [
            4.647397,
            50.3001638
          ],
          [
            4.6473896,
            50.300048
          ],
          [
            4.6474243,
            50.2998959
          ],
          [
            4.6474814,
            50.2997944
          ],
          [
            4.6475583,
            50.299712
          ],
          [
            4.647665,
            50.2996612
          ],
          [
            4.6478239,
            50.2996422
          ],
          [
            4.6479802,
            50.299647
          ]
        ]
      }
    }
  ]
}
