{
  "type": "FeatureCollection",
  "bbox": [
    12.5627865,
    56.9732933,
    12.5733606,
    56.9778508
  ],
  "metadata": {
    "schemaVersion": 1,
    "trackId": "se-falkenbergs-motorbana-343515644",
    "layoutId": "main",
    "license": "ODbL-1.0",
    "attribution": "© OpenStreetMap contributors",
    "closed": true,
    "geometryStatus": "draft",
    "timingStatus": "missing",
    "timingMode": "shared",
    "lengthM": 1835,
    "reviewedAt": null,
    "notes": [
      "Connected OSM course candidate. The selected loop is the longest simple source-node cycle after explicit exclusions; its association with a named circuit configuration requires review.",
      "Source way order and shared node IDs are retained. No nearby endpoints are joined and no reference boundaries are read.",
      "Some source ways lack one-way direction tags. Travel direction is provisional."
    ]
  },
  "features": [
    {
      "type": "Feature",
      "id": "trace",
      "properties": {
        "role": "trace",
        "sourceIds": [
          "osm-snapshot"
        ]
      },
      "geometry": {
        "type": "LineString",
        "coordinates": [
          [
            12.5639062,
            56.9732933
          ],
          [
            12.5654209,
            56.9733686
          ],
          [
            12.5660115,
            56.9734385
          ],
          [
            12.5668949,
            56.9735764
          ],
          [
            12.567305,
            56.9736176
          ],
          [
            12.5677522,
            56.9736324
          ],
          [
            12.5692384,
            56.9735666
          ],
          [
            12.5695805,
            56.9735969
          ],
          [
            12.5698142,
            56.9736493
          ],
          [
            12.5700766,
            56.9737375
          ],
          [
            12.5702736,
            56.973841
          ],
          [
            12.5705043,
            56.9739945
          ],
          [
            12.5718101,
            56.9753516
          ],
          [
            12.5718909,
            56.9754739
          ],
          [
            12.5718995,
            56.975561
          ],
          [
            12.5718703,
            56.9758458
          ],
          [
            12.57187,
            56.9760511
          ],
          [
            12.571938,
            56.9761783
          ],
          [
            12.5720355,
            56.9763022
          ],
          [
            12.5721991,
            56.9764102
          ],
          [
            12.5730136,
            56.9767033
          ],
          [
            12.5731586,
            56.9768196
          ],
          [
            12.5732839,
            56.9769501
          ],
          [
            12.5733606,
            56.9771186
          ],
          [
            12.5733062,
            56.9773108
          ],
          [
            12.5731866,
            56.9774768
          ],
          [
            12.573033,
            56.9775941
          ],
          [
            12.5727345,
            56.9777283
          ],
          [
            12.5716699,
            56.9778508
          ],
          [
            12.5714483,
            56.9778435
          ],
          [
            12.5713099,
            56.9778191
          ],
          [
            12.5711854,
            56.97776
          ],
          [
            12.5707846,
            56.9774524
          ],
          [
            12.5707211,
            56.9774219
          ],
          [
            12.5706252,
            56.9774135
          ],
          [
            12.5705367,
            56.9774175
          ],
          [
            12.5704644,
            56.977437
          ],
          [
            12.5700373,
            56.9776105
          ],
          [
            12.5699599,
            56.977622
          ],
          [
            12.5698874,
            56.9776257
          ],
          [
            12.5698148,
            56.9776072
          ],
          [
            12.5694483,
            56.9774649
          ],
          [
            12.568776,
            56.9772038
          ],
          [
            12.5686198,
            56.9771398
          ],
          [
            12.5672566,
            56.9765811
          ],
          [
            12.5637623,
            56.9752154
          ],
          [
            12.5635671,
            56.9751324
          ],
          [
            12.5634641,
            56.9750269
          ],
          [
            12.5631593,
            56.974562
          ],
          [
            12.5628411,
            56.9740803
          ],
          [
            12.5627865,
            56.9739476
          ],
          [
            12.5627935,
            56.9737818
          ],
          [
            12.5628752,
            56.9736438
          ],
          [
            12.5630412,
            56.9735066
          ],
          [
            12.5631776,
            56.9734312
          ],
          [
            12.5634157,
            56.9733512
          ],
          [
            12.5636507,
            56.9733083
          ],
          [
            12.5639062,
            56.9732933
          ]
        ]
      }
    }
  ]
}
