{
  "type": "FeatureCollection",
  "bbox": [
    -1.1393385,
    51.9159608,
    -1.1366591,
    51.9188052
  ],
  "metadata": {
    "schemaVersion": 1,
    "trackId": "gb-bicester-heritage-091776aa",
    "layoutId": "bicester-heritage",
    "license": "ODbL-1.0",
    "attribution": "© OpenStreetMap contributors",
    "closed": true,
    "geometryStatus": "draft",
    "timingStatus": "missing",
    "timingMode": "shared",
    "lengthM": 770.1,
    "reviewedAt": null,
    "notes": [
      "Draft configuration: The longer northern perimeter and southern rectangular return match the catalogue configuration. The interior cutoff is not used. The independent airfield-centreline draft measures 770.1 m against the catalogue distance of 799 m and is visibly coarser at the bends. Branch identity was checked against catalogue layout facts and circuit identification references. Independent source distance 770.1 m; no coordinates are changed to match a diagram or distance. Travel direction and historical alignment remain provisional."
    ]
  },
  "features": [
    {
      "type": "Feature",
      "id": "trace",
      "properties": {
        "role": "trace",
        "sourceIds": [
          "osm-selection-bicester-heritage-independent-roads-2482506"
        ]
      },
      "geometry": {
        "type": "LineString",
        "coordinates": [
          [
            -1.1382648,
            51.916971
          ],
          [
            -1.1373726,
            51.9159608
          ],
          [
            -1.1366591,
            51.9162704
          ],
          [
            -1.1375446,
            51.9172333
          ],
          [
            -1.138846,
            51.9188052
          ],
          [
            -1.1392686,
            51.9184376
          ],
          [
            -1.1393142,
            51.9183771
          ],
          [
            -1.1393385,
            51.9182973
          ],
          [
            -1.1393105,
            51.9182025
          ],
          [
            -1.138841,
            51.9176736
          ],
          [
            -1.1387948,
            51.9175794
          ],
          [
            -1.1387669,
            51.9174562
          ],
          [
            -1.138838,
            51.9171455
          ],
          [
            -1.1388647,
            51.9170432
          ],
          [
            -1.1388235,
            51.9169693
          ],
          [
            -1.1387077,
            51.9169573
          ],
          [
            -1.1384834,
            51.9169857
          ],
          [
            -1.1382648,
            51.916971
          ]
        ]
      }
    }
  ]
}
