{
  "type": "FeatureCollection",
  "bbox": [
    27.8724621,
    -33.0487859,
    27.874413,
    -33.0469789
  ],
  "metadata": {
    "schemaVersion": 1,
    "trackId": "za-prince-george-circuit-677195345",
    "layoutId": "main",
    "license": "ODbL-1.0",
    "attribution": "© OpenStreetMap contributors",
    "closed": true,
    "geometryStatus": "draft",
    "timingStatus": "missing",
    "timingMode": "shared",
    "lengthM": 754.6,
    "reviewedAt": null,
    "notes": [
      "Connected OSM course candidate. The selected loop is the longest simple source-node cycle after explicit exclusions; its association with a named circuit configuration requires review.",
      "Source way order and shared node IDs are retained. No nearby endpoints are joined and no reference boundaries are read.",
      "Some source ways lack one-way direction tags. Travel direction is provisional."
    ]
  },
  "features": [
    {
      "type": "Feature",
      "id": "trace",
      "properties": {
        "role": "trace",
        "sourceIds": [
          "osm-snapshot"
        ]
      },
      "geometry": {
        "type": "LineString",
        "coordinates": [
          [
            27.8727223,
            -33.0473435
          ],
          [
            27.8727991,
            -33.0473322
          ],
          [
            27.8728699,
            -33.0473322
          ],
          [
            27.8729832,
            -33.0473322
          ],
          [
            27.8730646,
            -33.0473174
          ],
          [
            27.8731141,
            -33.0472848
          ],
          [
            27.873146,
            -33.0472373
          ],
          [
            27.8731672,
            -33.0471928
          ],
          [
            27.8731813,
            -33.0471453
          ],
          [
            27.8732307,
            -33.0470679
          ],
          [
            27.8733216,
            -33.0470258
          ],
          [
            27.8736094,
            -33.0469789
          ],
          [
            27.8738443,
            -33.0470014
          ],
          [
            27.8740176,
            -33.0470457
          ],
          [
            27.8741773,
            -33.0471268
          ],
          [
            27.8742945,
            -33.0472078
          ],
          [
            27.8743875,
            -33.0473016
          ],
          [
            27.874413,
            -33.0474153
          ],
          [
            27.874413,
            -33.0474924
          ],
          [
            27.8743634,
            -33.0475577
          ],
          [
            27.8742856,
            -33.0475933
          ],
          [
            27.8742006,
            -33.0476051
          ],
          [
            27.8730681,
            -33.0475043
          ],
          [
            27.8730079,
            -33.0475043
          ],
          [
            27.8729336,
            -33.047525
          ],
          [
            27.8728522,
            -33.0475606
          ],
          [
            27.8728062,
            -33.0476111
          ],
          [
            27.8727956,
            -33.0476585
          ],
          [
            27.8728204,
            -33.0477238
          ],
          [
            27.8728734,
            -33.0477535
          ],
          [
            27.8729513,
            -33.0477564
          ],
          [
            27.8731141,
            -33.0477268
          ],
          [
            27.8732097,
            -33.0477446
          ],
          [
            27.8732486,
            -33.0477564
          ],
          [
            27.873284,
            -33.047792
          ],
          [
            27.8732946,
            -33.0478425
          ],
          [
            27.8732875,
            -33.0479018
          ],
          [
            27.8732344,
            -33.0479671
          ],
          [
            27.8731247,
            -33.0480917
          ],
          [
            27.8731176,
            -33.0481391
          ],
          [
            27.8731176,
            -33.0482222
          ],
          [
            27.873146,
            -33.0482934
          ],
          [
            27.8733972,
            -33.048596
          ],
          [
            27.8734291,
            -33.0486613
          ],
          [
            27.8734256,
            -33.0487236
          ],
          [
            27.8733937,
            -33.048771
          ],
          [
            27.8733442,
            -33.0487829
          ],
          [
            27.8732911,
            -33.0487859
          ],
          [
            27.8731893,
            -33.0487379
          ],
          [
            27.8730935,
            -33.0486116
          ],
          [
            27.8726162,
            -33.0481013
          ],
          [
            27.8724948,
            -33.0479434
          ],
          [
            27.8724621,
            -33.0477861
          ],
          [
            27.8724738,
            -33.0476449
          ],
          [
            27.8725509,
            -33.0475036
          ],
          [
            27.8727223,
            -33.0473435
          ]
        ]
      }
    }
  ]
}
