{
  "type": "FeatureCollection",
  "bbox": [
    6.0735834,
    48.31835,
    6.0885018,
    48.3218529
  ],
  "metadata": {
    "schemaVersion": 1,
    "trackId": "fr-circuit-de-mirecourt-1150785576",
    "layoutId": "main",
    "license": "ODbL-1.0",
    "attribution": "© OpenStreetMap contributors",
    "closed": true,
    "geometryStatus": "draft",
    "timingStatus": "missing",
    "timingMode": "shared",
    "lengthM": 3739.4,
    "reviewedAt": null,
    "notes": [
      "Connected OSM course candidate. The selected loop is the longest simple source-node cycle after explicit exclusions; its association with a named circuit configuration requires review.",
      "Source way order and shared node IDs are retained. No nearby endpoints are joined and no reference boundaries are read."
    ]
  },
  "features": [
    {
      "type": "Feature",
      "id": "trace",
      "properties": {
        "role": "trace",
        "sourceIds": [
          "osm-snapshot"
        ]
      },
      "geometry": {
        "type": "LineString",
        "coordinates": [
          [
            6.0798168,
            48.3210396
          ],
          [
            6.0765123,
            48.320872
          ],
          [
            6.0763031,
            48.3208399
          ],
          [
            6.0761476,
            48.3207114
          ],
          [
            6.0760242,
            48.3200872
          ],
          [
            6.0759759,
            48.3199516
          ],
          [
            6.0758042,
            48.3198696
          ],
          [
            6.0738516,
            48.3205795
          ],
          [
            6.0736155,
            48.32069
          ],
          [
            6.0735834,
            48.320847
          ],
          [
            6.073637,
            48.3209683
          ],
          [
            6.0740232,
            48.3211145
          ],
          [
            6.0747153,
            48.3213036
          ],
          [
            6.0772204,
            48.3214427
          ],
          [
            6.0793454,
            48.3215698
          ],
          [
            6.0838401,
            48.3218386
          ],
          [
            6.0842586,
            48.3218529
          ],
          [
            6.0848004,
            48.3218315
          ],
          [
            6.0852724,
            48.3217245
          ],
          [
            6.0856479,
            48.3215319
          ],
          [
            6.08612,
            48.3212108
          ],
          [
            6.0883784,
            48.3195271
          ],
          [
            6.0885018,
            48.3193452
          ],
          [
            6.0884803,
            48.3191419
          ],
          [
            6.0882068,
            48.3189207
          ],
          [
            6.0875952,
            48.3186674
          ],
          [
            6.0865492,
            48.3183963
          ],
          [
            6.0859054,
            48.31835
          ],
          [
            6.0852081,
            48.3184177
          ],
          [
            6.0843337,
            48.3185818
          ],
          [
            6.0841244,
            48.3185925
          ],
          [
            6.0825312,
            48.3184891
          ],
          [
            6.082322,
            48.3185497
          ],
          [
            6.0822201,
            48.3186496
          ],
          [
            6.082263,
            48.3187959
          ],
          [
            6.0830408,
            48.3193952
          ],
          [
            6.0831964,
            48.3195378
          ],
          [
            6.0832608,
            48.3197055
          ],
          [
            6.0832393,
            48.3198874
          ],
          [
            6.0831052,
            48.3200016
          ],
          [
            6.0825956,
            48.320237
          ],
          [
            6.0824668,
            48.3203975
          ],
          [
            6.0824722,
            48.3205295
          ],
          [
            6.0826814,
            48.3206472
          ],
          [
            6.0831535,
            48.3206829
          ],
          [
            6.0837918,
            48.3206401
          ],
          [
            6.084457,
            48.3204617
          ],
          [
            6.0847413,
            48.3202977
          ],
          [
            6.0848594,
            48.3201122
          ],
          [
            6.0847413,
            48.3193952
          ],
          [
            6.0848916,
            48.3192025
          ],
          [
            6.0851973,
            48.3190705
          ],
          [
            6.0858142,
            48.3189814
          ],
          [
            6.0864633,
            48.3190206
          ],
          [
            6.0869032,
            48.3191098
          ],
          [
            6.0870856,
            48.3193202
          ],
          [
            6.087032,
            48.3195807
          ],
          [
            6.0861039,
            48.3203797
          ],
          [
            6.0852456,
            48.3207614
          ],
          [
            6.0844088,
            48.3211359
          ],
          [
            6.0837382,
            48.3212322
          ],
          [
            6.0830823,
            48.3212073
          ],
          [
            6.0798168,
            48.3210396
          ]
        ]
      }
    }
  ]
}
