{
  "type": "FeatureCollection",
  "bbox": [
    18.0903358,
    50.5251675,
    18.1010523,
    50.5303764
  ],
  "metadata": {
    "schemaVersion": 1,
    "trackId": "pl-silesia-ring-631651845",
    "layoutId": "silesia-ring",
    "license": "ODbL-1.0",
    "attribution": "© OpenStreetMap contributors",
    "closed": true,
    "geometryStatus": "draft",
    "timingStatus": "missing",
    "timingMode": "shared",
    "lengthM": 2677.4,
    "reviewedAt": null,
    "notes": [
      "Draft configuration: The catalogue configuration retains the northwestern perimeter, the northern S bend, southeastern hairpin and the inner southern return. The actual connecting service way is present in the independently acquired venue snapshot. The route is measured at 2677.4 m versus the catalogue distance of 2686 m; the longer southwestern extension and short-cut branches are excluded. Branch identity was checked against catalogue layout facts and circuit identification references. Independent source distance 2677.4 m; no coordinates are changed to match a diagram or distance. Travel direction and historical alignment remain provisional."
    ]
  },
  "features": [
    {
      "type": "Feature",
      "id": "trace",
      "properties": {
        "role": "trace",
        "sourceIds": [
          "osm-selection-silesia-ring-roads-631651845"
        ]
      },
      "geometry": {
        "type": "LineString",
        "coordinates": [
          [
            18.0944716,
            50.529924
          ],
          [
            18.0973428,
            50.5286876
          ],
          [
            18.0978567,
            50.528465
          ],
          [
            18.098281,
            50.5282796
          ],
          [
            18.0997058,
            50.5276748
          ],
          [
            18.1007232,
            50.527243
          ],
          [
            18.1008496,
            50.5271711
          ],
          [
            18.1009252,
            50.5271017
          ],
          [
            18.1009927,
            50.5269943
          ],
          [
            18.1010375,
            50.5268825
          ],
          [
            18.1010523,
            50.5267982
          ],
          [
            18.1010286,
            50.5266638
          ],
          [
            18.1009852,
            50.5265714
          ],
          [
            18.1008854,
            50.5264735
          ],
          [
            18.1007744,
            50.5264078
          ],
          [
            18.1006126,
            50.5263405
          ],
          [
            18.1004734,
            50.5262993
          ],
          [
            18.1003542,
            50.5262806
          ],
          [
            18.1002188,
            50.5262729
          ],
          [
            18.1000272,
            50.5262837
          ],
          [
            18.0998427,
            50.5263123
          ],
          [
            18.0996774,
            50.5263539
          ],
          [
            18.0995241,
            50.5264206
          ],
          [
            18.0993521,
            50.526531
          ],
          [
            18.0991683,
            50.5266438
          ],
          [
            18.099028,
            50.5267105
          ],
          [
            18.0988861,
            50.5267427
          ],
          [
            18.0987087,
            50.5267624
          ],
          [
            18.0985648,
            50.5267625
          ],
          [
            18.0984116,
            50.5267552
          ],
          [
            18.0981729,
            50.5267208
          ],
          [
            18.0980214,
            50.526683
          ],
          [
            18.0979153,
            50.5266516
          ],
          [
            18.0978069,
            50.5266069
          ],
          [
            18.0976692,
            50.5265289
          ],
          [
            18.0975925,
            50.5264591
          ],
          [
            18.0975453,
            50.5263916
          ],
          [
            18.0975345,
            50.5263087
          ],
          [
            18.0975415,
            50.5262169
          ],
          [
            18.0975882,
            50.5261401
          ],
          [
            18.0976831,
            50.5260686
          ],
          [
            18.0977741,
            50.5260357
          ],
          [
            18.0978957,
            50.526004
          ],
          [
            18.0985474,
            50.5258373
          ],
          [
            18.0992729,
            50.5256451
          ],
          [
            18.0994288,
            50.5256149
          ],
          [
            18.0995645,
            50.5256007
          ],
          [
            18.0996747,
            50.5255966
          ],
          [
            18.0997632,
            50.5255689
          ],
          [
            18.0998431,
            50.5254999
          ],
          [
            18.0998848,
            50.5254433
          ],
          [
            18.0998828,
            50.5253675
          ],
          [
            18.0998512,
            50.5252972
          ],
          [
            18.0997833,
            50.5252278
          ],
          [
            18.0996801,
            50.5251861
          ],
          [
            18.0995465,
            50.5251675
          ],
          [
            18.0993988,
            50.5251906
          ],
          [
            18.0965092,
            50.5259464
          ],
          [
            18.0963721,
            50.5260379
          ],
          [
            18.0962837,
            50.5261532
          ],
          [
            18.0962345,
            50.526272
          ],
          [
            18.0962307,
            50.5263079
          ],
          [
            18.0962216,
            50.5263954
          ],
          [
            18.0962402,
            50.5264844
          ],
          [
            18.0964276,
            50.5269092
          ],
          [
            18.0965332,
            50.5271355
          ],
          [
            18.0965902,
            50.5272401
          ],
          [
            18.0966505,
            50.5273084
          ],
          [
            18.0967212,
            50.52735
          ],
          [
            18.0968319,
            50.5273623
          ],
          [
            18.096973,
            50.5273625
          ],
          [
            18.0970894,
            50.5273672
          ],
          [
            18.0971671,
            50.527374
          ],
          [
            18.0972875,
            50.5274219
          ],
          [
            18.0973823,
            50.5274979
          ],
          [
            18.0974195,
            50.5275496
          ],
          [
            18.0974138,
            50.5276427
          ],
          [
            18.0973688,
            50.5277099
          ],
          [
            18.0972937,
            50.5278041
          ],
          [
            18.0971716,
            50.5279194
          ],
          [
            18.0970443,
            50.5280108
          ],
          [
            18.0968716,
            50.5280908
          ],
          [
            18.0963793,
            50.528228
          ],
          [
            18.0960276,
            50.5282928
          ],
          [
            18.0956555,
            50.5283345
          ],
          [
            18.0952475,
            50.5283558
          ],
          [
            18.0944454,
            50.5283793
          ],
          [
            18.0940592,
            50.5283826
          ],
          [
            18.0939077,
            50.5283893
          ],
          [
            18.093803,
            50.5284218
          ],
          [
            18.0937115,
            50.5284756
          ],
          [
            18.0936337,
            50.5285696
          ],
          [
            18.0935272,
            50.5286256
          ],
          [
            18.09342,
            50.5286685
          ],
          [
            18.093246,
            50.5286894
          ],
          [
            18.0929268,
            50.5286924
          ],
          [
            18.092219,
            50.5286451
          ],
          [
            18.091868,
            50.5286201
          ],
          [
            18.091454,
            50.5285957
          ],
          [
            18.0910898,
            50.5285969
          ],
          [
            18.0909699,
            50.5286094
          ],
          [
            18.0908331,
            50.5286356
          ],
          [
            18.0906996,
            50.5286796
          ],
          [
            18.090535,
            50.5287522
          ],
          [
            18.0904145,
            50.528846
          ],
          [
            18.0903599,
            50.5289111
          ],
          [
            18.0903358,
            50.5289916
          ],
          [
            18.090337,
            50.5290933
          ],
          [
            18.0903719,
            50.529189
          ],
          [
            18.0905031,
            50.5293782
          ],
          [
            18.0911039,
            50.5302483
          ],
          [
            18.0911729,
            50.53031
          ],
          [
            18.0913063,
            50.5303614
          ],
          [
            18.0914203,
            50.5303746
          ],
          [
            18.0915319,
            50.5303764
          ],
          [
            18.0916436,
            50.5303594
          ],
          [
            18.0917908,
            50.530303
          ],
          [
            18.0919144,
            50.5302213
          ],
          [
            18.0921325,
            50.5300479
          ],
          [
            18.0928845,
            50.5294448
          ],
          [
            18.0930097,
            50.5293835
          ],
          [
            18.0931275,
            50.5293519
          ],
          [
            18.0932158,
            50.5293373
          ],
          [
            18.0933381,
            50.5293314
          ],
          [
            18.0934497,
            50.5293494
          ],
          [
            18.0935386,
            50.5293671
          ],
          [
            18.093665,
            50.5294125
          ],
          [
            18.0937609,
            50.5294965
          ],
          [
            18.0939909,
            50.5298271
          ],
          [
            18.0940777,
            50.5298977
          ],
          [
            18.0942005,
            50.5299423
          ],
          [
            18.0943318,
            50.5299466
          ],
          [
            18.0944716,
            50.529924
          ]
        ]
      }
    }
  ]
}
