{
  "type": "FeatureCollection",
  "bbox": [
    169.1710368,
    -45.0627486,
    169.1740658,
    -45.0588277
  ],
  "metadata": {
    "schemaVersion": 1,
    "trackId": "nz-highlands-motorsports-park-c98a7d90",
    "layoutId": "highlands-motorsports-park-b",
    "license": "ODbL-1.0",
    "attribution": "© OpenStreetMap contributors",
    "closed": true,
    "geometryStatus": "draft",
    "timingStatus": "missing",
    "timingMode": "shared",
    "lengthM": 1091.6,
    "reviewedAt": null,
    "notes": [
      "This component reuses the existing pinned independent course recipe from nz-highlands-motorsports-park-b-1fe943d1/highlands-motorsports-park-b without changing any source nodes or branch selections. It is included in the aggregate entry for the same venue. The existing draft branch identification, historical alignment and distance limitations remain in force; the identification URL establishes the venue and is not a claim of a current certified lap. Exact source coordinates are unchanged; historical alignment and direction remain provisional."
    ]
  },
  "features": [
    {
      "type": "Feature",
      "id": "trace",
      "properties": {
        "role": "trace",
        "sourceIds": [
          "osm-components-234778728"
        ]
      },
      "geometry": {
        "type": "LineString",
        "coordinates": [
          [
            169.1733578,
            -45.0592323
          ],
          [
            169.1736318,
            -45.0601056
          ],
          [
            169.1739264,
            -45.0610988
          ],
          [
            169.1740463,
            -45.0615231
          ],
          [
            169.1740611,
            -45.0616398
          ],
          [
            169.1740658,
            -45.0617608
          ],
          [
            169.1740515,
            -45.0618794
          ],
          [
            169.1740169,
            -45.061998
          ],
          [
            169.1739425,
            -45.0621335
          ],
          [
            169.1738396,
            -45.0622734
          ],
          [
            169.1737134,
            -45.0624003
          ],
          [
            169.1735628,
            -45.0624898
          ],
          [
            169.1733962,
            -45.0625766
          ],
          [
            169.1731605,
            -45.0626548
          ],
          [
            169.1729264,
            -45.0627149
          ],
          [
            169.1726761,
            -45.0627434
          ],
          [
            169.172396,
            -45.0627486
          ],
          [
            169.1721484,
            -45.0627251
          ],
          [
            169.1719244,
            -45.0626754
          ],
          [
            169.1716964,
            -45.0626055
          ],
          [
            169.1715269,
            -45.0625075
          ],
          [
            169.1713656,
            -45.0623951
          ],
          [
            169.1712137,
            -45.0622262
          ],
          [
            169.1711147,
            -45.0620774
          ],
          [
            169.1710615,
            -45.0619226
          ],
          [
            169.1710368,
            -45.0617505
          ],
          [
            169.171048,
            -45.0616085
          ],
          [
            169.1710714,
            -45.0614694
          ],
          [
            169.1719099,
            -45.0591828
          ],
          [
            169.1719962,
            -45.0590683
          ],
          [
            169.1720749,
            -45.0589984
          ],
          [
            169.1722645,
            -45.058899
          ],
          [
            169.1724419,
            -45.058845
          ],
          [
            169.1726163,
            -45.0588277
          ],
          [
            169.1727845,
            -45.0588493
          ],
          [
            169.172916,
            -45.0588842
          ],
          [
            169.1730054,
            -45.0589191
          ],
          [
            169.1731202,
            -45.0589942
          ],
          [
            169.1732109,
            -45.0590586
          ],
          [
            169.1733578,
            -45.0592323
          ]
        ]
      }
    }
  ]
}
