{
  "type": "FeatureCollection",
  "bbox": [
    -51.1723851,
    -23.2844169,
    -51.161305,
    -23.2796673
  ],
  "metadata": {
    "schemaVersion": 1,
    "trackId": "br-autodromo-internacional-ayrton-senna-118729437",
    "layoutId": "main",
    "license": "ODbL-1.0",
    "attribution": "© OpenStreetMap contributors",
    "closed": true,
    "geometryStatus": "draft",
    "timingStatus": "missing",
    "timingMode": "shared",
    "lengthM": 3043.5,
    "reviewedAt": null,
    "notes": [
      "Closed named OSM raceway retained as a course candidate. Named-layout association requires review.",
      "Source way order and shared node IDs are retained. No nearby endpoints are joined and no Racelogic boundaries are read."
    ]
  },
  "features": [
    {
      "type": "Feature",
      "id": "trace",
      "properties": {
        "role": "trace",
        "sourceIds": [
          "osm-snapshot"
        ]
      },
      "geometry": {
        "type": "LineString",
        "coordinates": [
          [
            -51.16395,
            -23.2811114
          ],
          [
            -51.1636236,
            -23.2813095
          ],
          [
            -51.163506,
            -23.2813391
          ],
          [
            -51.1634334,
            -23.2813156
          ],
          [
            -51.1633757,
            -23.281246
          ],
          [
            -51.1633153,
            -23.2811382
          ],
          [
            -51.1632335,
            -23.2810489
          ],
          [
            -51.1631316,
            -23.2809898
          ],
          [
            -51.1630552,
            -23.2809596
          ],
          [
            -51.1629816,
            -23.2809339
          ],
          [
            -51.1615934,
            -23.2807292
          ],
          [
            -51.161474,
            -23.2806843
          ],
          [
            -51.1613801,
            -23.280598
          ],
          [
            -51.1613211,
            -23.2804847
          ],
          [
            -51.161305,
            -23.280369
          ],
          [
            -51.1613399,
            -23.2802458
          ],
          [
            -51.161411,
            -23.2801404
          ],
          [
            -51.1615344,
            -23.2800566
          ],
          [
            -51.1616537,
            -23.2800241
          ],
          [
            -51.1617932,
            -23.2800192
          ],
          [
            -51.163483,
            -23.280204
          ],
          [
            -51.1636439,
            -23.2801892
          ],
          [
            -51.1637834,
            -23.2801399
          ],
          [
            -51.163896,
            -23.2800586
          ],
          [
            -51.1639872,
            -23.2799674
          ],
          [
            -51.1640972,
            -23.2798245
          ],
          [
            -51.1642018,
            -23.2797358
          ],
          [
            -51.1643171,
            -23.2796816
          ],
          [
            -51.1644606,
            -23.2796673
          ],
          [
            -51.1646028,
            -23.2796895
          ],
          [
            -51.1650387,
            -23.2798196
          ],
          [
            -51.1657199,
            -23.2800635
          ],
          [
            -51.1659506,
            -23.280167
          ],
          [
            -51.166184,
            -23.2802754
          ],
          [
            -51.1678693,
            -23.2811201
          ],
          [
            -51.1695904,
            -23.2819827
          ],
          [
            -51.1698264,
            -23.2820862
          ],
          [
            -51.1701027,
            -23.2821946
          ],
          [
            -51.1703736,
            -23.2822931
          ],
          [
            -51.1716195,
            -23.2826732
          ],
          [
            -51.171767,
            -23.2827422
          ],
          [
            -51.1719118,
            -23.2828481
          ],
          [
            -51.1720364,
            -23.2829707
          ],
          [
            -51.1721276,
            -23.2831013
          ],
          [
            -51.1721973,
            -23.2832442
          ],
          [
            -51.1723797,
            -23.2838207
          ],
          [
            -51.1723851,
            -23.2839513
          ],
          [
            -51.1723475,
            -23.2840769
          ],
          [
            -51.1722805,
            -23.2842001
          ],
          [
            -51.1721732,
            -23.2843085
          ],
          [
            -51.172015,
            -23.2843923
          ],
          [
            -51.1718352,
            -23.2844169
          ],
          [
            -51.1704715,
            -23.2843412
          ],
          [
            -51.1703481,
            -23.2843017
          ],
          [
            -51.1702703,
            -23.284218
          ],
          [
            -51.170218,
            -23.2841114
          ],
          [
            -51.170218,
            -23.2839907
          ],
          [
            -51.1702502,
            -23.2838774
          ],
          [
            -51.170328,
            -23.2837911
          ],
          [
            -51.1704326,
            -23.2837468
          ],
          [
            -51.1705613,
            -23.2837394
          ],
          [
            -51.1714276,
            -23.2837665
          ],
          [
            -51.1715631,
            -23.2837326
          ],
          [
            -51.1716785,
            -23.2836415
          ],
          [
            -51.1717589,
            -23.2835232
          ],
          [
            -51.1718084,
            -23.2833846
          ],
          [
            -51.1718084,
            -23.2832368
          ],
          [
            -51.1717548,
            -23.283089
          ],
          [
            -51.1716663,
            -23.2829658
          ],
          [
            -51.1715348,
            -23.2828869
          ],
          [
            -51.1713498,
            -23.2828327
          ],
          [
            -51.1710306,
            -23.2827613
          ],
          [
            -51.1706445,
            -23.2826504
          ],
          [
            -51.170159,
            -23.2824903
          ],
          [
            -51.1696816,
            -23.2823104
          ],
          [
            -51.1693222,
            -23.2821527
          ],
          [
            -51.1686865,
            -23.2818509
          ],
          [
            -51.1674205,
            -23.2812066
          ],
          [
            -51.1671281,
            -23.2810563
          ],
          [
            -51.1668371,
            -23.2809411
          ],
          [
            -51.1665447,
            -23.2808623
          ],
          [
            -51.1662537,
            -23.2808025
          ],
          [
            -51.1659131,
            -23.2807557
          ],
          [
            -51.1655979,
            -23.2807243
          ],
          [
            -51.1652425,
            -23.2807212
          ],
          [
            -51.1649662,
            -23.2807385
          ],
          [
            -51.1646819,
            -23.2807828
          ],
          [
            -51.1644593,
            -23.280837
          ],
          [
            -51.1642474,
            -23.2809257
          ],
          [
            -51.1640744,
            -23.2810274
          ],
          [
            -51.16395,
            -23.2811114
          ]
        ]
      }
    }
  ]
}
