{
  "type": "FeatureCollection",
  "bbox": [
    175.8044498,
    -36.8584483,
    175.8137349,
    -36.8559741
  ],
  "metadata": {
    "schemaVersion": 1,
    "trackId": "nz-leadfoot-hillclimb-f16d38f6",
    "layoutId": "leadfoot-hillclimb",
    "license": "ODbL-1.0",
    "attribution": "© OpenStreetMap contributors",
    "closed": false,
    "geometryStatus": "draft",
    "timingStatus": "missing",
    "timingMode": "separate",
    "lengthM": 1130.7,
    "reviewedAt": null,
    "notes": [
      "Draft configuration: The operator estate driveway course and independent government aerial imagery identify the main Western approach, two central hairpins and Eastern wooded return. Only the main route is selected; the Southern farm driveway and tiny triangular service connection are excluded. Both separate timing gates agree with the existing source endpoints. The independent mapped route measures 1130.7 m against the 1304 m catalogue scalar; vertices are not scaled or shifted. Trees obscure fine corner alignment, and the exact historical timed extent remains draft. Branch identity was checked against catalogue layout facts and circuit identification references. Independent source distance 1130.7 m; no coordinates are changed to match a diagram or distance. Travel direction and historical alignment remain provisional."
    ]
  },
  "features": [
    {
      "type": "Feature",
      "id": "trace",
      "properties": {
        "role": "trace",
        "sourceIds": [
          "osm-selection-leadfoot-hillclimb-independent-roads-6628194"
        ]
      },
      "geometry": {
        "type": "LineString",
        "coordinates": [
          [
            175.8044498,
            -36.8559741
          ],
          [
            175.8047099,
            -36.8560101
          ],
          [
            175.8049051,
            -36.8560616
          ],
          [
            175.8050828,
            -36.8561228
          ],
          [
            175.8056326,
            -36.8563535
          ],
          [
            175.805868,
            -36.8564538
          ],
          [
            175.8059592,
            -36.8564865
          ],
          [
            175.8062173,
            -36.8564983
          ],
          [
            175.8062569,
            -36.8565064
          ],
          [
            175.8063012,
            -36.8565386
          ],
          [
            175.8063501,
            -36.8566078
          ],
          [
            175.8063582,
            -36.856677
          ],
          [
            175.8063682,
            -36.8567832
          ],
          [
            175.8064078,
            -36.8568814
          ],
          [
            175.8065198,
            -36.8570633
          ],
          [
            175.8066438,
            -36.8572286
          ],
          [
            175.8067437,
            -36.8573192
          ],
          [
            175.806961,
            -36.857478
          ],
          [
            175.8072225,
            -36.8577163
          ],
          [
            175.8072621,
            -36.8577409
          ],
          [
            175.80737,
            -36.857779
          ],
          [
            175.8074465,
            -36.8577983
          ],
          [
            175.8075631,
            -36.857845
          ],
          [
            175.8077596,
            -36.8579743
          ],
          [
            175.8079286,
            -36.8580661
          ],
          [
            175.8081613,
            -36.8581809
          ],
          [
            175.8081805,
            -36.8581894
          ],
          [
            175.8082645,
            -36.8581796
          ],
          [
            175.8083031,
            -36.8581712
          ],
          [
            175.8083607,
            -36.858141
          ],
          [
            175.8083802,
            -36.8581307
          ],
          [
            175.8083997,
            -36.8581179
          ],
          [
            175.8085529,
            -36.8580038
          ],
          [
            175.8085968,
            -36.8579824
          ],
          [
            175.8086283,
            -36.8579722
          ],
          [
            175.8086568,
            -36.8579682
          ],
          [
            175.8087108,
            -36.8579775
          ],
          [
            175.8087701,
            -36.8580089
          ],
          [
            175.8088164,
            -36.8580623
          ],
          [
            175.8089227,
            -36.8582785
          ],
          [
            175.8089693,
            -36.8583445
          ],
          [
            175.8089827,
            -36.8583732
          ],
          [
            175.8090065,
            -36.8583947
          ],
          [
            175.8090511,
            -36.8584194
          ],
          [
            175.8090886,
            -36.8584336
          ],
          [
            175.8091906,
            -36.8584483
          ],
          [
            175.809261,
            -36.8584073
          ],
          [
            175.8093012,
            -36.8583601
          ],
          [
            175.8093207,
            -36.8583032
          ],
          [
            175.8093099,
            -36.8581798
          ],
          [
            175.8093093,
            -36.8579963
          ],
          [
            175.8094018,
            -36.8578064
          ],
          [
            175.8094601,
            -36.8577436
          ],
          [
            175.8095165,
            -36.8577431
          ],
          [
            175.809558,
            -36.8577624
          ],
          [
            175.8095755,
            -36.8577887
          ],
          [
            175.8095815,
            -36.8578407
          ],
          [
            175.8096191,
            -36.8579727
          ],
          [
            175.8096465,
            -36.8580419
          ],
          [
            175.809725,
            -36.8581664
          ],
          [
            175.8098075,
            -36.8582565
          ],
          [
            175.8098953,
            -36.8583783
          ],
          [
            175.8099335,
            -36.8584095
          ],
          [
            175.8099597,
            -36.8584245
          ],
          [
            175.8100395,
            -36.8584143
          ],
          [
            175.810075,
            -36.8583891
          ],
          [
            175.810126,
            -36.8582683
          ],
          [
            175.8101884,
            -36.8581814
          ],
          [
            175.8102393,
            -36.8581262
          ],
          [
            175.810293,
            -36.8580671
          ],
          [
            175.8104928,
            -36.8579609
          ],
          [
            175.8105759,
            -36.8579105
          ],
          [
            175.8106644,
            -36.8578279
          ],
          [
            175.8106939,
            -36.8577839
          ],
          [
            175.8107275,
            -36.8577409
          ],
          [
            175.8107717,
            -36.8577023
          ],
          [
            175.810879,
            -36.8576336
          ],
          [
            175.8110131,
            -36.8575864
          ],
          [
            175.8111687,
            -36.8575349
          ],
          [
            175.8113524,
            -36.8575242
          ],
          [
            175.8114175,
            -36.8575199
          ],
          [
            175.8115945,
            -36.8575392
          ],
          [
            175.8116958,
            -36.8575768
          ],
          [
            175.8118701,
            -36.8576433
          ],
          [
            175.8121249,
            -36.8576932
          ],
          [
            175.8123395,
            -36.8577195
          ],
          [
            175.8126003,
            -36.8577624
          ],
          [
            175.8127438,
            -36.8577645
          ],
          [
            175.8129269,
            -36.8577307
          ],
          [
            175.8130221,
            -36.8577216
          ],
          [
            175.8131582,
            -36.8577361
          ],
          [
            175.8133862,
            -36.857756
          ],
          [
            175.8135016,
            -36.8577576
          ],
          [
            175.8137349,
            -36.8577265
          ]
        ]
      }
    }
  ]
}
