{
  "type": "FeatureCollection",
  "bbox": [
    -66.362046,
    -28.7429054,
    -66.3500163,
    -28.7360029
  ],
  "metadata": {
    "schemaVersion": 1,
    "trackId": "ar-los-golondrinas-917054622",
    "layoutId": "main",
    "license": "ODbL-1.0",
    "attribution": "© OpenStreetMap contributors",
    "closed": true,
    "geometryStatus": "draft",
    "timingStatus": "missing",
    "timingMode": "shared",
    "lengthM": 4099.6,
    "reviewedAt": null,
    "notes": [
      "Closed named OSM raceway retained as a course candidate. Named-layout association requires review.",
      "Source way order and shared node IDs are retained. No nearby endpoints are joined and no reference boundaries are read.",
      "Some source ways lack one-way direction tags. Travel direction is provisional."
    ]
  },
  "features": [
    {
      "type": "Feature",
      "id": "trace",
      "properties": {
        "role": "trace",
        "sourceIds": [
          "osm-snapshot"
        ]
      },
      "geometry": {
        "type": "LineString",
        "coordinates": [
          [
            -66.3620299,
            -28.7425668
          ],
          [
            -66.3574031,
            -28.7400857
          ],
          [
            -66.354104,
            -28.7383406
          ],
          [
            -66.3531303,
            -28.7377974
          ],
          [
            -66.3528997,
            -28.737668
          ],
          [
            -66.3527843,
            -28.7376892
          ],
          [
            -66.3526288,
            -28.7379573
          ],
          [
            -66.3526905,
            -28.7380137
          ],
          [
            -66.3529506,
            -28.7379902
          ],
          [
            -66.3530311,
            -28.7380443
          ],
          [
            -66.3529748,
            -28.7381219
          ],
          [
            -66.3527575,
            -28.7381807
          ],
          [
            -66.3525832,
            -28.7381031
          ],
          [
            -66.3524947,
            -28.7381313
          ],
          [
            -66.3524357,
            -28.7382489
          ],
          [
            -66.3523686,
            -28.7383007
          ],
          [
            -66.3519073,
            -28.7384747
          ],
          [
            -66.3516524,
            -28.7384794
          ],
          [
            -66.3515317,
            -28.7383877
          ],
          [
            -66.3514915,
            -28.7382983
          ],
          [
            -66.3516042,
            -28.7382842
          ],
          [
            -66.3516712,
            -28.7382889
          ],
          [
            -66.3516927,
            -28.7382301
          ],
          [
            -66.3515586,
            -28.7381572
          ],
          [
            -66.3514861,
            -28.7380725
          ],
          [
            -66.3514861,
            -28.7379691
          ],
          [
            -66.3514701,
            -28.7378562
          ],
          [
            -66.3515264,
            -28.7377644
          ],
          [
            -66.3518429,
            -28.7376327
          ],
          [
            -66.3520682,
            -28.7375269
          ],
          [
            -66.3522264,
            -28.7375269
          ],
          [
            -66.3523096,
            -28.7374728
          ],
          [
            -66.3523337,
            -28.7373552
          ],
          [
            -66.3523123,
            -28.7371036
          ],
          [
            -66.3523203,
            -28.7369813
          ],
          [
            -66.3521352,
            -28.736518
          ],
          [
            -66.3521111,
            -28.7362357
          ],
          [
            -66.3520655,
            -28.7360593
          ],
          [
            -66.3520026,
            -28.7360133
          ],
          [
            -66.3519153,
            -28.7360029
          ],
          [
            -66.3517436,
            -28.7361087
          ],
          [
            -66.3507244,
            -28.7368966
          ],
          [
            -66.3505608,
            -28.7370307
          ],
          [
            -66.3501987,
            -28.737621
          ],
          [
            -66.3500538,
            -28.7379596
          ],
          [
            -66.3500163,
            -28.7382278
          ],
          [
            -66.3500994,
            -28.7383171
          ],
          [
            -66.3501504,
            -28.7383007
          ],
          [
            -66.3507566,
            -28.7379691
          ],
          [
            -66.3507995,
            -28.7378468
          ],
          [
            -66.3508427,
            -28.7377741
          ],
          [
            -66.350998,
            -28.737788
          ],
          [
            -66.3510355,
            -28.7378373
          ],
          [
            -66.3509229,
            -28.7379549
          ],
          [
            -66.3508666,
            -28.7380843
          ],
          [
            -66.3508753,
            -28.7381548
          ],
          [
            -66.3509497,
            -28.738283
          ],
          [
            -66.3510831,
            -28.7383165
          ],
          [
            -66.3511998,
            -28.7383783
          ],
          [
            -66.3512642,
            -28.7384618
          ],
          [
            -66.3513118,
            -28.7385217
          ],
          [
            -66.3514593,
            -28.7385794
          ],
          [
            -66.3516115,
            -28.7385741
          ],
          [
            -66.3516605,
            -28.7386346
          ],
          [
            -66.3516384,
            -28.7387475
          ],
          [
            -66.3516035,
            -28.7388192
          ],
          [
            -66.3513862,
            -28.738848
          ],
          [
            -66.3511891,
            -28.7389057
          ],
          [
            -66.3510456,
            -28.7389651
          ],
          [
            -66.350886,
            -28.7389962
          ],
          [
            -66.3507653,
            -28.7390021
          ],
          [
            -66.3507244,
            -28.7390462
          ],
          [
            -66.3507673,
            -28.7391032
          ],
          [
            -66.3507445,
            -28.7391379
          ],
          [
            -66.3506392,
            -28.7392384
          ],
          [
            -66.3505045,
            -28.7394095
          ],
          [
            -66.3505179,
            -28.7394683
          ],
          [
            -66.3506158,
            -28.7394807
          ],
          [
            -66.3508773,
            -28.7395865
          ],
          [
            -66.3509403,
            -28.7395853
          ],
          [
            -66.3511723,
            -28.7395142
          ],
          [
            -66.3515297,
            -28.7395289
          ],
          [
            -66.3516779,
            -28.739623
          ],
          [
            -66.3518831,
            -28.7397988
          ],
          [
            -66.3518891,
            -28.7398623
          ],
          [
            -66.3519019,
            -28.7400069
          ],
          [
            -66.3519455,
            -28.740071
          ],
          [
            -66.3519421,
            -28.7401433
          ],
          [
            -66.3519971,
            -28.7402374
          ],
          [
            -66.3519683,
            -28.7402421
          ],
          [
            -66.3517738,
            -28.7401592
          ],
          [
            -66.3516545,
            -28.7401568
          ],
          [
            -66.3515291,
            -28.7401039
          ],
          [
            -66.3514949,
            -28.7401498
          ],
          [
            -66.3515163,
            -28.7401933
          ],
          [
            -66.3515767,
            -28.7403062
          ],
          [
            -66.351568,
            -28.7403679
          ],
          [
            -66.3515807,
            -28.7405302
          ],
          [
            -66.3516692,
            -28.7407077
          ],
          [
            -66.3517798,
            -28.7408659
          ],
          [
            -66.3520125,
            -28.741067
          ],
          [
            -66.3521621,
            -28.7410617
          ],
          [
            -66.3523981,
            -28.7409441
          ],
          [
            -66.3525698,
            -28.7409335
          ],
          [
            -66.3526717,
            -28.7409841
          ],
          [
            -66.3528286,
            -28.7411557
          ],
          [
            -66.3529158,
            -28.741298
          ],
          [
            -66.3530754,
            -28.7414109
          ],
          [
            -66.3534831,
            -28.7414991
          ],
          [
            -66.3535206,
            -28.7414591
          ],
          [
            -66.3533825,
            -28.7412816
          ],
          [
            -66.3534321,
            -28.7412357
          ],
          [
            -66.3535354,
            -28.7412404
          ],
          [
            -66.3538076,
            -28.741405
          ],
          [
            -66.3539538,
            -28.7414332
          ],
          [
            -66.3540383,
            -28.741525
          ],
          [
            -66.3543051,
            -28.7414215
          ],
          [
            -66.354501,
            -28.7414403
          ],
          [
            -66.3546954,
            -28.7415332
          ],
          [
            -66.3550669,
            -28.7418084
          ],
          [
            -66.3552479,
            -28.7419859
          ],
          [
            -66.3556382,
            -28.7421435
          ],
          [
            -66.3558877,
            -28.7421952
          ],
          [
            -66.3562149,
            -28.7423057
          ],
          [
            -66.3564697,
            -28.7424186
          ],
          [
            -66.3568492,
            -28.7425033
          ],
          [
            -66.3572985,
            -28.7424998
          ],
          [
            -66.3576083,
            -28.7425127
          ],
          [
            -66.3576619,
            -28.7425303
          ],
          [
            -66.3576981,
            -28.7425927
          ],
          [
            -66.3577062,
            -28.7428443
          ],
          [
            -66.3577706,
            -28.7428737
          ],
          [
            -66.3578524,
            -28.742876
          ],
          [
            -66.3579382,
            -28.7428572
          ],
          [
            -66.3581193,
            -28.7428596
          ],
          [
            -66.3582185,
            -28.7428478
          ],
          [
            -66.3582735,
            -28.742849
          ],
          [
            -66.358299,
            -28.7428243
          ],
          [
            -66.358311,
            -28.7427502
          ],
          [
            -66.3583539,
            -28.7427161
          ],
          [
            -66.3584505,
            -28.742702
          ],
          [
            -66.3584907,
            -28.742662
          ],
          [
            -66.3585243,
            -28.7426279
          ],
          [
            -66.3586061,
            -28.7425868
          ],
          [
            -66.3586034,
            -28.7425574
          ],
          [
            -66.3585658,
            -28.742441
          ],
          [
            -66.3585511,
            -28.7423152
          ],
          [
            -66.3585511,
            -28.7422399
          ],
          [
            -66.358535,
            -28.7422093
          ],
          [
            -66.358472,
            -28.7422176
          ],
          [
            -66.3584103,
            -28.7422411
          ],
          [
            -66.3583861,
            -28.742207
          ],
          [
            -66.3583888,
            -28.7421705
          ],
          [
            -66.3584559,
            -28.7420024
          ],
          [
            -66.3585538,
            -28.7419259
          ],
          [
            -66.3586906,
            -28.7418801
          ],
          [
            -66.3587898,
            -28.7419271
          ],
          [
            -66.3589172,
            -28.7420118
          ],
          [
            -66.3593276,
            -28.7422117
          ],
          [
            -66.3596816,
            -28.7423563
          ],
          [
            -66.3598721,
            -28.7423728
          ],
          [
            -66.3604796,
            -28.7426021
          ],
          [
            -66.3609436,
            -28.7426867
          ],
          [
            -66.3613124,
            -28.7428055
          ],
          [
            -66.3618006,
            -28.7429054
          ],
          [
            -66.361936,
            -28.7428643
          ],
          [
            -66.3620245,
            -28.742749
          ],
          [
            -66.362046,
            -28.7426573
          ],
          [
            -66.3620299,
            -28.7425668
          ]
        ]
      }
    }
  ]
}
