{
  "type": "FeatureCollection",
  "bbox": [
    -2.1227518,
    51.3065141,
    -2.100406,
    51.3194593
  ],
  "metadata": {
    "schemaVersion": 1,
    "trackId": "gb-keevil-airfeild-29b3402d",
    "layoutId": "keevil-airfeild",
    "license": "ODbL-1.0",
    "attribution": "© OpenStreetMap contributors",
    "closed": true,
    "geometryStatus": "draft",
    "timingStatus": "missing",
    "timingMode": "shared",
    "lengthM": 4772.6,
    "reviewedAt": null,
    "notes": [
      "Draft configuration: The identified airfield perimeter follows the western rectangular taxiway, northern eastbound return, broad northeastern turn and southeast-to-southwest perimeter. Interior runway shortcuts are excluded. Exact mapped runway/taxiway and road nodes measure 4772.6 m against the catalogue distance of 4795 m. Branch identity was checked against catalogue layout facts and circuit identification references. Independent source distance 4772.6 m; no coordinates are changed to match a diagram or distance. Travel direction and historical alignment remain provisional."
    ]
  },
  "features": [
    {
      "type": "Feature",
      "id": "trace",
      "properties": {
        "role": "trace",
        "sourceIds": [
          "osm-selection-keevil-airfeild-independent-roads-31280745"
        ]
      },
      "geometry": {
        "type": "LineString",
        "coordinates": [
          [
            -2.1225296,
            51.310549
          ],
          [
            -2.1226297,
            51.3106406
          ],
          [
            -2.1227165,
            51.3107375
          ],
          [
            -2.122733,
            51.310896
          ],
          [
            -2.1227518,
            51.312211
          ],
          [
            -2.1227424,
            51.3141659
          ],
          [
            -2.1227259,
            51.3149951
          ],
          [
            -2.1227072,
            51.3154618
          ],
          [
            -2.1226038,
            51.3156599
          ],
          [
            -2.1225418,
            51.3157075
          ],
          [
            -2.1221272,
            51.3160253
          ],
          [
            -2.1218971,
            51.3161237
          ],
          [
            -2.1216365,
            51.3161413
          ],
          [
            -2.1195139,
            51.3160356
          ],
          [
            -2.1162291,
            51.3158962
          ],
          [
            -2.1147804,
            51.3158301
          ],
          [
            -2.1144563,
            51.3158434
          ],
          [
            -2.1141793,
            51.3158698
          ],
          [
            -2.1139515,
            51.3159241
          ],
          [
            -2.1119229,
            51.3164891
          ],
          [
            -2.1107019,
            51.3168266
          ],
          [
            -2.1089762,
            51.3173168
          ],
          [
            -2.1081614,
            51.3175486
          ],
          [
            -2.1077401,
            51.3176817
          ],
          [
            -2.1075157,
            51.3177526
          ],
          [
            -2.1058205,
            51.318435
          ],
          [
            -2.1039233,
            51.3191614
          ],
          [
            -2.1032964,
            51.3193741
          ],
          [
            -2.102862,
            51.3194431
          ],
          [
            -2.1025615,
            51.3194593
          ],
          [
            -2.1016551,
            51.3194461
          ],
          [
            -2.1009883,
            51.3194226
          ],
          [
            -2.1007864,
            51.3193653
          ],
          [
            -2.1005113,
            51.3190782
          ],
          [
            -2.100406,
            51.3189398
          ],
          [
            -2.1004225,
            51.3188195
          ],
          [
            -2.1007206,
            51.318432
          ],
          [
            -2.1020144,
            51.3166666
          ],
          [
            -2.1038106,
            51.3141953
          ],
          [
            -2.1050386,
            51.3125427
          ],
          [
            -2.1062995,
            51.3108358
          ],
          [
            -2.1069029,
            51.3100285
          ],
          [
            -2.1071424,
            51.3097321
          ],
          [
            -2.1072206,
            51.3096625
          ],
          [
            -2.1074429,
            51.3094649
          ],
          [
            -2.1090372,
            51.3082746
          ],
          [
            -2.1108522,
            51.3069477
          ],
          [
            -2.1113805,
            51.3065836
          ],
          [
            -2.1117857,
            51.3065141
          ],
          [
            -2.112207,
            51.3065851
          ],
          [
            -2.1132454,
            51.3071203
          ],
          [
            -2.1145737,
            51.3078049
          ],
          [
            -2.1165038,
            51.3087986
          ],
          [
            -2.1175627,
            51.309327
          ],
          [
            -2.1185958,
            51.3098377
          ],
          [
            -2.1188752,
            51.3099126
          ],
          [
            -2.120378,
            51.3101195
          ],
          [
            -2.1221671,
            51.3103558
          ],
          [
            -2.1223761,
            51.3104263
          ],
          [
            -2.1225296,
            51.310549
          ]
        ]
      }
    }
  ]
}
