{
  "type": "FeatureCollection",
  "bbox": [
    1.8762802,
    41.6523625,
    1.8812989,
    41.656479
  ],
  "metadata": {
    "schemaVersion": 1,
    "trackId": "es-circuit-de-can-padro-192894427",
    "layoutId": "main",
    "license": "ODbL-1.0",
    "attribution": "© OpenStreetMap contributors",
    "closed": true,
    "geometryStatus": "draft",
    "timingStatus": "missing",
    "timingMode": "shared",
    "lengthM": 2116.3,
    "reviewedAt": null,
    "notes": [
      "Closed named OSM raceway retained as a course candidate. Named-layout association requires review.",
      "Source way order and shared node IDs are retained. No nearby endpoints are joined and no reference boundaries are read.",
      "Some source ways lack one-way direction tags. Travel direction is provisional."
    ]
  },
  "features": [
    {
      "type": "Feature",
      "id": "trace",
      "properties": {
        "role": "trace",
        "sourceIds": [
          "osm-snapshot"
        ]
      },
      "geometry": {
        "type": "LineString",
        "coordinates": [
          [
            1.8779807,
            41.6540184
          ],
          [
            1.8791767,
            41.6548854
          ],
          [
            1.8793989,
            41.6551385
          ],
          [
            1.8794671,
            41.65529
          ],
          [
            1.8794625,
            41.6553679
          ],
          [
            1.8794148,
            41.6556209
          ],
          [
            1.879219,
            41.6561073
          ],
          [
            1.879256,
            41.6563169
          ],
          [
            1.8793195,
            41.6563892
          ],
          [
            1.8793937,
            41.6564474
          ],
          [
            1.8795009,
            41.6564742
          ],
          [
            1.8796054,
            41.656479
          ],
          [
            1.879718,
            41.656475
          ],
          [
            1.8798011,
            41.6564631
          ],
          [
            1.8799705,
            41.656396
          ],
          [
            1.8800014,
            41.6563646
          ],
          [
            1.880087,
            41.6562774
          ],
          [
            1.8801558,
            41.6561034
          ],
          [
            1.8801769,
            41.6559215
          ],
          [
            1.8800711,
            41.6553679
          ],
          [
            1.8801028,
            41.6551662
          ],
          [
            1.8802034,
            41.6549606
          ],
          [
            1.8804151,
            41.6547154
          ],
          [
            1.8806109,
            41.6545968
          ],
          [
            1.8808398,
            41.6545274
          ],
          [
            1.8810978,
            41.6545216
          ],
          [
            1.8812354,
            41.6544861
          ],
          [
            1.8812859,
            41.6544367
          ],
          [
            1.8812989,
            41.6543793
          ],
          [
            1.8812407,
            41.6542686
          ],
          [
            1.8810777,
            41.654165
          ],
          [
            1.8808945,
            41.6540566
          ],
          [
            1.880691,
            41.6538839
          ],
          [
            1.8806092,
            41.6537419
          ],
          [
            1.8806032,
            41.6536345
          ],
          [
            1.8806268,
            41.6535251
          ],
          [
            1.8806699,
            41.653352
          ],
          [
            1.8807523,
            41.6532122
          ],
          [
            1.880887,
            41.65305
          ],
          [
            1.8808945,
            41.6529577
          ],
          [
            1.8808458,
            41.6528738
          ],
          [
            1.8807261,
            41.6528459
          ],
          [
            1.8805988,
            41.6528599
          ],
          [
            1.8803326,
            41.6529893
          ],
          [
            1.8800824,
            41.6531367
          ],
          [
            1.8799739,
            41.6532821
          ],
          [
            1.879941,
            41.6533847
          ],
          [
            1.8799564,
            41.6534933
          ],
          [
            1.8799851,
            41.6535477
          ],
          [
            1.8800599,
            41.653668
          ],
          [
            1.8801368,
            41.6537714
          ],
          [
            1.8801162,
            41.6538553
          ],
          [
            1.8800412,
            41.6539056
          ],
          [
            1.8799252,
            41.6539252
          ],
          [
            1.8797493,
            41.6539364
          ],
          [
            1.8796146,
            41.65397
          ],
          [
            1.8795869,
            41.6540622
          ],
          [
            1.879604,
            41.6541459
          ],
          [
            1.8797119,
            41.6542132
          ],
          [
            1.8800375,
            41.6542859
          ],
          [
            1.8801123,
            41.6543922
          ],
          [
            1.8800899,
            41.6544928
          ],
          [
            1.8799963,
            41.6545516
          ],
          [
            1.8799028,
            41.6545655
          ],
          [
            1.8798242,
            41.6545655
          ],
          [
            1.8797284,
            41.654543
          ],
          [
            1.8796445,
            41.65449
          ],
          [
            1.878331,
            41.653654
          ],
          [
            1.8776798,
            41.6533604
          ],
          [
            1.8776312,
            41.6532625
          ],
          [
            1.8776836,
            41.6531758
          ],
          [
            1.8777846,
            41.6531423
          ],
          [
            1.8779231,
            41.6531563
          ],
          [
            1.8791056,
            41.653503
          ],
          [
            1.8792516,
            41.6535058
          ],
          [
            1.8793545,
            41.6534889
          ],
          [
            1.879447,
            41.6534534
          ],
          [
            1.8794796,
            41.6533638
          ],
          [
            1.8794424,
            41.6532821
          ],
          [
            1.8793302,
            41.6531954
          ],
          [
            1.8790907,
            41.6530444
          ],
          [
            1.8787426,
            41.6529158
          ],
          [
            1.8778856,
            41.6528179
          ],
          [
            1.8775077,
            41.6527424
          ],
          [
            1.8770212,
            41.6525663
          ],
          [
            1.8767881,
            41.6524526
          ],
          [
            1.8766862,
            41.6523974
          ],
          [
            1.876587,
            41.6523733
          ],
          [
            1.8765277,
            41.6523625
          ],
          [
            1.8764336,
            41.6523677
          ],
          [
            1.8763363,
            41.6524432
          ],
          [
            1.8762839,
            41.6525411
          ],
          [
            1.8762802,
            41.6526809
          ],
          [
            1.8763475,
            41.6528067
          ],
          [
            1.8764635,
            41.6529298
          ],
          [
            1.8773213,
            41.6535267
          ],
          [
            1.8779807,
            41.6540184
          ]
        ]
      }
    }
  ]
}
