{
  "type": "FeatureCollection",
  "bbox": [
    -73.9491235,
    4.9588125,
    -73.9408813,
    4.9639178
  ],
  "metadata": {
    "schemaVersion": 1,
    "trackId": "co-pits-autodromo-de-tocancipa-60009149",
    "layoutId": "main",
    "license": "ODbL-1.0",
    "attribution": "© OpenStreetMap contributors",
    "closed": true,
    "geometryStatus": "draft",
    "timingStatus": "missing",
    "timingMode": "shared",
    "lengthM": 2672.7,
    "reviewedAt": null,
    "notes": [
      "Closed named OSM raceway retained as a course candidate. Named-layout association requires review.",
      "Source way order and shared node IDs are retained. No nearby endpoints are joined and no reference boundaries are read.",
      "Some source ways lack one-way direction tags. Travel direction is provisional."
    ]
  },
  "features": [
    {
      "type": "Feature",
      "id": "trace",
      "properties": {
        "role": "trace",
        "sourceIds": [
          "osm-snapshot"
        ]
      },
      "geometry": {
        "type": "LineString",
        "coordinates": [
          [
            -73.9484124,
            4.9623966
          ],
          [
            -73.948978,
            4.9630258
          ],
          [
            -73.9490292,
            4.9630874
          ],
          [
            -73.9490683,
            4.9631637
          ],
          [
            -73.949101,
            4.9632387
          ],
          [
            -73.9491156,
            4.9632832
          ],
          [
            -73.9491235,
            4.9633464
          ],
          [
            -73.9491233,
            4.9633979
          ],
          [
            -73.9491174,
            4.9634582
          ],
          [
            -73.949104,
            4.9635314
          ],
          [
            -73.9490855,
            4.9635781
          ],
          [
            -73.9490536,
            4.9636435
          ],
          [
            -73.9490274,
            4.9636807
          ],
          [
            -73.9489774,
            4.9637264
          ],
          [
            -73.9489287,
            4.9637626
          ],
          [
            -73.9488795,
            4.9637978
          ],
          [
            -73.9488199,
            4.9638341
          ],
          [
            -73.948771,
            4.9638544
          ],
          [
            -73.948708,
            4.9638763
          ],
          [
            -73.94864,
            4.9638935
          ],
          [
            -73.9485653,
            4.9639068
          ],
          [
            -73.9484969,
            4.9639157
          ],
          [
            -73.9484459,
            4.9639178
          ],
          [
            -73.9483943,
            4.9639154
          ],
          [
            -73.9483534,
            4.9639102
          ],
          [
            -73.9483128,
            4.9639003
          ],
          [
            -73.9482709,
            4.9638864
          ],
          [
            -73.9482277,
            4.9638672
          ],
          [
            -73.9481952,
            4.9638453
          ],
          [
            -73.9481596,
            4.9638153
          ],
          [
            -73.948132,
            4.963788
          ],
          [
            -73.9481036,
            4.9637521
          ],
          [
            -73.9480756,
            4.9637137
          ],
          [
            -73.948037,
            4.9636138
          ],
          [
            -73.9480279,
            4.9635689
          ],
          [
            -73.9480269,
            4.9635266
          ],
          [
            -73.9480303,
            4.9634581
          ],
          [
            -73.9480417,
            4.9633973
          ],
          [
            -73.9480585,
            4.9633459
          ],
          [
            -73.9480787,
            4.9633019
          ],
          [
            -73.9481031,
            4.9632565
          ],
          [
            -73.9481344,
            4.9632131
          ],
          [
            -73.9481645,
            4.9631696
          ],
          [
            -73.9481951,
            4.9631281
          ],
          [
            -73.9482156,
            4.9630912
          ],
          [
            -73.9482362,
            4.9630477
          ],
          [
            -73.9482499,
            4.9630071
          ],
          [
            -73.9482603,
            4.9629599
          ],
          [
            -73.9482596,
            4.9629134
          ],
          [
            -73.9482549,
            4.9628723
          ],
          [
            -73.9482442,
            4.9628302
          ],
          [
            -73.9482228,
            4.9627807
          ],
          [
            -73.9481933,
            4.9627378
          ],
          [
            -73.9481388,
            4.9626554
          ],
          [
            -73.947729,
            4.9622098
          ],
          [
            -73.9476713,
            4.9621473
          ],
          [
            -73.9476156,
            4.9620992
          ],
          [
            -73.9475341,
            4.9620321
          ],
          [
            -73.9474759,
            4.9619998
          ],
          [
            -73.9474297,
            4.9619842
          ],
          [
            -73.9473792,
            4.9619715
          ],
          [
            -73.9473156,
            4.9619648
          ],
          [
            -73.9472631,
            4.9619652
          ],
          [
            -73.9471721,
            4.9619638
          ],
          [
            -73.947021,
            4.9619664
          ],
          [
            -73.946926,
            4.9619666
          ],
          [
            -73.9468404,
            4.9619682
          ],
          [
            -73.9467364,
            4.9619522
          ],
          [
            -73.9466684,
            4.9619309
          ],
          [
            -73.9465914,
            4.9619037
          ],
          [
            -73.9465349,
            4.9618704
          ],
          [
            -73.94649,
            4.9618419
          ],
          [
            -73.9464003,
            4.9617568
          ],
          [
            -73.9463303,
            4.9616853
          ],
          [
            -73.9461389,
            4.9614788
          ],
          [
            -73.945534,
            4.960792
          ],
          [
            -73.94528,
            4.9605217
          ],
          [
            -73.9451474,
            4.9604488
          ],
          [
            -73.9450091,
            4.9604009
          ],
          [
            -73.9448941,
            4.9603928
          ],
          [
            -73.9447847,
            4.9603931
          ],
          [
            -73.9446819,
            4.9604109
          ],
          [
            -73.944579,
            4.9604454
          ],
          [
            -73.9443754,
            4.9604976
          ],
          [
            -73.9442317,
            4.9605417
          ],
          [
            -73.9441062,
            4.9606015
          ],
          [
            -73.9439769,
            4.9606939
          ],
          [
            -73.9438477,
            4.9608045
          ],
          [
            -73.9423817,
            4.9619595
          ],
          [
            -73.9421113,
            4.9621629
          ],
          [
            -73.9420177,
            4.9622298
          ],
          [
            -73.9419347,
            4.9622779
          ],
          [
            -73.9418719,
            4.9623141
          ],
          [
            -73.9418002,
            4.9623442
          ],
          [
            -73.9417362,
            4.9623693
          ],
          [
            -73.9416774,
            4.9623859
          ],
          [
            -73.9416305,
            4.9623955
          ],
          [
            -73.941573,
            4.9623984
          ],
          [
            -73.9415198,
            4.9623969
          ],
          [
            -73.9414398,
            4.9623914
          ],
          [
            -73.9413893,
            4.9623803
          ],
          [
            -73.9413266,
            4.9623574
          ],
          [
            -73.9412576,
            4.9623312
          ],
          [
            -73.9411957,
            4.9623041
          ],
          [
            -73.9411364,
            4.962269
          ],
          [
            -73.9410888,
            4.962224
          ],
          [
            -73.9410504,
            4.9621837
          ],
          [
            -73.9410191,
            4.9621429
          ],
          [
            -73.940986,
            4.9620984
          ],
          [
            -73.9409637,
            4.9620513
          ],
          [
            -73.9409319,
            4.9619802
          ],
          [
            -73.9409095,
            4.9619011
          ],
          [
            -73.9408942,
            4.9618299
          ],
          [
            -73.9408813,
            4.9617654
          ],
          [
            -73.940887,
            4.9616863
          ],
          [
            -73.9408952,
            4.9616227
          ],
          [
            -73.9409141,
            4.9615351
          ],
          [
            -73.9409335,
            4.9614726
          ],
          [
            -73.9409557,
            4.961422
          ],
          [
            -73.9409814,
            4.9613662
          ],
          [
            -73.9410205,
            4.9613103
          ],
          [
            -73.9412459,
            4.9610321
          ],
          [
            -73.9414556,
            4.9608536
          ],
          [
            -73.9425671,
            4.9601154
          ],
          [
            -73.942839,
            4.9599524
          ],
          [
            -73.9429517,
            4.9598484
          ],
          [
            -73.9430338,
            4.9597168
          ],
          [
            -73.9431294,
            4.9595316
          ],
          [
            -73.9432612,
            4.9592391
          ],
          [
            -73.9433817,
            4.9589742
          ],
          [
            -73.9434266,
            4.9589201
          ],
          [
            -73.9434792,
            4.9588768
          ],
          [
            -73.9435541,
            4.9588316
          ],
          [
            -73.9436305,
            4.9588125
          ],
          [
            -73.9437274,
            4.9588136
          ],
          [
            -73.9438059,
            4.9588346
          ],
          [
            -73.9438891,
            4.9588793
          ],
          [
            -73.9439661,
            4.9589592
          ],
          [
            -73.944042,
            4.9590393
          ],
          [
            -73.9441101,
            4.9591423
          ],
          [
            -73.944154,
            4.9592783
          ],
          [
            -73.9441887,
            4.9593866
          ],
          [
            -73.9441981,
            4.9594737
          ],
          [
            -73.9442044,
            4.9595546
          ],
          [
            -73.9442301,
            4.9596386
          ],
          [
            -73.9442789,
            4.9597165
          ],
          [
            -73.9443338,
            4.9597743
          ],
          [
            -73.9444097,
            4.9598122
          ],
          [
            -73.9445112,
            4.9598399
          ],
          [
            -73.9446067,
            4.9598424
          ],
          [
            -73.9446972,
            4.9598276
          ],
          [
            -73.9447939,
            4.9597881
          ],
          [
            -73.9449589,
            4.9596338
          ],
          [
            -73.9450521,
            4.9595415
          ],
          [
            -73.9451373,
            4.9594693
          ],
          [
            -73.9451937,
            4.9594239
          ],
          [
            -73.9452589,
            4.9593829
          ],
          [
            -73.9453246,
            4.9593585
          ],
          [
            -73.9453684,
            4.9593424
          ],
          [
            -73.9454198,
            4.9593309
          ],
          [
            -73.9454702,
            4.9593279
          ],
          [
            -73.9455222,
            4.959331
          ],
          [
            -73.9455864,
            4.9593395
          ],
          [
            -73.9456586,
            4.9593575
          ],
          [
            -73.9457024,
            4.9593742
          ],
          [
            -73.94576,
            4.9594032
          ],
          [
            -73.9458242,
            4.9594409
          ],
          [
            -73.9458976,
            4.9595002
          ],
          [
            -73.9474029,
            4.9612311
          ],
          [
            -73.9475864,
            4.9614405
          ],
          [
            -73.9483303,
            4.962289
          ],
          [
            -73.9484124,
            4.9623966
          ]
        ]
      }
    }
  ]
}
