{
  "type": "FeatureCollection",
  "bbox": [
    -73.9491235,
    4.9588125,
    -73.9408813,
    4.9639178
  ],
  "metadata": {
    "schemaVersion": 1,
    "trackId": "co-pits-autodromo-de-tocancipa-60009149",
    "layoutId": "tocancipa",
    "license": "ODbL-1.0",
    "attribution": "© OpenStreetMap contributors",
    "closed": true,
    "geometryStatus": "draft",
    "timingStatus": "missing",
    "timingMode": "shared",
    "lengthM": 2695.1,
    "reviewedAt": null,
    "notes": [
      "Draft configuration: Full course with southwestern rounded shoulder, southern hooked hairpin and northeastern long turnaround. Branch identity was checked against catalogue layout facts and circuit identification references. Independent source distance 2695.1 m; no coordinates are changed to match a diagram or distance. Travel direction and historical alignment remain provisional."
    ]
  },
  "features": [
    {
      "type": "Feature",
      "id": "trace",
      "properties": {
        "role": "trace",
        "sourceIds": [
          "osm-selection-60009149"
        ]
      },
      "geometry": {
        "type": "LineString",
        "coordinates": [
          [
            -73.9447939,
            4.9597881
          ],
          [
            -73.9446972,
            4.9598276
          ],
          [
            -73.9446067,
            4.9598424
          ],
          [
            -73.9445112,
            4.9598399
          ],
          [
            -73.9444097,
            4.9598122
          ],
          [
            -73.9443338,
            4.9597743
          ],
          [
            -73.9442789,
            4.9597165
          ],
          [
            -73.9442301,
            4.9596386
          ],
          [
            -73.9442044,
            4.9595546
          ],
          [
            -73.9441981,
            4.9594737
          ],
          [
            -73.9441887,
            4.9593866
          ],
          [
            -73.944154,
            4.9592783
          ],
          [
            -73.9441101,
            4.9591423
          ],
          [
            -73.944042,
            4.9590393
          ],
          [
            -73.9439661,
            4.9589592
          ],
          [
            -73.9438891,
            4.9588793
          ],
          [
            -73.9438059,
            4.9588346
          ],
          [
            -73.9437274,
            4.9588136
          ],
          [
            -73.9436305,
            4.9588125
          ],
          [
            -73.9435541,
            4.9588316
          ],
          [
            -73.9434792,
            4.9588768
          ],
          [
            -73.9434266,
            4.9589201
          ],
          [
            -73.9433817,
            4.9589742
          ],
          [
            -73.9432612,
            4.9592391
          ],
          [
            -73.9431294,
            4.9595316
          ],
          [
            -73.9431251,
            4.9596094
          ],
          [
            -73.9431486,
            4.9596873
          ],
          [
            -73.9431692,
            4.9597471
          ],
          [
            -73.9432075,
            4.9597963
          ],
          [
            -73.9432457,
            4.9598412
          ],
          [
            -73.9433015,
            4.9598825
          ],
          [
            -73.9433674,
            4.959904
          ],
          [
            -73.9432782,
            4.9598876
          ],
          [
            -73.9432256,
            4.9598873
          ],
          [
            -73.9431537,
            4.9598829
          ],
          [
            -73.9430859,
            4.9598857
          ],
          [
            -73.9430153,
            4.9598993
          ],
          [
            -73.9429495,
            4.9599127
          ],
          [
            -73.942839,
            4.9599524
          ],
          [
            -73.9425671,
            4.9601154
          ],
          [
            -73.9414556,
            4.9608536
          ],
          [
            -73.9412459,
            4.9610321
          ],
          [
            -73.9410205,
            4.9613103
          ],
          [
            -73.9409814,
            4.9613662
          ],
          [
            -73.9409557,
            4.961422
          ],
          [
            -73.9409335,
            4.9614726
          ],
          [
            -73.9409141,
            4.9615351
          ],
          [
            -73.9408952,
            4.9616227
          ],
          [
            -73.940887,
            4.9616863
          ],
          [
            -73.9408813,
            4.9617654
          ],
          [
            -73.9408942,
            4.9618299
          ],
          [
            -73.9409095,
            4.9619011
          ],
          [
            -73.9409319,
            4.9619802
          ],
          [
            -73.9409637,
            4.9620513
          ],
          [
            -73.940986,
            4.9620984
          ],
          [
            -73.9410191,
            4.9621429
          ],
          [
            -73.9410504,
            4.9621837
          ],
          [
            -73.9410888,
            4.962224
          ],
          [
            -73.9411364,
            4.962269
          ],
          [
            -73.9411957,
            4.9623041
          ],
          [
            -73.9412576,
            4.9623312
          ],
          [
            -73.9413266,
            4.9623574
          ],
          [
            -73.9413893,
            4.9623803
          ],
          [
            -73.9414398,
            4.9623914
          ],
          [
            -73.9415198,
            4.9623969
          ],
          [
            -73.941573,
            4.9623984
          ],
          [
            -73.9416305,
            4.9623955
          ],
          [
            -73.9416774,
            4.9623859
          ],
          [
            -73.9417362,
            4.9623693
          ],
          [
            -73.9418002,
            4.9623442
          ],
          [
            -73.9418719,
            4.9623141
          ],
          [
            -73.9419347,
            4.9622779
          ],
          [
            -73.9420177,
            4.9622298
          ],
          [
            -73.9421113,
            4.9621629
          ],
          [
            -73.9423817,
            4.9619595
          ],
          [
            -73.9438477,
            4.9608045
          ],
          [
            -73.9439769,
            4.9606939
          ],
          [
            -73.9441062,
            4.9606015
          ],
          [
            -73.9442317,
            4.9605417
          ],
          [
            -73.9443754,
            4.9604976
          ],
          [
            -73.944579,
            4.9604454
          ],
          [
            -73.9446819,
            4.9604109
          ],
          [
            -73.9447847,
            4.9603931
          ],
          [
            -73.9448941,
            4.9603928
          ],
          [
            -73.9450091,
            4.9604009
          ],
          [
            -73.9451474,
            4.9604488
          ],
          [
            -73.94528,
            4.9605217
          ],
          [
            -73.945534,
            4.960792
          ],
          [
            -73.9461389,
            4.9614788
          ],
          [
            -73.9463303,
            4.9616853
          ],
          [
            -73.9464003,
            4.9617568
          ],
          [
            -73.94649,
            4.9618419
          ],
          [
            -73.9465349,
            4.9618704
          ],
          [
            -73.9465914,
            4.9619037
          ],
          [
            -73.9466684,
            4.9619309
          ],
          [
            -73.9467364,
            4.9619522
          ],
          [
            -73.9468404,
            4.9619682
          ],
          [
            -73.946926,
            4.9619666
          ],
          [
            -73.947021,
            4.9619664
          ],
          [
            -73.9471721,
            4.9619638
          ],
          [
            -73.9472631,
            4.9619652
          ],
          [
            -73.9473156,
            4.9619648
          ],
          [
            -73.9473792,
            4.9619715
          ],
          [
            -73.9474297,
            4.9619842
          ],
          [
            -73.9474759,
            4.9619998
          ],
          [
            -73.9475341,
            4.9620321
          ],
          [
            -73.9476156,
            4.9620992
          ],
          [
            -73.9476713,
            4.9621473
          ],
          [
            -73.947729,
            4.9622098
          ],
          [
            -73.9481388,
            4.9626554
          ],
          [
            -73.9481933,
            4.9627378
          ],
          [
            -73.9482228,
            4.9627807
          ],
          [
            -73.9482442,
            4.9628302
          ],
          [
            -73.9482549,
            4.9628723
          ],
          [
            -73.9482596,
            4.9629134
          ],
          [
            -73.9482603,
            4.9629599
          ],
          [
            -73.9482499,
            4.9630071
          ],
          [
            -73.9482362,
            4.9630477
          ],
          [
            -73.9482156,
            4.9630912
          ],
          [
            -73.9481951,
            4.9631281
          ],
          [
            -73.9481645,
            4.9631696
          ],
          [
            -73.9481344,
            4.9632131
          ],
          [
            -73.9481031,
            4.9632565
          ],
          [
            -73.9480787,
            4.9633019
          ],
          [
            -73.9480585,
            4.9633459
          ],
          [
            -73.9480417,
            4.9633973
          ],
          [
            -73.9480303,
            4.9634581
          ],
          [
            -73.9480269,
            4.9635266
          ],
          [
            -73.9480279,
            4.9635689
          ],
          [
            -73.948037,
            4.9636138
          ],
          [
            -73.9480756,
            4.9637137
          ],
          [
            -73.9481036,
            4.9637521
          ],
          [
            -73.948132,
            4.963788
          ],
          [
            -73.9481596,
            4.9638153
          ],
          [
            -73.9481952,
            4.9638453
          ],
          [
            -73.9482277,
            4.9638672
          ],
          [
            -73.9482709,
            4.9638864
          ],
          [
            -73.9483128,
            4.9639003
          ],
          [
            -73.9483534,
            4.9639102
          ],
          [
            -73.9483943,
            4.9639154
          ],
          [
            -73.9484459,
            4.9639178
          ],
          [
            -73.9484969,
            4.9639157
          ],
          [
            -73.9485653,
            4.9639068
          ],
          [
            -73.94864,
            4.9638935
          ],
          [
            -73.948708,
            4.9638763
          ],
          [
            -73.948771,
            4.9638544
          ],
          [
            -73.9488199,
            4.9638341
          ],
          [
            -73.9488795,
            4.9637978
          ],
          [
            -73.9489287,
            4.9637626
          ],
          [
            -73.9489774,
            4.9637264
          ],
          [
            -73.9490274,
            4.9636807
          ],
          [
            -73.9490536,
            4.9636435
          ],
          [
            -73.9490855,
            4.9635781
          ],
          [
            -73.949104,
            4.9635314
          ],
          [
            -73.9491174,
            4.9634582
          ],
          [
            -73.9491233,
            4.9633979
          ],
          [
            -73.9491235,
            4.9633464
          ],
          [
            -73.9491156,
            4.9632832
          ],
          [
            -73.949101,
            4.9632387
          ],
          [
            -73.9490683,
            4.9631637
          ],
          [
            -73.9490292,
            4.9630874
          ],
          [
            -73.948978,
            4.9630258
          ],
          [
            -73.9484124,
            4.9623966
          ],
          [
            -73.9483303,
            4.962289
          ],
          [
            -73.9474958,
            4.9615163
          ],
          [
            -73.9472651,
            4.9612704
          ],
          [
            -73.9466718,
            4.9605868
          ],
          [
            -73.9459681,
            4.9597927
          ],
          [
            -73.9459411,
            4.9597695
          ],
          [
            -73.9459123,
            4.9597499
          ],
          [
            -73.9458779,
            4.9597319
          ],
          [
            -73.9458454,
            4.9597157
          ],
          [
            -73.945805,
            4.9596981
          ],
          [
            -73.945783,
            4.9596884
          ],
          [
            -73.9457628,
            4.9596805
          ],
          [
            -73.9457391,
            4.9596748
          ],
          [
            -73.9457136,
            4.9596727
          ],
          [
            -73.9456812,
            4.959679
          ],
          [
            -73.9456549,
            4.9596923
          ],
          [
            -73.9456313,
            4.9597092
          ],
          [
            -73.9456157,
            4.9597287
          ],
          [
            -73.9456049,
            4.9597402
          ],
          [
            -73.9455908,
            4.9597496
          ],
          [
            -73.9455778,
            4.9597585
          ],
          [
            -73.9455625,
            4.9597653
          ],
          [
            -73.945547,
            4.9597696
          ],
          [
            -73.9455315,
            4.9597728
          ],
          [
            -73.9455147,
            4.9597728
          ],
          [
            -73.9454979,
            4.9597716
          ],
          [
            -73.9454833,
            4.9597689
          ],
          [
            -73.9454698,
            4.959764
          ],
          [
            -73.9454554,
            4.959758
          ],
          [
            -73.9454409,
            4.959751
          ],
          [
            -73.9454231,
            4.9597407
          ],
          [
            -73.9454053,
            4.9597294
          ],
          [
            -73.9453839,
            4.9597188
          ],
          [
            -73.9453625,
            4.9597104
          ],
          [
            -73.9453423,
            4.9597033
          ],
          [
            -73.9453244,
            4.9596972
          ],
          [
            -73.9453059,
            4.9596927
          ],
          [
            -73.9452863,
            4.9596892
          ],
          [
            -73.9452671,
            4.9596862
          ],
          [
            -73.945249,
            4.9596847
          ],
          [
            -73.9452322,
            4.9596844
          ],
          [
            -73.9452149,
            4.9596852
          ],
          [
            -73.9451974,
            4.9596862
          ],
          [
            -73.945181,
            4.9596879
          ],
          [
            -73.9451471,
            4.9596911
          ],
          [
            -73.9450078,
            4.9597124
          ],
          [
            -73.9447939,
            4.9597881
          ]
        ]
      }
    }
  ]
}
