{
  "type": "FeatureCollection",
  "bbox": [
    -58.2546194,
    6.4824306,
    -58.2453543,
    6.4922761
  ],
  "metadata": {
    "schemaVersion": 1,
    "trackId": "gy-south-dakota-circuit-bcfcfc0a",
    "layoutId": "south-dakota-circuit",
    "license": "ODbL-1.0",
    "attribution": "© OpenStreetMap contributors",
    "closed": true,
    "geometryStatus": "draft",
    "timingStatus": "missing",
    "timingMode": "shared",
    "lengthM": 3110.7,
    "reviewedAt": null,
    "notes": [
      "Draft configuration: Original triangular circuit including the small northwestern corner notch. Branch identity was checked against catalogue layout facts and circuit identification references. Independent source distance 3110.7 m; no coordinates are changed to match a diagram or distance. Travel direction and historical alignment remain provisional."
    ]
  },
  "features": [
    {
      "type": "Feature",
      "id": "trace",
      "properties": {
        "role": "trace",
        "sourceIds": [
          "osm-selection-408937614"
        ]
      },
      "geometry": {
        "type": "LineString",
        "coordinates": [
          [
            -58.2539129,
            6.4922761
          ],
          [
            -58.2535595,
            6.4919545
          ],
          [
            -58.2512701,
            6.4898714
          ],
          [
            -58.2508853,
            6.4895213
          ],
          [
            -58.2495048,
            6.4887386
          ],
          [
            -58.2492616,
            6.4886
          ],
          [
            -58.2478821,
            6.487959
          ],
          [
            -58.2472474,
            6.487656
          ],
          [
            -58.246346,
            6.4872151
          ],
          [
            -58.2458837,
            6.4868811
          ],
          [
            -58.2454868,
            6.4864681
          ],
          [
            -58.2453814,
            6.4863538
          ],
          [
            -58.2453543,
            6.4862293
          ],
          [
            -58.2454267,
            6.4860924
          ],
          [
            -58.2455475,
            6.4859623
          ],
          [
            -58.2460034,
            6.4854165
          ],
          [
            -58.2465881,
            6.4847652
          ],
          [
            -58.2471125,
            6.4841593
          ],
          [
            -58.2479678,
            6.4831624
          ],
          [
            -58.2484657,
            6.4826278
          ],
          [
            -58.2485595,
            6.4825079
          ],
          [
            -58.2486829,
            6.4824306
          ],
          [
            -58.248817,
            6.4824599
          ],
          [
            -58.2489029,
            6.4825425
          ],
          [
            -58.2492381,
            6.4829849
          ],
          [
            -58.2497611,
            6.4837779
          ],
          [
            -58.2505532,
            6.4849352
          ],
          [
            -58.2509492,
            6.485534
          ],
          [
            -58.2516372,
            6.4864866
          ],
          [
            -58.251756,
            6.4866584
          ],
          [
            -58.2525898,
            6.4878648
          ],
          [
            -58.2528654,
            6.4882762
          ],
          [
            -58.2531894,
            6.4887867
          ],
          [
            -58.2544205,
            6.4905978
          ],
          [
            -58.2546194,
            6.4908344
          ],
          [
            -58.254271,
            6.4912474
          ],
          [
            -58.2541286,
            6.4913889
          ],
          [
            -58.2544852,
            6.4918317
          ],
          [
            -58.2541263,
            6.4922125
          ],
          [
            -58.2539129,
            6.4922761
          ]
        ]
      }
    }
  ]
}
