{
  "type": "FeatureCollection",
  "bbox": [
    -121.7343683,
    38.5754276,
    -121.7317453,
    38.5761041
  ],
  "metadata": {
    "schemaVersion": 1,
    "trackId": "us-davis-kart-circuit-c37d544b",
    "layoutId": "davis-kart-circuit",
    "license": "ODbL-1.0",
    "attribution": "© OpenStreetMap contributors",
    "closed": true,
    "geometryStatus": "draft",
    "timingStatus": "missing",
    "timingMode": "shared",
    "lengthM": 700.3,
    "reviewedAt": null,
    "notes": [
      "Draft route hypothesis: the source cycle is the unique closest nominal-distance match within conservative timing and distance checks. Approximate OSM trace length 700.3 m. Difference from the supplied layout distance 2.7 m. Course configuration still requires visual review."
    ]
  },
  "features": [
    {
      "type": "Feature",
      "id": "trace",
      "properties": {
        "role": "trace",
        "sourceIds": [
          "osm-network-25787624"
        ]
      },
      "geometry": {
        "type": "LineString",
        "coordinates": [
          [
            -121.7340024,
            38.5761041
          ],
          [
            -121.7342471,
            38.5761013
          ],
          [
            -121.734313,
            38.5760961
          ],
          [
            -121.7343497,
            38.5760768
          ],
          [
            -121.7343683,
            38.5760418
          ],
          [
            -121.7343654,
            38.5759946
          ],
          [
            -121.7342966,
            38.5756956
          ],
          [
            -121.7342705,
            38.5756219
          ],
          [
            -121.7342201,
            38.5755694
          ],
          [
            -121.7342056,
            38.5755561
          ],
          [
            -121.7341719,
            38.5755251
          ],
          [
            -121.7341055,
            38.5754898
          ],
          [
            -121.7340183,
            38.5754691
          ],
          [
            -121.7338547,
            38.5754649
          ],
          [
            -121.7337834,
            38.5754715
          ],
          [
            -121.7337334,
            38.5754871
          ],
          [
            -121.7336896,
            38.5755144
          ],
          [
            -121.7336317,
            38.5755829
          ],
          [
            -121.7335985,
            38.5756216
          ],
          [
            -121.7335304,
            38.5756641
          ],
          [
            -121.7334304,
            38.5757018
          ],
          [
            -121.7333786,
            38.5757074
          ],
          [
            -121.7333437,
            38.575696
          ],
          [
            -121.7333211,
            38.5756662
          ],
          [
            -121.7333233,
            38.5756316
          ],
          [
            -121.733341,
            38.575595
          ],
          [
            -121.7333826,
            38.5755465
          ],
          [
            -121.7333869,
            38.5755048
          ],
          [
            -121.7333526,
            38.5754645
          ],
          [
            -121.7332941,
            38.5754511
          ],
          [
            -121.7331574,
            38.5754424
          ],
          [
            -121.7327487,
            38.57543
          ],
          [
            -121.7321262,
            38.5754276
          ],
          [
            -121.7318559,
            38.5754283
          ],
          [
            -121.7317993,
            38.5754369
          ],
          [
            -121.7317626,
            38.5754604
          ],
          [
            -121.7317453,
            38.5754905
          ],
          [
            -121.7317541,
            38.5755334
          ],
          [
            -121.7317887,
            38.5755618
          ],
          [
            -121.7318417,
            38.5755618
          ],
          [
            -121.7319687,
            38.5755517
          ],
          [
            -121.7320262,
            38.5755607
          ],
          [
            -121.7320737,
            38.5756255
          ],
          [
            -121.7320829,
            38.5756471
          ],
          [
            -121.7320995,
            38.5756859
          ],
          [
            -121.7321252,
            38.575753
          ],
          [
            -121.7321939,
            38.5758
          ],
          [
            -121.7322797,
            38.5758336
          ],
          [
            -121.7324098,
            38.5758557
          ],
          [
            -121.7327548,
            38.5758598
          ],
          [
            -121.7332043,
            38.5758651
          ],
          [
            -121.7333012,
            38.5758551
          ],
          [
            -121.733414,
            38.5758312
          ],
          [
            -121.7335693,
            38.5757669
          ],
          [
            -121.7337476,
            38.5757032
          ],
          [
            -121.733825,
            38.5756956
          ],
          [
            -121.7338967,
            38.5757139
          ],
          [
            -121.733948,
            38.5757603
          ],
          [
            -121.7339719,
            38.5757966
          ],
          [
            -121.733983,
            38.5758443
          ],
          [
            -121.7339679,
            38.5758983
          ],
          [
            -121.7339308,
            38.5759329
          ],
          [
            -121.7338737,
            38.5759664
          ],
          [
            -121.7338025,
            38.5759744
          ],
          [
            -121.7336485,
            38.575918
          ],
          [
            -121.7335879,
            38.5759066
          ],
          [
            -121.7335246,
            38.5759225
          ],
          [
            -121.7334698,
            38.5759522
          ],
          [
            -121.7334379,
            38.5760024
          ],
          [
            -121.7334538,
            38.5760557
          ],
          [
            -121.7335167,
            38.5760895
          ],
          [
            -121.7336065,
            38.5760975
          ],
          [
            -121.7340024,
            38.5761041
          ]
        ]
      }
    }
  ]
}
