{
  "type": "FeatureCollection",
  "bbox": [
    -81.3582686,
    27.4526178,
    -81.347877,
    27.4572496
  ],
  "metadata": {
    "schemaVersion": 1,
    "trackId": "us-sebring-international-raceway-426154257",
    "layoutId": "sebring-johnson-club-alt-sf",
    "license": "ODbL-1.0",
    "attribution": "© OpenStreetMap contributors",
    "closed": true,
    "geometryStatus": "draft",
    "timingStatus": "missing",
    "timingMode": "shared",
    "lengthM": 2688.2,
    "reviewedAt": null,
    "notes": [
      "Draft route hypothesis: the source cycle is the unique closest nominal-distance match within conservative timing and distance checks. Approximate OSM trace length 2688.2 m. Difference from the supplied layout distance 4.8 m. Course configuration still requires visual review."
    ]
  },
  "features": [
    {
      "type": "Feature",
      "id": "trace",
      "properties": {
        "role": "trace",
        "sourceIds": [
          "osm-network-426154257"
        ]
      },
      "geometry": {
        "type": "LineString",
        "coordinates": [
          [
            -81.351311,
            27.4564453
          ],
          [
            -81.3510508,
            27.4563905
          ],
          [
            -81.350965,
            27.4563882
          ],
          [
            -81.3507531,
            27.4564262
          ],
          [
            -81.3505304,
            27.4564929
          ],
          [
            -81.3503534,
            27.45655
          ],
          [
            -81.3496775,
            27.4568642
          ],
          [
            -81.3495595,
            27.4568951
          ],
          [
            -81.3494361,
            27.4569046
          ],
          [
            -81.3486189,
            27.456919
          ],
          [
            -81.348354,
            27.4569268
          ],
          [
            -81.3482537,
            27.4569162
          ],
          [
            -81.3481719,
            27.4568962
          ],
          [
            -81.3481133,
            27.4568769
          ],
          [
            -81.3480523,
            27.45685
          ],
          [
            -81.3479932,
            27.4568098
          ],
          [
            -81.3479525,
            27.4567622
          ],
          [
            -81.3479233,
            27.4566976
          ],
          [
            -81.3479065,
            27.4566373
          ],
          [
            -81.3478969,
            27.4565756
          ],
          [
            -81.3478874,
            27.456502
          ],
          [
            -81.347877,
            27.4547932
          ],
          [
            -81.3479002,
            27.4546813
          ],
          [
            -81.3479429,
            27.4546176
          ],
          [
            -81.3480709,
            27.4545677
          ],
          [
            -81.3484204,
            27.454561
          ],
          [
            -81.3491518,
            27.4545555
          ],
          [
            -81.3494683,
            27.4545578
          ],
          [
            -81.3495649,
            27.454565
          ],
          [
            -81.3497204,
            27.4546078
          ],
          [
            -81.3498921,
            27.4547054
          ],
          [
            -81.3500557,
            27.4548101
          ],
          [
            -81.3502569,
            27.4549291
          ],
          [
            -81.35034,
            27.4549672
          ],
          [
            -81.3504205,
            27.4549886
          ],
          [
            -81.3504875,
            27.4550029
          ],
          [
            -81.3505653,
            27.4550029
          ],
          [
            -81.3506592,
            27.4550005
          ],
          [
            -81.3507799,
            27.4549672
          ],
          [
            -81.3508684,
            27.4549315
          ],
          [
            -81.350973,
            27.454822
          ],
          [
            -81.3510347,
            27.4547387
          ],
          [
            -81.3511071,
            27.4545816
          ],
          [
            -81.3512386,
            27.4543008
          ],
          [
            -81.3512976,
            27.4541961
          ],
          [
            -81.3513753,
            27.454089
          ],
          [
            -81.3514451,
            27.4540057
          ],
          [
            -81.3515819,
            27.4538509
          ],
          [
            -81.3518241,
            27.4535985
          ],
          [
            -81.3519252,
            27.4535035
          ],
          [
            -81.3523812,
            27.4531559
          ],
          [
            -81.352585,
            27.4530346
          ],
          [
            -81.3530115,
            27.4528537
          ],
          [
            -81.3533924,
            27.452737
          ],
          [
            -81.3537303,
            27.4526751
          ],
          [
            -81.3542346,
            27.4526323
          ],
          [
            -81.3547281,
            27.4526299
          ],
          [
            -81.3555757,
            27.4526323
          ],
          [
            -81.3562298,
            27.4526284
          ],
          [
            -81.3567773,
            27.4526252
          ],
          [
            -81.3577487,
            27.4526213
          ],
          [
            -81.3579865,
            27.4526178
          ],
          [
            -81.3580889,
            27.4526228
          ],
          [
            -81.3581587,
            27.4526513
          ],
          [
            -81.3582096,
            27.4526918
          ],
          [
            -81.3582498,
            27.4527513
          ],
          [
            -81.3582659,
            27.4528132
          ],
          [
            -81.3582686,
            27.4528608
          ],
          [
            -81.3582552,
            27.4529203
          ],
          [
            -81.3582364,
            27.4529608
          ],
          [
            -81.3581935,
            27.4530012
          ],
          [
            -81.3581238,
            27.453056
          ],
          [
            -81.3580567,
            27.4531274
          ],
          [
            -81.3580272,
            27.4531797
          ],
          [
            -81.3580084,
            27.4532297
          ],
          [
            -81.3580031,
            27.4532797
          ],
          [
            -81.3579977,
            27.4533678
          ],
          [
            -81.357995,
            27.4534439
          ],
          [
            -81.3579226,
            27.453651
          ],
          [
            -81.3578475,
            27.4537581
          ],
          [
            -81.357708,
            27.4539223
          ],
          [
            -81.3572138,
            27.4543765
          ],
          [
            -81.3571149,
            27.4544613
          ],
          [
            -81.3569837,
            27.454543
          ],
          [
            -81.3568832,
            27.454591
          ],
          [
            -81.3567758,
            27.4546411
          ],
          [
            -81.3566405,
            27.4546928
          ],
          [
            -81.3565693,
            27.4547173
          ],
          [
            -81.3552775,
            27.4551165
          ],
          [
            -81.3551654,
            27.4551609
          ],
          [
            -81.3550466,
            27.4552162
          ],
          [
            -81.3549428,
            27.4552689
          ],
          [
            -81.3548285,
            27.4553381
          ],
          [
            -81.3546873,
            27.4554411
          ],
          [
            -81.3542487,
            27.4558343
          ],
          [
            -81.3534916,
            27.4565048
          ],
          [
            -81.3528291,
            27.4570927
          ],
          [
            -81.3527084,
            27.4571996
          ],
          [
            -81.352636,
            27.4572377
          ],
          [
            -81.3525716,
            27.4572496
          ],
          [
            -81.3524858,
            27.4572377
          ],
          [
            -81.3524295,
            27.4572187
          ],
          [
            -81.3523704,
            27.4571901
          ],
          [
            -81.3522337,
            27.4570736
          ],
          [
            -81.3521451,
            27.456976
          ],
          [
            -81.3519225,
            27.4567071
          ],
          [
            -81.3518581,
            27.4566523
          ],
          [
            -81.3516892,
            27.456569
          ],
          [
            -81.351311,
            27.4564453
          ]
        ]
      }
    }
  ]
}
