{
  "type": "FeatureCollection",
  "bbox": [
    -2.2796162,
    37.087224,
    -2.2725209,
    37.0920712
  ],
  "metadata": {
    "schemaVersion": 1,
    "trackId": "es-circuito-costa-de-almeria-29362442",
    "layoutId": "andalucia-layout-3-2-2k",
    "license": "ODbL-1.0",
    "attribution": "© OpenStreetMap contributors",
    "closed": true,
    "geometryStatus": "draft",
    "timingStatus": "missing",
    "timingMode": "shared",
    "lengthM": 2344.6,
    "reviewedAt": null,
    "notes": [
      "Draft configuration: Short southwestern loop, western elongated hairpin and compact eastern turnaround. Branch identity was checked against catalogue layout facts and circuit identification references. Independent source distance 2344.6 m; no coordinates are changed to match a diagram or distance. Travel direction and historical alignment remain provisional."
    ]
  },
  "features": [
    {
      "type": "Feature",
      "id": "trace",
      "properties": {
        "role": "trace",
        "sourceIds": [
          "osm-selection-29362442"
        ]
      },
      "geometry": {
        "type": "LineString",
        "coordinates": [
          [
            -2.2747858,
            37.0890438
          ],
          [
            -2.2745231,
            37.0893683
          ],
          [
            -2.2744611,
            37.0894746
          ],
          [
            -2.2744356,
            37.0895797
          ],
          [
            -2.2744269,
            37.0896671
          ],
          [
            -2.274443,
            37.0897566
          ],
          [
            -2.2744927,
            37.0898544
          ],
          [
            -2.2748072,
            37.0901305
          ],
          [
            -2.2748133,
            37.0902064
          ],
          [
            -2.2748094,
            37.0902656
          ],
          [
            -2.2747919,
            37.0903297
          ],
          [
            -2.2747563,
            37.0904022
          ],
          [
            -2.2746923,
            37.0904937
          ],
          [
            -2.2746295,
            37.0905588
          ],
          [
            -2.2745606,
            37.0906091
          ],
          [
            -2.2745032,
            37.0906377
          ],
          [
            -2.2744393,
            37.090659
          ],
          [
            -2.2743243,
            37.0906769
          ],
          [
            -2.2740814,
            37.090596
          ],
          [
            -2.2740264,
            37.0905746
          ],
          [
            -2.2739794,
            37.0905489
          ],
          [
            -2.2739446,
            37.0905211
          ],
          [
            -2.2739111,
            37.090488
          ],
          [
            -2.2738829,
            37.0904537
          ],
          [
            -2.2738628,
            37.0904142
          ],
          [
            -2.2738494,
            37.0903767
          ],
          [
            -2.2738414,
            37.0903307
          ],
          [
            -2.273839,
            37.0902591
          ],
          [
            -2.2738333,
            37.0898461
          ],
          [
            -2.2738306,
            37.0897862
          ],
          [
            -2.2738226,
            37.0897285
          ],
          [
            -2.2738078,
            37.089676
          ],
          [
            -2.2737891,
            37.0896354
          ],
          [
            -2.2737568,
            37.0895904
          ],
          [
            -2.2737219,
            37.0895497
          ],
          [
            -2.2736698,
            37.0895071
          ],
          [
            -2.2735892,
            37.0894556
          ],
          [
            -2.2733786,
            37.0893369
          ],
          [
            -2.2732673,
            37.0892727
          ],
          [
            -2.2731762,
            37.0892128
          ],
          [
            -2.2730838,
            37.0891445
          ],
          [
            -2.2730053,
            37.0890717
          ],
          [
            -2.2729221,
            37.0889677
          ],
          [
            -2.2728584,
            37.0888556
          ],
          [
            -2.272804,
            37.0887275
          ],
          [
            -2.2728171,
            37.0885773
          ],
          [
            -2.2728201,
            37.0885139
          ],
          [
            -2.2728137,
            37.088442
          ],
          [
            -2.2727842,
            37.0883136
          ],
          [
            -2.272635,
            37.0879678
          ],
          [
            -2.2725611,
            37.0877808
          ],
          [
            -2.2725209,
            37.0876484
          ],
          [
            -2.2725255,
            37.087552
          ],
          [
            -2.2725878,
            37.0874586
          ],
          [
            -2.2727647,
            37.0873361
          ],
          [
            -2.272975,
            37.0872326
          ],
          [
            -2.2731145,
            37.087224
          ],
          [
            -2.2732338,
            37.0872262
          ],
          [
            -2.2733344,
            37.0872347
          ],
          [
            -2.2734323,
            37.0872561
          ],
          [
            -2.2735115,
            37.0872829
          ],
          [
            -2.2735878,
            37.0873192
          ],
          [
            -2.2736777,
            37.0873738
          ],
          [
            -2.2738105,
            37.0874647
          ],
          [
            -2.273946,
            37.0875739
          ],
          [
            -2.274072,
            37.0876766
          ],
          [
            -2.2741659,
            37.0877429
          ],
          [
            -2.2742678,
            37.0878028
          ],
          [
            -2.2743429,
            37.0878402
          ],
          [
            -2.2744301,
            37.0878745
          ],
          [
            -2.2745267,
            37.0878991
          ],
          [
            -2.2746183,
            37.0879187
          ],
          [
            -2.2747134,
            37.0879312
          ],
          [
            -2.2748356,
            37.0879417
          ],
          [
            -2.2749615,
            37.0879505
          ],
          [
            -2.2752763,
            37.0879676
          ],
          [
            -2.2755996,
            37.0879815
          ],
          [
            -2.2759496,
            37.0879975
          ],
          [
            -2.2763895,
            37.0880243
          ],
          [
            -2.2766496,
            37.0880446
          ],
          [
            -2.2768924,
            37.0880703
          ],
          [
            -2.27712,
            37.0881071
          ],
          [
            -2.2773472,
            37.0881506
          ],
          [
            -2.277532,
            37.0881997
          ],
          [
            -2.2777251,
            37.0882553
          ],
          [
            -2.2778807,
            37.0883077
          ],
          [
            -2.2780135,
            37.0883613
          ],
          [
            -2.2781208,
            37.0884158
          ],
          [
            -2.2782174,
            37.0884768
          ],
          [
            -2.2782804,
            37.0885367
          ],
          [
            -2.2783327,
            37.0885966
          ],
          [
            -2.278377,
            37.088664
          ],
          [
            -2.2784011,
            37.0887174
          ],
          [
            -2.2784159,
            37.0887624
          ],
          [
            -2.2784239,
            37.0888202
          ],
          [
            -2.2784293,
            37.0888758
          ],
          [
            -2.278436,
            37.0889785
          ],
          [
            -2.2784373,
            37.0890844
          ],
          [
            -2.2784306,
            37.089216
          ],
          [
            -2.2784266,
            37.0893144
          ],
          [
            -2.2784332,
            37.0893829
          ],
          [
            -2.2784453,
            37.0894652
          ],
          [
            -2.2784629,
            37.0895284
          ],
          [
            -2.2784843,
            37.0895798
          ],
          [
            -2.2785128,
            37.0896377
          ],
          [
            -2.2785517,
            37.0896997
          ],
          [
            -2.2786007,
            37.089762
          ],
          [
            -2.2786548,
            37.089822
          ],
          [
            -2.2787672,
            37.0899339
          ],
          [
            -2.2788798,
            37.0900461
          ],
          [
            -2.2789684,
            37.0901393
          ],
          [
            -2.2790367,
            37.0902184
          ],
          [
            -2.2791186,
            37.0903126
          ],
          [
            -2.2791843,
            37.0904046
          ],
          [
            -2.27925,
            37.0905093
          ],
          [
            -2.279317,
            37.0906334
          ],
          [
            -2.279364,
            37.0907383
          ],
          [
            -2.2794029,
            37.09084
          ],
          [
            -2.2794365,
            37.090948
          ],
          [
            -2.2794727,
            37.0910721
          ],
          [
            -2.2795196,
            37.0912507
          ],
          [
            -2.2795504,
            37.0913941
          ],
          [
            -2.2795852,
            37.0915609
          ],
          [
            -2.2796067,
            37.0916979
          ],
          [
            -2.2796162,
            37.0918081
          ],
          [
            -2.2796148,
            37.0918637
          ],
          [
            -2.2796,
            37.091915
          ],
          [
            -2.2795812,
            37.0919567
          ],
          [
            -2.279549,
            37.0919942
          ],
          [
            -2.2795102,
            37.092022
          ],
          [
            -2.2794605,
            37.0920445
          ],
          [
            -2.2793988,
            37.0920616
          ],
          [
            -2.2793385,
            37.0920691
          ],
          [
            -2.2792674,
            37.0920712
          ],
          [
            -2.2792004,
            37.0920638
          ],
          [
            -2.2791253,
            37.0920445
          ],
          [
            -2.2790367,
            37.0920124
          ],
          [
            -2.2789482,
            37.0919706
          ],
          [
            -2.2788611,
            37.0919236
          ],
          [
            -2.2787873,
            37.0918776
          ],
          [
            -2.2787203,
            37.0918295
          ],
          [
            -2.2786666,
            37.0917813
          ],
          [
            -2.2786129,
            37.0917203
          ],
          [
            -2.2785634,
            37.0916541
          ],
          [
            -2.2785245,
            37.0915899
          ],
          [
            -2.2784963,
            37.0915246
          ],
          [
            -2.2784703,
            37.0914362
          ],
          [
            -2.278432,
            37.0912743
          ],
          [
            -2.2783797,
            37.0910186
          ],
          [
            -2.2783381,
            37.0907961
          ],
          [
            -2.2783086,
            37.090657
          ],
          [
            -2.2782661,
            37.0904968
          ],
          [
            -2.2782026,
            37.0902687
          ],
          [
            -2.2781289,
            37.0900002
          ],
          [
            -2.2780685,
            37.0897969
          ],
          [
            -2.2780202,
            37.0896536
          ],
          [
            -2.2779679,
            37.0895251
          ],
          [
            -2.2779102,
            37.0893946
          ],
          [
            -2.2778539,
            37.0892642
          ],
          [
            -2.2777929,
            37.0891402
          ],
          [
            -2.2777641,
            37.0890855
          ],
          [
            -2.2777279,
            37.0890277
          ],
          [
            -2.2776862,
            37.088971
          ],
          [
            -2.2776393,
            37.0889218
          ],
          [
            -2.2775817,
            37.0888662
          ],
          [
            -2.2775119,
            37.0888159
          ],
          [
            -2.2774221,
            37.0887624
          ],
          [
            -2.2773349,
            37.0887228
          ],
          [
            -2.2771967,
            37.0886714
          ],
          [
            -2.2770278,
            37.088618
          ],
          [
            -2.2769058,
            37.0885859
          ],
          [
            -2.2767072,
            37.088542
          ],
          [
            -2.2765235,
            37.0885067
          ],
          [
            -2.2762244,
            37.08845
          ],
          [
            -2.2758222,
            37.0883762
          ],
          [
            -2.2756907,
            37.0883526
          ],
          [
            -2.2756545,
            37.0883473
          ],
          [
            -2.2756197,
            37.0883441
          ],
          [
            -2.2755821,
            37.0883431
          ],
          [
            -2.2755352,
            37.0883431
          ],
          [
            -2.2754949,
            37.0883473
          ],
          [
            -2.2754426,
            37.0883548
          ],
          [
            -2.2754006,
            37.0883672
          ],
          [
            -2.2753594,
            37.0883858
          ],
          [
            -2.2753126,
            37.0884126
          ],
          [
            -2.2752695,
            37.0884412
          ],
          [
            -2.2752314,
            37.0884759
          ],
          [
            -2.2751946,
            37.0885154
          ],
          [
            -2.2747858,
            37.0890438
          ]
        ]
      }
    }
  ]
}
