{
  "type": "FeatureCollection",
  "bbox": [
    -71.5626275,
    -33.6662153,
    -71.5565218,
    -33.6632137
  ],
  "metadata": {
    "schemaVersion": 1,
    "trackId": "cl-autodromo-pacifico-sport-242828001",
    "layoutId": "main",
    "license": "ODbL-1.0",
    "attribution": "© OpenStreetMap contributors",
    "closed": true,
    "geometryStatus": "draft",
    "timingStatus": "missing",
    "timingMode": "shared",
    "lengthM": 1582.3,
    "reviewedAt": null,
    "notes": [
      "Closed named OSM raceway retained as a course candidate. Named-layout association requires review.",
      "Source way order and shared node IDs are retained. No nearby endpoints are joined and no Racelogic boundaries are read.",
      "Some source ways lack one-way direction tags. Travel direction is provisional."
    ]
  },
  "features": [
    {
      "type": "Feature",
      "id": "trace",
      "properties": {
        "role": "trace",
        "sourceIds": [
          "osm-snapshot"
        ]
      },
      "geometry": {
        "type": "LineString",
        "coordinates": [
          [
            -71.561084,
            -33.6632644
          ],
          [
            -71.5566465,
            -33.6652205
          ],
          [
            -71.5566051,
            -33.6652639
          ],
          [
            -71.5565715,
            -33.6653117
          ],
          [
            -71.5565461,
            -33.6653629
          ],
          [
            -71.5565295,
            -33.6654165
          ],
          [
            -71.5565218,
            -33.6654771
          ],
          [
            -71.5565254,
            -33.665538
          ],
          [
            -71.5565401,
            -33.6655978
          ],
          [
            -71.5565656,
            -33.6656549
          ],
          [
            -71.5566014,
            -33.6657082
          ],
          [
            -71.5566465,
            -33.6657562
          ],
          [
            -71.5571416,
            -33.666086
          ],
          [
            -71.5572272,
            -33.6661258
          ],
          [
            -71.5573171,
            -33.6661586
          ],
          [
            -71.5574102,
            -33.6661842
          ],
          [
            -71.5575059,
            -33.6662023
          ],
          [
            -71.5576117,
            -33.6662134
          ],
          [
            -71.5577183,
            -33.6662153
          ],
          [
            -71.5578246,
            -33.6662081
          ],
          [
            -71.5579294,
            -33.6661918
          ],
          [
            -71.5580316,
            -33.6661666
          ],
          [
            -71.5586841,
            -33.6658988
          ],
          [
            -71.5597094,
            -33.665478
          ],
          [
            -71.5604322,
            -33.6651949
          ],
          [
            -71.5605005,
            -33.6651702
          ],
          [
            -71.5605638,
            -33.6651375
          ],
          [
            -71.5606207,
            -33.6650974
          ],
          [
            -71.5606698,
            -33.6650508
          ],
          [
            -71.5607054,
            -33.6650059
          ],
          [
            -71.5607338,
            -33.6649576
          ],
          [
            -71.5607546,
            -33.6649066
          ],
          [
            -71.5607674,
            -33.6648539
          ],
          [
            -71.5606709,
            -33.6645726
          ],
          [
            -71.5606645,
            -33.6645232
          ],
          [
            -71.5606682,
            -33.6644735
          ],
          [
            -71.5606821,
            -33.6644251
          ],
          [
            -71.5607047,
            -33.6643807
          ],
          [
            -71.5607359,
            -33.6643399
          ],
          [
            -71.5607747,
            -33.664304
          ],
          [
            -71.56082,
            -33.6642739
          ],
          [
            -71.5612502,
            -33.6640056
          ],
          [
            -71.5612922,
            -33.6639931
          ],
          [
            -71.5613366,
            -33.663989
          ],
          [
            -71.5613809,
            -33.6639937
          ],
          [
            -71.5614226,
            -33.664007
          ],
          [
            -71.5614594,
            -33.664028
          ],
          [
            -71.5614878,
            -33.6640538
          ],
          [
            -71.5615087,
            -33.6640842
          ],
          [
            -71.5615209,
            -33.6641177
          ],
          [
            -71.561524,
            -33.6641526
          ],
          [
            -71.5615177,
            -33.6641873
          ],
          [
            -71.5615024,
            -33.6642199
          ],
          [
            -71.5614861,
            -33.6642875
          ],
          [
            -71.5614789,
            -33.6643563
          ],
          [
            -71.5614809,
            -33.6644253
          ],
          [
            -71.561492,
            -33.6644929
          ],
          [
            -71.561512,
            -33.6645592
          ],
          [
            -71.5615406,
            -33.6646232
          ],
          [
            -71.5615774,
            -33.6646842
          ],
          [
            -71.561677,
            -33.664782
          ],
          [
            -71.5617818,
            -33.6648761
          ],
          [
            -71.5618798,
            -33.6649569
          ],
          [
            -71.5619816,
            -33.6650344
          ],
          [
            -71.5620871,
            -33.6651084
          ],
          [
            -71.5621246,
            -33.6651374
          ],
          [
            -71.5621673,
            -33.6651609
          ],
          [
            -71.5622141,
            -33.6651782
          ],
          [
            -71.5622637,
            -33.6651889
          ],
          [
            -71.5623146,
            -33.6651927
          ],
          [
            -71.5623657,
            -33.6651895
          ],
          [
            -71.5624154,
            -33.6651794
          ],
          [
            -71.5624624,
            -33.6651626
          ],
          [
            -71.5625056,
            -33.6651396
          ],
          [
            -71.5625452,
            -33.6651096
          ],
          [
            -71.5625781,
            -33.6650744
          ],
          [
            -71.5626032,
            -33.665035
          ],
          [
            -71.5626198,
            -33.6649926
          ],
          [
            -71.5626275,
            -33.6649485
          ],
          [
            -71.5626259,
            -33.6649039
          ],
          [
            -71.5626152,
            -33.6648602
          ],
          [
            -71.5625956,
            -33.6648187
          ],
          [
            -71.5621895,
            -33.6641394
          ],
          [
            -71.5616729,
            -33.6634212
          ],
          [
            -71.5616451,
            -33.6633754
          ],
          [
            -71.5616093,
            -33.6633337
          ],
          [
            -71.5615663,
            -33.6632969
          ],
          [
            -71.5615171,
            -33.6632661
          ],
          [
            -71.5614628,
            -33.6632418
          ],
          [
            -71.5614047,
            -33.6632247
          ],
          [
            -71.5613391,
            -33.6632146
          ],
          [
            -71.5612725,
            -33.6632137
          ],
          [
            -71.5612066,
            -33.6632219
          ],
          [
            -71.5611432,
            -33.6632389
          ],
          [
            -71.561084,
            -33.6632644
          ]
        ]
      }
    }
  ]
}
