{
  "type": "FeatureCollection",
  "bbox": [
    -4.0749354,
    55.5123317,
    -4.0681277,
    55.5144901
  ],
  "metadata": {
    "schemaVersion": 1,
    "trackId": "gb-kames-motorsport-circuit-38672231",
    "layoutId": "main",
    "license": "ODbL-1.0",
    "attribution": "© OpenStreetMap contributors",
    "closed": true,
    "geometryStatus": "draft",
    "timingStatus": "missing",
    "timingMode": "shared",
    "lengthM": 1077.8,
    "reviewedAt": null,
    "notes": [
      "Connected OSM course candidate. The selected loop is the longest simple source-node cycle after explicit exclusions; its association with a named circuit configuration requires review.",
      "Source way order and shared node IDs are retained. No nearby endpoints are joined and no Racelogic boundaries are read.",
      "Some source ways lack one-way direction tags. Travel direction is provisional."
    ]
  },
  "features": [
    {
      "type": "Feature",
      "id": "trace",
      "properties": {
        "role": "trace",
        "sourceIds": [
          "osm-snapshot"
        ]
      },
      "geometry": {
        "type": "LineString",
        "coordinates": [
          [
            -4.0690545,
            55.5143793
          ],
          [
            -4.0698301,
            55.5141224
          ],
          [
            -4.0700467,
            55.5141174
          ],
          [
            -4.0703237,
            55.5141275
          ],
          [
            -4.0707015,
            55.5140166
          ],
          [
            -4.071039,
            55.5138907
          ],
          [
            -4.0714218,
            55.5137698
          ],
          [
            -4.0718046,
            55.5136238
          ],
          [
            -4.0720816,
            55.5135331
          ],
          [
            -4.0723385,
            55.5134475
          ],
          [
            -4.0724114,
            55.5134055
          ],
          [
            -4.0725641,
            55.5133797
          ],
          [
            -4.0742546,
            55.512843
          ],
          [
            -4.0746027,
            55.5127325
          ],
          [
            -4.0748929,
            55.5125962
          ],
          [
            -4.0749354,
            55.512504
          ],
          [
            -4.0748752,
            55.5124098
          ],
          [
            -4.0746593,
            55.5123317
          ],
          [
            -4.0745001,
            55.5123397
          ],
          [
            -4.0738489,
            55.5125561
          ],
          [
            -4.073771,
            55.5126944
          ],
          [
            -4.0737321,
            55.5128026
          ],
          [
            -4.07364,
            55.5128647
          ],
          [
            -4.0733534,
            55.5129328
          ],
          [
            -4.0731056,
            55.5129689
          ],
          [
            -4.0728119,
            55.5129549
          ],
          [
            -4.072596,
            55.512995
          ],
          [
            -4.0723412,
            55.5130892
          ],
          [
            -4.072132,
            55.5131956
          ],
          [
            -4.0719154,
            55.5132762
          ],
          [
            -4.0717139,
            55.5133467
          ],
          [
            -4.0715074,
            55.5134223
          ],
          [
            -4.0712656,
            55.5135079
          ],
          [
            -4.0710188,
            55.5135583
          ],
          [
            -4.0708023,
            55.5135734
          ],
          [
            -4.0705806,
            55.5135633
          ],
          [
            -4.0705153,
            55.5135538
          ],
          [
            -4.0703036,
            55.513523
          ],
          [
            -4.070087,
            55.5134576
          ],
          [
            -4.0699849,
            55.5133984
          ],
          [
            -4.0698956,
            55.5133467
          ],
          [
            -4.0696351,
            55.5132689
          ],
          [
            -4.0694583,
            55.5132342
          ],
          [
            -4.0692859,
            55.513242
          ],
          [
            -4.069114,
            55.5132823
          ],
          [
            -4.0689974,
            55.5133316
          ],
          [
            -4.0688537,
            55.5134283
          ],
          [
            -4.0685821,
            55.5136775
          ],
          [
            -4.0683692,
            55.5138723
          ],
          [
            -4.0683054,
            55.5139306
          ],
          [
            -4.0681277,
            55.5140922
          ],
          [
            -4.0681277,
            55.514203
          ],
          [
            -4.0681629,
            55.5143239
          ],
          [
            -4.0682637,
            55.5144397
          ],
          [
            -4.068445,
            55.5144901
          ],
          [
            -4.068712,
            55.514475
          ],
          [
            -4.0690545,
            55.5143793
          ]
        ]
      }
    }
  ]
}
