{
  "type": "FeatureCollection",
  "bbox": [
    120.4803185,
    22.4542675,
    120.4839186,
    22.4563451
  ],
  "metadata": {
    "schemaVersion": 1,
    "trackId": "tw-penbay-3b334d4e",
    "layoutId": "penbay-north-oval",
    "license": "ODbL-1.0",
    "attribution": "© OpenStreetMap contributors",
    "closed": true,
    "geometryStatus": "draft",
    "timingStatus": "missing",
    "timingMode": "shared",
    "lengthM": 948.1,
    "reviewedAt": null,
    "notes": [
      "Draft configuration: Separate northern oval with rounded western corner and direct eastern outer return. Branch identity was checked against catalogue layout facts and circuit identification references. Independent source distance 948.1 m; no coordinates are changed to match a diagram or distance. Travel direction and historical alignment remain provisional."
    ]
  },
  "features": [
    {
      "type": "Feature",
      "id": "trace",
      "properties": {
        "role": "trace",
        "sourceIds": [
          "osm-selection-645849365"
        ]
      },
      "geometry": {
        "type": "LineString",
        "coordinates": [
          [
            120.4809309,
            22.4563451
          ],
          [
            120.4811075,
            22.4563269
          ],
          [
            120.481282,
            22.4562865
          ],
          [
            120.4834466,
            22.4555941
          ],
          [
            120.4836183,
            22.4555148
          ],
          [
            120.483741,
            22.4554129
          ],
          [
            120.4838578,
            22.4552711
          ],
          [
            120.4839186,
            22.4550847
          ],
          [
            120.4839154,
            22.4548811
          ],
          [
            120.4838246,
            22.4546389
          ],
          [
            120.483696,
            22.4544943
          ],
          [
            120.4834675,
            22.4543693
          ],
          [
            120.4832363,
            22.4543297
          ],
          [
            120.4827503,
            22.4542937
          ],
          [
            120.4826272,
            22.4542998
          ],
          [
            120.4823624,
            22.4542719
          ],
          [
            120.4821742,
            22.4542675
          ],
          [
            120.4819796,
            22.4542867
          ],
          [
            120.4818361,
            22.4543383
          ],
          [
            120.4816048,
            22.4544576
          ],
          [
            120.4813891,
            22.4546109
          ],
          [
            120.4812109,
            22.4547421
          ],
          [
            120.4810343,
            22.454889
          ],
          [
            120.4809134,
            22.4550015
          ],
          [
            120.4807358,
            22.4551252
          ],
          [
            120.4805492,
            22.4552791
          ],
          [
            120.4804178,
            22.4554427
          ],
          [
            120.480348,
            22.4555889
          ],
          [
            120.4803185,
            22.4557451
          ],
          [
            120.4803185,
            22.4558864
          ],
          [
            120.4804071,
            22.4560624
          ],
          [
            120.4805304,
            22.4562062
          ],
          [
            120.4807611,
            22.4563004
          ],
          [
            120.4809309,
            22.4563451
          ]
        ]
      }
    }
  ]
}
