{
  "type": "FeatureCollection",
  "bbox": [
    5.8842468,
    49.0249371,
    5.8949233,
    49.0304391
  ],
  "metadata": {
    "schemaVersion": 1,
    "trackId": "fr-chambley-45254edd",
    "layoutId": "chambley",
    "license": "ODbL-1.0",
    "attribution": "© OpenStreetMap contributors",
    "closed": true,
    "geometryStatus": "draft",
    "timingStatus": "missing",
    "timingMode": "shared",
    "lengthM": 3180.1,
    "reviewedAt": null,
    "notes": [
      "Draft route hypothesis: the source cycle is the unique closest nominal-distance match within conservative timing and distance checks. Approximate OSM trace length 3180.1 m. Difference from the supplied layout distance 0.1 m. Course configuration still requires visual review."
    ]
  },
  "features": [
    {
      "type": "Feature",
      "id": "trace",
      "properties": {
        "role": "trace",
        "sourceIds": [
          "osm-network-166933722"
        ]
      },
      "geometry": {
        "type": "LineString",
        "coordinates": [
          [
            5.8900476,
            49.0261889
          ],
          [
            5.8901411,
            49.02626
          ],
          [
            5.8901433,
            49.0263376
          ],
          [
            5.8899878,
            49.026398
          ],
          [
            5.8898036,
            49.0265269
          ],
          [
            5.8897338,
            49.0266159
          ],
          [
            5.8897039,
            49.0267386
          ],
          [
            5.8897587,
            49.0268604
          ],
          [
            5.8898763,
            49.0269541
          ],
          [
            5.8900646,
            49.0270251
          ],
          [
            5.8903296,
            49.0270624
          ],
          [
            5.8905499,
            49.0270461
          ],
          [
            5.8911667,
            49.0269847
          ],
          [
            5.8917917,
            49.0269213
          ],
          [
            5.89241,
            49.0268558
          ],
          [
            5.8928316,
            49.0268162
          ],
          [
            5.8929752,
            49.0267657
          ],
          [
            5.8930036,
            49.0266663
          ],
          [
            5.8929199,
            49.0262237
          ],
          [
            5.89291,
            49.0260846
          ],
          [
            5.8929973,
            49.0260232
          ],
          [
            5.893117,
            49.0260243
          ],
          [
            5.8932352,
            49.0260775
          ],
          [
            5.8934489,
            49.0261702
          ],
          [
            5.8935736,
            49.0261821
          ],
          [
            5.8939187,
            49.0261518
          ],
          [
            5.8940735,
            49.0260979
          ],
          [
            5.8941628,
            49.025999
          ],
          [
            5.8941762,
            49.025833
          ],
          [
            5.8941065,
            49.025694
          ],
          [
            5.8939849,
            49.0255763
          ],
          [
            5.8937343,
            49.0254494
          ],
          [
            5.8934148,
            49.0253775
          ],
          [
            5.8931598,
            49.0253704
          ],
          [
            5.89289,
            49.0253894
          ],
          [
            5.8923985,
            49.0254404
          ],
          [
            5.8922565,
            49.0254499
          ],
          [
            5.8921493,
            49.025427
          ],
          [
            5.8920859,
            49.0253416
          ],
          [
            5.8920642,
            49.0251887
          ],
          [
            5.8920772,
            49.0251001
          ],
          [
            5.8921448,
            49.0250527
          ],
          [
            5.89229,
            49.0250113
          ],
          [
            5.8929582,
            49.0249485
          ],
          [
            5.8932098,
            49.0249371
          ],
          [
            5.8935254,
            49.0249604
          ],
          [
            5.8937961,
            49.0250102
          ],
          [
            5.8940912,
            49.0250993
          ],
          [
            5.8943846,
            49.0252404
          ],
          [
            5.8946385,
            49.0254435
          ],
          [
            5.8948041,
            49.0256451
          ],
          [
            5.894893,
            49.0258807
          ],
          [
            5.8949233,
            49.0260912
          ],
          [
            5.8948805,
            49.0262574
          ],
          [
            5.8947259,
            49.0265777
          ],
          [
            5.8945308,
            49.0267873
          ],
          [
            5.8942511,
            49.0269596
          ],
          [
            5.89386,
            49.0271071
          ],
          [
            5.8934558,
            49.0271762
          ],
          [
            5.8915547,
            49.0273744
          ],
          [
            5.891449,
            49.0274444
          ],
          [
            5.8914182,
            49.0275118
          ],
          [
            5.8913961,
            49.0276004
          ],
          [
            5.8913634,
            49.0278474
          ],
          [
            5.8912068,
            49.0288266
          ],
          [
            5.8912003,
            49.0290107
          ],
          [
            5.8912068,
            49.0291275
          ],
          [
            5.8912525,
            49.0292129
          ],
          [
            5.8913178,
            49.0292802
          ],
          [
            5.8914613,
            49.0293656
          ],
          [
            5.89229,
            49.0296485
          ],
          [
            5.8923813,
            49.0297114
          ],
          [
            5.8924466,
            49.0297833
          ],
          [
            5.8926162,
            49.0302774
          ],
          [
            5.8926228,
            49.0303268
          ],
          [
            5.8926032,
            49.0303986
          ],
          [
            5.8925249,
            49.0304256
          ],
          [
            5.892427,
            49.0304391
          ],
          [
            5.8923291,
            49.0304031
          ],
          [
            5.8921203,
            49.0303268
          ],
          [
            5.8919833,
            49.0302414
          ],
          [
            5.8918071,
            49.0301022
          ],
          [
            5.8915853,
            49.0299899
          ],
          [
            5.8915148,
            49.029965
          ],
          [
            5.8912981,
            49.0299366
          ],
          [
            5.8907109,
            49.0299046
          ],
          [
            5.8905804,
            49.0298911
          ],
          [
            5.890463,
            49.0298552
          ],
          [
            5.8900778,
            49.0296856
          ],
          [
            5.8898756,
            49.0295957
          ],
          [
            5.8897673,
            49.0294726
          ],
          [
            5.8898034,
            49.0293353
          ],
          [
            5.8900323,
            49.0292623
          ],
          [
            5.8903064,
            49.0292353
          ],
          [
            5.8904499,
            49.029159
          ],
          [
            5.8905675,
            49.0289815
          ],
          [
            5.8905438,
            49.0288035
          ],
          [
            5.8904042,
            49.0286389
          ],
          [
            5.8901492,
            49.028514
          ],
          [
            5.8895066,
            49.0284155
          ],
          [
            5.8886271,
            49.0282217
          ],
          [
            5.8879311,
            49.0280212
          ],
          [
            5.8874743,
            49.0278489
          ],
          [
            5.885962,
            49.0272067
          ],
          [
            5.8849779,
            49.0267716
          ],
          [
            5.8843405,
            49.0264976
          ],
          [
            5.884262,
            49.0264441
          ],
          [
            5.8842468,
            49.0263841
          ],
          [
            5.884319,
            49.0262946
          ],
          [
            5.8845157,
            49.0262525
          ],
          [
            5.8869227,
            49.0261559
          ],
          [
            5.8871651,
            49.0261476
          ],
          [
            5.8873821,
            49.0261826
          ],
          [
            5.8875121,
            49.0262455
          ],
          [
            5.8876143,
            49.0263431
          ],
          [
            5.8876699,
            49.0264403
          ],
          [
            5.887725,
            49.026497
          ],
          [
            5.8877993,
            49.0265534
          ],
          [
            5.8878997,
            49.0265909
          ],
          [
            5.8885399,
            49.0267071
          ],
          [
            5.8886972,
            49.0267192
          ],
          [
            5.8887718,
            49.0266863
          ],
          [
            5.8887987,
            49.0266188
          ],
          [
            5.888747,
            49.0264521
          ],
          [
            5.8887355,
            49.0262155
          ],
          [
            5.8888011,
            49.0260377
          ],
          [
            5.8888981,
            49.0259268
          ],
          [
            5.8890714,
            49.0258784
          ],
          [
            5.8892532,
            49.0259039
          ],
          [
            5.8898198,
            49.0261356
          ],
          [
            5.8900476,
            49.0261889
          ]
        ]
      }
    }
  ]
}
