{
  "type": "FeatureCollection",
  "bbox": [
    29.7798034,
    40.7414186,
    29.7864763,
    40.7465468
  ],
  "metadata": {
    "schemaVersion": 1,
    "trackId": "tr-korfez-circuit-188cf4c9",
    "layoutId": "korfez-circuit",
    "license": "ODbL-1.0",
    "attribution": "© OpenStreetMap contributors",
    "closed": true,
    "geometryStatus": "draft",
    "timingStatus": "missing",
    "timingMode": "shared",
    "lengthM": 1828.7,
    "reviewedAt": null,
    "notes": [
      "Draft configuration: Full course including the northwestern stepped corner and long eastern straight. Branch identity was checked against catalogue layout facts and circuit identification references. Independent source distance 1828.7 m; no coordinates are changed to match a diagram or distance. Travel direction and historical alignment remain provisional."
    ]
  },
  "features": [
    {
      "type": "Feature",
      "id": "trace",
      "properties": {
        "role": "trace",
        "sourceIds": [
          "osm-selection-226449696"
        ]
      },
      "geometry": {
        "type": "LineString",
        "coordinates": [
          [
            29.7824022,
            40.7438548
          ],
          [
            29.782629,
            40.7441665
          ],
          [
            29.7831872,
            40.7449191
          ],
          [
            29.7832262,
            40.7449812
          ],
          [
            29.7832505,
            40.7450492
          ],
          [
            29.7832661,
            40.7451102
          ],
          [
            29.7832793,
            40.7451782
          ],
          [
            29.7833037,
            40.7453723
          ],
          [
            29.7833549,
            40.7457804
          ],
          [
            29.7833677,
            40.7458202
          ],
          [
            29.7833821,
            40.7458502
          ],
          [
            29.7834158,
            40.7458824
          ],
          [
            29.7834475,
            40.7459008
          ],
          [
            29.7836256,
            40.7459638
          ],
          [
            29.7836647,
            40.7459853
          ],
          [
            29.7836926,
            40.7460126
          ],
          [
            29.7837078,
            40.7460397
          ],
          [
            29.7837164,
            40.7460699
          ],
          [
            29.7837177,
            40.7460793
          ],
          [
            29.7837289,
            40.7461591
          ],
          [
            29.7837356,
            40.7462156
          ],
          [
            29.7837484,
            40.7462512
          ],
          [
            29.7837741,
            40.7462849
          ],
          [
            29.7838069,
            40.7463131
          ],
          [
            29.7838668,
            40.7463492
          ],
          [
            29.7839638,
            40.7463894
          ],
          [
            29.7840929,
            40.7464292
          ],
          [
            29.7842095,
            40.7464593
          ],
          [
            29.7842391,
            40.746466
          ],
          [
            29.7843446,
            40.7464896
          ],
          [
            29.7844866,
            40.7465142
          ],
          [
            29.7846532,
            40.746534
          ],
          [
            29.7848123,
            40.7465444
          ],
          [
            29.7849875,
            40.7465468
          ],
          [
            29.7850399,
            40.7465452
          ],
          [
            29.7851504,
            40.7465418
          ],
          [
            29.7852919,
            40.7465283
          ],
          [
            29.7854039,
            40.7465139
          ],
          [
            29.7855467,
            40.746482
          ],
          [
            29.7856401,
            40.7464578
          ],
          [
            29.7857031,
            40.7464324
          ],
          [
            29.7857483,
            40.7463995
          ],
          [
            29.7857708,
            40.7463689
          ],
          [
            29.7858321,
            40.7462856
          ],
          [
            29.7858716,
            40.7462549
          ],
          [
            29.7859202,
            40.7462319
          ],
          [
            29.7860447,
            40.7462059
          ],
          [
            29.7861705,
            40.7461829
          ],
          [
            29.7862447,
            40.7461642
          ],
          [
            29.7863278,
            40.7461352
          ],
          [
            29.7863821,
            40.7461051
          ],
          [
            29.7864211,
            40.7460692
          ],
          [
            29.7864511,
            40.7460194
          ],
          [
            29.7864659,
            40.7459648
          ],
          [
            29.7864726,
            40.7458971
          ],
          [
            29.7864763,
            40.7457094
          ],
          [
            29.7862466,
            40.7452026
          ],
          [
            29.7861232,
            40.7450055
          ],
          [
            29.7860561,
            40.7448917
          ],
          [
            29.786032,
            40.7448104
          ],
          [
            29.7860242,
            40.7447381
          ],
          [
            29.7860109,
            40.7446907
          ],
          [
            29.7854909,
            40.7435612
          ],
          [
            29.7854571,
            40.7434775
          ],
          [
            29.78543,
            40.7433596
          ],
          [
            29.7853804,
            40.7431238
          ],
          [
            29.7853837,
            40.7430307
          ],
          [
            29.7854118,
            40.7429012
          ],
          [
            29.7853495,
            40.7426978
          ],
          [
            29.785211,
            40.7422343
          ],
          [
            29.7851833,
            40.7421772
          ],
          [
            29.785155,
            40.7421293
          ],
          [
            29.7851191,
            40.7420898
          ],
          [
            29.7850726,
            40.7420599
          ],
          [
            29.7850245,
            40.7420427
          ],
          [
            29.7849788,
            40.7420349
          ],
          [
            29.7848667,
            40.7420259
          ],
          [
            29.7848231,
            40.7420124
          ],
          [
            29.7847924,
            40.7419918
          ],
          [
            29.7847667,
            40.74197
          ],
          [
            29.7847492,
            40.7419355
          ],
          [
            29.7847103,
            40.7418024
          ],
          [
            29.7846945,
            40.7417543
          ],
          [
            29.7846723,
            40.7417076
          ],
          [
            29.7846452,
            40.7416635
          ],
          [
            29.7846217,
            40.741634
          ],
          [
            29.7845916,
            40.741605
          ],
          [
            29.7845488,
            40.7415784
          ],
          [
            29.7844891,
            40.74155
          ],
          [
            29.7844193,
            40.7415253
          ],
          [
            29.7842937,
            40.7414955
          ],
          [
            29.7840479,
            40.7414529
          ],
          [
            29.7839382,
            40.7414363
          ],
          [
            29.7837819,
            40.741432
          ],
          [
            29.7835935,
            40.7414356
          ],
          [
            29.7833795,
            40.7414519
          ],
          [
            29.783151,
            40.7414804
          ],
          [
            29.7829763,
            40.7415084
          ],
          [
            29.7826641,
            40.741563
          ],
          [
            29.7825101,
            40.7415755
          ],
          [
            29.7823724,
            40.7415763
          ],
          [
            29.7822611,
            40.7415647
          ],
          [
            29.7821722,
            40.7415503
          ],
          [
            29.7820824,
            40.7415281
          ],
          [
            29.7818481,
            40.7414552
          ],
          [
            29.7817555,
            40.7414313
          ],
          [
            29.7816591,
            40.7414212
          ],
          [
            29.7815509,
            40.7414186
          ],
          [
            29.781432,
            40.7414274
          ],
          [
            29.7812858,
            40.7414501
          ],
          [
            29.7811471,
            40.741483
          ],
          [
            29.7810173,
            40.7415179
          ],
          [
            29.7808711,
            40.741574
          ],
          [
            29.7807087,
            40.7416409
          ],
          [
            29.7803723,
            40.7417985
          ],
          [
            29.7800014,
            40.7419824
          ],
          [
            29.7798663,
            40.7420616
          ],
          [
            29.7798316,
            40.7420995
          ],
          [
            29.7798146,
            40.7421383
          ],
          [
            29.7798034,
            40.7421829
          ],
          [
            29.7798035,
            40.7422301
          ],
          [
            29.7798164,
            40.7422746
          ],
          [
            29.7798483,
            40.7423276
          ],
          [
            29.7799017,
            40.7423962
          ],
          [
            29.7800656,
            40.7425602
          ],
          [
            29.7801432,
            40.7426207
          ],
          [
            29.7802548,
            40.7426907
          ],
          [
            29.7803448,
            40.7427394
          ],
          [
            29.7804408,
            40.7427876
          ],
          [
            29.780517,
            40.7428216
          ],
          [
            29.7813992,
            40.7431401
          ],
          [
            29.7815783,
            40.7432112
          ],
          [
            29.7817303,
            40.7432844
          ],
          [
            29.7818874,
            40.743373
          ],
          [
            29.78198,
            40.7434321
          ],
          [
            29.7820837,
            40.7435122
          ],
          [
            29.7821898,
            40.7436122
          ],
          [
            29.782277,
            40.7437091
          ],
          [
            29.7824022,
            40.7438548
          ]
        ]
      }
    }
  ]
}
