{
  "type": "FeatureCollection",
  "bbox": [
    -74.0278331,
    45.6777776,
    -74.0189504,
    45.6843918
  ],
  "metadata": {
    "schemaVersion": 1,
    "trackId": "ca-circuit-icar-1043569622",
    "layoutId": "icar-mirabel-long",
    "license": "ODbL-1.0",
    "attribution": "© OpenStreetMap contributors",
    "closed": true,
    "geometryStatus": "draft",
    "timingStatus": "missing",
    "timingMode": "shared",
    "lengthM": 3330.7,
    "reviewedAt": null,
    "notes": [
      "Draft configuration: Long course with northern angled corner, eastern inner return and southern elongated loop. Branch identity was checked against catalogue layout facts and circuit identification references. Independent source distance 3330.7 m; no coordinates are changed to match a diagram or distance. Travel direction and historical alignment remain provisional."
    ]
  },
  "features": [
    {
      "type": "Feature",
      "id": "trace",
      "properties": {
        "role": "trace",
        "sourceIds": [
          "osm-selection-1043569622"
        ]
      },
      "geometry": {
        "type": "LineString",
        "coordinates": [
          [
            -74.0210177,
            45.6810355
          ],
          [
            -74.0215592,
            45.6809564
          ],
          [
            -74.0218883,
            45.6809613
          ],
          [
            -74.0221644,
            45.6810479
          ],
          [
            -74.0228595,
            45.6815335
          ],
          [
            -74.0231329,
            45.6817198
          ],
          [
            -74.0232136,
            45.6818033
          ],
          [
            -74.0232457,
            45.6819007
          ],
          [
            -74.0232136,
            45.6821219
          ],
          [
            -74.0231285,
            45.6825469
          ],
          [
            -74.0231116,
            45.6826316
          ],
          [
            -74.0229882,
            45.6833624
          ],
          [
            -74.0230419,
            45.6835085
          ],
          [
            -74.023117,
            45.6836285
          ],
          [
            -74.0232296,
            45.6836809
          ],
          [
            -74.0233638,
            45.6836772
          ],
          [
            -74.0234979,
            45.6836322
          ],
          [
            -74.0236803,
            45.6835273
          ],
          [
            -74.0239968,
            45.6832799
          ],
          [
            -74.0241523,
            45.68319
          ],
          [
            -74.0243884,
            45.683145
          ],
          [
            -74.0246244,
            45.6831338
          ],
          [
            -74.025075,
            45.6831637
          ],
          [
            -74.0253761,
            45.6831995
          ],
          [
            -74.0256688,
            45.6831881
          ],
          [
            -74.0259168,
            45.6831625
          ],
          [
            -74.0261323,
            45.6830716
          ],
          [
            -74.0263709,
            45.6829133
          ],
          [
            -74.0264534,
            45.6828586
          ],
          [
            -74.0270195,
            45.6824904
          ],
          [
            -74.0271846,
            45.6823742
          ],
          [
            -74.0277193,
            45.6819865
          ],
          [
            -74.0277986,
            45.6819198
          ],
          [
            -74.0278331,
            45.6818105
          ],
          [
            -74.0278108,
            45.681684
          ],
          [
            -74.0277233,
            45.6815888
          ],
          [
            -74.0276014,
            45.6815307
          ],
          [
            -74.0274571,
            45.681508
          ],
          [
            -74.0271939,
            45.6815433
          ],
          [
            -74.0269466,
            45.6815799
          ],
          [
            -74.0264468,
            45.6819408
          ],
          [
            -74.0261092,
            45.6822425
          ],
          [
            -74.025855,
            45.6823742
          ],
          [
            -74.0256847,
            45.682447
          ],
          [
            -74.0255314,
            45.6824685
          ],
          [
            -74.025369,
            45.6824775
          ],
          [
            -74.0252324,
            45.6824621
          ],
          [
            -74.0236043,
            45.6813509
          ],
          [
            -74.0217691,
            45.6800677
          ],
          [
            -74.0217108,
            45.6799922
          ],
          [
            -74.0217149,
            45.6799326
          ],
          [
            -74.0217962,
            45.6798445
          ],
          [
            -74.0222619,
            45.6795271
          ],
          [
            -74.0225732,
            45.6793704
          ],
          [
            -74.0229223,
            45.679285
          ],
          [
            -74.0231012,
            45.6792083
          ],
          [
            -74.0232313,
            45.6790918
          ],
          [
            -74.0233207,
            45.6789157
          ],
          [
            -74.0233817,
            45.6785862
          ],
          [
            -74.0233817,
            45.6780238
          ],
          [
            -74.0233004,
            45.6778931
          ],
          [
            -74.0231056,
            45.6777879
          ],
          [
            -74.02286,
            45.6777776
          ],
          [
            -74.0223669,
            45.6778946
          ],
          [
            -74.0219832,
            45.6781545
          ],
          [
            -74.0210494,
            45.6788115
          ],
          [
            -74.0207334,
            45.6791733
          ],
          [
            -74.0206508,
            45.6793863
          ],
          [
            -74.0206416,
            45.6795935
          ],
          [
            -74.0207148,
            45.6799553
          ],
          [
            -74.0208,
            45.680255
          ],
          [
            -74.0207488,
            45.6804742
          ],
          [
            -74.0206038,
            45.6806296
          ],
          [
            -74.020162,
            45.6809687
          ],
          [
            -74.0198018,
            45.6812298
          ],
          [
            -74.0191612,
            45.681694
          ],
          [
            -74.0190192,
            45.6818498
          ],
          [
            -74.0189504,
            45.6820572
          ],
          [
            -74.0189829,
            45.682344
          ],
          [
            -74.0191536,
            45.6825855
          ],
          [
            -74.0197214,
            45.6829833
          ],
          [
            -74.0198244,
            45.6830568
          ],
          [
            -74.0201903,
            45.6833182
          ],
          [
            -74.0206009,
            45.6835909
          ],
          [
            -74.0206991,
            45.683525
          ],
          [
            -74.0207367,
            45.6835081
          ],
          [
            -74.0207984,
            45.68351
          ],
          [
            -74.0208842,
            45.6835662
          ],
          [
            -74.02097,
            45.6836618
          ],
          [
            -74.0211742,
            45.6840169
          ],
          [
            -74.0216864,
            45.6843691
          ],
          [
            -74.0217637,
            45.6843918
          ],
          [
            -74.0218572,
            45.6843862
          ],
          [
            -74.0219791,
            45.6843265
          ],
          [
            -74.0220517,
            45.6842876
          ],
          [
            -74.0221072,
            45.6842445
          ],
          [
            -74.0221965,
            45.6841606
          ],
          [
            -74.0222859,
            45.6840379
          ],
          [
            -74.0223067,
            45.6839067
          ],
          [
            -74.0222855,
            45.6837795
          ],
          [
            -74.0221647,
            45.6836685
          ],
          [
            -74.0219901,
            45.6835816
          ],
          [
            -74.0217837,
            45.6835321
          ],
          [
            -74.0214683,
            45.6834743
          ],
          [
            -74.0210263,
            45.6833674
          ],
          [
            -74.0206653,
            45.6832264
          ],
          [
            -74.0205759,
            45.6831726
          ],
          [
            -74.0204866,
            45.6830607
          ],
          [
            -74.0204496,
            45.6829122
          ],
          [
            -74.0203541,
            45.6821781
          ],
          [
            -74.0203233,
            45.6819177
          ],
          [
            -74.0203418,
            45.681711
          ],
          [
            -74.0204003,
            45.6815797
          ],
          [
            -74.0205297,
            45.6813774
          ],
          [
            -74.0208443,
            45.6811146
          ],
          [
            -74.0210177,
            45.6810355
          ]
        ]
      }
    }
  ]
}
