{
  "type": "FeatureCollection",
  "bbox": [
    169.1680102,
    -45.0629821,
    169.1740658,
    -45.0555322
  ],
  "metadata": {
    "schemaVersion": 1,
    "trackId": "nz-highlands-motorsports-park-full-2952eb45",
    "layoutId": "highlands-motorsports-park-full",
    "license": "ODbL-1.0",
    "attribution": "© OpenStreetMap contributors",
    "closed": true,
    "geometryStatus": "draft",
    "timingStatus": "missing",
    "timingMode": "shared",
    "lengthM": 3921.2,
    "reviewedAt": null,
    "notes": [
      "Draft configuration: Full course with crossed central bridge section, western narrow return and long eastern outer loop. Branch identity was checked against catalogue layout facts and circuit identification references. Independent source distance 3921.2 m; no coordinates are changed to match a diagram or distance. Travel direction and historical alignment remain provisional."
    ]
  },
  "features": [
    {
      "type": "Feature",
      "id": "trace",
      "properties": {
        "role": "trace",
        "sourceIds": [
          "osm-selection-234778728"
        ]
      },
      "geometry": {
        "type": "LineString",
        "coordinates": [
          [
            169.1681009,
            -45.0564924
          ],
          [
            169.1686923,
            -45.0560079
          ],
          [
            169.1688727,
            -45.0558952
          ],
          [
            169.169073,
            -45.0558246
          ],
          [
            169.1700851,
            -45.0555374
          ],
          [
            169.1703637,
            -45.0555322
          ],
          [
            169.1706228,
            -45.0555659
          ],
          [
            169.1708376,
            -45.0556352
          ],
          [
            169.1710772,
            -45.0558012
          ],
          [
            169.172611,
            -45.0573278
          ],
          [
            169.1727611,
            -45.0575438
          ],
          [
            169.1728532,
            -45.0578106
          ],
          [
            169.1733578,
            -45.0592323
          ],
          [
            169.1736318,
            -45.0601056
          ],
          [
            169.1739264,
            -45.0610988
          ],
          [
            169.1740463,
            -45.0615231
          ],
          [
            169.1740611,
            -45.0616398
          ],
          [
            169.1740658,
            -45.0617608
          ],
          [
            169.1740515,
            -45.0618794
          ],
          [
            169.1740169,
            -45.061998
          ],
          [
            169.1739425,
            -45.0621335
          ],
          [
            169.1738396,
            -45.0622734
          ],
          [
            169.1737134,
            -45.0624003
          ],
          [
            169.1735628,
            -45.0624898
          ],
          [
            169.1733962,
            -45.0625766
          ],
          [
            169.1731605,
            -45.0626548
          ],
          [
            169.1729264,
            -45.0627149
          ],
          [
            169.1726761,
            -45.0627434
          ],
          [
            169.172396,
            -45.0627486
          ],
          [
            169.1721484,
            -45.0627251
          ],
          [
            169.1719244,
            -45.0626754
          ],
          [
            169.1716964,
            -45.0626055
          ],
          [
            169.1715269,
            -45.0625075
          ],
          [
            169.1713656,
            -45.0623951
          ],
          [
            169.1712137,
            -45.0622262
          ],
          [
            169.1711147,
            -45.0620774
          ],
          [
            169.1710615,
            -45.0619226
          ],
          [
            169.1710368,
            -45.0617505
          ],
          [
            169.171048,
            -45.0616085
          ],
          [
            169.1710714,
            -45.0614694
          ],
          [
            169.1719099,
            -45.0591828
          ],
          [
            169.171915,
            -45.0590654
          ],
          [
            169.1718918,
            -45.0589734
          ],
          [
            169.1718401,
            -45.0588899
          ],
          [
            169.1717363,
            -45.0587525
          ],
          [
            169.1717027,
            -45.05869
          ],
          [
            169.1717003,
            -45.0586245
          ],
          [
            169.1717367,
            -45.0585499
          ],
          [
            169.1718077,
            -45.0584853
          ],
          [
            169.1719011,
            -45.0584394
          ],
          [
            169.1720884,
            -45.0583792
          ],
          [
            169.1721693,
            -45.0583455
          ],
          [
            169.1722295,
            -45.0582765
          ],
          [
            169.1722454,
            -45.0582047
          ],
          [
            169.1722614,
            -45.0581137
          ],
          [
            169.172214,
            -45.0580196
          ],
          [
            169.1721078,
            -45.0579034
          ],
          [
            169.1717435,
            -45.0578063
          ],
          [
            169.1703887,
            -45.0574714
          ],
          [
            169.1698738,
            -45.0573435
          ],
          [
            169.1694251,
            -45.0572397
          ],
          [
            169.169263,
            -45.0572354
          ],
          [
            169.1691988,
            -45.0572505
          ],
          [
            169.1690916,
            -45.0572916
          ],
          [
            169.168997,
            -45.0573736
          ],
          [
            169.1689495,
            -45.0574688
          ],
          [
            169.1689389,
            -45.0575335
          ],
          [
            169.1689498,
            -45.0576346
          ],
          [
            169.1690179,
            -45.0577244
          ],
          [
            169.1691014,
            -45.0577706
          ],
          [
            169.1694661,
            -45.0578643
          ],
          [
            169.1695866,
            -45.0579271
          ],
          [
            169.1696533,
            -45.0579933
          ],
          [
            169.1700178,
            -45.0587909
          ],
          [
            169.1700454,
            -45.0589257
          ],
          [
            169.1700135,
            -45.059111
          ],
          [
            169.1699175,
            -45.059277
          ],
          [
            169.169783,
            -45.0594217
          ],
          [
            169.1684893,
            -45.0605559
          ],
          [
            169.168318,
            -45.0607547
          ],
          [
            169.1681804,
            -45.0609944
          ],
          [
            169.1681009,
            -45.0612213
          ],
          [
            169.1680555,
            -45.0613452
          ],
          [
            169.1680502,
            -45.0614716
          ],
          [
            169.1680721,
            -45.0615728
          ],
          [
            169.1681284,
            -45.0617635
          ],
          [
            169.1683303,
            -45.0623563
          ],
          [
            169.1685785,
            -45.0627697
          ],
          [
            169.1686921,
            -45.0629031
          ],
          [
            169.1688081,
            -45.0629618
          ],
          [
            169.1688968,
            -45.0629821
          ],
          [
            169.168987,
            -45.0629811
          ],
          [
            169.1690173,
            -45.0629647
          ],
          [
            169.1690796,
            -45.0629189
          ],
          [
            169.1691038,
            -45.0628731
          ],
          [
            169.1698846,
            -45.0611958
          ],
          [
            169.1708371,
            -45.0591496
          ],
          [
            169.1709939,
            -45.0588128
          ],
          [
            169.1710184,
            -45.0587474
          ],
          [
            169.1709939,
            -45.0586906
          ],
          [
            169.1709092,
            -45.0586313
          ],
          [
            169.1707585,
            -45.0585834
          ],
          [
            169.1707567,
            -45.0576936
          ],
          [
            169.1707616,
            -45.0574671
          ],
          [
            169.1707778,
            -45.0565189
          ],
          [
            169.1706455,
            -45.0563434
          ],
          [
            169.1705222,
            -45.0562226
          ],
          [
            169.1703787,
            -45.0561599
          ],
          [
            169.1702387,
            -45.0561273
          ],
          [
            169.1700723,
            -45.0561335
          ],
          [
            169.1699244,
            -45.0561711
          ],
          [
            169.1690272,
            -45.0565318
          ],
          [
            169.1689153,
            -45.0565884
          ],
          [
            169.1688306,
            -45.0566488
          ],
          [
            169.168419,
            -45.0570282
          ],
          [
            169.1682879,
            -45.0571306
          ],
          [
            169.1681974,
            -45.0571466
          ],
          [
            169.1681397,
            -45.0571357
          ],
          [
            169.168055,
            -45.0570806
          ],
          [
            169.1680102,
            -45.0569951
          ],
          [
            169.1680398,
            -45.0566113
          ],
          [
            169.1680595,
            -45.0565519
          ],
          [
            169.1681009,
            -45.0564924
          ]
        ]
      }
    }
  ]
}
