{
  "type": "FeatureCollection",
  "bbox": [
    -94.1779539,
    38.3909357,
    -94.1658224,
    38.4011311
  ],
  "metadata": {
    "schemaVersion": 1,
    "trackId": "us-hedge-hollow-raceway-914202229",
    "layoutId": "main",
    "license": "ODbL-1.0",
    "attribution": "© OpenStreetMap contributors",
    "closed": true,
    "geometryStatus": "draft",
    "timingStatus": "missing",
    "timingMode": "shared",
    "lengthM": 4613.8,
    "reviewedAt": null,
    "notes": [
      "Closed named OSM raceway retained as a course candidate. Named-layout association requires review.",
      "Source way order and shared node IDs are retained. No nearby endpoints are joined and no reference boundaries are read.",
      "Some source ways lack one-way direction tags. Travel direction is provisional."
    ]
  },
  "features": [
    {
      "type": "Feature",
      "id": "trace",
      "properties": {
        "role": "trace",
        "sourceIds": [
          "osm-snapshot"
        ]
      },
      "geometry": {
        "type": "LineString",
        "coordinates": [
          [
            -94.1709426,
            38.4011311
          ],
          [
            -94.1713342,
            38.4011311
          ],
          [
            -94.1714469,
            38.4011142
          ],
          [
            -94.1716609,
            38.400876
          ],
          [
            -94.1721228,
            38.4003617
          ],
          [
            -94.1723588,
            38.4002272
          ],
          [
            -94.1727183,
            38.4001683
          ],
          [
            -94.1765967,
            38.4000506
          ],
          [
            -94.1767791,
            38.4000044
          ],
          [
            -94.1770259,
            38.3997143
          ],
          [
            -94.1775784,
            38.3987137
          ],
          [
            -94.1776482,
            38.398432
          ],
          [
            -94.1777967,
            38.3955241
          ],
          [
            -94.1778593,
            38.3942988
          ],
          [
            -94.1779378,
            38.3927604
          ],
          [
            -94.1779409,
            38.3927109
          ],
          [
            -94.1779539,
            38.3924997
          ],
          [
            -94.1778359,
            38.3922727
          ],
          [
            -94.1776374,
            38.3921508
          ],
          [
            -94.1772673,
            38.3921297
          ],
          [
            -94.1766984,
            38.3921679
          ],
          [
            -94.1766396,
            38.3921718
          ],
          [
            -94.1762319,
            38.3922054
          ],
          [
            -94.1760442,
            38.392176
          ],
          [
            -94.1758644,
            38.392095
          ],
          [
            -94.1757921,
            38.3920625
          ],
          [
            -94.1739574,
            38.391251
          ],
          [
            -94.1735229,
            38.3911375
          ],
          [
            -94.1731206,
            38.3910534
          ],
          [
            -94.1725895,
            38.391024
          ],
          [
            -94.1716272,
            38.3909946
          ],
          [
            -94.1705188,
            38.3909609
          ],
          [
            -94.169285,
            38.3909357
          ],
          [
            -94.1686628,
            38.3909945
          ],
          [
            -94.1679654,
            38.3911669
          ],
          [
            -94.1672251,
            38.3913982
          ],
          [
            -94.166635,
            38.3916841
          ],
          [
            -94.166002,
            38.3920877
          ],
          [
            -94.165825,
            38.3922895
          ],
          [
            -94.1658224,
            38.3924257
          ],
          [
            -94.1659117,
            38.3925633
          ],
          [
            -94.1660442,
            38.3926406
          ],
          [
            -94.1661921,
            38.3926961
          ],
          [
            -94.1663831,
            38.3926865
          ],
          [
            -94.1665403,
            38.392614
          ],
          [
            -94.1668422,
            38.3924232
          ],
          [
            -94.166984,
            38.3923846
          ],
          [
            -94.1671627,
            38.3923822
          ],
          [
            -94.1677234,
            38.3925198
          ],
          [
            -94.1678374,
            38.3925706
          ],
          [
            -94.1679237,
            38.3926623
          ],
          [
            -94.1682287,
            38.3933022
          ],
          [
            -94.1684475,
            38.3935727
          ],
          [
            -94.1687586,
            38.3938335
          ],
          [
            -94.1691623,
            38.3940194
          ],
          [
            -94.1697877,
            38.394244
          ],
          [
            -94.1699849,
            38.3943648
          ],
          [
            -94.1701235,
            38.3944686
          ],
          [
            -94.1702191,
            38.3946159
          ],
          [
            -94.1704224,
            38.3950337
          ],
          [
            -94.1705333,
            38.3951785
          ],
          [
            -94.1706997,
            38.3953138
          ],
          [
            -94.1709308,
            38.3954079
          ],
          [
            -94.1713935,
            38.3955712
          ],
          [
            -94.1720122,
            38.3957895
          ],
          [
            -94.1722895,
            38.3959344
          ],
          [
            -94.1723604,
            38.3960599
          ],
          [
            -94.1723665,
            38.3962121
          ],
          [
            -94.1722988,
            38.3963231
          ],
          [
            -94.1722279,
            38.3963956
          ],
          [
            -94.1720831,
            38.396468
          ],
          [
            -94.1712358,
            38.3967264
          ],
          [
            -94.1710756,
            38.396794
          ],
          [
            -94.1697661,
            38.397388
          ],
          [
            -94.1689034,
            38.3977019
          ],
          [
            -94.1687956,
            38.3977937
          ],
          [
            -94.1687032,
            38.3979434
          ],
          [
            -94.1686385,
            38.399228
          ],
          [
            -94.1685769,
            38.3993463
          ],
          [
            -94.1684629,
            38.3994477
          ],
          [
            -94.1683057,
            38.3994912
          ],
          [
            -94.1681979,
            38.3995081
          ],
          [
            -94.1679915,
            38.3994936
          ],
          [
            -94.1678312,
            38.3994863
          ],
          [
            -94.1676402,
            38.399525
          ],
          [
            -94.1674492,
            38.3996022
          ],
          [
            -94.1671965,
            38.3997882
          ],
          [
            -94.1669531,
            38.4000176
          ],
          [
            -94.1668669,
            38.4000707
          ],
          [
            -94.1667467,
            38.4001262
          ],
          [
            -94.1665434,
            38.4001842
          ],
          [
            -94.1663647,
            38.4002687
          ],
          [
            -94.1662815,
            38.4003677
          ],
          [
            -94.1662383,
            38.4005077
          ],
          [
            -94.1662722,
            38.4006574
          ],
          [
            -94.1663924,
            38.4007806
          ],
          [
            -94.1665372,
            38.4008433
          ],
          [
            -94.1666913,
            38.4008651
          ],
          [
            -94.1679576,
            38.4009906
          ],
          [
            -94.1684259,
            38.4010317
          ],
          [
            -94.1689312,
            38.4010679
          ],
          [
            -94.1696182,
            38.4010824
          ],
          [
            -94.170102,
            38.4011017
          ],
          [
            -94.170484,
            38.4011114
          ],
          [
            -94.1709426,
            38.4011311
          ]
        ]
      }
    }
  ]
}
