{
  "type": "FeatureCollection",
  "bbox": [
    103.1006252,
    5.3635432,
    103.1030358,
    5.3653147
  ],
  "metadata": {
    "schemaVersion": 1,
    "trackId": "my-terengganu-international-drag-strip-634005195",
    "layoutId": "main",
    "license": "ODbL-1.0",
    "attribution": "© OpenStreetMap contributors",
    "closed": true,
    "geometryStatus": "draft",
    "timingStatus": "missing",
    "timingMode": "shared",
    "lengthM": 683.1,
    "reviewedAt": null,
    "notes": [
      "Connected OSM course candidate. The selected loop is the longest simple source-node cycle after explicit exclusions; its association with a named circuit configuration requires review.",
      "Source way order and shared node IDs are retained. No nearby endpoints are joined and no reference boundaries are read.",
      "Some source ways lack one-way direction tags. Travel direction is provisional."
    ]
  },
  "features": [
    {
      "type": "Feature",
      "id": "trace",
      "properties": {
        "role": "trace",
        "sourceIds": [
          "osm-snapshot"
        ]
      },
      "geometry": {
        "type": "LineString",
        "coordinates": [
          [
            103.1010647,
            5.3636018
          ],
          [
            103.1010161,
            5.3635736
          ],
          [
            103.1009773,
            5.3635571
          ],
          [
            103.1009364,
            5.3635468
          ],
          [
            103.1008943,
            5.3635432
          ],
          [
            103.1008522,
            5.3635461
          ],
          [
            103.1008111,
            5.3635556
          ],
          [
            103.100772,
            5.3635715
          ],
          [
            103.1007359,
            5.3635933
          ],
          [
            103.1007038,
            5.3636205
          ],
          [
            103.1006763,
            5.3636524
          ],
          [
            103.1006542,
            5.3636883
          ],
          [
            103.1006381,
            5.3637271
          ],
          [
            103.1006283,
            5.363768
          ],
          [
            103.1006252,
            5.3638099
          ],
          [
            103.1006287,
            5.3638518
          ],
          [
            103.1006388,
            5.3638926
          ],
          [
            103.1006552,
            5.3639313
          ],
          [
            103.1006776,
            5.3639669
          ],
          [
            103.1007053,
            5.3639986
          ],
          [
            103.1007377,
            5.3640255
          ],
          [
            103.1013402,
            5.3644812
          ],
          [
            103.101748,
            5.3647897
          ],
          [
            103.1018015,
            5.364818
          ],
          [
            103.1018484,
            5.3648276
          ],
          [
            103.1018892,
            5.3648228
          ],
          [
            103.1019576,
            5.3647977
          ],
          [
            103.1020032,
            5.3647929
          ],
          [
            103.1020464,
            5.3648049
          ],
          [
            103.1020824,
            5.364824
          ],
          [
            103.1026587,
            5.3652764
          ],
          [
            103.1026973,
            5.365303
          ],
          [
            103.1027475,
            5.3653147
          ],
          [
            103.1027977,
            5.3653064
          ],
          [
            103.1030358,
            5.3652108
          ],
          [
            103.1010647,
            5.3636018
          ]
        ]
      }
    }
  ]
}
