{
  "type": "FeatureCollection",
  "bbox": [
    13.6673451,
    37.2506093,
    13.6712048,
    37.2543768
  ],
  "metadata": {
    "schemaVersion": 1,
    "trackId": "it-autodromo-concordia-672397901",
    "layoutId": "main",
    "license": "ODbL-1.0",
    "attribution": "© OpenStreetMap contributors",
    "closed": true,
    "geometryStatus": "draft",
    "timingStatus": "missing",
    "timingMode": "shared",
    "lengthM": 1971,
    "reviewedAt": null,
    "notes": [
      "Connected OSM course candidate. The selected loop is the longest simple source-node cycle after explicit exclusions; its association with a named circuit configuration requires review.",
      "Source way order and shared node IDs are retained. No nearby endpoints are joined and no reference boundaries are read.",
      "Some source ways lack one-way direction tags. Travel direction is provisional."
    ]
  },
  "features": [
    {
      "type": "Feature",
      "id": "trace",
      "properties": {
        "role": "trace",
        "sourceIds": [
          "osm-snapshot"
        ]
      },
      "geometry": {
        "type": "LineString",
        "coordinates": [
          [
            13.6688966,
            37.2518885
          ],
          [
            13.6683959,
            37.2516608
          ],
          [
            13.668147,
            37.2515286
          ],
          [
            13.6680936,
            37.2514737
          ],
          [
            13.6680564,
            37.2514197
          ],
          [
            13.6680368,
            37.2513463
          ],
          [
            13.6680364,
            37.2512633
          ],
          [
            13.6682557,
            37.2508468
          ],
          [
            13.6682626,
            37.250782
          ],
          [
            13.6682522,
            37.250717
          ],
          [
            13.6682154,
            37.2506692
          ],
          [
            13.6681601,
            37.2506311
          ],
          [
            13.6680903,
            37.2506165
          ],
          [
            13.6680174,
            37.2506098
          ],
          [
            13.6679381,
            37.2506093
          ],
          [
            13.6678635,
            37.2506181
          ],
          [
            13.6676656,
            37.2506747
          ],
          [
            13.6675771,
            37.2507088
          ],
          [
            13.6674978,
            37.2507551
          ],
          [
            13.6674396,
            37.2508121
          ],
          [
            13.6673982,
            37.2508765
          ],
          [
            13.6673636,
            37.250948
          ],
          [
            13.6673453,
            37.2510228
          ],
          [
            13.6673451,
            37.2511213
          ],
          [
            13.6673709,
            37.251221
          ],
          [
            13.6674038,
            37.2512875
          ],
          [
            13.6674501,
            37.2513562
          ],
          [
            13.6676182,
            37.2515701
          ],
          [
            13.6678347,
            37.2518272
          ],
          [
            13.6682748,
            37.2522669
          ],
          [
            13.6688524,
            37.2528439
          ],
          [
            13.6703029,
            37.254293
          ],
          [
            13.6703535,
            37.2543288
          ],
          [
            13.6704091,
            37.2543575
          ],
          [
            13.6704561,
            37.2543738
          ],
          [
            13.6705191,
            37.2543768
          ],
          [
            13.6710039,
            37.2543409
          ],
          [
            13.6710883,
            37.2543138
          ],
          [
            13.6711312,
            37.2542787
          ],
          [
            13.6711715,
            37.2542293
          ],
          [
            13.6711979,
            37.254175
          ],
          [
            13.6712048,
            37.2541143
          ],
          [
            13.6711979,
            37.2540512
          ],
          [
            13.6707258,
            37.2527916
          ],
          [
            13.6706906,
            37.2527542
          ],
          [
            13.6706415,
            37.2527254
          ],
          [
            13.6704988,
            37.2526965
          ],
          [
            13.670424,
            37.2526726
          ],
          [
            13.6703707,
            37.2526339
          ],
          [
            13.6703375,
            37.2525798
          ],
          [
            13.6703289,
            37.2525268
          ],
          [
            13.6703449,
            37.2519845
          ],
          [
            13.6703235,
            37.2518522
          ],
          [
            13.6702591,
            37.2516814
          ],
          [
            13.670125,
            37.2515106
          ],
          [
            13.6700016,
            37.2513953
          ],
          [
            13.6696871,
            37.2510968
          ],
          [
            13.6696061,
            37.2510547
          ],
          [
            13.669517,
            37.2510208
          ],
          [
            13.669405,
            37.2510021
          ],
          [
            13.669293,
            37.2510012
          ],
          [
            13.6691945,
            37.2510186
          ],
          [
            13.6691082,
            37.2510506
          ],
          [
            13.6690392,
            37.251095
          ],
          [
            13.6689824,
            37.2511476
          ],
          [
            13.6689448,
            37.2512007
          ],
          [
            13.6689234,
            37.2512586
          ],
          [
            13.6689109,
            37.2513154
          ],
          [
            13.6689173,
            37.2513564
          ],
          [
            13.6689261,
            37.2513942
          ],
          [
            13.6689501,
            37.2514331
          ],
          [
            13.6689931,
            37.2514908
          ],
          [
            13.6691967,
            37.2516501
          ],
          [
            13.6693013,
            37.2517306
          ],
          [
            13.6693476,
            37.2517756
          ],
          [
            13.6694312,
            37.2518151
          ],
          [
            13.6694981,
            37.2518278
          ],
          [
            13.6695771,
            37.2518206
          ],
          [
            13.6696214,
            37.2518179
          ],
          [
            13.6696824,
            37.2518276
          ],
          [
            13.6697119,
            37.2518535
          ],
          [
            13.669728,
            37.2518824
          ],
          [
            13.6697244,
            37.2519137
          ],
          [
            13.6696824,
            37.2520324
          ],
          [
            13.6696451,
            37.2521255
          ],
          [
            13.6696821,
            37.252206
          ],
          [
            13.6697615,
            37.2523525
          ],
          [
            13.6698625,
            37.2524932
          ],
          [
            13.6702035,
            37.2528767
          ],
          [
            13.6703299,
            37.2530505
          ],
          [
            13.670758,
            37.253763
          ],
          [
            13.6707624,
            37.2538089
          ],
          [
            13.6707526,
            37.2538505
          ],
          [
            13.670736,
            37.2538797
          ],
          [
            13.6707124,
            37.253906
          ],
          [
            13.6706829,
            37.2539266
          ],
          [
            13.6706427,
            37.2539444
          ],
          [
            13.6705935,
            37.2539593
          ],
          [
            13.6705354,
            37.2539615
          ],
          [
            13.6704733,
            37.2539483
          ],
          [
            13.6704315,
            37.2539212
          ],
          [
            13.6692806,
            37.252828
          ],
          [
            13.6692461,
            37.2527858
          ],
          [
            13.6692238,
            37.2527403
          ],
          [
            13.6692137,
            37.2526899
          ],
          [
            13.6692147,
            37.252633
          ],
          [
            13.6692345,
            37.2525396
          ],
          [
            13.6692962,
            37.252356
          ],
          [
            13.6693013,
            37.2523012
          ],
          [
            13.6692851,
            37.2521825
          ],
          [
            13.669266,
            37.2521243
          ],
          [
            13.6692336,
            37.2520782
          ],
          [
            13.6691825,
            37.2520283
          ],
          [
            13.6690521,
            37.2519525
          ],
          [
            13.6688966,
            37.2518885
          ]
        ]
      }
    }
  ]
}
