{
  "type": "FeatureCollection",
  "bbox": [
    -77.9824755,
    39.2384525,
    -77.9746783,
    39.2435088
  ],
  "metadata": {
    "schemaVersion": 1,
    "trackId": "us-summit-point-motorsports-park-220556257",
    "layoutId": "main",
    "license": "ODbL-1.0",
    "attribution": "© OpenStreetMap contributors",
    "closed": true,
    "geometryStatus": "draft",
    "timingStatus": "missing",
    "timingMode": "shared",
    "lengthM": 3379.8,
    "reviewedAt": null,
    "notes": [
      "Closed named OSM raceway retained as a course candidate. Named-layout association requires review.",
      "Source way order and shared node IDs are retained. No nearby endpoints are joined and no reference boundaries are read."
    ]
  },
  "features": [
    {
      "type": "Feature",
      "id": "trace",
      "properties": {
        "role": "trace",
        "sourceIds": [
          "osm-snapshot"
        ]
      },
      "geometry": {
        "type": "LineString",
        "coordinates": [
          [
            -77.9801875,
            39.2403035
          ],
          [
            -77.9802144,
            39.2402038
          ],
          [
            -77.980201,
            39.2400106
          ],
          [
            -77.9801768,
            39.2398672
          ],
          [
            -77.9802117,
            39.2397426
          ],
          [
            -77.9803163,
            39.2396429
          ],
          [
            -77.9804558,
            39.2395577
          ],
          [
            -77.9806301,
            39.2394725
          ],
          [
            -77.9807428,
            39.2393624
          ],
          [
            -77.9808232,
            39.2392232
          ],
          [
            -77.9808661,
            39.2390487
          ],
          [
            -77.9808608,
            39.2388992
          ],
          [
            -77.9807776,
            39.2387662
          ],
          [
            -77.9806886,
            39.2386868
          ],
          [
            -77.980547,
            39.2386187
          ],
          [
            -77.9803917,
            39.2385772
          ],
          [
            -77.9799867,
            39.2385568
          ],
          [
            -77.9786104,
            39.2385211
          ],
          [
            -77.9781517,
            39.2385086
          ],
          [
            -77.9778835,
            39.2384671
          ],
          [
            -77.9776609,
            39.2384525
          ],
          [
            -77.9774678,
            39.2385294
          ],
          [
            -77.9773149,
            39.2386914
          ],
          [
            -77.9772371,
            39.2388514
          ],
          [
            -77.9772908,
            39.2390259
          ],
          [
            -77.9774758,
            39.2391318
          ],
          [
            -77.9776985,
            39.2392004
          ],
          [
            -77.9778835,
            39.2392129
          ],
          [
            -77.9780445,
            39.2391526
          ],
          [
            -77.9781544,
            39.2390363
          ],
          [
            -77.9782859,
            39.2389428
          ],
          [
            -77.9784235,
            39.2389244
          ],
          [
            -77.9785138,
            39.2390072
          ],
          [
            -77.9786399,
            39.2391879
          ],
          [
            -77.9787526,
            39.239271
          ],
          [
            -77.978825,
            39.2392793
          ],
          [
            -77.9789671,
            39.2392357
          ],
          [
            -77.9790744,
            39.2391173
          ],
          [
            -77.9791603,
            39.23903
          ],
          [
            -77.979317,
            39.2388938
          ],
          [
            -77.9794902,
            39.2388867
          ],
          [
            -77.9797074,
            39.2389345
          ],
          [
            -77.9798281,
            39.2390238
          ],
          [
            -77.9798603,
            39.2391464
          ],
          [
            -77.9798576,
            39.2392793
          ],
          [
            -77.9798308,
            39.2393936
          ],
          [
            -77.9797208,
            39.2395016
          ],
          [
            -77.9793212,
            39.2398901
          ],
          [
            -77.978994,
            39.2402495
          ],
          [
            -77.9787338,
            39.2406068
          ],
          [
            -77.978479,
            39.2409184
          ],
          [
            -77.9783779,
            39.2410274
          ],
          [
            -77.9783288,
            39.2410804
          ],
          [
            -77.9780713,
            39.2412237
          ],
          [
            -77.9778084,
            39.2413567
          ],
          [
            -77.9776019,
            39.2414377
          ],
          [
            -77.9773787,
            39.2415255
          ],
          [
            -77.977269,
            39.2415687
          ],
          [
            -77.9768724,
            39.2417419
          ],
          [
            -77.9765394,
            39.2419235
          ],
          [
            -77.9762554,
            39.2420983
          ],
          [
            -77.9759577,
            39.2422707
          ],
          [
            -77.9756948,
            39.2424244
          ],
          [
            -77.9754239,
            39.2425761
          ],
          [
            -77.9750457,
            39.2427963
          ],
          [
            -77.9748607,
            39.2429147
          ],
          [
            -77.97474,
            39.243031
          ],
          [
            -77.9746783,
            39.2431785
          ],
          [
            -77.9747051,
            39.2433135
          ],
          [
            -77.9747829,
            39.2434153
          ],
          [
            -77.9749009,
            39.2434839
          ],
          [
            -77.9750511,
            39.2435088
          ],
          [
            -77.9751906,
            39.2434984
          ],
          [
            -77.9752925,
            39.2434569
          ],
          [
            -77.9753703,
            39.2433883
          ],
          [
            -77.9754266,
            39.2433011
          ],
          [
            -77.9754669,
            39.2431951
          ],
          [
            -77.9755071,
            39.2430746
          ],
          [
            -77.9755688,
            39.24295
          ],
          [
            -77.9756546,
            39.2428378
          ],
          [
            -77.9757592,
            39.2427568
          ],
          [
            -77.9758906,
            39.2426758
          ],
          [
            -77.9760543,
            39.2426093
          ],
          [
            -77.9762125,
            39.2425595
          ],
          [
            -77.97636,
            39.2425221
          ],
          [
            -77.9765639,
            39.2425055
          ],
          [
            -77.9767168,
            39.2424701
          ],
          [
            -77.9768187,
            39.2423995
          ],
          [
            -77.9768911,
            39.2422832
          ],
          [
            -77.9769501,
            39.2421835
          ],
          [
            -77.9769964,
            39.2421289
          ],
          [
            -77.9770574,
            39.2420568
          ],
          [
            -77.977213,
            39.2419861
          ],
          [
            -77.9773793,
            39.2419841
          ],
          [
            -77.9775482,
            39.2420422
          ],
          [
            -77.9775885,
            39.2421295
          ],
          [
            -77.9775643,
            39.2422666
          ],
          [
            -77.9774946,
            39.2424577
          ],
          [
            -77.9774705,
            39.2426322
          ],
          [
            -77.9775161,
            39.2427319
          ],
          [
            -77.9776207,
            39.2428544
          ],
          [
            -77.9777977,
            39.2429562
          ],
          [
            -77.9779881,
            39.2430206
          ],
          [
            -77.9782966,
            39.2431307
          ],
          [
            -77.9785648,
            39.2432387
          ],
          [
            -77.9787928,
            39.2433052
          ],
          [
            -77.9790369,
            39.2433301
          ],
          [
            -77.9792756,
            39.2433094
          ],
          [
            -77.9795143,
            39.2432408
          ],
          [
            -77.9797208,
            39.2431328
          ],
          [
            -77.9798925,
            39.243004
          ],
          [
            -77.9800454,
            39.2428274
          ],
          [
            -77.9802787,
            39.2425574
          ],
          [
            -77.9806784,
            39.2421149
          ],
          [
            -77.9809412,
            39.2418345
          ],
          [
            -77.9809609,
            39.2418109
          ],
          [
            -77.981121,
            39.2416184
          ],
          [
            -77.9812604,
            39.2414253
          ],
          [
            -77.9813784,
            39.2411905
          ],
          [
            -77.9814991,
            39.2409599
          ],
          [
            -77.9820409,
            39.2399005
          ],
          [
            -77.9823467,
            39.2393146
          ],
          [
            -77.9824567,
            39.239082
          ],
          [
            -77.9824755,
            39.2389158
          ],
          [
            -77.9824111,
            39.2387849
          ],
          [
            -77.9822823,
            39.2386873
          ],
          [
            -77.9820946,
            39.2386374
          ],
          [
            -77.9818854,
            39.2386333
          ],
          [
            -77.9816949,
            39.2387143
          ],
          [
            -77.9815286,
            39.2388701
          ],
          [
            -77.9813972,
            39.2390654
          ],
          [
            -77.981247,
            39.2393624
          ],
          [
            -77.9811853,
            39.239479
          ],
          [
            -77.9810458,
            39.2397426
          ],
          [
            -77.9808366,
            39.2401498
          ],
          [
            -77.9807159,
            39.2403824
          ],
          [
            -77.9805781,
            39.2407428
          ],
          [
            -77.9805789,
            39.2408731
          ],
          [
            -77.9806671,
            39.2409877
          ],
          [
            -77.9807938,
            39.2411115
          ],
          [
            -77.9808307,
            39.2412245
          ],
          [
            -77.9807996,
            39.2413117
          ],
          [
            -77.9807346,
            39.2413502
          ],
          [
            -77.9805997,
            39.2413618
          ],
          [
            -77.9797628,
            39.2412909
          ],
          [
            -77.9792899,
            39.2412401
          ],
          [
            -77.9791641,
            39.2412019
          ],
          [
            -77.9791011,
            39.2410907
          ],
          [
            -77.9790977,
            39.2409514
          ],
          [
            -77.9791685,
            39.2407944
          ],
          [
            -77.9793034,
            39.2406594
          ],
          [
            -77.9794743,
            39.2405787
          ],
          [
            -77.9798293,
            39.2405195
          ],
          [
            -77.9800637,
            39.2404294
          ],
          [
            -77.9801875,
            39.2403035
          ]
        ]
      }
    }
  ]
}
