{
  "type": "FeatureCollection",
  "bbox": [
    -68.1624223,
    -38.8594102,
    -68.1483184,
    -38.8496431
  ],
  "metadata": {
    "schemaVersion": 1,
    "trackId": "ar-autodromo-parque-provincia-del-neuquen-191818361",
    "layoutId": "main",
    "license": "ODbL-1.0",
    "attribution": "© OpenStreetMap contributors",
    "closed": true,
    "geometryStatus": "draft",
    "timingStatus": "missing",
    "timingMode": "shared",
    "lengthM": 4319.1,
    "reviewedAt": null,
    "notes": [
      "Connected OSM course candidate. The selected loop is the longest simple source-node cycle after explicit exclusions; its association with a named circuit configuration requires review.",
      "Source way order and shared node IDs are retained. No nearby endpoints are joined and no Racelogic boundaries are read."
    ]
  },
  "features": [
    {
      "type": "Feature",
      "id": "trace",
      "properties": {
        "role": "trace",
        "sourceIds": [
          "osm-snapshot"
        ]
      },
      "geometry": {
        "type": "LineString",
        "coordinates": [
          [
            -68.1506195,
            -38.8540196
          ],
          [
            -68.1533222,
            -38.8515252
          ],
          [
            -68.1547598,
            -38.8501984
          ],
          [
            -68.15493,
            -38.850057
          ],
          [
            -68.1551246,
            -38.8499247
          ],
          [
            -68.155337,
            -38.8498172
          ],
          [
            -68.1555387,
            -38.84974
          ],
          [
            -68.1557365,
            -38.84969
          ],
          [
            -68.155956,
            -38.8496541
          ],
          [
            -68.1561896,
            -38.8496431
          ],
          [
            -68.1564205,
            -38.8496538
          ],
          [
            -68.1566603,
            -38.8496927
          ],
          [
            -68.156873,
            -38.8497504
          ],
          [
            -68.1570455,
            -38.8498104
          ],
          [
            -68.1574259,
            -38.8499763
          ],
          [
            -68.1575645,
            -38.8500411
          ],
          [
            -68.1576754,
            -38.8501082
          ],
          [
            -68.157774,
            -38.8501874
          ],
          [
            -68.1578695,
            -38.8502762
          ],
          [
            -68.1602967,
            -38.8528232
          ],
          [
            -68.1616186,
            -38.8542104
          ],
          [
            -68.1617531,
            -38.8543545
          ],
          [
            -68.1618936,
            -38.8544991
          ],
          [
            -68.1620341,
            -38.8546366
          ],
          [
            -68.1621593,
            -38.8547541
          ],
          [
            -68.16224,
            -38.8548348
          ],
          [
            -68.1623025,
            -38.8549079
          ],
          [
            -68.162354,
            -38.8549835
          ],
          [
            -68.1623916,
            -38.8550595
          ],
          [
            -68.1624147,
            -38.8551308
          ],
          [
            -68.1624223,
            -38.8552161
          ],
          [
            -68.162413,
            -38.8552979
          ],
          [
            -68.1623849,
            -38.8553725
          ],
          [
            -68.1623476,
            -38.8554325
          ],
          [
            -68.1622915,
            -38.8554943
          ],
          [
            -68.1622285,
            -38.8555561
          ],
          [
            -68.1621367,
            -38.8556234
          ],
          [
            -68.1620293,
            -38.8556943
          ],
          [
            -68.1619219,
            -38.8557507
          ],
          [
            -68.1618074,
            -38.8558016
          ],
          [
            -68.161686,
            -38.8558489
          ],
          [
            -68.1615506,
            -38.8558907
          ],
          [
            -68.1614057,
            -38.8559249
          ],
          [
            -68.1612655,
            -38.8559518
          ],
          [
            -68.1611049,
            -38.8559772
          ],
          [
            -68.1609666,
            -38.8559882
          ],
          [
            -68.1608467,
            -38.8559882
          ],
          [
            -68.1607593,
            -38.8559803
          ],
          [
            -68.1606699,
            -38.8559645
          ],
          [
            -68.1605967,
            -38.8559376
          ],
          [
            -68.1605357,
            -38.855898
          ],
          [
            -68.1604829,
            -38.8558489
          ],
          [
            -68.1589201,
            -38.8540789
          ],
          [
            -68.158837,
            -38.8539807
          ],
          [
            -68.1587404,
            -38.8538721
          ],
          [
            -68.1586305,
            -38.8537572
          ],
          [
            -68.1583109,
            -38.8534369
          ],
          [
            -68.1582254,
            -38.8533567
          ],
          [
            -68.158133,
            -38.8532847
          ],
          [
            -68.1580159,
            -38.8532175
          ],
          [
            -68.1578895,
            -38.8531599
          ],
          [
            -68.1577478,
            -38.8531144
          ],
          [
            -68.1576061,
            -38.8530808
          ],
          [
            -68.1574429,
            -38.8530567
          ],
          [
            -68.1572826,
            -38.8530495
          ],
          [
            -68.1571348,
            -38.8530543
          ],
          [
            -68.1569715,
            -38.8530735
          ],
          [
            -68.1568236,
            -38.8531047
          ],
          [
            -68.1566788,
            -38.8531479
          ],
          [
            -68.1565432,
            -38.8532079
          ],
          [
            -68.1564261,
            -38.8532703
          ],
          [
            -68.1552666,
            -38.8539308
          ],
          [
            -68.1543679,
            -38.8544428
          ],
          [
            -68.1542544,
            -38.8545176
          ],
          [
            -68.1541465,
            -38.8546063
          ],
          [
            -68.1540572,
            -38.8547023
          ],
          [
            -68.1539832,
            -38.8548127
          ],
          [
            -68.1539339,
            -38.8549254
          ],
          [
            -68.1539093,
            -38.8550358
          ],
          [
            -68.1539093,
            -38.8551414
          ],
          [
            -68.1539309,
            -38.8552518
          ],
          [
            -68.1539705,
            -38.8553673
          ],
          [
            -68.1540157,
            -38.8554774
          ],
          [
            -68.1540869,
            -38.8555839
          ],
          [
            -68.1541724,
            -38.8556766
          ],
          [
            -68.1542539,
            -38.8557494
          ],
          [
            -68.1570824,
            -38.8578694
          ],
          [
            -68.1571808,
            -38.8579581
          ],
          [
            -68.1572612,
            -38.8580562
          ],
          [
            -68.1573231,
            -38.8581643
          ],
          [
            -68.157362,
            -38.8582773
          ],
          [
            -68.1573797,
            -38.8583958
          ],
          [
            -68.1573854,
            -38.8585298
          ],
          [
            -68.1573667,
            -38.8586807
          ],
          [
            -68.1573247,
            -38.8588026
          ],
          [
            -68.157257,
            -38.858928
          ],
          [
            -68.1571799,
            -38.8590371
          ],
          [
            -68.1570742,
            -38.8591415
          ],
          [
            -68.1569733,
            -38.8592145
          ],
          [
            -68.1568494,
            -38.8592751
          ],
          [
            -68.1566937,
            -38.8593302
          ],
          [
            -68.1565345,
            -38.859373
          ],
          [
            -68.1563805,
            -38.8594005
          ],
          [
            -68.156223,
            -38.8594102
          ],
          [
            -68.1560655,
            -38.8594033
          ],
          [
            -68.1559319,
            -38.8593846
          ],
          [
            -68.1557975,
            -38.8593501
          ],
          [
            -68.1556842,
            -38.8593019
          ],
          [
            -68.1555763,
            -38.8592468
          ],
          [
            -68.1547917,
            -38.8588447
          ],
          [
            -68.1502966,
            -38.8565405
          ],
          [
            -68.1485966,
            -38.8556691
          ],
          [
            -68.1485054,
            -38.8556146
          ],
          [
            -68.1484261,
            -38.8555529
          ],
          [
            -68.1483671,
            -38.8554848
          ],
          [
            -68.1483285,
            -38.8554041
          ],
          [
            -68.1483184,
            -38.8553249
          ],
          [
            -68.1483244,
            -38.8552413
          ],
          [
            -68.1483454,
            -38.8551704
          ],
          [
            -68.1483828,
            -38.8551085
          ],
          [
            -68.1484295,
            -38.8550631
          ],
          [
            -68.1484995,
            -38.8550213
          ],
          [
            -68.1485813,
            -38.8549903
          ],
          [
            -68.1498186,
            -38.8546468
          ],
          [
            -68.1499247,
            -38.8546064
          ],
          [
            -68.1500121,
            -38.8545589
          ],
          [
            -68.1500853,
            -38.8545082
          ],
          [
            -68.1501565,
            -38.8544481
          ],
          [
            -68.1506195,
            -38.8540196
          ]
        ]
      }
    }
  ]
}
