{
  "type": "FeatureCollection",
  "bbox": [
    -5.0143714,
    41.3031928,
    -5.0111663,
    41.3068966
  ],
  "metadata": {
    "schemaVersion": 1,
    "trackId": "es-circuito-fk1-41362127",
    "layoutId": "main",
    "license": "ODbL-1.0",
    "attribution": "© OpenStreetMap contributors",
    "closed": true,
    "geometryStatus": "draft",
    "timingStatus": "missing",
    "timingMode": "shared",
    "lengthM": 2231.6,
    "reviewedAt": null,
    "notes": [
      "Connected OSM course candidate. The selected loop is the longest simple source-node cycle after explicit exclusions; its association with a named circuit configuration requires review.",
      "Source way order and shared node IDs are retained. No nearby endpoints are joined and no reference boundaries are read.",
      "Some source ways lack one-way direction tags. Travel direction is provisional."
    ]
  },
  "features": [
    {
      "type": "Feature",
      "id": "trace",
      "properties": {
        "role": "trace",
        "sourceIds": [
          "osm-snapshot"
        ]
      },
      "geometry": {
        "type": "LineString",
        "coordinates": [
          [
            -5.0118437,
            41.3067418
          ],
          [
            -5.0120632,
            41.3067634
          ],
          [
            -5.012368,
            41.3068136
          ],
          [
            -5.0126293,
            41.306822
          ],
          [
            -5.0131024,
            41.3068966
          ],
          [
            -5.0132411,
            41.3068873
          ],
          [
            -5.0133306,
            41.3068164
          ],
          [
            -5.0133737,
            41.306653
          ],
          [
            -5.0133962,
            41.3065399
          ],
          [
            -5.013566,
            41.3062655
          ],
          [
            -5.0136933,
            41.3057335
          ],
          [
            -5.0137704,
            41.3053249
          ],
          [
            -5.0136787,
            41.3051169
          ],
          [
            -5.0138317,
            41.3043462
          ],
          [
            -5.0137947,
            41.3042259
          ],
          [
            -5.0137361,
            41.3041704
          ],
          [
            -5.0136528,
            41.3041396
          ],
          [
            -5.0135634,
            41.3041396
          ],
          [
            -5.013474,
            41.3041797
          ],
          [
            -5.0134308,
            41.3042876
          ],
          [
            -5.0134308,
            41.3044418
          ],
          [
            -5.0134246,
            41.3046577
          ],
          [
            -5.0133845,
            41.3047748
          ],
          [
            -5.0133475,
            41.3048089
          ],
          [
            -5.0133074,
            41.3048458
          ],
          [
            -5.0131409,
            41.3048119
          ],
          [
            -5.0130638,
            41.3047533
          ],
          [
            -5.0130546,
            41.3046546
          ],
          [
            -5.0131101,
            41.3045436
          ],
          [
            -5.0131748,
            41.3044418
          ],
          [
            -5.0131933,
            41.3043092
          ],
          [
            -5.0131563,
            41.3040871
          ],
          [
            -5.0131471,
            41.3039823
          ],
          [
            -5.0132488,
            41.3039206
          ],
          [
            -5.0133475,
            41.3038898
          ],
          [
            -5.0134863,
            41.3038836
          ],
          [
            -5.0136559,
            41.3038959
          ],
          [
            -5.0138317,
            41.3039854
          ],
          [
            -5.0140075,
            41.3040995
          ],
          [
            -5.0141648,
            41.3041334
          ],
          [
            -5.0142819,
            41.3040131
          ],
          [
            -5.0143066,
            41.3038867
          ],
          [
            -5.0142727,
            41.3038065
          ],
          [
            -5.0141154,
            41.3037695
          ],
          [
            -5.013878,
            41.3037479
          ],
          [
            -5.013622,
            41.3037109
          ],
          [
            -5.0134154,
            41.303677
          ],
          [
            -5.0133537,
            41.3035875
          ],
          [
            -5.0133537,
            41.3034889
          ],
          [
            -5.013403,
            41.3034303
          ],
          [
            -5.0135603,
            41.3034056
          ],
          [
            -5.0137762,
            41.3034426
          ],
          [
            -5.0139859,
            41.3035505
          ],
          [
            -5.0141678,
            41.303606
          ],
          [
            -5.0142881,
            41.3035752
          ],
          [
            -5.0143714,
            41.3034827
          ],
          [
            -5.0143621,
            41.303384
          ],
          [
            -5.0142758,
            41.3033192
          ],
          [
            -5.0140907,
            41.3032792
          ],
          [
            -5.0133475,
            41.3031928
          ],
          [
            -5.0132057,
            41.3031928
          ],
          [
            -5.0131255,
            41.3032144
          ],
          [
            -5.0130607,
            41.303273
          ],
          [
            -5.0127338,
            41.304926
          ],
          [
            -5.012777,
            41.3050246
          ],
          [
            -5.012888,
            41.3050617
          ],
          [
            -5.0130299,
            41.3050462
          ],
          [
            -5.0131748,
            41.3050462
          ],
          [
            -5.0132581,
            41.3050524
          ],
          [
            -5.013293,
            41.3050886
          ],
          [
            -5.0133444,
            41.3051418
          ],
          [
            -5.0133722,
            41.3052282
          ],
          [
            -5.0133506,
            41.305333
          ],
          [
            -5.0132458,
            41.305404
          ],
          [
            -5.0131347,
            41.305404
          ],
          [
            -5.0129682,
            41.3053731
          ],
          [
            -5.0128171,
            41.3053269
          ],
          [
            -5.012703,
            41.3053608
          ],
          [
            -5.0126228,
            41.3054286
          ],
          [
            -5.0126228,
            41.3055212
          ],
          [
            -5.0126908,
            41.3056012
          ],
          [
            -5.0128202,
            41.3056568
          ],
          [
            -5.0129867,
            41.3056846
          ],
          [
            -5.0131008,
            41.3057062
          ],
          [
            -5.0131902,
            41.3057771
          ],
          [
            -5.0132211,
            41.3059005
          ],
          [
            -5.0131594,
            41.3059992
          ],
          [
            -5.0130515,
            41.306104
          ],
          [
            -5.0130484,
            41.3061996
          ],
          [
            -5.0130484,
            41.306323
          ],
          [
            -5.013036,
            41.3063723
          ],
          [
            -5.0129497,
            41.3064648
          ],
          [
            -5.012724,
            41.3065831
          ],
          [
            -5.0126757,
            41.3065384
          ],
          [
            -5.012545,
            41.3065428
          ],
          [
            -5.0123872,
            41.3065944
          ],
          [
            -5.0121956,
            41.3065774
          ],
          [
            -5.0121098,
            41.3064485
          ],
          [
            -5.0121252,
            41.306365
          ],
          [
            -5.0122218,
            41.30629
          ],
          [
            -5.0123701,
            41.3062683
          ],
          [
            -5.0125757,
            41.3063191
          ],
          [
            -5.0127378,
            41.3062528
          ],
          [
            -5.0128044,
            41.3061362
          ],
          [
            -5.0127405,
            41.3060064
          ],
          [
            -5.0126626,
            41.3060012
          ],
          [
            -5.0125519,
            41.3059845
          ],
          [
            -5.012422,
            41.3060333
          ],
          [
            -5.0123113,
            41.3060117
          ],
          [
            -5.0122377,
            41.3059486
          ],
          [
            -5.0122271,
            41.3058268
          ],
          [
            -5.0121591,
            41.3057773
          ],
          [
            -5.0120709,
            41.3057841
          ],
          [
            -5.0120143,
            41.3058759
          ],
          [
            -5.0118865,
            41.3063719
          ],
          [
            -5.011743,
            41.3064352
          ],
          [
            -5.0115962,
            41.3063896
          ],
          [
            -5.0115468,
            41.3063123
          ],
          [
            -5.0115591,
            41.3061731
          ],
          [
            -5.0116488,
            41.3060463
          ],
          [
            -5.0117453,
            41.3059004
          ],
          [
            -5.0116626,
            41.305729
          ],
          [
            -5.011491,
            41.305715
          ],
          [
            -5.0113635,
            41.3058423
          ],
          [
            -5.0113255,
            41.3059836
          ],
          [
            -5.011279,
            41.3061938
          ],
          [
            -5.0112536,
            41.3063013
          ],
          [
            -5.0112552,
            41.3064328
          ],
          [
            -5.0111663,
            41.3066795
          ],
          [
            -5.0112126,
            41.3067759
          ],
          [
            -5.0113051,
            41.3068298
          ],
          [
            -5.0115094,
            41.3068453
          ],
          [
            -5.0117139,
            41.3068575
          ],
          [
            -5.0118437,
            41.3067418
          ]
        ]
      }
    }
  ]
}
