{
  "type": "FeatureCollection",
  "bbox": [
    -110.0121308,
    32.227683,
    -110.0087517,
    32.2311271
  ],
  "metadata": {
    "schemaVersion": 1,
    "trackId": "us-inde-motorsports-b9c30311",
    "layoutId": "inde-motorsports-ranch-north-2",
    "license": "ODbL-1.0",
    "attribution": "© OpenStreetMap contributors",
    "closed": true,
    "geometryStatus": "draft",
    "timingStatus": "missing",
    "timingMode": "shared",
    "lengthM": 1256.7,
    "reviewedAt": null,
    "notes": [
      "This component reuses the existing pinned independent course recipe from us-inde-motorsports-ranch-8dbe7597/inde-motorsports-ranch-north-2 without changing any source nodes or branch selections. It is included in the aggregate entry for the same venue. The existing draft branch identification, historical alignment and distance limitations remain in force; the identification URL establishes the venue and is not a claim of a current certified lap. Exact source coordinates are unchanged; historical alignment and direction remain provisional."
    ]
  },
  "features": [
    {
      "type": "Feature",
      "id": "trace",
      "properties": {
        "role": "trace",
        "sourceIds": [
          "osm-components-322172251"
        ]
      },
      "geometry": {
        "type": "LineString",
        "coordinates": [
          [
            -110.0112713,
            32.2277199
          ],
          [
            -110.0115138,
            32.227699
          ],
          [
            -110.0117595,
            32.227683
          ],
          [
            -110.0119339,
            32.2277273
          ],
          [
            -110.0121308,
            32.2277643
          ],
          [
            -110.0121257,
            32.2278895
          ],
          [
            -110.0120211,
            32.2280296
          ],
          [
            -110.011838,
            32.2281698
          ],
          [
            -110.0104779,
            32.2284058
          ],
          [
            -110.0103646,
            32.2284721
          ],
          [
            -110.0102512,
            32.2285754
          ],
          [
            -110.0102338,
            32.2287155
          ],
          [
            -110.0102251,
            32.2288778
          ],
          [
            -110.0103036,
            32.2290548
          ],
          [
            -110.0104082,
            32.2291433
          ],
          [
            -110.0107569,
            32.2292981
          ],
          [
            -110.0110097,
            32.2294604
          ],
          [
            -110.0111754,
            32.2296226
          ],
          [
            -110.0112364,
            32.2297996
          ],
          [
            -110.0112451,
            32.2300061
          ],
          [
            -110.0103907,
            32.2310165
          ],
          [
            -110.0102687,
            32.2311124
          ],
          [
            -110.0100682,
            32.2311271
          ],
          [
            -110.0099025,
            32.2310976
          ],
          [
            -110.0097456,
            32.2309501
          ],
          [
            -110.0094927,
            32.2304486
          ],
          [
            -110.0089522,
            32.2291654
          ],
          [
            -110.0088214,
            32.228981
          ],
          [
            -110.0087517,
            32.2287671
          ],
          [
            -110.008804,
            32.2285311
          ],
          [
            -110.0089215,
            32.2283615
          ],
          [
            -110.0091396,
            32.2282545
          ],
          [
            -110.0093576,
            32.2281955
          ],
          [
            -110.0096914,
            32.2281606
          ],
          [
            -110.0101457,
            32.2281552
          ],
          [
            -110.0104638,
            32.2280834
          ],
          [
            -110.0107953,
            32.2279619
          ],
          [
            -110.0110537,
            32.2278345
          ],
          [
            -110.0112713,
            32.2277199
          ]
        ]
      }
    }
  ]
}
