{
  "type": "FeatureCollection",
  "bbox": [
    -88.0129393,
    43.0178506,
    -88.0093183,
    43.0238885
  ],
  "metadata": {
    "schemaVersion": 1,
    "trackId": "us-milwaukee-mile-107508989",
    "layoutId": "main",
    "license": "ODbL-1.0",
    "attribution": "© OpenStreetMap contributors",
    "closed": true,
    "geometryStatus": "draft",
    "timingStatus": "missing",
    "timingMode": "shared",
    "lengthM": 1662.7,
    "reviewedAt": null,
    "notes": [
      "Closed named OSM raceway retained as a course candidate. Named-layout association requires review.",
      "Source way order and shared node IDs are retained. No nearby endpoints are joined and no Racelogic boundaries are read.",
      "Some source ways lack one-way direction tags. Travel direction is provisional."
    ]
  },
  "features": [
    {
      "type": "Feature",
      "id": "trace",
      "properties": {
        "role": "trace",
        "sourceIds": [
          "osm-snapshot"
        ]
      },
      "geometry": {
        "type": "LineString",
        "coordinates": [
          [
            -88.0120059,
            43.0180271
          ],
          [
            -88.011895,
            43.0179901
          ],
          [
            -88.0117591,
            43.0179447
          ],
          [
            -88.0114856,
            43.0178781
          ],
          [
            -88.0112388,
            43.0178545
          ],
          [
            -88.0110078,
            43.017851
          ],
          [
            -88.0109813,
            43.0178506
          ],
          [
            -88.0107077,
            43.0178741
          ],
          [
            -88.0104234,
            43.0179487
          ],
          [
            -88.0101337,
            43.0180624
          ],
          [
            -88.0098816,
            43.0182154
          ],
          [
            -88.0096938,
            43.0183958
          ],
          [
            -88.0095544,
            43.0186193
          ],
          [
            -88.0094524,
            43.0188351
          ],
          [
            -88.0093827,
            43.0190665
          ],
          [
            -88.0093612,
            43.0193135
          ],
          [
            -88.0093183,
            43.0214118
          ],
          [
            -88.0093237,
            43.0224707
          ],
          [
            -88.0093827,
            43.0227609
          ],
          [
            -88.0095007,
            43.0230943
          ],
          [
            -88.0095915,
            43.0232525
          ],
          [
            -88.0097368,
            43.0234041
          ],
          [
            -88.0098524,
            43.0235011
          ],
          [
            -88.0099728,
            43.0235924
          ],
          [
            -88.0100818,
            43.0236457
          ],
          [
            -88.0102678,
            43.0237294
          ],
          [
            -88.0105682,
            43.0238196
          ],
          [
            -88.0108094,
            43.0238654
          ],
          [
            -88.0110308,
            43.0238885
          ],
          [
            -88.0111811,
            43.0238885
          ],
          [
            -88.0113788,
            43.0238654
          ],
          [
            -88.0115132,
            43.0238538
          ],
          [
            -88.0116787,
            43.0238157
          ],
          [
            -88.0117585,
            43.0237857
          ],
          [
            -88.0118691,
            43.023744
          ],
          [
            -88.0120274,
            43.0236669
          ],
          [
            -88.0122487,
            43.0235416
          ],
          [
            -88.0124227,
            43.0234202
          ],
          [
            -88.0125209,
            43.0233061
          ],
          [
            -88.0126284,
            43.0231774
          ],
          [
            -88.0126898,
            43.023074
          ],
          [
            -88.0127033,
            43.0230512
          ],
          [
            -88.0127891,
            43.0228276
          ],
          [
            -88.012834,
            43.022657
          ],
          [
            -88.0128428,
            43.0225374
          ],
          [
            -88.0128725,
            43.021947
          ],
          [
            -88.012891,
            43.0215805
          ],
          [
            -88.0129175,
            43.0204397
          ],
          [
            -88.0129393,
            43.0194979
          ],
          [
            -88.0129119,
            43.0192217
          ],
          [
            -88.0128749,
            43.0190547
          ],
          [
            -88.0127408,
            43.018686
          ],
          [
            -88.012596,
            43.0184585
          ],
          [
            -88.0123358,
            43.0182211
          ],
          [
            -88.0120059,
            43.0180271
          ]
        ]
      }
    }
  ]
}
