{
  "type": "FeatureCollection",
  "bbox": [
    -66.2417849,
    -33.2367372,
    -66.2257425,
    -33.2194589
  ],
  "metadata": {
    "schemaVersion": 1,
    "trackId": "ar-protrero-de-los-funes-dd64b455",
    "layoutId": "protrero-de-los-funes",
    "license": "ODbL-1.0",
    "attribution": "© OpenStreetMap contributors",
    "closed": true,
    "geometryStatus": "draft",
    "timingStatus": "missing",
    "timingMode": "shared",
    "lengthM": 6172.4,
    "reviewedAt": null,
    "notes": [
      "Draft configuration: The lake circuit follows the complete independently named Avenida Circuito del Lago, including its southern bends and the bridge section. Argentina tourism identifies this public-road circuit and access avenue; government documentation describes the 6.270 km historical course. The actual pinned road loop is 6172.4 m and remains unadjusted. Race-day barriers, chicane alignment and travel direction remain provisional; unrelated residential and service-road detours are excluded. Branch identity was checked against catalogue layout facts and circuit identification references. Independent source distance 6172.4 m; no coordinates are changed to match a diagram or distance. Travel direction and historical alignment remain provisional."
    ]
  },
  "features": [
    {
      "type": "Feature",
      "id": "trace",
      "properties": {
        "role": "trace",
        "sourceIds": [
          "osm-selection-potrero-independent-roads-127599567"
        ]
      },
      "geometry": {
        "type": "LineString",
        "coordinates": [
          [
            -66.226208,
            -33.2333524
          ],
          [
            -66.2263478,
            -33.2334009
          ],
          [
            -66.2264836,
            -33.2334301
          ],
          [
            -66.2266696,
            -33.2334459
          ],
          [
            -66.2268422,
            -33.2334605
          ],
          [
            -66.2270745,
            -33.2334664
          ],
          [
            -66.2272648,
            -33.2334527
          ],
          [
            -66.2275242,
            -33.2333923
          ],
          [
            -66.2277636,
            -33.2333155
          ],
          [
            -66.2283957,
            -33.2331197
          ],
          [
            -66.2286317,
            -33.2330602
          ],
          [
            -66.22884,
            -33.2330364
          ],
          [
            -66.22908,
            -33.2330292
          ],
          [
            -66.2293146,
            -33.2330438
          ],
          [
            -66.2295556,
            -33.233093
          ],
          [
            -66.2297663,
            -33.2331608
          ],
          [
            -66.2299506,
            -33.2332433
          ],
          [
            -66.2301572,
            -33.2333588
          ],
          [
            -66.2304663,
            -33.2335858
          ],
          [
            -66.2305653,
            -33.2336585
          ],
          [
            -66.2315874,
            -33.234435
          ],
          [
            -66.231996,
            -33.2347572
          ],
          [
            -66.2322399,
            -33.2349612
          ],
          [
            -66.2324446,
            -33.2351605
          ],
          [
            -66.2325316,
            -33.2352639
          ],
          [
            -66.2336259,
            -33.2365645
          ],
          [
            -66.2336931,
            -33.2366281
          ],
          [
            -66.2337648,
            -33.2366754
          ],
          [
            -66.2338474,
            -33.236708
          ],
          [
            -66.2339367,
            -33.2367275
          ],
          [
            -66.2341009,
            -33.2367372
          ],
          [
            -66.2344471,
            -33.2367138
          ],
          [
            -66.2346968,
            -33.2366819
          ],
          [
            -66.2349256,
            -33.2366354
          ],
          [
            -66.2351451,
            -33.2365625
          ],
          [
            -66.2353522,
            -33.2364635
          ],
          [
            -66.2355545,
            -33.2363553
          ],
          [
            -66.2360065,
            -33.2360976
          ],
          [
            -66.2362046,
            -33.2360043
          ],
          [
            -66.2363679,
            -33.2359442
          ],
          [
            -66.2365138,
            -33.2359066
          ],
          [
            -66.2366922,
            -33.2358768
          ],
          [
            -66.2368378,
            -33.2358706
          ],
          [
            -66.2370561,
            -33.2358737
          ],
          [
            -66.2372706,
            -33.235894
          ],
          [
            -66.2379662,
            -33.2359836
          ],
          [
            -66.2380456,
            -33.2359855
          ],
          [
            -66.2381131,
            -33.2359734
          ],
          [
            -66.2381569,
            -33.2359494
          ],
          [
            -66.2381796,
            -33.2359254
          ],
          [
            -66.2381966,
            -33.2358832
          ],
          [
            -66.2381987,
            -33.2358452
          ],
          [
            -66.2381859,
            -33.2358037
          ],
          [
            -66.2381648,
            -33.2357631
          ],
          [
            -66.238114,
            -33.2356799
          ],
          [
            -66.2380936,
            -33.2356317
          ],
          [
            -66.2380813,
            -33.23557
          ],
          [
            -66.2380867,
            -33.2355052
          ],
          [
            -66.238106,
            -33.2354459
          ],
          [
            -66.2381357,
            -33.2353974
          ],
          [
            -66.2381792,
            -33.2353477
          ],
          [
            -66.2382344,
            -33.2353054
          ],
          [
            -66.2383051,
            -33.2352654
          ],
          [
            -66.2383732,
            -33.2352474
          ],
          [
            -66.2384377,
            -33.2352411
          ],
          [
            -66.2385044,
            -33.2352441
          ],
          [
            -66.2385704,
            -33.2352604
          ],
          [
            -66.2386541,
            -33.2352854
          ],
          [
            -66.238754,
            -33.2353092
          ],
          [
            -66.2388522,
            -33.2353252
          ],
          [
            -66.2389449,
            -33.2353257
          ],
          [
            -66.2390426,
            -33.2353157
          ],
          [
            -66.2391469,
            -33.2352925
          ],
          [
            -66.23924,
            -33.2352557
          ],
          [
            -66.2393211,
            -33.2352081
          ],
          [
            -66.2393563,
            -33.2351765
          ],
          [
            -66.2393851,
            -33.2351386
          ],
          [
            -66.2394069,
            -33.2350907
          ],
          [
            -66.2394203,
            -33.2350352
          ],
          [
            -66.2394222,
            -33.2349823
          ],
          [
            -66.2394091,
            -33.2349282
          ],
          [
            -66.2393859,
            -33.234893
          ],
          [
            -66.2393484,
            -33.2348585
          ],
          [
            -66.2393008,
            -33.2348337
          ],
          [
            -66.2392191,
            -33.2348107
          ],
          [
            -66.239058,
            -33.2347786
          ],
          [
            -66.2381485,
            -33.2346343
          ],
          [
            -66.237782,
            -33.2345653
          ],
          [
            -66.2374647,
            -33.2344833
          ],
          [
            -66.2372654,
            -33.2344177
          ],
          [
            -66.2371241,
            -33.2343514
          ],
          [
            -66.2370383,
            -33.2342854
          ],
          [
            -66.2369895,
            -33.2342169
          ],
          [
            -66.2369664,
            -33.234142
          ],
          [
            -66.2369589,
            -33.2340574
          ],
          [
            -66.2369803,
            -33.2339727
          ],
          [
            -66.2370167,
            -33.2338992
          ],
          [
            -66.2370404,
            -33.2338645
          ],
          [
            -66.2371002,
            -33.2337767
          ],
          [
            -66.2372332,
            -33.2336459
          ],
          [
            -66.2374223,
            -33.2335064
          ],
          [
            -66.2376289,
            -33.2333756
          ],
          [
            -66.2386263,
            -33.2327776
          ],
          [
            -66.2387717,
            -33.2327033
          ],
          [
            -66.2389075,
            -33.2326524
          ],
          [
            -66.2390596,
            -33.2326101
          ],
          [
            -66.2392113,
            -33.2325903
          ],
          [
            -66.239519,
            -33.2325658
          ],
          [
            -66.2396835,
            -33.2325403
          ],
          [
            -66.2398202,
            -33.2325049
          ],
          [
            -66.2399396,
            -33.2324566
          ],
          [
            -66.2400273,
            -33.2324023
          ],
          [
            -66.2401953,
            -33.2322706
          ],
          [
            -66.2403794,
            -33.2320945
          ],
          [
            -66.2405508,
            -33.2318941
          ],
          [
            -66.2406784,
            -33.231699
          ],
          [
            -66.2407619,
            -33.231527
          ],
          [
            -66.2408667,
            -33.2312665
          ],
          [
            -66.2409076,
            -33.2311584
          ],
          [
            -66.2415047,
            -33.2295791
          ],
          [
            -66.2417469,
            -33.2289615
          ],
          [
            -66.2417755,
            -33.2288775
          ],
          [
            -66.2417849,
            -33.2288083
          ],
          [
            -66.2417762,
            -33.2287567
          ],
          [
            -66.2417523,
            -33.2286976
          ],
          [
            -66.2417123,
            -33.2286416
          ],
          [
            -66.2416485,
            -33.2285905
          ],
          [
            -66.2415552,
            -33.2285395
          ],
          [
            -66.2414365,
            -33.228485
          ],
          [
            -66.2406995,
            -33.2281509
          ],
          [
            -66.2405597,
            -33.2280876
          ],
          [
            -66.240338,
            -33.2279693
          ],
          [
            -66.2402021,
            -33.2278629
          ],
          [
            -66.2400905,
            -33.2277454
          ],
          [
            -66.2399964,
            -33.2276215
          ],
          [
            -66.239938,
            -33.2274828
          ],
          [
            -66.2395785,
            -33.2265644
          ],
          [
            -66.2391808,
            -33.2255878
          ],
          [
            -66.2388173,
            -33.2247113
          ],
          [
            -66.2386791,
            -33.2243968
          ],
          [
            -66.2386054,
            -33.2242506
          ],
          [
            -66.2385053,
            -33.2240933
          ],
          [
            -66.2382718,
            -33.2237594
          ],
          [
            -66.2379337,
            -33.2233199
          ],
          [
            -66.23771,
            -33.2230723
          ],
          [
            -66.2374238,
            -33.2227917
          ],
          [
            -66.2369632,
            -33.2223982
          ],
          [
            -66.2367387,
            -33.2221939
          ],
          [
            -66.2365903,
            -33.2220315
          ],
          [
            -66.2364449,
            -33.2218495
          ],
          [
            -66.2363436,
            -33.2216707
          ],
          [
            -66.2362871,
            -33.2214907
          ],
          [
            -66.2362618,
            -33.2213112
          ],
          [
            -66.236268,
            -33.2211171
          ],
          [
            -66.2362982,
            -33.2209048
          ],
          [
            -66.2363734,
            -33.2206591
          ],
          [
            -66.2363943,
            -33.2205284
          ],
          [
            -66.2363965,
            -33.2204323
          ],
          [
            -66.236383,
            -33.2203636
          ],
          [
            -66.23636,
            -33.2203134
          ],
          [
            -66.2363238,
            -33.2202497
          ],
          [
            -66.2362644,
            -33.2201886
          ],
          [
            -66.2361906,
            -33.2201361
          ],
          [
            -66.2361023,
            -33.2200931
          ],
          [
            -66.2347882,
            -33.2196813
          ],
          [
            -66.2347265,
            -33.219662
          ],
          [
            -66.2344348,
            -33.2195741
          ],
          [
            -66.2341271,
            -33.2195067
          ],
          [
            -66.2339105,
            -33.2194792
          ],
          [
            -66.2337214,
            -33.2194669
          ],
          [
            -66.2335183,
            -33.2194589
          ],
          [
            -66.2333492,
            -33.2194627
          ],
          [
            -66.2313427,
            -33.2195875
          ],
          [
            -66.2306141,
            -33.2196333
          ],
          [
            -66.230215,
            -33.2196527
          ],
          [
            -66.2301708,
            -33.2196547
          ],
          [
            -66.2280308,
            -33.2197525
          ],
          [
            -66.2277407,
            -33.2197735
          ],
          [
            -66.2276454,
            -33.2197905
          ],
          [
            -66.2275572,
            -33.2198178
          ],
          [
            -66.2274759,
            -33.2198589
          ],
          [
            -66.2274148,
            -33.2199126
          ],
          [
            -66.2273725,
            -33.219965
          ],
          [
            -66.2273391,
            -33.2200389
          ],
          [
            -66.2273133,
            -33.2201281
          ],
          [
            -66.227295,
            -33.2202618
          ],
          [
            -66.2272667,
            -33.2206039
          ],
          [
            -66.2272544,
            -33.2210772
          ],
          [
            -66.2272638,
            -33.2213275
          ],
          [
            -66.2272912,
            -33.2215554
          ],
          [
            -66.2273128,
            -33.2216443
          ],
          [
            -66.2275426,
            -33.2225028
          ],
          [
            -66.2277585,
            -33.2233605
          ],
          [
            -66.2277984,
            -33.2234927
          ],
          [
            -66.2278587,
            -33.2236824
          ],
          [
            -66.2279825,
            -33.2240774
          ],
          [
            -66.2280885,
            -33.2243885
          ],
          [
            -66.2281256,
            -33.2245272
          ],
          [
            -66.228149,
            -33.2246819
          ],
          [
            -66.2281441,
            -33.2249372
          ],
          [
            -66.2280502,
            -33.2253276
          ],
          [
            -66.2279909,
            -33.2255345
          ],
          [
            -66.2279247,
            -33.2256856
          ],
          [
            -66.2278391,
            -33.2258271
          ],
          [
            -66.2277281,
            -33.2259602
          ],
          [
            -66.2275837,
            -33.2260959
          ],
          [
            -66.2264571,
            -33.2269504
          ],
          [
            -66.2263661,
            -33.2270351
          ],
          [
            -66.2262541,
            -33.2271494
          ],
          [
            -66.226158,
            -33.2272636
          ],
          [
            -66.2260602,
            -33.2274002
          ],
          [
            -66.2259817,
            -33.2275565
          ],
          [
            -66.2259093,
            -33.2277229
          ],
          [
            -66.2258427,
            -33.2279591
          ],
          [
            -66.2258008,
            -33.228199
          ],
          [
            -66.2257625,
            -33.2288044
          ],
          [
            -66.2257425,
            -33.2293325
          ],
          [
            -66.2257449,
            -33.2294861
          ],
          [
            -66.2258095,
            -33.2305812
          ],
          [
            -66.2258661,
            -33.2315418
          ],
          [
            -66.225951,
            -33.2329831
          ],
          [
            -66.2259715,
            -33.2330942
          ],
          [
            -66.2260224,
            -33.2331985
          ],
          [
            -66.2260862,
            -33.2332751
          ],
          [
            -66.226208,
            -33.2333524
          ]
        ]
      }
    }
  ]
}
