{
  "type": "FeatureCollection",
  "bbox": [
    121.2741817,
    13.8189269,
    121.2793471,
    13.8231145
  ],
  "metadata": {
    "schemaVersion": 1,
    "trackId": "ph-batangas-racing-circuit-113961777",
    "layoutId": "batangas-racing-circuit-a",
    "license": "ODbL-1.0",
    "attribution": "© OpenStreetMap contributors",
    "closed": true,
    "geometryStatus": "draft",
    "timingStatus": "missing",
    "timingMode": "shared",
    "lengthM": 2992.2,
    "reviewedAt": null,
    "notes": [
      "Draft route hypothesis: the source cycle is the unique closest nominal-distance match within conservative timing and distance checks. Approximate OSM trace length 2992.2 m. Difference from the supplied layout distance 8.8 m. Course configuration still requires visual review."
    ]
  },
  "features": [
    {
      "type": "Feature",
      "id": "trace",
      "properties": {
        "role": "trace",
        "sourceIds": [
          "osm-network-113961777"
        ]
      },
      "geometry": {
        "type": "LineString",
        "coordinates": [
          [
            121.276288,
            13.8218594
          ],
          [
            121.2765094,
            13.8221839
          ],
          [
            121.2768312,
            13.82249
          ],
          [
            121.2771126,
            13.8226353
          ],
          [
            121.2772926,
            13.8226843
          ],
          [
            121.2775592,
            13.8226707
          ],
          [
            121.2778867,
            13.8225681
          ],
          [
            121.2781066,
            13.8224439
          ],
          [
            121.2782874,
            13.8222803
          ],
          [
            121.278436,
            13.822099
          ],
          [
            121.2784985,
            13.8218959
          ],
          [
            121.2785081,
            13.8217219
          ],
          [
            121.2784515,
            13.8215654
          ],
          [
            121.2783536,
            13.8214338
          ],
          [
            121.2781723,
            13.8212523
          ],
          [
            121.2779671,
            13.821084
          ],
          [
            121.2771547,
            13.8207303
          ],
          [
            121.276773,
            13.8205577
          ],
          [
            121.2766167,
            13.8205295
          ],
          [
            121.2764901,
            13.8205272
          ],
          [
            121.2763653,
            13.8204884
          ],
          [
            121.2762862,
            13.8204336
          ],
          [
            121.2761931,
            13.8203386
          ],
          [
            121.2759729,
            13.8201217
          ],
          [
            121.2758283,
            13.8201042
          ],
          [
            121.2756674,
            13.8201303
          ],
          [
            121.2755601,
            13.8202344
          ],
          [
            121.2755491,
            13.8203485
          ],
          [
            121.2756135,
            13.8204423
          ],
          [
            121.2762197,
            13.8208694
          ],
          [
            121.2766598,
            13.8211617
          ],
          [
            121.276901,
            13.8212601
          ],
          [
            121.2771963,
            13.8213127
          ],
          [
            121.2774162,
            13.8213648
          ],
          [
            121.2775932,
            13.8214742
          ],
          [
            121.2777971,
            13.8216565
          ],
          [
            121.2778722,
            13.8218284
          ],
          [
            121.2778505,
            13.8219998
          ],
          [
            121.2777274,
            13.8221563
          ],
          [
            121.2775983,
            13.822229
          ],
          [
            121.2773408,
            13.822255
          ],
          [
            121.2771531,
            13.8222082
          ],
          [
            121.276901,
            13.8220311
          ],
          [
            121.2765415,
            13.8216716
          ],
          [
            121.2762411,
            13.821307
          ],
          [
            121.2759729,
            13.821083
          ],
          [
            121.2756296,
            13.8208486
          ],
          [
            121.275356,
            13.820536
          ],
          [
            121.2749108,
            13.8199943
          ],
          [
            121.2742348,
            13.8193067
          ],
          [
            121.2741817,
            13.8191822
          ],
          [
            121.2741978,
            13.8190572
          ],
          [
            121.2742407,
            13.8189686
          ],
          [
            121.2743159,
            13.8189269
          ],
          [
            121.2744124,
            13.8189322
          ],
          [
            121.2755977,
            13.819401
          ],
          [
            121.2761178,
            13.8196453
          ],
          [
            121.2773059,
            13.8201795
          ],
          [
            121.2791776,
            13.8210072
          ],
          [
            121.279315,
            13.8213226
          ],
          [
            121.2793471,
            13.8214685
          ],
          [
            121.2792501,
            13.8216159
          ],
          [
            121.2791095,
            13.8218297
          ],
          [
            121.2786498,
            13.8224113
          ],
          [
            121.2783711,
            13.8227085
          ],
          [
            121.2780329,
            13.8229635
          ],
          [
            121.277711,
            13.8230937
          ],
          [
            121.2774106,
            13.8231145
          ],
          [
            121.2772499,
            13.8231044
          ],
          [
            121.2769439,
            13.8230364
          ],
          [
            121.2766864,
            13.822927
          ],
          [
            121.2763913,
            13.8227134
          ],
          [
            121.276,
            13.8223387
          ],
          [
            121.2757103,
            13.822068
          ],
          [
            121.2754848,
            13.8217081
          ],
          [
            121.2754459,
            13.8215682
          ],
          [
            121.2754689,
            13.8214482
          ],
          [
            121.2755279,
            13.8213648
          ],
          [
            121.2756202,
            13.8213252
          ],
          [
            121.2757935,
            13.8213812
          ],
          [
            121.2759265,
            13.8214974
          ],
          [
            121.276288,
            13.8218594
          ]
        ]
      }
    }
  ]
}
