{
  "type": "FeatureCollection",
  "bbox": [
    1.195033,
    51.1769017,
    1.2015346,
    51.1795104
  ],
  "metadata": {
    "schemaVersion": 1,
    "trackId": "gb-lydden-hill-3c587916",
    "layoutId": "lydden-hill",
    "license": "ODbL-1.0",
    "attribution": "© OpenStreetMap contributors",
    "closed": true,
    "geometryStatus": "draft",
    "timingStatus": "missing",
    "timingMode": "shared",
    "lengthM": 1457.9,
    "reviewedAt": null,
    "notes": [
      "Draft configuration: Full road circuit includes the northern outer loop and eastern hairpin. Source distance differs from the historical scalar distance by 151 m. Branch identity was checked against catalogue layout facts and circuit identification references. Independent source distance 1457.9 m; no coordinates are changed to match a diagram or distance. Travel direction and historical alignment remain provisional."
    ]
  },
  "features": [
    {
      "type": "Feature",
      "id": "trace",
      "properties": {
        "role": "trace",
        "sourceIds": [
          "osm-selection-234347787"
        ]
      },
      "geometry": {
        "type": "LineString",
        "coordinates": [
          [
            1.1986291,
            51.1780609
          ],
          [
            1.199085,
            51.1776301
          ],
          [
            1.199232,
            51.1775121
          ],
          [
            1.1993971,
            51.177421
          ],
          [
            1.1995646,
            51.1773506
          ],
          [
            1.1997395,
            51.1773207
          ],
          [
            1.1998993,
            51.1773417
          ],
          [
            1.2000526,
            51.1773947
          ],
          [
            1.2001574,
            51.1774787
          ],
          [
            1.2002643,
            51.1776151
          ],
          [
            1.2003658,
            51.1778864
          ],
          [
            1.200866,
            51.1793788
          ],
          [
            1.2009194,
            51.1794547
          ],
          [
            1.2009925,
            51.1794912
          ],
          [
            1.2010972,
            51.1795104
          ],
          [
            1.2012278,
            51.1795003
          ],
          [
            1.2013668,
            51.1794547
          ],
          [
            1.2014497,
            51.179398
          ],
          [
            1.2015068,
            51.1793282
          ],
          [
            1.2015346,
            51.1792407
          ],
          [
            1.2015212,
            51.1791478
          ],
          [
            1.2012765,
            51.178668
          ],
          [
            1.2008435,
            51.1778198
          ],
          [
            1.2007478,
            51.1776118
          ],
          [
            1.2006133,
            51.1773849
          ],
          [
            1.2004969,
            51.1772425
          ],
          [
            1.2004236,
            51.1771687
          ],
          [
            1.2002673,
            51.1770548
          ],
          [
            1.2000961,
            51.1769776
          ],
          [
            1.1999595,
            51.176921
          ],
          [
            1.1997926,
            51.1769017
          ],
          [
            1.1996071,
            51.1769207
          ],
          [
            1.1993372,
            51.1769949
          ],
          [
            1.1982158,
            51.1773575
          ],
          [
            1.1978516,
            51.1774729
          ],
          [
            1.1976301,
            51.1775399
          ],
          [
            1.1972988,
            51.1776357
          ],
          [
            1.1968721,
            51.1777386
          ],
          [
            1.1966077,
            51.1777842
          ],
          [
            1.1960197,
            51.1778442
          ],
          [
            1.1956322,
            51.1778935
          ],
          [
            1.1954233,
            51.1779581
          ],
          [
            1.1952621,
            51.1780357
          ],
          [
            1.1951301,
            51.1781584
          ],
          [
            1.1950634,
            51.1782559
          ],
          [
            1.195033,
            51.1783611
          ],
          [
            1.1950421,
            51.178472
          ],
          [
            1.1950867,
            51.1785763
          ],
          [
            1.1952096,
            51.1787081
          ],
          [
            1.1953733,
            51.1788438
          ],
          [
            1.195541,
            51.1789373
          ],
          [
            1.1957377,
            51.179006
          ],
          [
            1.1959276,
            51.1790395
          ],
          [
            1.1961311,
            51.1790543
          ],
          [
            1.196399,
            51.17905
          ],
          [
            1.1965078,
            51.1790395
          ],
          [
            1.1966711,
            51.1790238
          ],
          [
            1.1969768,
            51.1789742
          ],
          [
            1.1973003,
            51.178898
          ],
          [
            1.1975731,
            51.1788038
          ],
          [
            1.1977776,
            51.1787083
          ],
          [
            1.1979931,
            51.1785647
          ],
          [
            1.1982525,
            51.1783703
          ],
          [
            1.1985771,
            51.1781086
          ],
          [
            1.1986291,
            51.1780609
          ]
        ]
      }
    }
  ]
}
