{
  "type": "FeatureCollection",
  "bbox": [
    -58.4652598,
    -34.6981231,
    -58.4462826,
    -34.6826674
  ],
  "metadata": {
    "schemaVersion": 1,
    "trackId": "ar-autodromo-oscar-y-juan-galvez-48743061",
    "layoutId": "main",
    "license": "ODbL-1.0",
    "attribution": "© OpenStreetMap contributors",
    "closed": true,
    "geometryStatus": "draft",
    "timingStatus": "missing",
    "timingMode": "shared",
    "lengthM": 7489.7,
    "reviewedAt": null,
    "notes": [
      "Connected OSM course candidate. The selected loop is the longest simple source-node cycle after explicit exclusions; its association with a named circuit configuration requires review.",
      "Source way order and shared node IDs are retained. No nearby endpoints are joined and no Racelogic boundaries are read.",
      "Some source ways lack one-way direction tags. Travel direction is provisional."
    ]
  },
  "features": [
    {
      "type": "Feature",
      "id": "trace",
      "properties": {
        "role": "trace",
        "sourceIds": [
          "osm-snapshot"
        ]
      },
      "geometry": {
        "type": "LineString",
        "coordinates": [
          [
            -58.4633114,
            -34.6979401
          ],
          [
            -58.4636707,
            -34.6979834
          ],
          [
            -58.4642685,
            -34.6980501
          ],
          [
            -58.4648474,
            -34.6981138
          ],
          [
            -58.4649949,
            -34.6981231
          ],
          [
            -58.4650824,
            -34.6981067
          ],
          [
            -58.465159,
            -34.6980587
          ],
          [
            -58.4652079,
            -34.6980068
          ],
          [
            -58.4652433,
            -34.6979545
          ],
          [
            -58.4652583,
            -34.6978845
          ],
          [
            -58.4652598,
            -34.6978082
          ],
          [
            -58.4652398,
            -34.6977445
          ],
          [
            -58.4652097,
            -34.6976887
          ],
          [
            -58.4651646,
            -34.697636
          ],
          [
            -58.4650701,
            -34.6975678
          ],
          [
            -58.464964,
            -34.6975161
          ],
          [
            -58.4648178,
            -34.6974441
          ],
          [
            -58.4647236,
            -34.6973978
          ],
          [
            -58.4645825,
            -34.6974882
          ],
          [
            -58.4644967,
            -34.6975237
          ],
          [
            -58.4644011,
            -34.6975374
          ],
          [
            -58.4642989,
            -34.6975272
          ],
          [
            -58.4641808,
            -34.6974798
          ],
          [
            -58.4640725,
            -34.697415
          ],
          [
            -58.4638335,
            -34.6972177
          ],
          [
            -58.4637305,
            -34.6970996
          ],
          [
            -58.4633785,
            -34.6966876
          ],
          [
            -58.4632696,
            -34.6965697
          ],
          [
            -58.4629846,
            -34.6962289
          ],
          [
            -58.4616652,
            -34.6945638
          ],
          [
            -58.4599772,
            -34.6924833
          ],
          [
            -58.459693,
            -34.692117
          ],
          [
            -58.4595028,
            -34.6918991
          ],
          [
            -58.459353,
            -34.691738
          ],
          [
            -58.4591854,
            -34.6915717
          ],
          [
            -58.4590458,
            -34.6914497
          ],
          [
            -58.4589399,
            -34.6913594
          ],
          [
            -58.4588176,
            -34.6912686
          ],
          [
            -58.4586899,
            -34.6911901
          ],
          [
            -58.4585764,
            -34.6911342
          ],
          [
            -58.4584197,
            -34.6910726
          ],
          [
            -58.4582506,
            -34.6910257
          ],
          [
            -58.4580819,
            -34.6909929
          ],
          [
            -58.4578807,
            -34.6909738
          ],
          [
            -58.4576678,
            -34.6909658
          ],
          [
            -58.4574948,
            -34.6909649
          ],
          [
            -58.4572182,
            -34.6910244
          ],
          [
            -58.4569012,
            -34.6910294
          ],
          [
            -58.4565157,
            -34.6910248
          ],
          [
            -58.4564682,
            -34.6910214
          ],
          [
            -58.456426,
            -34.6910035
          ],
          [
            -58.4563874,
            -34.6909656
          ],
          [
            -58.4561578,
            -34.6906873
          ],
          [
            -58.4560311,
            -34.6905994
          ],
          [
            -58.4559264,
            -34.6905035
          ],
          [
            -58.455842,
            -34.6904123
          ],
          [
            -58.4557708,
            -34.6903132
          ],
          [
            -58.4520998,
            -34.6838631
          ],
          [
            -58.4519649,
            -34.6836353
          ],
          [
            -58.4518524,
            -34.68349
          ],
          [
            -58.4517302,
            -34.6833749
          ],
          [
            -58.4515833,
            -34.6832507
          ],
          [
            -58.4514444,
            -34.683151
          ],
          [
            -58.4512704,
            -34.6830474
          ],
          [
            -58.4510865,
            -34.682955
          ],
          [
            -58.4509003,
            -34.6828773
          ],
          [
            -58.4507703,
            -34.6828276
          ],
          [
            -58.4506332,
            -34.6827836
          ],
          [
            -58.4504611,
            -34.68274
          ],
          [
            -58.4502936,
            -34.6827117
          ],
          [
            -58.4501039,
            -34.6826855
          ],
          [
            -58.4499049,
            -34.6826688
          ],
          [
            -58.4496763,
            -34.6826674
          ],
          [
            -58.4494149,
            -34.6826774
          ],
          [
            -58.4492004,
            -34.6827045
          ],
          [
            -58.4489602,
            -34.6827413
          ],
          [
            -58.4487132,
            -34.6827975
          ],
          [
            -58.4484485,
            -34.6828726
          ],
          [
            -58.4482032,
            -34.6829558
          ],
          [
            -58.4479562,
            -34.6830492
          ],
          [
            -58.4477181,
            -34.6831521
          ],
          [
            -58.4474836,
            -34.6832623
          ],
          [
            -58.4473634,
            -34.6833251
          ],
          [
            -58.4472459,
            -34.6833878
          ],
          [
            -58.4471339,
            -34.6834561
          ],
          [
            -58.4470236,
            -34.6835389
          ],
          [
            -58.4468676,
            -34.6836834
          ],
          [
            -58.4467301,
            -34.6838457
          ],
          [
            -58.4465939,
            -34.6840247
          ],
          [
            -58.4464811,
            -34.6842094
          ],
          [
            -58.446405,
            -34.6843858
          ],
          [
            -58.4463453,
            -34.6845641
          ],
          [
            -58.4463006,
            -34.6847534
          ],
          [
            -58.4462826,
            -34.684962
          ],
          [
            -58.4462933,
            -34.6851669
          ],
          [
            -58.4463271,
            -34.6853511
          ],
          [
            -58.4463959,
            -34.6855875
          ],
          [
            -58.4464541,
            -34.6857202
          ],
          [
            -58.4465147,
            -34.6858346
          ],
          [
            -58.4466347,
            -34.6859912
          ],
          [
            -58.4467641,
            -34.6861477
          ],
          [
            -58.4543354,
            -34.6951399
          ],
          [
            -58.4544775,
            -34.6953043
          ],
          [
            -58.4546064,
            -34.6954156
          ],
          [
            -58.4546619,
            -34.6954452
          ],
          [
            -58.4547604,
            -34.6954881
          ],
          [
            -58.4549319,
            -34.695526
          ],
          [
            -58.4550873,
            -34.6955372
          ],
          [
            -58.4556349,
            -34.6955378
          ],
          [
            -58.4557932,
            -34.6955649
          ],
          [
            -58.4559227,
            -34.6956206
          ],
          [
            -58.4560294,
            -34.6956874
          ],
          [
            -58.4561006,
            -34.6957465
          ],
          [
            -58.4561564,
            -34.6958132
          ],
          [
            -58.4564568,
            -34.6963088
          ],
          [
            -58.4565923,
            -34.6965258
          ],
          [
            -58.4567952,
            -34.6966858
          ],
          [
            -58.4567592,
            -34.6966443
          ],
          [
            -58.4566821,
            -34.6965241
          ],
          [
            -58.4566126,
            -34.6964037
          ],
          [
            -58.4565541,
            -34.6962287
          ],
          [
            -58.456512,
            -34.6960182
          ],
          [
            -58.4560231,
            -34.6923261
          ],
          [
            -58.4560266,
            -34.692187
          ],
          [
            -58.4560774,
            -34.6920555
          ],
          [
            -58.4561629,
            -34.6919323
          ],
          [
            -58.4562667,
            -34.6918409
          ],
          [
            -58.4563943,
            -34.6917613
          ],
          [
            -58.4565194,
            -34.6917093
          ],
          [
            -58.4566495,
            -34.6916823
          ],
          [
            -58.4567966,
            -34.6916683
          ],
          [
            -58.4569423,
            -34.6916806
          ],
          [
            -58.457099,
            -34.6917224
          ],
          [
            -58.4572247,
            -34.6917804
          ],
          [
            -58.4573311,
            -34.6918522
          ],
          [
            -58.4574073,
            -34.691925
          ],
          [
            -58.4574613,
            -34.6919955
          ],
          [
            -58.457496,
            -34.6920477
          ],
          [
            -58.457528,
            -34.6921187
          ],
          [
            -58.4575458,
            -34.692193
          ],
          [
            -58.4576008,
            -34.6926503
          ],
          [
            -58.4576282,
            -34.6928888
          ],
          [
            -58.4576148,
            -34.6930243
          ],
          [
            -58.4575565,
            -34.6931985
          ],
          [
            -58.457504,
            -34.6933027
          ],
          [
            -58.4574429,
            -34.693402
          ],
          [
            -58.4574083,
            -34.6934802
          ],
          [
            -58.4573817,
            -34.6935575
          ],
          [
            -58.4573659,
            -34.6936335
          ],
          [
            -58.4573618,
            -34.6937351
          ],
          [
            -58.4573776,
            -34.693828
          ],
          [
            -58.4574082,
            -34.6939148
          ],
          [
            -58.4574608,
            -34.6940031
          ],
          [
            -58.4575238,
            -34.6940825
          ],
          [
            -58.4576277,
            -34.694178
          ],
          [
            -58.45777,
            -34.6942621
          ],
          [
            -58.4593804,
            -34.6949448
          ],
          [
            -58.4595066,
            -34.6949937
          ],
          [
            -58.4596422,
            -34.6950065
          ],
          [
            -58.4597721,
            -34.6949829
          ],
          [
            -58.4598777,
            -34.6949407
          ],
          [
            -58.4599664,
            -34.69488
          ],
          [
            -58.4600301,
            -34.6947923
          ],
          [
            -58.4600673,
            -34.694688
          ],
          [
            -58.4600616,
            -34.6945973
          ],
          [
            -58.4600336,
            -34.6945249
          ],
          [
            -58.459972,
            -34.6944192
          ],
          [
            -58.4601083,
            -34.6945681
          ],
          [
            -58.460182,
            -34.6946875
          ],
          [
            -58.4602239,
            -34.6947999
          ],
          [
            -58.4602489,
            -34.6949232
          ],
          [
            -58.46025,
            -34.6950634
          ],
          [
            -58.4602363,
            -34.6951755
          ],
          [
            -58.4602071,
            -34.6952748
          ],
          [
            -58.4601648,
            -34.6953704
          ],
          [
            -58.4601251,
            -34.6954726
          ],
          [
            -58.4601139,
            -34.6955421
          ],
          [
            -58.4601124,
            -34.6956131
          ],
          [
            -58.4601217,
            -34.6956816
          ],
          [
            -58.4601469,
            -34.6957486
          ],
          [
            -58.4601909,
            -34.6958304
          ],
          [
            -58.4602513,
            -34.6959106
          ],
          [
            -58.4603192,
            -34.6959732
          ],
          [
            -58.4603978,
            -34.696027
          ],
          [
            -58.458381,
            -34.6951425
          ],
          [
            -58.4582956,
            -34.6951032
          ],
          [
            -58.4582041,
            -34.695078
          ],
          [
            -58.4581343,
            -34.6950662
          ],
          [
            -58.4580629,
            -34.6950633
          ],
          [
            -58.4579947,
            -34.6950698
          ],
          [
            -58.4579211,
            -34.6950839
          ],
          [
            -58.4578654,
            -34.6951022
          ],
          [
            -58.4578134,
            -34.6951258
          ],
          [
            -58.457769,
            -34.6951543
          ],
          [
            -58.4577232,
            -34.6951862
          ],
          [
            -58.457688,
            -34.6952186
          ],
          [
            -58.457661,
            -34.6952531
          ],
          [
            -58.4576092,
            -34.695341
          ],
          [
            -58.4575871,
            -34.6954213
          ],
          [
            -58.4575806,
            -34.6955125
          ],
          [
            -58.4575853,
            -34.6955771
          ],
          [
            -58.4576152,
            -34.6958872
          ],
          [
            -58.4576306,
            -34.6960812
          ],
          [
            -58.4576406,
            -34.6961519
          ],
          [
            -58.4576595,
            -34.6962227
          ],
          [
            -58.4576905,
            -34.6962874
          ],
          [
            -58.4577339,
            -34.696352
          ],
          [
            -58.4577908,
            -34.6964117
          ],
          [
            -58.4578636,
            -34.6964671
          ],
          [
            -58.4579215,
            -34.6964929
          ],
          [
            -58.4579882,
            -34.6965172
          ],
          [
            -58.458061,
            -34.6965351
          ],
          [
            -58.4581373,
            -34.6965456
          ],
          [
            -58.4583349,
            -34.6965567
          ],
          [
            -58.4585581,
            -34.6965692
          ],
          [
            -58.4586439,
            -34.6965773
          ],
          [
            -58.458723,
            -34.6965925
          ],
          [
            -58.4587911,
            -34.696613
          ],
          [
            -58.4588538,
            -34.696642
          ],
          [
            -58.4589406,
            -34.6967117
          ],
          [
            -58.4589841,
            -34.696748
          ],
          [
            -58.4590245,
            -34.6967869
          ],
          [
            -58.4590674,
            -34.6968198
          ],
          [
            -58.4591197,
            -34.6968515
          ],
          [
            -58.4591906,
            -34.696878
          ],
          [
            -58.4592691,
            -34.6968995
          ],
          [
            -58.4596033,
            -34.696936
          ],
          [
            -58.4598857,
            -34.6969623
          ],
          [
            -58.4599788,
            -34.6969736
          ],
          [
            -58.4600638,
            -34.6969953
          ],
          [
            -58.46014,
            -34.6970315
          ],
          [
            -58.4601956,
            -34.6970734
          ],
          [
            -58.4602407,
            -34.697124
          ],
          [
            -58.4602702,
            -34.6971788
          ],
          [
            -58.4602838,
            -34.6972408
          ],
          [
            -58.4602837,
            -34.6972976
          ],
          [
            -58.4602731,
            -34.6973543
          ],
          [
            -58.4602519,
            -34.6973957
          ],
          [
            -58.460221,
            -34.6974403
          ],
          [
            -58.4601644,
            -34.6974856
          ],
          [
            -58.4600842,
            -34.6975233
          ],
          [
            -58.4599961,
            -34.6975429
          ],
          [
            -58.4598658,
            -34.6975524
          ],
          [
            -58.461779,
            -34.6977686
          ],
          [
            -58.4616348,
            -34.6977095
          ],
          [
            -58.4615006,
            -34.6976304
          ],
          [
            -58.4613566,
            -34.6975184
          ],
          [
            -58.4612263,
            -34.6973974
          ],
          [
            -58.4610226,
            -34.6971895
          ],
          [
            -58.4609787,
            -34.6971113
          ],
          [
            -58.4609672,
            -34.697052
          ],
          [
            -58.4609879,
            -34.6969961
          ],
          [
            -58.461033,
            -34.6969415
          ],
          [
            -58.4611016,
            -34.6968989
          ],
          [
            -58.4612578,
            -34.6968162
          ],
          [
            -58.4613439,
            -34.6967494
          ],
          [
            -58.4613875,
            -34.6966865
          ],
          [
            -58.4614068,
            -34.696624
          ],
          [
            -58.4613865,
            -34.69654
          ],
          [
            -58.4613449,
            -34.6964802
          ],
          [
            -58.4612587,
            -34.6963962
          ],
          [
            -58.4620775,
            -34.6967549
          ],
          [
            -58.4622405,
            -34.6968385
          ],
          [
            -58.4623505,
            -34.696916
          ],
          [
            -58.4624282,
            -34.6969838
          ],
          [
            -58.4625002,
            -34.697072
          ],
          [
            -58.4625654,
            -34.6971627
          ],
          [
            -58.4626192,
            -34.6972776
          ],
          [
            -58.4626716,
            -34.6974311
          ],
          [
            -58.4627561,
            -34.6975674
          ],
          [
            -58.4628428,
            -34.6976706
          ],
          [
            -58.4629404,
            -34.697753
          ],
          [
            -58.463025,
            -34.6978158
          ],
          [
            -58.4631076,
            -34.697867
          ],
          [
            -58.4632074,
            -34.697906
          ],
          [
            -58.4633114,
            -34.6979401
          ]
        ]
      }
    }
  ]
}
