{
  "type": "FeatureCollection",
  "bbox": [
    -58.4652598,
    -34.6981231,
    -58.4560231,
    -34.6909649
  ],
  "metadata": {
    "schemaVersion": 1,
    "trackId": "ar-autodromo-oscar-y-juan-galvez-48743061",
    "layoutId": "oscar-and-juan-circuit-no-7",
    "license": "ODbL-1.0",
    "attribution": "© OpenStreetMap contributors",
    "closed": true,
    "geometryStatus": "draft",
    "timingStatus": "missing",
    "timingMode": "shared",
    "lengthM": 2622.4,
    "reviewedAt": null,
    "notes": [
      "Draft configuration: Broad triangular loop with direct southern straight and the main Horquilla return; excludes the northern internal notch and southern mixed section. Branch identity was checked against catalogue layout facts and circuit identification references. Independent source distance 2622.4 m; no coordinates are changed to match a diagram or distance. Travel direction and historical alignment remain provisional."
    ]
  },
  "features": [
    {
      "type": "Feature",
      "id": "trace",
      "properties": {
        "role": "trace",
        "sourceIds": [
          "osm-selection-48743061"
        ]
      },
      "geometry": {
        "type": "LineString",
        "coordinates": [
          [
            -58.457974,
            -34.6973367
          ],
          [
            -58.4577388,
            -34.6972863
          ],
          [
            -58.4575279,
            -34.6972098
          ],
          [
            -58.4573367,
            -34.697127
          ],
          [
            -58.4571857,
            -34.6970402
          ],
          [
            -58.4570446,
            -34.6969363
          ],
          [
            -58.4568997,
            -34.6968063
          ],
          [
            -58.4567952,
            -34.6966858
          ],
          [
            -58.4567592,
            -34.6966443
          ],
          [
            -58.4566821,
            -34.6965241
          ],
          [
            -58.4566126,
            -34.6964037
          ],
          [
            -58.4565541,
            -34.6962287
          ],
          [
            -58.456512,
            -34.6960182
          ],
          [
            -58.4560231,
            -34.6923261
          ],
          [
            -58.4560266,
            -34.692187
          ],
          [
            -58.4560488,
            -34.6920303
          ],
          [
            -58.4560895,
            -34.6918762
          ],
          [
            -58.4561616,
            -34.691712
          ],
          [
            -58.4562788,
            -34.6915507
          ],
          [
            -58.4564021,
            -34.6914228
          ],
          [
            -58.4565783,
            -34.6912875
          ],
          [
            -58.4567562,
            -34.6911846
          ],
          [
            -58.45696,
            -34.6911008
          ],
          [
            -58.4572182,
            -34.6910244
          ],
          [
            -58.4574948,
            -34.6909649
          ],
          [
            -58.4576678,
            -34.6909658
          ],
          [
            -58.4578807,
            -34.6909738
          ],
          [
            -58.4580819,
            -34.6909929
          ],
          [
            -58.4582506,
            -34.6910257
          ],
          [
            -58.4584197,
            -34.6910726
          ],
          [
            -58.4585764,
            -34.6911342
          ],
          [
            -58.4586899,
            -34.6911901
          ],
          [
            -58.4588176,
            -34.6912686
          ],
          [
            -58.4589399,
            -34.6913594
          ],
          [
            -58.4590458,
            -34.6914497
          ],
          [
            -58.4591854,
            -34.6915717
          ],
          [
            -58.459353,
            -34.691738
          ],
          [
            -58.4595028,
            -34.6918991
          ],
          [
            -58.459693,
            -34.692117
          ],
          [
            -58.4599772,
            -34.6924833
          ],
          [
            -58.4616652,
            -34.6945638
          ],
          [
            -58.4629846,
            -34.6962289
          ],
          [
            -58.4632696,
            -34.6965697
          ],
          [
            -58.4633785,
            -34.6966876
          ],
          [
            -58.4635204,
            -34.696794
          ],
          [
            -58.4637182,
            -34.6969017
          ],
          [
            -58.4640829,
            -34.6970823
          ],
          [
            -58.4644522,
            -34.6972647
          ],
          [
            -58.4647236,
            -34.6973978
          ],
          [
            -58.4648178,
            -34.6974441
          ],
          [
            -58.464964,
            -34.6975161
          ],
          [
            -58.4650701,
            -34.6975678
          ],
          [
            -58.4651646,
            -34.697636
          ],
          [
            -58.4652097,
            -34.6976887
          ],
          [
            -58.4652398,
            -34.6977445
          ],
          [
            -58.4652598,
            -34.6978082
          ],
          [
            -58.4652583,
            -34.6978845
          ],
          [
            -58.4652433,
            -34.6979545
          ],
          [
            -58.4652079,
            -34.6980068
          ],
          [
            -58.465159,
            -34.6980587
          ],
          [
            -58.4650824,
            -34.6981067
          ],
          [
            -58.4649949,
            -34.6981231
          ],
          [
            -58.4648474,
            -34.6981138
          ],
          [
            -58.4642685,
            -34.6980501
          ],
          [
            -58.4636707,
            -34.6979834
          ],
          [
            -58.4633114,
            -34.6979401
          ],
          [
            -58.461779,
            -34.6977686
          ],
          [
            -58.4598658,
            -34.6975524
          ],
          [
            -58.4582097,
            -34.6973687
          ],
          [
            -58.457974,
            -34.6973367
          ]
        ]
      }
    }
  ]
}
