{
  "type": "FeatureCollection",
  "bbox": [
    -58.4652598,
    -34.6981231,
    -58.4462826,
    -34.6826674
  ],
  "metadata": {
    "schemaVersion": 1,
    "trackId": "ar-autodromo-oscar-y-juan-galvez-48743061",
    "layoutId": "oscar-and-juan-no-12-chicane",
    "license": "ODbL-1.0",
    "attribution": "© OpenStreetMap contributors",
    "closed": true,
    "geometryStatus": "draft",
    "timingStatus": "missing",
    "timingMode": "shared",
    "lengthM": 5279.2,
    "reviewedAt": null,
    "notes": [
      "Draft configuration: Lake loop with direct southern return and S del Ciervo chicane on ways 48743061 and 48743062. Branch identity was checked against catalogue layout facts and circuit identification references. Independent source distance 5279.2 m; no coordinates are changed to match a diagram or distance. Travel direction and historical alignment remain provisional."
    ]
  },
  "features": [
    {
      "type": "Feature",
      "id": "trace",
      "properties": {
        "role": "trace",
        "sourceIds": [
          "osm-selection-48743061"
        ]
      },
      "geometry": {
        "type": "LineString",
        "coordinates": [
          [
            -58.457974,
            -34.6973367
          ],
          [
            -58.4577388,
            -34.6972863
          ],
          [
            -58.4575279,
            -34.6972098
          ],
          [
            -58.4573367,
            -34.697127
          ],
          [
            -58.4571857,
            -34.6970402
          ],
          [
            -58.4570446,
            -34.6969363
          ],
          [
            -58.4568997,
            -34.6968063
          ],
          [
            -58.4567952,
            -34.6966858
          ],
          [
            -58.4565923,
            -34.6965258
          ],
          [
            -58.4564568,
            -34.6963088
          ],
          [
            -58.4561564,
            -34.6958132
          ],
          [
            -58.4561006,
            -34.6957465
          ],
          [
            -58.4560294,
            -34.6956874
          ],
          [
            -58.4559227,
            -34.6956206
          ],
          [
            -58.4557932,
            -34.6955649
          ],
          [
            -58.4556349,
            -34.6955378
          ],
          [
            -58.4550873,
            -34.6955372
          ],
          [
            -58.4549319,
            -34.695526
          ],
          [
            -58.4547604,
            -34.6954881
          ],
          [
            -58.4546619,
            -34.6954452
          ],
          [
            -58.4546064,
            -34.6954156
          ],
          [
            -58.4544775,
            -34.6953043
          ],
          [
            -58.4543354,
            -34.6951399
          ],
          [
            -58.4467641,
            -34.6861477
          ],
          [
            -58.4466347,
            -34.6859912
          ],
          [
            -58.4465147,
            -34.6858346
          ],
          [
            -58.4464541,
            -34.6857202
          ],
          [
            -58.4463959,
            -34.6855875
          ],
          [
            -58.4463271,
            -34.6853511
          ],
          [
            -58.4462933,
            -34.6851669
          ],
          [
            -58.4462826,
            -34.684962
          ],
          [
            -58.4463006,
            -34.6847534
          ],
          [
            -58.4463453,
            -34.6845641
          ],
          [
            -58.446405,
            -34.6843858
          ],
          [
            -58.4464811,
            -34.6842094
          ],
          [
            -58.4465939,
            -34.6840247
          ],
          [
            -58.4467301,
            -34.6838457
          ],
          [
            -58.4468676,
            -34.6836834
          ],
          [
            -58.4470236,
            -34.6835389
          ],
          [
            -58.4471339,
            -34.6834561
          ],
          [
            -58.4472459,
            -34.6833878
          ],
          [
            -58.4473634,
            -34.6833251
          ],
          [
            -58.4474836,
            -34.6832623
          ],
          [
            -58.4477181,
            -34.6831521
          ],
          [
            -58.4479562,
            -34.6830492
          ],
          [
            -58.4482032,
            -34.6829558
          ],
          [
            -58.4484485,
            -34.6828726
          ],
          [
            -58.4487132,
            -34.6827975
          ],
          [
            -58.4489602,
            -34.6827413
          ],
          [
            -58.4492004,
            -34.6827045
          ],
          [
            -58.4494149,
            -34.6826774
          ],
          [
            -58.4496763,
            -34.6826674
          ],
          [
            -58.4499049,
            -34.6826688
          ],
          [
            -58.4501039,
            -34.6826855
          ],
          [
            -58.4502936,
            -34.6827117
          ],
          [
            -58.4504611,
            -34.68274
          ],
          [
            -58.4506332,
            -34.6827836
          ],
          [
            -58.4507703,
            -34.6828276
          ],
          [
            -58.4509003,
            -34.6828773
          ],
          [
            -58.4510865,
            -34.682955
          ],
          [
            -58.4512704,
            -34.6830474
          ],
          [
            -58.4514444,
            -34.683151
          ],
          [
            -58.4515833,
            -34.6832507
          ],
          [
            -58.4517302,
            -34.6833749
          ],
          [
            -58.4518524,
            -34.68349
          ],
          [
            -58.4519649,
            -34.6836353
          ],
          [
            -58.4520998,
            -34.6838631
          ],
          [
            -58.4557708,
            -34.6903132
          ],
          [
            -58.455842,
            -34.6904123
          ],
          [
            -58.4559264,
            -34.6905035
          ],
          [
            -58.4560311,
            -34.6905994
          ],
          [
            -58.4561578,
            -34.6906873
          ],
          [
            -58.4563874,
            -34.6909656
          ],
          [
            -58.456426,
            -34.6910035
          ],
          [
            -58.4564682,
            -34.6910214
          ],
          [
            -58.4565157,
            -34.6910248
          ],
          [
            -58.4569012,
            -34.6910294
          ],
          [
            -58.4572182,
            -34.6910244
          ],
          [
            -58.4574948,
            -34.6909649
          ],
          [
            -58.4576678,
            -34.6909658
          ],
          [
            -58.4578807,
            -34.6909738
          ],
          [
            -58.4580819,
            -34.6909929
          ],
          [
            -58.4582506,
            -34.6910257
          ],
          [
            -58.4584197,
            -34.6910726
          ],
          [
            -58.4585764,
            -34.6911342
          ],
          [
            -58.4586899,
            -34.6911901
          ],
          [
            -58.4588176,
            -34.6912686
          ],
          [
            -58.4589399,
            -34.6913594
          ],
          [
            -58.4590458,
            -34.6914497
          ],
          [
            -58.4591854,
            -34.6915717
          ],
          [
            -58.459353,
            -34.691738
          ],
          [
            -58.4595028,
            -34.6918991
          ],
          [
            -58.459693,
            -34.692117
          ],
          [
            -58.4599772,
            -34.6924833
          ],
          [
            -58.4616652,
            -34.6945638
          ],
          [
            -58.4629846,
            -34.6962289
          ],
          [
            -58.4632696,
            -34.6965697
          ],
          [
            -58.4633785,
            -34.6966876
          ],
          [
            -58.4635204,
            -34.696794
          ],
          [
            -58.4637182,
            -34.6969017
          ],
          [
            -58.4640829,
            -34.6970823
          ],
          [
            -58.4644522,
            -34.6972647
          ],
          [
            -58.4647236,
            -34.6973978
          ],
          [
            -58.4648178,
            -34.6974441
          ],
          [
            -58.464964,
            -34.6975161
          ],
          [
            -58.4650701,
            -34.6975678
          ],
          [
            -58.4651646,
            -34.697636
          ],
          [
            -58.4652097,
            -34.6976887
          ],
          [
            -58.4652398,
            -34.6977445
          ],
          [
            -58.4652598,
            -34.6978082
          ],
          [
            -58.4652583,
            -34.6978845
          ],
          [
            -58.4652433,
            -34.6979545
          ],
          [
            -58.4652079,
            -34.6980068
          ],
          [
            -58.465159,
            -34.6980587
          ],
          [
            -58.4650824,
            -34.6981067
          ],
          [
            -58.4649949,
            -34.6981231
          ],
          [
            -58.4648474,
            -34.6981138
          ],
          [
            -58.4642685,
            -34.6980501
          ],
          [
            -58.4636707,
            -34.6979834
          ],
          [
            -58.4633114,
            -34.6979401
          ],
          [
            -58.461779,
            -34.6977686
          ],
          [
            -58.4598658,
            -34.6975524
          ],
          [
            -58.4582097,
            -34.6973687
          ],
          [
            -58.457974,
            -34.6973367
          ]
        ]
      }
    }
  ]
}
