{
  "type": "FeatureCollection",
  "bbox": [
    149.9798871,
    -34.7604843,
    149.982817,
    -34.7578435
  ],
  "metadata": {
    "schemaVersion": 1,
    "trackId": "au-marulan-pheasant-wood-dcdb4abd",
    "layoutId": "marulan-pheasant-wood",
    "license": "ODbL-1.0",
    "attribution": "© OpenStreetMap contributors",
    "closed": true,
    "geometryStatus": "draft",
    "timingStatus": "missing",
    "timingMode": "shared",
    "lengthM": 1418,
    "reviewedAt": null,
    "notes": [
      "Draft configuration: Full configuration uses the direct northwestern straight, central hairpin and eastern loop; northern extended detour excluded. Branch identity was checked against catalogue layout facts and circuit identification references. Independent source distance 1418.0 m; no coordinates are changed to match a diagram or distance. Travel direction and historical alignment remain provisional."
    ]
  },
  "features": [
    {
      "type": "Feature",
      "id": "trace",
      "properties": {
        "role": "trace",
        "sourceIds": [
          "osm-selection-360680586"
        ]
      },
      "geometry": {
        "type": "LineString",
        "coordinates": [
          [
            149.9803325,
            -34.760041
          ],
          [
            149.9803066,
            -34.7599488
          ],
          [
            149.9803066,
            -34.7598375
          ],
          [
            149.9803388,
            -34.7597368
          ],
          [
            149.9804098,
            -34.7595936
          ],
          [
            149.9804937,
            -34.7594876
          ],
          [
            149.9805387,
            -34.7594565
          ],
          [
            149.9806163,
            -34.7594027
          ],
          [
            149.9806938,
            -34.7593815
          ],
          [
            149.9808228,
            -34.7593921
          ],
          [
            149.9809196,
            -34.7594292
          ],
          [
            149.9810164,
            -34.7595194
          ],
          [
            149.9811971,
            -34.759689
          ],
          [
            149.9813198,
            -34.7598004
          ],
          [
            149.9815456,
            -34.7598693
          ],
          [
            149.9819587,
            -34.7599329
          ],
          [
            149.9822168,
            -34.75997
          ],
          [
            149.9823846,
            -34.7599594
          ],
          [
            149.9824943,
            -34.7599276
          ],
          [
            149.9825782,
            -34.7598746
          ],
          [
            149.9826723,
            -34.7597547
          ],
          [
            149.9827524,
            -34.7595194
          ],
          [
            149.982817,
            -34.7592437
          ],
          [
            149.9827847,
            -34.7590952
          ],
          [
            149.9827266,
            -34.759021
          ],
          [
            149.9826427,
            -34.7589998
          ],
          [
            149.9825459,
            -34.7589998
          ],
          [
            149.9824362,
            -34.7590634
          ],
          [
            149.9822362,
            -34.7592119
          ],
          [
            149.9820684,
            -34.7593656
          ],
          [
            149.9819264,
            -34.7594982
          ],
          [
            149.9817909,
            -34.7595671
          ],
          [
            149.9815327,
            -34.7596095
          ],
          [
            149.9814037,
            -34.7595883
          ],
          [
            149.9812326,
            -34.7594584
          ],
          [
            149.9810874,
            -34.7593179
          ],
          [
            149.9809325,
            -34.7591217
          ],
          [
            149.9808164,
            -34.758915
          ],
          [
            149.9808164,
            -34.7587665
          ],
          [
            149.9808422,
            -34.7586233
          ],
          [
            149.9809261,
            -34.7585014
          ],
          [
            149.9810229,
            -34.7584113
          ],
          [
            149.9811584,
            -34.7583954
          ],
          [
            149.9812875,
            -34.7584272
          ],
          [
            149.9813649,
            -34.7585014
          ],
          [
            149.9813972,
            -34.7585915
          ],
          [
            149.9813972,
            -34.7587612
          ],
          [
            149.981352,
            -34.7590687
          ],
          [
            149.9813972,
            -34.7592119
          ],
          [
            149.9814682,
            -34.7592861
          ],
          [
            149.9815392,
            -34.7593285
          ],
          [
            149.9816489,
            -34.7593126
          ],
          [
            149.981716,
            -34.7592681
          ],
          [
            149.9817586,
            -34.7592066
          ],
          [
            149.9817521,
            -34.7591376
          ],
          [
            149.9817134,
            -34.758968
          ],
          [
            149.9816424,
            -34.7587188
          ],
          [
            149.9816102,
            -34.758406
          ],
          [
            149.9815521,
            -34.7579977
          ],
          [
            149.981494,
            -34.7579235
          ],
          [
            149.9814113,
            -34.7578588
          ],
          [
            149.9812955,
            -34.7578435
          ],
          [
            149.9812023,
            -34.7578695
          ],
          [
            149.9811,
            -34.7579579
          ],
          [
            149.9810198,
            -34.7580872
          ],
          [
            149.9803624,
            -34.7590816
          ],
          [
            149.9801775,
            -34.7593865
          ],
          [
            149.9801323,
            -34.7594611
          ],
          [
            149.9799387,
            -34.7598587
          ],
          [
            149.9799266,
            -34.7599173
          ],
          [
            149.9798871,
            -34.7601079
          ],
          [
            149.9799387,
            -34.7603518
          ],
          [
            149.9800355,
            -34.7604525
          ],
          [
            149.9801904,
            -34.7604843
          ],
          [
            149.9803195,
            -34.7604419
          ],
          [
            149.980384,
            -34.7603783
          ],
          [
            149.9803905,
            -34.7602881
          ],
          [
            149.9803646,
            -34.7601556
          ],
          [
            149.9803325,
            -34.760041
          ]
        ]
      }
    }
  ]
}
