{
  "type": "FeatureCollection",
  "bbox": [
    -100.2187398,
    25.8501339,
    -100.2156444,
    25.8621356
  ],
  "metadata": {
    "schemaVersion": 1,
    "trackId": "mx-autodromo-monterrey-346649664",
    "layoutId": "main",
    "license": "ODbL-1.0",
    "attribution": "© OpenStreetMap contributors",
    "closed": true,
    "geometryStatus": "draft",
    "timingStatus": "missing",
    "timingMode": "shared",
    "lengthM": 2982.9,
    "reviewedAt": null,
    "notes": [
      "Closed named OSM raceway retained as a course candidate. Named-layout association requires review.",
      "Source way order and shared node IDs are retained. No nearby endpoints are joined and no reference boundaries are read."
    ]
  },
  "features": [
    {
      "type": "Feature",
      "id": "trace",
      "properties": {
        "role": "trace",
        "sourceIds": [
          "osm-snapshot"
        ]
      },
      "geometry": {
        "type": "LineString",
        "coordinates": [
          [
            -100.2156444,
            25.8605697
          ],
          [
            -100.2156499,
            25.8606282
          ],
          [
            -100.2156686,
            25.8606626
          ],
          [
            -100.2157115,
            25.860708
          ],
          [
            -100.2157694,
            25.8607621
          ],
          [
            -100.2158284,
            25.86082
          ],
          [
            -100.2158917,
            25.860877
          ],
          [
            -100.215969,
            25.8609561
          ],
          [
            -100.2160215,
            25.8610208
          ],
          [
            -100.2160452,
            25.8610768
          ],
          [
            -100.216058,
            25.8611434
          ],
          [
            -100.2160537,
            25.8611975
          ],
          [
            -100.2159904,
            25.861463
          ],
          [
            -100.2159808,
            25.8615112
          ],
          [
            -100.2159754,
            25.8615586
          ],
          [
            -100.2159797,
            25.8616088
          ],
          [
            -100.2159947,
            25.8616609
          ],
          [
            -100.2160117,
            25.8617063
          ],
          [
            -100.2160484,
            25.8617623
          ],
          [
            -100.2160918,
            25.8618125
          ],
          [
            -100.2161308,
            25.8618531
          ],
          [
            -100.2161672,
            25.8619055
          ],
          [
            -100.2161946,
            25.8619616
          ],
          [
            -100.2162323,
            25.8620177
          ],
          [
            -100.2162897,
            25.8620724
          ],
          [
            -100.216404,
            25.8621055
          ],
          [
            -100.216565,
            25.8621279
          ],
          [
            -100.2167242,
            25.8621356
          ],
          [
            -100.2168742,
            25.8621172
          ],
          [
            -100.217026,
            25.8620907
          ],
          [
            -100.2172108,
            25.8620279
          ],
          [
            -100.2173295,
            25.8619755
          ],
          [
            -100.2174091,
            25.8619352
          ],
          [
            -100.2175112,
            25.8618656
          ],
          [
            -100.2176068,
            25.8617792
          ],
          [
            -100.217682,
            25.8616973
          ],
          [
            -100.2177511,
            25.8616053
          ],
          [
            -100.2177896,
            25.8615431
          ],
          [
            -100.2178294,
            25.8614666
          ],
          [
            -100.2178633,
            25.861387
          ],
          [
            -100.2178882,
            25.861312
          ],
          [
            -100.2179323,
            25.8610977
          ],
          [
            -100.2179478,
            25.8609397
          ],
          [
            -100.2179528,
            25.8608904
          ],
          [
            -100.2182199,
            25.8583725
          ],
          [
            -100.2183962,
            25.8567127
          ],
          [
            -100.2184248,
            25.8564248
          ],
          [
            -100.2187398,
            25.8531356
          ],
          [
            -100.2187054,
            25.853092
          ],
          [
            -100.2186574,
            25.8530566
          ],
          [
            -100.2185478,
            25.8529782
          ],
          [
            -100.2184867,
            25.8529339
          ],
          [
            -100.2184353,
            25.8528877
          ],
          [
            -100.2184027,
            25.852831
          ],
          [
            -100.218398,
            25.8527511
          ],
          [
            -100.218482,
            25.8523203
          ],
          [
            -100.2184984,
            25.8522468
          ],
          [
            -100.2184984,
            25.8521691
          ],
          [
            -100.2184671,
            25.8520089
          ],
          [
            -100.2184113,
            25.8518335
          ],
          [
            -100.2183755,
            25.851606
          ],
          [
            -100.2183724,
            25.8514374
          ],
          [
            -100.2184263,
            25.8506722
          ],
          [
            -100.218418,
            25.8504826
          ],
          [
            -100.2183999,
            25.8503946
          ],
          [
            -100.2183634,
            25.8503241
          ],
          [
            -100.2183177,
            25.8502632
          ],
          [
            -100.2182598,
            25.8502122
          ],
          [
            -100.2181838,
            25.850173
          ],
          [
            -100.2180836,
            25.8501452
          ],
          [
            -100.2179926,
            25.8501339
          ],
          [
            -100.2178734,
            25.8501368
          ],
          [
            -100.217765,
            25.8501479
          ],
          [
            -100.2176593,
            25.850185
          ],
          [
            -100.2175842,
            25.8502322
          ],
          [
            -100.2175446,
            25.8502951
          ],
          [
            -100.217506,
            25.8503992
          ],
          [
            -100.2174682,
            25.8506722
          ],
          [
            -100.2174252,
            25.8508353
          ],
          [
            -100.2173496,
            25.8510068
          ],
          [
            -100.2172675,
            25.851121
          ],
          [
            -100.2170205,
            25.8514146
          ],
          [
            -100.2169622,
            25.8515155
          ],
          [
            -100.2169143,
            25.8516422
          ],
          [
            -100.2169083,
            25.8517904
          ],
          [
            -100.2169221,
            25.8518899
          ],
          [
            -100.2169592,
            25.8519978
          ],
          [
            -100.2171119,
            25.8522215
          ],
          [
            -100.2172429,
            25.8524016
          ],
          [
            -100.2173242,
            25.8525281
          ],
          [
            -100.2173634,
            25.8526337
          ],
          [
            -100.2173934,
            25.8528493
          ],
          [
            -100.2173834,
            25.8529391
          ],
          [
            -100.2173454,
            25.8530541
          ],
          [
            -100.2172573,
            25.8532106
          ],
          [
            -100.2170939,
            25.8534421
          ],
          [
            -100.2168882,
            25.8537443
          ],
          [
            -100.2168155,
            25.8538893
          ],
          [
            -100.2167778,
            25.8540296
          ],
          [
            -100.2167616,
            25.8541426
          ],
          [
            -100.2167635,
            25.8544223
          ],
          [
            -100.2168011,
            25.8544753
          ],
          [
            -100.2168226,
            25.8544974
          ],
          [
            -100.2168477,
            25.8545146
          ],
          [
            -100.2169558,
            25.8545713
          ],
          [
            -100.2169982,
            25.8546041
          ],
          [
            -100.2170176,
            25.8546214
          ],
          [
            -100.2170298,
            25.8546412
          ],
          [
            -100.2170335,
            25.8546636
          ],
          [
            -100.2170336,
            25.8546913
          ],
          [
            -100.2170285,
            25.854721
          ],
          [
            -100.2170193,
            25.8547519
          ],
          [
            -100.216821,
            25.8551592
          ],
          [
            -100.2168304,
            25.855478
          ],
          [
            -100.2168275,
            25.8556107
          ],
          [
            -100.2168028,
            25.8557126
          ],
          [
            -100.2167665,
            25.8558089
          ],
          [
            -100.2166921,
            25.855969
          ],
          [
            -100.2164527,
            25.8562234
          ],
          [
            -100.2162524,
            25.8564836
          ],
          [
            -100.2161204,
            25.8566677
          ],
          [
            -100.2160651,
            25.8567606
          ],
          [
            -100.2160242,
            25.8568567
          ],
          [
            -100.2159963,
            25.8569948
          ],
          [
            -100.2159891,
            25.8571473
          ],
          [
            -100.2160059,
            25.8572619
          ],
          [
            -100.2160442,
            25.8574103
          ],
          [
            -100.21615,
            25.8577113
          ],
          [
            -100.2163688,
            25.8583612
          ],
          [
            -100.2164012,
            25.8586078
          ],
          [
            -100.2164085,
            25.8587354
          ],
          [
            -100.2164035,
            25.8588645
          ],
          [
            -100.2163839,
            25.8590385
          ],
          [
            -100.2163604,
            25.8591685
          ],
          [
            -100.2163105,
            25.8593374
          ],
          [
            -100.2162408,
            25.8595095
          ],
          [
            -100.21616,
            25.8596894
          ],
          [
            -100.2159368,
            25.8600629
          ],
          [
            -100.2156772,
            25.8605149
          ],
          [
            -100.2156444,
            25.8605697
          ]
        ]
      }
    }
  ]
}
