{
  "type": "FeatureCollection",
  "bbox": [
    -78.6888081,
    44.0477591,
    -78.6825746,
    44.0528313
  ],
  "metadata": {
    "schemaVersion": 1,
    "trackId": "ca-canadian-tire-motorsports-park-ddt-78298a58",
    "layoutId": "ddt-one-kink",
    "license": "ODbL-1.0",
    "attribution": "© OpenStreetMap contributors",
    "closed": true,
    "geometryStatus": "draft",
    "timingStatus": "missing",
    "timingMode": "shared",
    "lengthM": 2842.1,
    "reviewedAt": null,
    "notes": [
      "The organizer May 2022 course plan identifies the main northern training circuit and straight return bypassing Turn 13, with the complete southern loop. Exact independent source distance is 2842.1 m. Northern pit-parallel and angular central access shortcuts are excluded. Exact source coordinates are unchanged; historical alignment and direction remain provisional."
    ]
  },
  "features": [
    {
      "type": "Feature",
      "id": "trace",
      "properties": {
        "role": "trace",
        "sourceIds": [
          "osm-components-77852104"
        ]
      },
      "geometry": {
        "type": "LineString",
        "coordinates": [
          [
            -78.6868181,
            44.0491954
          ],
          [
            -78.6865792,
            44.0490951
          ],
          [
            -78.6862627,
            44.0489505
          ],
          [
            -78.6858952,
            44.0487114
          ],
          [
            -78.6855224,
            44.0484261
          ],
          [
            -78.6850289,
            44.0480097
          ],
          [
            -78.6849216,
            44.0479461
          ],
          [
            -78.6848491,
            44.047921
          ],
          [
            -78.6830011,
            44.0477591
          ],
          [
            -78.6828563,
            44.0477591
          ],
          [
            -78.6827195,
            44.0477996
          ],
          [
            -78.6826068,
            44.0478921
          ],
          [
            -78.6825746,
            44.0479846
          ],
          [
            -78.6826202,
            44.0481138
          ],
          [
            -78.6827382,
            44.0483548
          ],
          [
            -78.6829206,
            44.0486594
          ],
          [
            -78.6830092,
            44.0487731
          ],
          [
            -78.683162,
            44.0488714
          ],
          [
            -78.68361,
            44.0491356
          ],
          [
            -78.6841276,
            44.0494074
          ],
          [
            -78.684302,
            44.0494883
          ],
          [
            -78.6844763,
            44.0494961
          ],
          [
            -78.6850262,
            44.0494536
          ],
          [
            -78.6851281,
            44.0494787
          ],
          [
            -78.6851737,
            44.0495288
          ],
          [
            -78.6852139,
            44.0495811
          ],
          [
            -78.6852998,
            44.0496927
          ],
          [
            -78.6854661,
            44.0498951
          ],
          [
            -78.6857155,
            44.0501226
          ],
          [
            -78.6858256,
            44.0501978
          ],
          [
            -78.6858764,
            44.0502325
          ],
          [
            -78.6860374,
            44.0502845
          ],
          [
            -78.6863834,
            44.0503212
          ],
          [
            -78.6867696,
            44.0504484
          ],
          [
            -78.6872417,
            44.050672
          ],
          [
            -78.687467,
            44.0508031
          ],
          [
            -78.6875904,
            44.0509342
          ],
          [
            -78.687644,
            44.0510499
          ],
          [
            -78.687467,
            44.0518171
          ],
          [
            -78.6874133,
            44.0518942
          ],
          [
            -78.6873007,
            44.0519559
          ],
          [
            -78.685289,
            44.0523993
          ],
          [
            -78.685112,
            44.0524031
          ],
          [
            -78.6849511,
            44.0523646
          ],
          [
            -78.6847848,
            44.0522913
          ],
          [
            -78.6843771,
            44.0518094
          ],
          [
            -78.6843181,
            44.0517014
          ],
          [
            -78.6843395,
            44.0515896
          ],
          [
            -78.6844522,
            44.0515356
          ],
          [
            -78.6846292,
            44.0515164
          ],
          [
            -78.6855894,
            44.0516822
          ],
          [
            -78.6857826,
            44.0517207
          ],
          [
            -78.6860454,
            44.0516976
          ],
          [
            -78.6862868,
            44.0516552
          ],
          [
            -78.6864263,
            44.0515549
          ],
          [
            -78.6866516,
            44.0512966
          ],
          [
            -78.6866784,
            44.0511925
          ],
          [
            -78.686657,
            44.0510614
          ],
          [
            -78.6865872,
            44.0509766
          ],
          [
            -78.6848277,
            44.050645
          ],
          [
            -78.6843395,
            44.0505795
          ],
          [
            -78.6839855,
            44.0506219
          ],
          [
            -78.683676,
            44.0507436
          ],
          [
            -78.6835543,
            44.0508584
          ],
          [
            -78.68347,
            44.0510303
          ],
          [
            -78.6834838,
            44.0512303
          ],
          [
            -78.6839346,
            44.052229
          ],
          [
            -78.684203,
            44.052582
          ],
          [
            -78.6844453,
            44.052766
          ],
          [
            -78.6846928,
            44.0528313
          ],
          [
            -78.6849903,
            44.0528182
          ],
          [
            -78.6878827,
            44.0521872
          ],
          [
            -78.6880544,
            44.052087
          ],
          [
            -78.6881644,
            44.0519578
          ],
          [
            -78.6882368,
            44.051794
          ],
          [
            -78.688336,
            44.0516918
          ],
          [
            -78.6884674,
            44.0516436
          ],
          [
            -78.6886042,
            44.051605
          ],
          [
            -78.6887223,
            44.0515202
          ],
          [
            -78.6888,
            44.0514103
          ],
          [
            -78.6888081,
            44.0513255
          ],
          [
            -78.6885667,
            44.0507665
          ],
          [
            -78.6882877,
            44.0500609
          ],
          [
            -78.6881509,
            44.0498701
          ],
          [
            -78.6879712,
            44.049737
          ],
          [
            -78.6877406,
            44.0495809
          ],
          [
            -78.6873972,
            44.0494324
          ],
          [
            -78.686893,
            44.0492281
          ],
          [
            -78.6868181,
            44.0491954
          ]
        ]
      }
    }
  ]
}
