{
  "type": "FeatureCollection",
  "bbox": [
    -5.0880466,
    36.8171193,
    -5.0745653,
    36.8295543
  ],
  "metadata": {
    "schemaVersion": 1,
    "trackId": "es-circuito-ascari-169907092",
    "layoutId": "main",
    "license": "ODbL-1.0",
    "attribution": "© OpenStreetMap contributors",
    "closed": true,
    "geometryStatus": "draft",
    "timingStatus": "missing",
    "timingMode": "shared",
    "lengthM": 5433.3,
    "reviewedAt": null,
    "notes": [
      "Connected OSM course candidate. The selected loop is the longest simple source-node cycle after explicit exclusions; its association with a named circuit configuration requires review.",
      "Source way order and shared node IDs are retained. No nearby endpoints are joined and no reference boundaries are read."
    ]
  },
  "features": [
    {
      "type": "Feature",
      "id": "trace",
      "properties": {
        "role": "trace",
        "sourceIds": [
          "osm-snapshot"
        ]
      },
      "geometry": {
        "type": "LineString",
        "coordinates": [
          [
            -5.0817082,
            36.8207146
          ],
          [
            -5.0817629,
            36.8206816
          ],
          [
            -5.0818689,
            36.8206513
          ],
          [
            -5.0819355,
            36.8206497
          ],
          [
            -5.0819798,
            36.8206644
          ],
          [
            -5.082029,
            36.8206837
          ],
          [
            -5.082081,
            36.8207161
          ],
          [
            -5.0821485,
            36.8207663
          ],
          [
            -5.0822401,
            36.8208612
          ],
          [
            -5.0823394,
            36.8209901
          ],
          [
            -5.0824773,
            36.8211676
          ],
          [
            -5.0826191,
            36.8213575
          ],
          [
            -5.0826557,
            36.8214023
          ],
          [
            -5.0827029,
            36.8214493
          ],
          [
            -5.0827367,
            36.821471
          ],
          [
            -5.0828013,
            36.8215041
          ],
          [
            -5.082864,
            36.8215273
          ],
          [
            -5.0829218,
            36.8215443
          ],
          [
            -5.0829932,
            36.8215574
          ],
          [
            -5.0830799,
            36.8215574
          ],
          [
            -5.0831783,
            36.8215443
          ],
          [
            -5.0832892,
            36.821518
          ],
          [
            -5.0833383,
            36.8215003
          ],
          [
            -5.0833885,
            36.8214725
          ],
          [
            -5.0834463,
            36.8214239
          ],
          [
            -5.0834878,
            36.8213814
          ],
          [
            -5.0835263,
            36.8213181
          ],
          [
            -5.0835475,
            36.8212664
          ],
          [
            -5.0835639,
            36.8212163
          ],
          [
            -5.0835726,
            36.8211537
          ],
          [
            -5.0835774,
            36.8211159
          ],
          [
            -5.0835765,
            36.8210495
          ],
          [
            -5.0835649,
            36.8209893
          ],
          [
            -5.0835466,
            36.8209222
          ],
          [
            -5.0835003,
            36.8208226
          ],
          [
            -5.0833942,
            36.820625
          ],
          [
            -5.0832352,
            36.8203356
          ],
          [
            -5.0830982,
            36.8201133
          ],
          [
            -5.0830626,
            36.8200446
          ],
          [
            -5.0830211,
            36.8199713
          ],
          [
            -5.0830038,
            36.8199149
          ],
          [
            -5.082998,
            36.8198717
          ],
          [
            -5.0830057,
            36.8198138
          ],
          [
            -5.0830356,
            36.8197282
          ],
          [
            -5.0831185,
            36.8195591
          ],
          [
            -5.0832236,
            36.8193245
          ],
          [
            -5.0832814,
            36.8192048
          ],
          [
            -5.0833094,
            36.8191331
          ],
          [
            -5.0833316,
            36.8190813
          ],
          [
            -5.0833422,
            36.8190265
          ],
          [
            -5.0833509,
            36.8189594
          ],
          [
            -5.083346,
            36.8189015
          ],
          [
            -5.0833364,
            36.8188398
          ],
          [
            -5.0833171,
            36.8187332
          ],
          [
            -5.0832612,
            36.8185619
          ],
          [
            -5.0832313,
            36.8184986
          ],
          [
            -5.0831879,
            36.8184376
          ],
          [
            -5.0831474,
            36.8183913
          ],
          [
            -5.0831031,
            36.818345
          ],
          [
            -5.0830308,
            36.818301
          ],
          [
            -5.0829387,
            36.8182513
          ],
          [
            -5.0823491,
            36.8180085
          ],
          [
            -5.0814158,
            36.8176218
          ],
          [
            -5.0805914,
            36.8172582
          ],
          [
            -5.0804362,
            36.8171864
          ],
          [
            -5.0803398,
            36.8171486
          ],
          [
            -5.0802752,
            36.8171316
          ],
          [
            -5.0802057,
            36.8171201
          ],
          [
            -5.0801469,
            36.8171193
          ],
          [
            -5.0800679,
            36.8171424
          ],
          [
            -5.0800225,
            36.8171702
          ],
          [
            -5.0799859,
            36.817205
          ],
          [
            -5.0799608,
            36.8172366
          ],
          [
            -5.0799406,
            36.8172783
          ],
          [
            -5.0799387,
            36.8173146
          ],
          [
            -5.0799425,
            36.8173678
          ],
          [
            -5.0799705,
            36.8174489
          ],
          [
            -5.0800891,
            36.8178178
          ],
          [
            -5.0802,
            36.8181999
          ],
          [
            -5.0802501,
            36.8183859
          ],
          [
            -5.0803253,
            36.8186398
          ],
          [
            -5.0804738,
            36.8191593
          ],
          [
            -5.0806223,
            36.8196672
          ],
          [
            -5.0807881,
            36.8202592
          ],
          [
            -5.0808392,
            36.8204213
          ],
          [
            -5.0808546,
            36.8204984
          ],
          [
            -5.0808575,
            36.8205517
          ],
          [
            -5.0808556,
            36.8206003
          ],
          [
            -5.0808459,
            36.8206528
          ],
          [
            -5.0808296,
            36.820703
          ],
          [
            -5.0807225,
            36.8209029
          ],
          [
            -5.0804497,
            36.8213984
          ],
          [
            -5.0801826,
            36.8218916
          ],
          [
            -5.0799377,
            36.8223323
          ],
          [
            -5.0792599,
            36.8235934
          ],
          [
            -5.0789215,
            36.8242063
          ],
          [
            -5.0787768,
            36.8244864
          ],
          [
            -5.0787402,
            36.8245536
          ],
          [
            -5.0787055,
            36.8246138
          ],
          [
            -5.0786573,
            36.8246678
          ],
          [
            -5.078611,
            36.8247071
          ],
          [
            -5.0785832,
            36.8247268
          ],
          [
            -5.0778417,
            36.8253605
          ],
          [
            -5.0776324,
            36.8255438
          ],
          [
            -5.0773277,
            36.8258031
          ],
          [
            -5.0772457,
            36.8258756
          ],
          [
            -5.0771551,
            36.8259358
          ],
          [
            -5.0770886,
            36.8259667
          ],
          [
            -5.0770211,
            36.8259875
          ],
          [
            -5.0769324,
            36.8260122
          ],
          [
            -5.0768395,
            36.8260176
          ],
          [
            -5.0767627,
            36.826023
          ],
          [
            -5.0766778,
            36.8260223
          ],
          [
            -5.0765833,
            36.8260153
          ],
          [
            -5.0764952,
            36.8259995
          ],
          [
            -5.0764252,
            36.8259736
          ],
          [
            -5.0763577,
            36.8259366
          ],
          [
            -5.0762507,
            36.8258664
          ],
          [
            -5.0761514,
            36.8258023
          ],
          [
            -5.0760637,
            36.8257406
          ],
          [
            -5.0760212,
            36.8257066
          ],
          [
            -5.075981,
            36.8256746
          ],
          [
            -5.0759585,
            36.8256661
          ],
          [
            -5.0759332,
            36.8256601
          ],
          [
            -5.0759097,
            36.8256566
          ],
          [
            -5.0758865,
            36.8256579
          ],
          [
            -5.0758664,
            36.825662
          ],
          [
            -5.0758494,
            36.8256738
          ],
          [
            -5.0758354,
            36.8256899
          ],
          [
            -5.0758119,
            36.825706
          ],
          [
            -5.0757962,
            36.825727
          ],
          [
            -5.0757751,
            36.8257414
          ],
          [
            -5.0757567,
            36.8257483
          ],
          [
            -5.0757451,
            36.8257518
          ],
          [
            -5.0757263,
            36.8257534
          ],
          [
            -5.0757147,
            36.8257526
          ],
          [
            -5.075698,
            36.825748
          ],
          [
            -5.0756851,
            36.8257409
          ],
          [
            -5.0756694,
            36.8257253
          ],
          [
            -5.0756554,
            36.8257049
          ],
          [
            -5.0756343,
            36.8256713
          ],
          [
            -5.075622,
            36.8256492
          ],
          [
            -5.075606,
            36.8256304
          ],
          [
            -5.0755835,
            36.8256105
          ],
          [
            -5.0755559,
            36.8255911
          ],
          [
            -5.0755242,
            36.8255728
          ],
          [
            -5.0754836,
            36.8255534
          ],
          [
            -5.0754451,
            36.8255406
          ],
          [
            -5.075396,
            36.8255253
          ],
          [
            -5.0753449,
            36.8255245
          ],
          [
            -5.0753053,
            36.8255231
          ],
          [
            -5.0752375,
            36.8255305
          ],
          [
            -5.0751802,
            36.8255401
          ],
          [
            -5.0751158,
            36.8255611
          ],
          [
            -5.075022,
            36.8255946
          ],
          [
            -5.0749365,
            36.8256388
          ],
          [
            -5.0748683,
            36.8256817
          ],
          [
            -5.0748083,
            36.8257245
          ],
          [
            -5.0747538,
            36.8257706
          ],
          [
            -5.0746743,
            36.8258623
          ],
          [
            -5.0746403,
            36.8259213
          ],
          [
            -5.0745946,
            36.8260108
          ],
          [
            -5.0745666,
            36.8261046
          ],
          [
            -5.0745653,
            36.8261848
          ],
          [
            -5.0745687,
            36.8262814
          ],
          [
            -5.074585,
            36.8263611
          ],
          [
            -5.0746116,
            36.8264277
          ],
          [
            -5.074633,
            36.8264778
          ],
          [
            -5.0746893,
            36.8265587
          ],
          [
            -5.0748586,
            36.8268019
          ],
          [
            -5.0749698,
            36.8269568
          ],
          [
            -5.0750659,
            36.8270982
          ],
          [
            -5.0751348,
            36.8272035
          ],
          [
            -5.075157,
            36.8272434
          ],
          [
            -5.0751726,
            36.8272748
          ],
          [
            -5.0751774,
            36.8273037
          ],
          [
            -5.0751771,
            36.8273271
          ],
          [
            -5.0751723,
            36.8273424
          ],
          [
            -5.0751507,
            36.8273932
          ],
          [
            -5.0751302,
            36.8274745
          ],
          [
            -5.0751234,
            36.8275105
          ],
          [
            -5.0751241,
            36.827552
          ],
          [
            -5.0751295,
            36.8276131
          ],
          [
            -5.0751404,
            36.8276453
          ],
          [
            -5.0751636,
            36.8277004
          ],
          [
            -5.0751807,
            36.8277359
          ],
          [
            -5.0752045,
            36.8277697
          ],
          [
            -5.0752407,
            36.827803
          ],
          [
            -5.075285,
            36.8278418
          ],
          [
            -5.0753559,
            36.8278903
          ],
          [
            -5.0759276,
            36.8282589
          ],
          [
            -5.0760715,
            36.8283522
          ],
          [
            -5.0763128,
            36.8285225
          ],
          [
            -5.0763971,
            36.8286055
          ],
          [
            -5.0764512,
            36.8287025
          ],
          [
            -5.0764813,
            36.8287964
          ],
          [
            -5.0765102,
            36.8289075
          ],
          [
            -5.0765363,
            36.8290009
          ],
          [
            -5.0765671,
            36.8291228
          ],
          [
            -5.0765864,
            36.8291861
          ],
          [
            -5.0766307,
            36.8292679
          ],
          [
            -5.0766587,
            36.8293081
          ],
          [
            -5.0766741,
            36.8293289
          ],
          [
            -5.0767069,
            36.8293567
          ],
          [
            -5.0767407,
            36.8293814
          ],
          [
            -5.0768303,
            36.8294308
          ],
          [
            -5.0768824,
            36.8294547
          ],
          [
            -5.0769701,
            36.829484
          ],
          [
            -5.0770261,
            36.8294979
          ],
          [
            -5.0771379,
            36.8295218
          ],
          [
            -5.0772218,
            36.8295357
          ],
          [
            -5.0772816,
            36.8295458
          ],
          [
            -5.0773828,
            36.8295527
          ],
          [
            -5.0774628,
            36.8295543
          ],
          [
            -5.0775727,
            36.8295527
          ],
          [
            -5.0776894,
            36.8295419
          ],
          [
            -5.0777627,
            36.8295319
          ],
          [
            -5.0778495,
            36.8295188
          ],
          [
            -5.0779594,
            36.8294933
          ],
          [
            -5.0780568,
            36.8294647
          ],
          [
            -5.0781368,
            36.8294369
          ],
          [
            -5.078238,
            36.8293937
          ],
          [
            -5.0783344,
            36.8293474
          ],
          [
            -5.0784096,
            36.8293003
          ],
          [
            -5.0785012,
            36.8292332
          ],
          [
            -5.0785697,
            36.8291746
          ],
          [
            -5.0786449,
            36.8291097
          ],
          [
            -5.0786921,
            36.8290526
          ],
          [
            -5.0787289,
            36.8290025
          ],
          [
            -5.0787606,
            36.8289492
          ],
          [
            -5.0787972,
            36.8288913
          ],
          [
            -5.0788194,
            36.8288481
          ],
          [
            -5.0788445,
            36.8287779
          ],
          [
            -5.0788782,
            36.8286606
          ],
          [
            -5.0789178,
            36.8285271
          ],
          [
            -5.0789901,
            36.8282415
          ],
          [
            -5.0790084,
            36.828169
          ],
          [
            -5.0790171,
            36.8281134
          ],
          [
            -5.079019,
            36.8280586
          ],
          [
            -5.0790142,
            36.8280131
          ],
          [
            -5.0790026,
            36.8279799
          ],
          [
            -5.0789718,
            36.827949
          ],
          [
            -5.0789293,
            36.8279212
          ],
          [
            -5.0788686,
            36.8278795
          ],
          [
            -5.0784877,
            36.8276403
          ],
          [
            -5.0782989,
            36.8275206
          ],
          [
            -5.0781487,
            36.8274112
          ],
          [
            -5.0781092,
            36.8273753
          ],
          [
            -5.0780513,
            36.8273225
          ],
          [
            -5.078018,
            36.82728
          ],
          [
            -5.0779906,
            36.8272406
          ],
          [
            -5.0779645,
            36.8272013
          ],
          [
            -5.0779342,
            36.827148
          ],
          [
            -5.0779129,
            36.8270936
          ],
          [
            -5.0778922,
            36.8270269
          ],
          [
            -5.0778816,
            36.8269667
          ],
          [
            -5.0778782,
            36.8268949
          ],
          [
            -5.0778845,
            36.8268254
          ],
          [
            -5.0778887,
            36.8267668
          ],
          [
            -5.0779044,
            36.826709
          ],
          [
            -5.0779201,
            36.8266642
          ],
          [
            -5.0779712,
            36.8265704
          ],
          [
            -5.0780462,
            36.8264492
          ],
          [
            -5.0781124,
            36.8263748
          ],
          [
            -5.0781982,
            36.826249
          ],
          [
            -5.0783014,
            36.826124
          ],
          [
            -5.0784374,
            36.8259511
          ],
          [
            -5.0785261,
            36.8258554
          ],
          [
            -5.0791948,
            36.8251515
          ],
          [
            -5.0792889,
            36.8250708
          ],
          [
            -5.0794075,
            36.8249616
          ],
          [
            -5.0795275,
            36.8248557
          ],
          [
            -5.0796712,
            36.8247217
          ],
          [
            -5.0798029,
            36.8246276
          ],
          [
            -5.0799025,
            36.8245567
          ],
          [
            -5.0800524,
            36.8244737
          ],
          [
            -5.0802652,
            36.8243722
          ],
          [
            -5.0804165,
            36.8243133
          ],
          [
            -5.0806088,
            36.8242609
          ],
          [
            -5.0807642,
            36.8242238
          ],
          [
            -5.0809265,
            36.8241998
          ],
          [
            -5.0811446,
            36.8241899
          ],
          [
            -5.081281,
            36.8241899
          ],
          [
            -5.0814283,
            36.8241998
          ],
          [
            -5.0815687,
            36.8242129
          ],
          [
            -5.0816505,
            36.8242205
          ],
          [
            -5.0818005,
            36.8242576
          ],
          [
            -5.0819041,
            36.8242849
          ],
          [
            -5.082139,
            36.8243797
          ],
          [
            -5.0826684,
            36.8245848
          ],
          [
            -5.0833048,
            36.8248395
          ],
          [
            -5.0839122,
            36.8250772
          ],
          [
            -5.0842805,
            36.8252254
          ],
          [
            -5.0845524,
            36.8253366
          ],
          [
            -5.0847086,
            36.8253875
          ],
          [
            -5.08494,
            36.8254554
          ],
          [
            -5.0851154,
            36.8254954
          ],
          [
            -5.0852899,
            36.8255347
          ],
          [
            -5.0854821,
            36.8255675
          ],
          [
            -5.0856418,
            36.8255945
          ],
          [
            -5.0856861,
            36.825599
          ],
          [
            -5.0857311,
            36.8256263
          ],
          [
            -5.0857488,
            36.825658
          ],
          [
            -5.0857515,
            36.8256885
          ],
          [
            -5.0857229,
            36.8257202
          ],
          [
            -5.0857024,
            36.8257442
          ],
          [
            -5.0856929,
            36.8257682
          ],
          [
            -5.0856921,
            36.8258013
          ],
          [
            -5.085712,
            36.8258239
          ],
          [
            -5.0857515,
            36.8258566
          ],
          [
            -5.0858456,
            36.8259101
          ],
          [
            -5.0860624,
            36.8260542
          ],
          [
            -5.0863005,
            36.8262318
          ],
          [
            -5.0870629,
            36.826747
          ],
          [
            -5.0873382,
            36.8269349
          ],
          [
            -5.0874508,
            36.8269825
          ],
          [
            -5.0874896,
            36.8269939
          ],
          [
            -5.087531,
            36.8269977
          ],
          [
            -5.0875803,
            36.8269955
          ],
          [
            -5.0876304,
            36.8269853
          ],
          [
            -5.0876719,
            36.8269685
          ],
          [
            -5.0877068,
            36.8269419
          ],
          [
            -5.087749,
            36.8269106
          ],
          [
            -5.0877839,
            36.8268664
          ],
          [
            -5.0878579,
            36.8267696
          ],
          [
            -5.0879079,
            36.8266761
          ],
          [
            -5.087962,
            36.8265865
          ],
          [
            -5.0879997,
            36.826497
          ],
          [
            -5.0880352,
            36.8263933
          ],
          [
            -5.0880455,
            36.8263156
          ],
          [
            -5.0880466,
            36.8262351
          ],
          [
            -5.0880303,
            36.8261587
          ],
          [
            -5.0880028,
            36.8260827
          ],
          [
            -5.0878998,
            36.8259286
          ],
          [
            -5.0863439,
            36.8242435
          ],
          [
            -5.086237,
            36.8241506
          ],
          [
            -5.086064,
            36.8240705
          ],
          [
            -5.0858843,
            36.8240267
          ],
          [
            -5.0856955,
            36.8240122
          ],
          [
            -5.085518,
            36.8240354
          ],
          [
            -5.0853528,
            36.8240851
          ],
          [
            -5.0851881,
            36.8241662
          ],
          [
            -5.0848047,
            36.8243811
          ],
          [
            -5.0846696,
            36.8244442
          ],
          [
            -5.084602,
            36.8244648
          ],
          [
            -5.0845365,
            36.8244766
          ],
          [
            -5.0844169,
            36.8244858
          ],
          [
            -5.0842767,
            36.8244747
          ],
          [
            -5.0841607,
            36.8244501
          ],
          [
            -5.0840666,
            36.8244084
          ],
          [
            -5.0815215,
            36.8228578
          ],
          [
            -5.0814161,
            36.8227773
          ],
          [
            -5.0813408,
            36.8227007
          ],
          [
            -5.0812088,
            36.8225212
          ],
          [
            -5.0811633,
            36.8223399
          ],
          [
            -5.0811588,
            36.8222345
          ],
          [
            -5.0811915,
            36.8220761
          ],
          [
            -5.0813673,
            36.8216023
          ],
          [
            -5.081456,
            36.82136
          ],
          [
            -5.0815416,
            36.8211295
          ],
          [
            -5.0816045,
            36.8209494
          ],
          [
            -5.0816484,
            36.8208265
          ],
          [
            -5.0817082,
            36.8207146
          ]
        ]
      }
    }
  ]
}
