{
  "type": "FeatureCollection",
  "bbox": [
    -107.4327014,
    32.2358372,
    -107.4241691,
    32.2387273
  ],
  "metadata": {
    "schemaVersion": 1,
    "trackId": "us-arroyo-seco-raceway-83871979",
    "layoutId": "main",
    "license": "ODbL-1.0",
    "attribution": "© OpenStreetMap contributors",
    "closed": true,
    "geometryStatus": "draft",
    "timingStatus": "missing",
    "timingMode": "shared",
    "lengthM": 2206.8,
    "reviewedAt": null,
    "notes": [
      "Connected OSM course candidate. The selected loop is the longest simple source-node cycle after explicit exclusions; its association with a named circuit configuration requires review.",
      "Source way order and shared node IDs are retained. No nearby endpoints are joined and no reference boundaries are read.",
      "Some source ways lack one-way direction tags. Travel direction is provisional."
    ]
  },
  "features": [
    {
      "type": "Feature",
      "id": "trace",
      "properties": {
        "role": "trace",
        "sourceIds": [
          "osm-snapshot"
        ]
      },
      "geometry": {
        "type": "LineString",
        "coordinates": [
          [
            -107.4316633,
            32.2387273
          ],
          [
            -107.4258245,
            32.2379824
          ],
          [
            -107.4256778,
            32.2379134
          ],
          [
            -107.4255554,
            32.2377824
          ],
          [
            -107.4254902,
            32.2376099
          ],
          [
            -107.425482,
            32.2374237
          ],
          [
            -107.4253597,
            32.2373064
          ],
          [
            -107.4251803,
            32.2372099
          ],
          [
            -107.424952,
            32.2371961
          ],
          [
            -107.4247889,
            32.2371616
          ],
          [
            -107.4246503,
            32.2370926
          ],
          [
            -107.4245769,
            32.2369684
          ],
          [
            -107.4245687,
            32.2367822
          ],
          [
            -107.4245524,
            32.2366442
          ],
          [
            -107.4244709,
            32.236527
          ],
          [
            -107.4242344,
            32.2364166
          ],
          [
            -107.4241691,
            32.2362856
          ],
          [
            -107.4242099,
            32.2361545
          ],
          [
            -107.4244709,
            32.2359959
          ],
          [
            -107.4247807,
            32.23592
          ],
          [
            -107.4254168,
            32.2359959
          ],
          [
            -107.4256034,
            32.2360855
          ],
          [
            -107.4256022,
            32.2362334
          ],
          [
            -107.4254799,
            32.2363152
          ],
          [
            -107.4254157,
            32.2364234
          ],
          [
            -107.4254739,
            32.2365822
          ],
          [
            -107.4257348,
            32.2367753
          ],
          [
            -107.4260773,
            32.2369684
          ],
          [
            -107.4263546,
            32.2370788
          ],
          [
            -107.4267705,
            32.2371823
          ],
          [
            -107.4271456,
            32.2372374
          ],
          [
            -107.4273739,
            32.2372374
          ],
          [
            -107.427586,
            32.2371961
          ],
          [
            -107.4277817,
            32.2371133
          ],
          [
            -107.4279203,
            32.2369753
          ],
          [
            -107.4279774,
            32.2367822
          ],
          [
            -107.4279529,
            32.2366098
          ],
          [
            -107.4278877,
            32.2365339
          ],
          [
            -107.4273739,
            32.236389
          ],
          [
            -107.4272353,
            32.2362442
          ],
          [
            -107.4272271,
            32.2360579
          ],
          [
            -107.4273495,
            32.2359062
          ],
          [
            -107.4275533,
            32.2358372
          ],
          [
            -107.4277654,
            32.2358648
          ],
          [
            -107.4287304,
            32.2363629
          ],
          [
            -107.4293718,
            32.2364442
          ],
          [
            -107.4301628,
            32.2368236
          ],
          [
            -107.4302643,
            32.2369264
          ],
          [
            -107.4307241,
            32.2373919
          ],
          [
            -107.43128,
            32.2376789
          ],
          [
            -107.431386,
            32.2377134
          ],
          [
            -107.4315212,
            32.2377045
          ],
          [
            -107.4318799,
            32.2375952
          ],
          [
            -107.4321036,
            32.237603
          ],
          [
            -107.4323075,
            32.237672
          ],
          [
            -107.4324869,
            32.2377755
          ],
          [
            -107.4326186,
            32.2379341
          ],
          [
            -107.4327014,
            32.2381213
          ],
          [
            -107.4326688,
            32.2383255
          ],
          [
            -107.4325346,
            32.2384979
          ],
          [
            -107.4323891,
            32.2385756
          ],
          [
            -107.4320873,
            32.2386652
          ],
          [
            -107.4316633,
            32.2387273
          ]
        ]
      }
    }
  ]
}
