{
  "type": "FeatureCollection",
  "bbox": [
    -86.3743155,
    36.9989541,
    -86.3663039,
    37.00446
  ],
  "metadata": {
    "schemaVersion": 1,
    "trackId": "us-ncm-motorsports-park-326452603",
    "layoutId": "ncm-west",
    "license": "ODbL-1.0",
    "attribution": "© OpenStreetMap contributors",
    "closed": true,
    "geometryStatus": "draft",
    "timingStatus": "missing",
    "timingMode": "shared",
    "lengthM": 3234.3,
    "reviewedAt": null,
    "notes": [
      "Draft configuration: The independently mapped West circuit follows its complete northern return, central inner loop, eastern West-course hairpin and southern chicane. The operator separate-circuit plan identifies these West branches and a nominal two-mile course; the actual source route is 3234.3 m. The East circuit, long alternative straight, pit and paddock roads are excluded. The catalogue distance of 3385 m is retained without changing source coordinates; alignment date and direction remain provisional. Branch identity was checked against catalogue layout facts and circuit identification references. Independent source distance 3234.3 m; no coordinates are changed to match a diagram or distance. Travel direction and historical alignment remain provisional."
    ]
  },
  "features": [
    {
      "type": "Feature",
      "id": "trace",
      "properties": {
        "role": "trace",
        "sourceIds": [
          "osm-selection-ncm-west-source-roads-326452603"
        ]
      },
      "geometry": {
        "type": "LineString",
        "coordinates": [
          [
            -86.3719974,
            36.9994431
          ],
          [
            -86.3716807,
            36.9998081
          ],
          [
            -86.371404,
            37.0002135
          ],
          [
            -86.3713759,
            37.0002501
          ],
          [
            -86.3713431,
            37.0002866
          ],
          [
            -86.3713015,
            37.0003192
          ],
          [
            -86.3712541,
            37.000347
          ],
          [
            -86.3712078,
            37.0003683
          ],
          [
            -86.3711604,
            37.000386
          ],
          [
            -86.3711155,
            37.0003973
          ],
          [
            -86.3710682,
            37.0004049
          ],
          [
            -86.3710203,
            37.0004084
          ],
          [
            -86.3709725,
            37.000409
          ],
          [
            -86.3709046,
            37.0004045
          ],
          [
            -86.370838,
            37.000392
          ],
          [
            -86.3707792,
            37.0003738
          ],
          [
            -86.3707227,
            37.0003517
          ],
          [
            -86.3706316,
            37.0003167
          ],
          [
            -86.3705381,
            37.0002854
          ],
          [
            -86.3704573,
            37.000273
          ],
          [
            -86.3703741,
            37.0002708
          ],
          [
            -86.3701703,
            37.0002841
          ],
          [
            -86.36857,
            37.0010411
          ],
          [
            -86.3664412,
            37.0020455
          ],
          [
            -86.3663848,
            37.0021238
          ],
          [
            -86.3663376,
            37.0022035
          ],
          [
            -86.3663216,
            37.0022459
          ],
          [
            -86.3663103,
            37.0022884
          ],
          [
            -86.3663056,
            37.0023334
          ],
          [
            -86.3663039,
            37.0023654
          ],
          [
            -86.3663061,
            37.0023963
          ],
          [
            -86.3663099,
            37.0024179
          ],
          [
            -86.3663187,
            37.0024427
          ],
          [
            -86.3663321,
            37.0024664
          ],
          [
            -86.3663492,
            37.0024866
          ],
          [
            -86.3663693,
            37.0025069
          ],
          [
            -86.3663945,
            37.0025259
          ],
          [
            -86.3664197,
            37.0025425
          ],
          [
            -86.3664524,
            37.0025536
          ],
          [
            -86.3664851,
            37.0025622
          ],
          [
            -86.3665617,
            37.0025662
          ],
          [
            -86.3666383,
            37.0025641
          ],
          [
            -86.3683115,
            37.0018145
          ],
          [
            -86.3684774,
            37.0017373
          ],
          [
            -86.3685417,
            37.0017104
          ],
          [
            -86.3686132,
            37.0016891
          ],
          [
            -86.3686691,
            37.0016795
          ],
          [
            -86.3687286,
            37.0016742
          ],
          [
            -86.3687908,
            37.0016688
          ],
          [
            -86.3688529,
            37.0016677
          ],
          [
            -86.3698675,
            37.0016941
          ],
          [
            -86.3699164,
            37.0016953
          ],
          [
            -86.3699559,
            37.0016947
          ],
          [
            -86.3699927,
            37.0016904
          ],
          [
            -86.3700191,
            37.0016842
          ],
          [
            -86.3700431,
            37.0016776
          ],
          [
            -86.3700671,
            37.0016682
          ],
          [
            -86.3701166,
            37.0016396
          ],
          [
            -86.3701614,
            37.0016068
          ],
          [
            -86.3705698,
            37.0012229
          ],
          [
            -86.3706084,
            37.0011821
          ],
          [
            -86.3706551,
            37.0011445
          ],
          [
            -86.3707089,
            37.0011119
          ],
          [
            -86.3707688,
            37.0010816
          ],
          [
            -86.3718558,
            37.0006135
          ],
          [
            -86.3719202,
            37.000589
          ],
          [
            -86.3719632,
            37.0005805
          ],
          [
            -86.3720097,
            37.0005791
          ],
          [
            -86.3720355,
            37.0005809
          ],
          [
            -86.372063,
            37.0005869
          ],
          [
            -86.3720875,
            37.0005967
          ],
          [
            -86.3721119,
            37.0006094
          ],
          [
            -86.3721333,
            37.0006242
          ],
          [
            -86.3721529,
            37.0006418
          ],
          [
            -86.3721708,
            37.0006616
          ],
          [
            -86.3721869,
            37.0006955
          ],
          [
            -86.3721972,
            37.0007632
          ],
          [
            -86.3721996,
            37.0008528
          ],
          [
            -86.3721884,
            37.0010031
          ],
          [
            -86.3721669,
            37.0010784
          ],
          [
            -86.3721419,
            37.0011536
          ],
          [
            -86.3721037,
            37.0012288
          ],
          [
            -86.3720583,
            37.0013026
          ],
          [
            -86.3719821,
            37.0013839
          ],
          [
            -86.3718987,
            37.0014596
          ],
          [
            -86.3717976,
            37.0015324
          ],
          [
            -86.3716966,
            37.001601
          ],
          [
            -86.3715228,
            37.0016974
          ],
          [
            -86.3713437,
            37.0017853
          ],
          [
            -86.3712479,
            37.0018296
          ],
          [
            -86.3711522,
            37.0018697
          ],
          [
            -86.3710494,
            37.0019062
          ],
          [
            -86.3709466,
            37.0019399
          ],
          [
            -86.3705723,
            37.0020519
          ],
          [
            -86.3704029,
            37.0021182
          ],
          [
            -86.3703266,
            37.0021531
          ],
          [
            -86.3702539,
            37.0021894
          ],
          [
            -86.3701866,
            37.0022321
          ],
          [
            -86.3701247,
            37.0022762
          ],
          [
            -86.3700132,
            37.0023637
          ],
          [
            -86.3698745,
            37.0025029
          ],
          [
            -86.3698012,
            37.0025892
          ],
          [
            -86.3697191,
            37.0027213
          ],
          [
            -86.3695513,
            37.0030898
          ],
          [
            -86.3694967,
            37.0031811
          ],
          [
            -86.3694328,
            37.0032699
          ],
          [
            -86.3693746,
            37.0033205
          ],
          [
            -86.3693086,
            37.0033698
          ],
          [
            -86.3692172,
            37.0034081
          ],
          [
            -86.3691197,
            37.003434
          ],
          [
            -86.3690153,
            37.0034477
          ],
          [
            -86.3689085,
            37.0034493
          ],
          [
            -86.3688107,
            37.0034344
          ],
          [
            -86.3687163,
            37.0034102
          ],
          [
            -86.3686129,
            37.0033723
          ],
          [
            -86.3680056,
            37.0030072
          ],
          [
            -86.3679281,
            37.0029764
          ],
          [
            -86.3678454,
            37.0029519
          ],
          [
            -86.3677582,
            37.0029341
          ],
          [
            -86.367671,
            37.0029283
          ],
          [
            -86.3675954,
            37.0029347
          ],
          [
            -86.3675198,
            37.0029502
          ],
          [
            -86.3674253,
            37.0029778
          ],
          [
            -86.367081,
            37.0031145
          ],
          [
            -86.3669757,
            37.0031807
          ],
          [
            -86.3668836,
            37.0032461
          ],
          [
            -86.3666283,
            37.0034516
          ],
          [
            -86.3665507,
            37.0035155
          ],
          [
            -86.3664843,
            37.0035819
          ],
          [
            -86.3664593,
            37.0036189
          ],
          [
            -86.3664414,
            37.0036573
          ],
          [
            -86.3664306,
            37.0036951
          ],
          [
            -86.3664233,
            37.0037328
          ],
          [
            -86.3664243,
            37.0037621
          ],
          [
            -86.3664288,
            37.0037914
          ],
          [
            -86.3664351,
            37.0038207
          ],
          [
            -86.3664467,
            37.00385
          ],
          [
            -86.3664662,
            37.0038797
          ],
          [
            -86.3664911,
            37.003915
          ],
          [
            -86.3665328,
            37.0039559
          ],
          [
            -86.3666339,
            37.0040014
          ],
          [
            -86.3667385,
            37.0040415
          ],
          [
            -86.3677702,
            37.0043696
          ],
          [
            -86.3679596,
            37.0044177
          ],
          [
            -86.3681207,
            37.0044412
          ],
          [
            -86.3682853,
            37.0044562
          ],
          [
            -86.3683698,
            37.0044595
          ],
          [
            -86.3684525,
            37.00446
          ],
          [
            -86.3685353,
            37.0044555
          ],
          [
            -86.3686534,
            37.0044418
          ],
          [
            -86.3687795,
            37.0044178
          ],
          [
            -86.3688806,
            37.0043941
          ],
          [
            -86.3689835,
            37.0043647
          ],
          [
            -86.3690897,
            37.0043276
          ],
          [
            -86.3691626,
            37.0042973
          ],
          [
            -86.369224,
            37.0042704
          ],
          [
            -86.3693034,
            37.0042251
          ],
          [
            -86.3693844,
            37.0041736
          ],
          [
            -86.3694623,
            37.0041176
          ],
          [
            -86.3695402,
            37.0040535
          ],
          [
            -86.3697581,
            37.0038554
          ],
          [
            -86.3699231,
            37.0037024
          ],
          [
            -86.3700295,
            37.0036011
          ],
          [
            -86.3701227,
            37.0035007
          ],
          [
            -86.3703377,
            37.0032395
          ],
          [
            -86.3704981,
            37.003031
          ],
          [
            -86.370569,
            37.0029491
          ],
          [
            -86.3706502,
            37.0028667
          ],
          [
            -86.3707365,
            37.0027891
          ],
          [
            -86.3708152,
            37.002716
          ],
          [
            -86.370902,
            37.0026462
          ],
          [
            -86.370971,
            37.0025949
          ],
          [
            -86.3710502,
            37.0025437
          ],
          [
            -86.3712105,
            37.0024485
          ],
          [
            -86.3713597,
            37.0023688
          ],
          [
            -86.3715129,
            37.0022891
          ],
          [
            -86.3718463,
            37.0021149
          ],
          [
            -86.371956,
            37.0020543
          ],
          [
            -86.3720545,
            37.0019934
          ],
          [
            -86.3721428,
            37.0019341
          ],
          [
            -86.372234,
            37.0018626
          ],
          [
            -86.3723921,
            37.0017228
          ],
          [
            -86.372566,
            37.0015699
          ],
          [
            -86.3737279,
            37.0003597
          ],
          [
            -86.3742064,
            36.9998494
          ],
          [
            -86.3742302,
            36.9998163
          ],
          [
            -86.3742528,
            36.9997811
          ],
          [
            -86.3742713,
            36.9997453
          ],
          [
            -86.3742871,
            36.9997084
          ],
          [
            -86.3742975,
            36.9996718
          ],
          [
            -86.3743053,
            36.9996353
          ],
          [
            -86.3743124,
            36.9995987
          ],
          [
            -86.3743155,
            36.9995621
          ],
          [
            -86.3743107,
            36.9995192
          ],
          [
            -86.3742415,
            36.9991577
          ],
          [
            -86.3742246,
            36.999104
          ],
          [
            -86.3741997,
            36.9990541
          ],
          [
            -86.374166,
            36.9990176
          ],
          [
            -86.3741243,
            36.9989886
          ],
          [
            -86.374071,
            36.9989665
          ],
          [
            -86.3740123,
            36.9989541
          ],
          [
            -86.3739542,
            36.9989583
          ],
          [
            -86.3738975,
            36.9989668
          ],
          [
            -86.3725457,
            36.9992122
          ],
          [
            -86.3724867,
            36.9992264
          ],
          [
            -86.3724368,
            36.9992422
          ],
          [
            -86.3723808,
            36.9992652
          ],
          [
            -86.372334,
            36.9992867
          ],
          [
            -86.3719974,
            36.9994431
          ]
        ]
      }
    }
  ]
}
