{
  "type": "FeatureCollection",
  "bbox": [
    51.4475248,
    25.4838421,
    51.4600075,
    25.4971305
  ],
  "metadata": {
    "schemaVersion": 1,
    "trackId": "qa-lusail-international-circuit-152483595",
    "layoutId": "main",
    "license": "ODbL-1.0",
    "attribution": "© OpenStreetMap contributors",
    "closed": true,
    "geometryStatus": "draft",
    "timingStatus": "missing",
    "timingMode": "shared",
    "lengthM": 5425.6,
    "reviewedAt": null,
    "notes": [
      "Connected OSM course candidate. The selected loop is the longest simple source-node cycle after explicit exclusions; its association with a named circuit configuration requires review.",
      "Source way order and shared node IDs are retained. No nearby endpoints are joined and no Racelogic boundaries are read."
    ]
  },
  "features": [
    {
      "type": "Feature",
      "id": "trace",
      "properties": {
        "role": "trace",
        "sourceIds": [
          "osm-snapshot"
        ]
      },
      "geometry": {
        "type": "LineString",
        "coordinates": [
          [
            51.4553322,
            25.4898812
          ],
          [
            51.4554092,
            25.4898625
          ],
          [
            51.4555835,
            25.4898302
          ],
          [
            51.4557593,
            25.489806
          ],
          [
            51.4559363,
            25.4897898
          ],
          [
            51.4560932,
            25.4897824
          ],
          [
            51.4562503,
            25.4897813
          ],
          [
            51.4564073,
            25.4897866
          ],
          [
            51.4565639,
            25.4897983
          ],
          [
            51.4585501,
            25.4900186
          ],
          [
            51.458636,
            25.4900229
          ],
          [
            51.458722,
            25.4900198
          ],
          [
            51.4588073,
            25.4900096
          ],
          [
            51.4588911,
            25.4899921
          ],
          [
            51.4589728,
            25.4899677
          ],
          [
            51.4590516,
            25.4899365
          ],
          [
            51.4591268,
            25.4898988
          ],
          [
            51.4592058,
            25.4898494
          ],
          [
            51.4592786,
            25.4897928
          ],
          [
            51.4593445,
            25.4897296
          ],
          [
            51.4594027,
            25.4896606
          ],
          [
            51.4594527,
            25.4895865
          ],
          [
            51.4599194,
            25.4888238
          ],
          [
            51.4599555,
            25.488758
          ],
          [
            51.4599825,
            25.4886887
          ],
          [
            51.4599999,
            25.4886169
          ],
          [
            51.4600075,
            25.4885438
          ],
          [
            51.4600052,
            25.4884703
          ],
          [
            51.4599953,
            25.4884078
          ],
          [
            51.4599781,
            25.4883466
          ],
          [
            51.459954,
            25.4882874
          ],
          [
            51.4599231,
            25.4882308
          ],
          [
            51.4598858,
            25.4881774
          ],
          [
            51.4591657,
            25.487152
          ],
          [
            51.4591235,
            25.4870983
          ],
          [
            51.4590746,
            25.4870496
          ],
          [
            51.4590196,
            25.4870064
          ],
          [
            51.4589593,
            25.4869694
          ],
          [
            51.4588946,
            25.4869391
          ],
          [
            51.4588264,
            25.4869159
          ],
          [
            51.4587608,
            25.4869011
          ],
          [
            51.4586937,
            25.486893
          ],
          [
            51.4586261,
            25.4868915
          ],
          [
            51.4585588,
            25.4868967
          ],
          [
            51.4584924,
            25.4869087
          ],
          [
            51.4561053,
            25.4873396
          ],
          [
            51.4560353,
            25.4873443
          ],
          [
            51.4559652,
            25.487342
          ],
          [
            51.4558958,
            25.4873327
          ],
          [
            51.455828,
            25.4873166
          ],
          [
            51.4557625,
            25.4872938
          ],
          [
            51.4557002,
            25.4872646
          ],
          [
            51.4556324,
            25.4872227
          ],
          [
            51.455571,
            25.4871733
          ],
          [
            51.4555173,
            25.4871172
          ],
          [
            51.4554721,
            25.4870553
          ],
          [
            51.455436,
            25.4869886
          ],
          [
            51.4547293,
            25.4857435
          ],
          [
            51.4544205,
            25.4851995
          ],
          [
            51.4538857,
            25.4842574
          ],
          [
            51.4537959,
            25.4841061
          ],
          [
            51.4537594,
            25.4840579
          ],
          [
            51.4537174,
            25.4840135
          ],
          [
            51.4536705,
            25.4839733
          ],
          [
            51.4536191,
            25.4839379
          ],
          [
            51.4535639,
            25.4839076
          ],
          [
            51.4534944,
            25.4838788
          ],
          [
            51.4534215,
            25.4838581
          ],
          [
            51.4533463,
            25.4838458
          ],
          [
            51.45327,
            25.4838421
          ],
          [
            51.4531937,
            25.483847
          ],
          [
            51.4531155,
            25.483861
          ],
          [
            51.4530399,
            25.4838839
          ],
          [
            51.4529681,
            25.4839153
          ],
          [
            51.4529014,
            25.4839548
          ],
          [
            51.4528439,
            25.4839989
          ],
          [
            51.4527927,
            25.484049
          ],
          [
            51.4527486,
            25.4841043
          ],
          [
            51.4527122,
            25.484164
          ],
          [
            51.4523517,
            25.4847688
          ],
          [
            51.4497373,
            25.4890496
          ],
          [
            51.449334,
            25.489716
          ],
          [
            51.4487118,
            25.4907474
          ],
          [
            51.4486526,
            25.490834
          ],
          [
            51.4485911,
            25.4909193
          ],
          [
            51.4485278,
            25.4910023
          ],
          [
            51.4484932,
            25.4910466
          ],
          [
            51.448459,
            25.491093
          ],
          [
            51.448419,
            25.491156
          ],
          [
            51.4483711,
            25.4912389
          ],
          [
            51.4479661,
            25.4919501
          ],
          [
            51.447612,
            25.4925402
          ],
          [
            51.4475757,
            25.4926048
          ],
          [
            51.4475488,
            25.4926731
          ],
          [
            51.4475317,
            25.4927439
          ],
          [
            51.4475248,
            25.4928161
          ],
          [
            51.4475281,
            25.4928885
          ],
          [
            51.4475416,
            25.49296
          ],
          [
            51.4475651,
            25.4930293
          ],
          [
            51.4475942,
            25.4930884
          ],
          [
            51.4476305,
            25.4931441
          ],
          [
            51.4476737,
            25.4931957
          ],
          [
            51.447723,
            25.4932426
          ],
          [
            51.447778,
            25.4932841
          ],
          [
            51.4478378,
            25.4933197
          ],
          [
            51.4479017,
            25.4933489
          ],
          [
            51.447963,
            25.4933679
          ],
          [
            51.448026,
            25.4933813
          ],
          [
            51.4480902,
            25.4933889
          ],
          [
            51.448155,
            25.4933906
          ],
          [
            51.4482196,
            25.4933864
          ],
          [
            51.4482982,
            25.4933731
          ],
          [
            51.4483743,
            25.493351
          ],
          [
            51.4484469,
            25.4933206
          ],
          [
            51.4485146,
            25.4932823
          ],
          [
            51.4491107,
            25.4929471
          ],
          [
            51.4497806,
            25.4925705
          ],
          [
            51.4498469,
            25.4925322
          ],
          [
            51.449918,
            25.4925019
          ],
          [
            51.4499929,
            25.4924801
          ],
          [
            51.4500702,
            25.4924672
          ],
          [
            51.4501488,
            25.4924634
          ],
          [
            51.4502272,
            25.4924688
          ],
          [
            51.4503033,
            25.492483
          ],
          [
            51.4503767,
            25.4925058
          ],
          [
            51.4504464,
            25.4925368
          ],
          [
            51.4505111,
            25.4925756
          ],
          [
            51.4505699,
            25.4926215
          ],
          [
            51.4506217,
            25.4926737
          ],
          [
            51.4506657,
            25.4927315
          ],
          [
            51.4506982,
            25.4928051
          ],
          [
            51.4507229,
            25.4928812
          ],
          [
            51.4507395,
            25.4929591
          ],
          [
            51.4507481,
            25.4930418
          ],
          [
            51.4507475,
            25.4931249
          ],
          [
            51.4507355,
            25.4941103
          ],
          [
            51.4507316,
            25.4941867
          ],
          [
            51.450735,
            25.4942631
          ],
          [
            51.4507454,
            25.494339
          ],
          [
            51.450763,
            25.4944138
          ],
          [
            51.4507874,
            25.4944871
          ],
          [
            51.4508186,
            25.4945582
          ],
          [
            51.4508593,
            25.4946313
          ],
          [
            51.4509071,
            25.4947009
          ],
          [
            51.4509616,
            25.4947662
          ],
          [
            51.4510225,
            25.4948269
          ],
          [
            51.4513466,
            25.4951478
          ],
          [
            51.4527592,
            25.4965482
          ],
          [
            51.4531656,
            25.4969574
          ],
          [
            51.4532196,
            25.4970043
          ],
          [
            51.4532798,
            25.4970446
          ],
          [
            51.4533451,
            25.4970778
          ],
          [
            51.4534146,
            25.4971034
          ],
          [
            51.453487,
            25.4971208
          ],
          [
            51.4535613,
            25.4971299
          ],
          [
            51.4536363,
            25.4971305
          ],
          [
            51.4537059,
            25.4971233
          ],
          [
            51.4537741,
            25.4971088
          ],
          [
            51.45384,
            25.4970871
          ],
          [
            51.4539026,
            25.4970587
          ],
          [
            51.453961,
            25.4970237
          ],
          [
            51.4540145,
            25.4969828
          ],
          [
            51.4544156,
            25.496655
          ],
          [
            51.4545389,
            25.4965543
          ],
          [
            51.4545897,
            25.4965107
          ],
          [
            51.4546347,
            25.4964622
          ],
          [
            51.4546733,
            25.4964094
          ],
          [
            51.4547049,
            25.4963529
          ],
          [
            51.4547293,
            25.4962936
          ],
          [
            51.454746,
            25.4962321
          ],
          [
            51.4547548,
            25.4961694
          ],
          [
            51.4547556,
            25.4961068
          ],
          [
            51.4547487,
            25.4960446
          ],
          [
            51.454734,
            25.4959834
          ],
          [
            51.4547118,
            25.4959242
          ],
          [
            51.4546823,
            25.4958675
          ],
          [
            51.454646,
            25.4958143
          ],
          [
            51.4546032,
            25.495765
          ],
          [
            51.4532226,
            25.4943929
          ],
          [
            51.4531914,
            25.4943615
          ],
          [
            51.4531592,
            25.4943242
          ],
          [
            51.4531342,
            25.4942827
          ],
          [
            51.4531172,
            25.4942379
          ],
          [
            51.4531085,
            25.4941913
          ],
          [
            51.4531084,
            25.494144
          ],
          [
            51.453117,
            25.4940974
          ],
          [
            51.453134,
            25.4940526
          ],
          [
            51.4531589,
            25.494011
          ],
          [
            51.4531928,
            25.4939719
          ],
          [
            51.4532337,
            25.4939386
          ],
          [
            51.4532804,
            25.4939123
          ],
          [
            51.4533314,
            25.4938936
          ],
          [
            51.4533853,
            25.4938832
          ],
          [
            51.4534403,
            25.4938813
          ],
          [
            51.4534949,
            25.493888
          ],
          [
            51.4535473,
            25.4939032
          ],
          [
            51.4535961,
            25.4939214
          ],
          [
            51.4560851,
            25.4948208
          ],
          [
            51.4561515,
            25.4948462
          ],
          [
            51.4562206,
            25.4948643
          ],
          [
            51.4562917,
            25.494875
          ],
          [
            51.4563636,
            25.494878
          ],
          [
            51.4564355,
            25.4948733
          ],
          [
            51.4565062,
            25.4948611
          ],
          [
            51.4565748,
            25.4948414
          ],
          [
            51.4566404,
            25.4948145
          ],
          [
            51.4567021,
            25.4947809
          ],
          [
            51.4567605,
            25.4947396
          ],
          [
            51.456813,
            25.4946923
          ],
          [
            51.4568587,
            25.4946395
          ],
          [
            51.456897,
            25.4945822
          ],
          [
            51.4569273,
            25.494521
          ],
          [
            51.4569491,
            25.494457
          ],
          [
            51.4569622,
            25.4943911
          ],
          [
            51.4569665,
            25.4943356
          ],
          [
            51.4569643,
            25.4942799
          ],
          [
            51.4569557,
            25.4942248
          ],
          [
            51.4569408,
            25.4941708
          ],
          [
            51.456918,
            25.494115
          ],
          [
            51.4568885,
            25.4940619
          ],
          [
            51.4568525,
            25.4940121
          ],
          [
            51.4568107,
            25.4939662
          ],
          [
            51.4566846,
            25.4938597
          ],
          [
            51.45647,
            25.4936878
          ],
          [
            51.4563581,
            25.493579
          ],
          [
            51.4562542,
            25.4934639
          ],
          [
            51.4561586,
            25.493343
          ],
          [
            51.4560717,
            25.4932169
          ],
          [
            51.456005,
            25.4931058
          ],
          [
            51.455945,
            25.4929915
          ],
          [
            51.455892,
            25.4928745
          ],
          [
            51.4558461,
            25.492755
          ],
          [
            51.4558075,
            25.4926334
          ],
          [
            51.4557686,
            25.4924761
          ],
          [
            51.4557414,
            25.4923303
          ],
          [
            51.4557301,
            25.4922712
          ],
          [
            51.4557122,
            25.4922135
          ],
          [
            51.4556879,
            25.4921577
          ],
          [
            51.4556573,
            25.4921044
          ],
          [
            51.4556199,
            25.4920531
          ],
          [
            51.4555768,
            25.4920056
          ],
          [
            51.4555283,
            25.4919624
          ],
          [
            51.4554752,
            25.4919241
          ],
          [
            51.4554178,
            25.491891
          ],
          [
            51.4553569,
            25.4918635
          ],
          [
            51.4552362,
            25.4918272
          ],
          [
            51.4543135,
            25.49163
          ],
          [
            51.4539632,
            25.4915551
          ],
          [
            51.4538999,
            25.4915417
          ],
          [
            51.453839,
            25.491521
          ],
          [
            51.4537817,
            25.4914934
          ],
          [
            51.4537288,
            25.4914592
          ],
          [
            51.4536821,
            25.4914199
          ],
          [
            51.4536414,
            25.4913755
          ],
          [
            51.4536073,
            25.4913267
          ],
          [
            51.4535805,
            25.4912745
          ],
          [
            51.4535612,
            25.4912195
          ],
          [
            51.4535533,
            25.491163
          ],
          [
            51.4535532,
            25.4911061
          ],
          [
            51.4535607,
            25.4910496
          ],
          [
            51.4535759,
            25.4909944
          ],
          [
            51.4536,
            25.4909383
          ],
          [
            51.4536318,
            25.4908856
          ],
          [
            51.453671,
            25.490837
          ],
          [
            51.4537168,
            25.4907934
          ],
          [
            51.4538343,
            25.4906781
          ],
          [
            51.4539582,
            25.4905682
          ],
          [
            51.4540652,
            25.4904818
          ],
          [
            51.4541761,
            25.4903994
          ],
          [
            51.4542907,
            25.4903213
          ],
          [
            51.4544241,
            25.4902412
          ],
          [
            51.4545615,
            25.490167
          ],
          [
            51.4547027,
            25.4900988
          ],
          [
            51.4548473,
            25.4900368
          ],
          [
            51.4549844,
            25.4899848
          ],
          [
            51.455124,
            25.4899384
          ],
          [
            51.4552657,
            25.4898976
          ],
          [
            51.4553322,
            25.4898812
          ]
        ]
      }
    }
  ]
}
