{
  "type": "FeatureCollection",
  "bbox": [
    0.2563892,
    51.3572403,
    0.2645863,
    51.3608957
  ],
  "metadata": {
    "schemaVersion": 1,
    "trackId": "gb-brands-hatch-circuit-4906929",
    "layoutId": "brands-hatch-indy",
    "license": "ODbL-1.0",
    "attribution": "© OpenStreetMap contributors",
    "closed": true,
    "geometryStatus": "draft",
    "timingStatus": "missing",
    "timingMode": "shared",
    "lengthM": 1926.8,
    "reviewedAt": null,
    "notes": [
      "Draft route hypothesis: the source cycle is the unique closest nominal-distance match within conservative timing and distance checks. Approximate OSM trace length 1926.8 m. Difference from the supplied layout distance 3.2 m. Course configuration still requires visual review."
    ]
  },
  "features": [
    {
      "type": "Feature",
      "id": "trace",
      "properties": {
        "role": "trace",
        "sourceIds": [
          "osm-network-4906929"
        ]
      },
      "geometry": {
        "type": "LineString",
        "coordinates": [
          [
            0.2635235,
            51.3584522
          ],
          [
            0.2634982,
            51.3588858
          ],
          [
            0.2634767,
            51.3591886
          ],
          [
            0.2634629,
            51.3593244
          ],
          [
            0.2633472,
            51.3595173
          ],
          [
            0.2632732,
            51.3596347
          ],
          [
            0.2631995,
            51.3597479
          ],
          [
            0.2631039,
            51.3598714
          ],
          [
            0.2630088,
            51.3599395
          ],
          [
            0.2628778,
            51.3599879
          ],
          [
            0.2627335,
            51.3600099
          ],
          [
            0.2625425,
            51.3599971
          ],
          [
            0.261794,
            51.3598721
          ],
          [
            0.2611873,
            51.3597684
          ],
          [
            0.260939,
            51.3597231
          ],
          [
            0.2607462,
            51.3596741
          ],
          [
            0.2601756,
            51.3594977
          ],
          [
            0.2593024,
            51.3592023
          ],
          [
            0.2589378,
            51.3590615
          ],
          [
            0.2587386,
            51.3589619
          ],
          [
            0.2585884,
            51.3588479
          ],
          [
            0.2584739,
            51.3587249
          ],
          [
            0.2584111,
            51.3586214
          ],
          [
            0.2583765,
            51.3585048
          ],
          [
            0.2583809,
            51.3581649
          ],
          [
            0.2583686,
            51.3579971
          ],
          [
            0.2583447,
            51.3579224
          ],
          [
            0.2582938,
            51.3578314
          ],
          [
            0.258234,
            51.3577515
          ],
          [
            0.2581221,
            51.3576347
          ],
          [
            0.257994,
            51.3575207
          ],
          [
            0.2578415,
            51.3574115
          ],
          [
            0.2576832,
            51.3573254
          ],
          [
            0.2575112,
            51.3572641
          ],
          [
            0.2573288,
            51.3572403
          ],
          [
            0.2571435,
            51.357247
          ],
          [
            0.2569347,
            51.3573017
          ],
          [
            0.2566958,
            51.3574282
          ],
          [
            0.256533,
            51.3575971
          ],
          [
            0.2564399,
            51.357731
          ],
          [
            0.2564053,
            51.3578338
          ],
          [
            0.2563914,
            51.3578926
          ],
          [
            0.2563892,
            51.3580132
          ],
          [
            0.2564018,
            51.3581022
          ],
          [
            0.2564178,
            51.358187
          ],
          [
            0.2564413,
            51.3582761
          ],
          [
            0.2564783,
            51.3583609
          ],
          [
            0.2565332,
            51.3584751
          ],
          [
            0.2565645,
            51.3585298
          ],
          [
            0.256606,
            51.3585845
          ],
          [
            0.2567101,
            51.3587208
          ],
          [
            0.2568501,
            51.3588874
          ],
          [
            0.2569499,
            51.3589774
          ],
          [
            0.2570549,
            51.359061
          ],
          [
            0.2571469,
            51.3591294
          ],
          [
            0.2572517,
            51.3591963
          ],
          [
            0.2574436,
            51.3593105
          ],
          [
            0.2576477,
            51.3594052
          ],
          [
            0.2578544,
            51.3594936
          ],
          [
            0.258188,
            51.3596307
          ],
          [
            0.2585922,
            51.3597752
          ],
          [
            0.2590558,
            51.3599268
          ],
          [
            0.2595603,
            51.3600842
          ],
          [
            0.260075,
            51.3602384
          ],
          [
            0.2603255,
            51.3603129
          ],
          [
            0.2613811,
            51.3606143
          ],
          [
            0.2615424,
            51.3606617
          ],
          [
            0.2617013,
            51.3607019
          ],
          [
            0.26182,
            51.3607336
          ],
          [
            0.26194,
            51.3607616
          ],
          [
            0.2620613,
            51.3607861
          ],
          [
            0.2621825,
            51.3608102
          ],
          [
            0.262292,
            51.3608278
          ],
          [
            0.2624084,
            51.3608441
          ],
          [
            0.2625725,
            51.3608626
          ],
          [
            0.2627119,
            51.3608762
          ],
          [
            0.2628512,
            51.3608867
          ],
          [
            0.2630608,
            51.3608944
          ],
          [
            0.2632614,
            51.3608957
          ],
          [
            0.263343,
            51.360892
          ],
          [
            0.2634158,
            51.3608851
          ],
          [
            0.2635833,
            51.3608625
          ],
          [
            0.2636771,
            51.3608448
          ],
          [
            0.2637708,
            51.360824
          ],
          [
            0.2638529,
            51.3608013
          ],
          [
            0.2639228,
            51.3607739
          ],
          [
            0.263989,
            51.3607408
          ],
          [
            0.2640533,
            51.3607038
          ],
          [
            0.2641243,
            51.3606566
          ],
          [
            0.2641877,
            51.3606079
          ],
          [
            0.2642687,
            51.3605235
          ],
          [
            0.2643383,
            51.3604279
          ],
          [
            0.2644333,
            51.3602524
          ],
          [
            0.2644879,
            51.3601108
          ],
          [
            0.2645219,
            51.3599007
          ],
          [
            0.2645707,
            51.3595039
          ],
          [
            0.2645863,
            51.3592993
          ],
          [
            0.2645482,
            51.3587821
          ],
          [
            0.2645106,
            51.3583356
          ],
          [
            0.2644921,
            51.3582152
          ],
          [
            0.2644807,
            51.3581826
          ],
          [
            0.2644625,
            51.3581508
          ],
          [
            0.2644477,
            51.35813
          ],
          [
            0.2644296,
            51.3581096
          ],
          [
            0.2644104,
            51.3580919
          ],
          [
            0.2643856,
            51.3580705
          ],
          [
            0.2643371,
            51.358038
          ],
          [
            0.2642653,
            51.3580055
          ],
          [
            0.2641958,
            51.3579813
          ],
          [
            0.2641225,
            51.3579665
          ],
          [
            0.2640847,
            51.3579623
          ],
          [
            0.264047,
            51.3579608
          ],
          [
            0.2639589,
            51.3579621
          ],
          [
            0.2638764,
            51.3579724
          ],
          [
            0.2638196,
            51.357985
          ],
          [
            0.2637717,
            51.3580025
          ],
          [
            0.2637309,
            51.358021
          ],
          [
            0.2636941,
            51.3580409
          ],
          [
            0.2636612,
            51.3580626
          ],
          [
            0.2636306,
            51.3580843
          ],
          [
            0.2636034,
            51.3581087
          ],
          [
            0.2635854,
            51.3581349
          ],
          [
            0.2635715,
            51.3581621
          ],
          [
            0.2635587,
            51.3581944
          ],
          [
            0.2635492,
            51.3582237
          ],
          [
            0.2635455,
            51.3582552
          ],
          [
            0.2635235,
            51.3584522
          ]
        ]
      }
    }
  ]
}
