{
  "type": "FeatureCollection",
  "bbox": [
    100.1658727,
    13.9091837,
    100.1692293,
    13.9138128
  ],
  "metadata": {
    "schemaVersion": 1,
    "trackId": "th-nakhonchaisri-motorsport-complex-c28bb8b6",
    "layoutId": "nakhonchaisri-motorsport-complex",
    "license": "ODbL-1.0",
    "attribution": "© OpenStreetMap contributors",
    "closed": true,
    "geometryStatus": "draft",
    "timingStatus": "missing",
    "timingMode": "shared",
    "lengthM": 2456.3,
    "reviewedAt": null,
    "notes": [
      "Draft route hypothesis: the source cycle is the unique closest nominal-distance match within conservative timing and distance checks. Approximate OSM trace length 2456.3 m. Difference from the supplied layout distance 8.7 m. Course configuration still requires visual review."
    ]
  },
  "features": [
    {
      "type": "Feature",
      "id": "trace",
      "properties": {
        "role": "trace",
        "sourceIds": [
          "osm-network-152598337"
        ]
      },
      "geometry": {
        "type": "LineString",
        "coordinates": [
          [
            100.1659387,
            13.91222
          ],
          [
            100.1658727,
            13.910548
          ],
          [
            100.1658862,
            13.9104362
          ],
          [
            100.165921,
            13.9103657
          ],
          [
            100.1659748,
            13.9103111
          ],
          [
            100.1660498,
            13.9102772
          ],
          [
            100.1661499,
            13.9102669
          ],
          [
            100.1662429,
            13.9102772
          ],
          [
            100.1663663,
            13.9103397
          ],
          [
            100.1664239,
            13.9103818
          ],
          [
            100.1664575,
            13.9104438
          ],
          [
            100.1664628,
            13.9106053
          ],
          [
            100.1663926,
            13.9108591
          ],
          [
            100.1662896,
            13.9112483
          ],
          [
            100.1663073,
            13.9113134
          ],
          [
            100.1663716,
            13.9113863
          ],
          [
            100.1664575,
            13.9113863
          ],
          [
            100.1665265,
            13.9113463
          ],
          [
            100.1665701,
            13.9113082
          ],
          [
            100.1670636,
            13.9101731
          ],
          [
            100.1671263,
            13.9101107
          ],
          [
            100.1672031,
            13.9100689
          ],
          [
            100.167643,
            13.9099596
          ],
          [
            100.1677357,
            13.90993
          ],
          [
            100.1677717,
            13.9098867
          ],
          [
            100.1678576,
            13.9096628
          ],
          [
            100.167938,
            13.9095482
          ],
          [
            100.168394,
            13.9092254
          ],
          [
            100.1684789,
            13.9091977
          ],
          [
            100.1685496,
            13.9091837
          ],
          [
            100.1686033,
            13.9092152
          ],
          [
            100.1686445,
            13.9092592
          ],
          [
            100.1686721,
            13.9093416
          ],
          [
            100.1686714,
            13.9094102
          ],
          [
            100.1685925,
            13.9095638
          ],
          [
            100.1682188,
            13.9099657
          ],
          [
            100.1673962,
            13.91085
          ],
          [
            100.1668368,
            13.9114835
          ],
          [
            100.166488,
            13.9118784
          ],
          [
            100.1663754,
            13.9120086
          ],
          [
            100.166339,
            13.9121097
          ],
          [
            100.1663239,
            13.9121833
          ],
          [
            100.1663448,
            13.9123184
          ],
          [
            100.1664199,
            13.9125996
          ],
          [
            100.1665407,
            13.9129908
          ],
          [
            100.1665647,
            13.9130526
          ],
          [
            100.1666291,
            13.9131307
          ],
          [
            100.1667257,
            13.9131619
          ],
          [
            100.166833,
            13.9131307
          ],
          [
            100.1668812,
            13.9130317
          ],
          [
            100.1668812,
            13.9125579
          ],
          [
            100.1669242,
            13.9122871
          ],
          [
            100.1670046,
            13.9121882
          ],
          [
            100.1671334,
            13.912157
          ],
          [
            100.1674713,
            13.9122142
          ],
          [
            100.1675625,
            13.9122142
          ],
          [
            100.1676484,
            13.9121778
          ],
          [
            100.1683028,
            13.9116883
          ],
          [
            100.1684477,
            13.9116154
          ],
          [
            100.168614,
            13.911579
          ],
          [
            100.1687856,
            13.9115998
          ],
          [
            100.1688983,
            13.9116727
          ],
          [
            100.1689787,
            13.9118237
          ],
          [
            100.1692255,
            13.9134743
          ],
          [
            100.1692293,
            13.9135551
          ],
          [
            100.1691863,
            13.9136332
          ],
          [
            100.1690951,
            13.9136592
          ],
          [
            100.1689895,
            13.9136149
          ],
          [
            100.1679005,
            13.912761
          ],
          [
            100.1677771,
            13.9127141
          ],
          [
            100.1676323,
            13.9127454
          ],
          [
            100.1675787,
            13.9127838
          ],
          [
            100.167525,
            13.9128703
          ],
          [
            100.1674024,
            13.9131479
          ],
          [
            100.1672836,
            13.9134275
          ],
          [
            100.1671425,
            13.91368
          ],
          [
            100.1669655,
            13.913805
          ],
          [
            100.1667632,
            13.9138128
          ],
          [
            100.1665755,
            13.9137347
          ],
          [
            100.1664736,
            13.9136287
          ],
          [
            100.1663716,
            13.9134952
          ],
          [
            100.1661862,
            13.9131344
          ],
          [
            100.1661249,
            13.9129953
          ],
          [
            100.1660363,
            13.9127991
          ],
          [
            100.1659854,
            13.9125735
          ],
          [
            100.1659387,
            13.91222
          ]
        ]
      }
    }
  ]
}
