{
  "type": "FeatureCollection",
  "bbox": [
    -3.6253263,
    40.4642982,
    -3.611921,
    40.4806342
  ],
  "metadata": {
    "schemaVersion": 1,
    "trackId": "es-madring-a3263d76",
    "layoutId": "madring",
    "license": "ODbL-1.0",
    "attribution": "© OpenStreetMap contributors",
    "closed": true,
    "geometryStatus": "draft",
    "timingStatus": "missing",
    "timingMode": "shared",
    "lengthM": 5442.2,
    "reviewedAt": null,
    "notes": [
      "Draft configuration selected from the independently named circuit relation 18813472. The source route passes timing and course-distance checks. Layout identity and travel direction still require visual review.",
      "Source one-way tags are preserved. Relation routes can follow a race-day direction different from ordinary road use; travel direction is provisional."
    ]
  },
  "features": [
    {
      "type": "Feature",
      "id": "trace",
      "properties": {
        "role": "trace",
        "sourceIds": [
          "osm-circuit-18813472"
        ]
      },
      "geometry": {
        "type": "LineString",
        "coordinates": [
          [
            -3.6139199,
            40.4655505
          ],
          [
            -3.6121094,
            40.4658138
          ],
          [
            -3.6120437,
            40.4658437
          ],
          [
            -3.6119807,
            40.4658957
          ],
          [
            -3.6119418,
            40.4659508
          ],
          [
            -3.611921,
            40.4660015
          ],
          [
            -3.6121166,
            40.4668009
          ],
          [
            -3.6125172,
            40.4684386
          ],
          [
            -3.6125506,
            40.4684893
          ],
          [
            -3.6125842,
            40.468527
          ],
          [
            -3.6126499,
            40.4685638
          ],
          [
            -3.6127599,
            40.4685842
          ],
          [
            -3.6131333,
            40.4685749
          ],
          [
            -3.6137723,
            40.4685067
          ],
          [
            -3.6139492,
            40.4684878
          ],
          [
            -3.6140178,
            40.4684668
          ],
          [
            -3.6143772,
            40.4682878
          ],
          [
            -3.6145308,
            40.4682764
          ],
          [
            -3.6145956,
            40.4685437
          ],
          [
            -3.6150867,
            40.4707598
          ],
          [
            -3.6151894,
            40.4709474
          ],
          [
            -3.6152366,
            40.4710273
          ],
          [
            -3.6152904,
            40.4710976
          ],
          [
            -3.6153456,
            40.4711564
          ],
          [
            -3.6153986,
            40.4712058
          ],
          [
            -3.6154787,
            40.4712742
          ],
          [
            -3.6155575,
            40.4713238
          ],
          [
            -3.6156736,
            40.4713675
          ],
          [
            -3.6158374,
            40.4714025
          ],
          [
            -3.6159985,
            40.4714284
          ],
          [
            -3.6162146,
            40.4714407
          ],
          [
            -3.6164619,
            40.4714363
          ],
          [
            -3.6166822,
            40.4714342
          ],
          [
            -3.616995,
            40.4714135
          ],
          [
            -3.6172411,
            40.4714073
          ],
          [
            -3.6175683,
            40.4714288
          ],
          [
            -3.6177776,
            40.4714777
          ],
          [
            -3.6179587,
            40.4715644
          ],
          [
            -3.6181083,
            40.4716693
          ],
          [
            -3.6181424,
            40.4717236
          ],
          [
            -3.6181852,
            40.4717842
          ],
          [
            -3.6182659,
            40.4719352
          ],
          [
            -3.6184305,
            40.4721795
          ],
          [
            -3.6186623,
            40.4724672
          ],
          [
            -3.6188896,
            40.4726371
          ],
          [
            -3.6191025,
            40.472986
          ],
          [
            -3.6191848,
            40.4731131
          ],
          [
            -3.6192678,
            40.4731835
          ],
          [
            -3.6193283,
            40.4732147
          ],
          [
            -3.6194061,
            40.4732173
          ],
          [
            -3.6194577,
            40.4732047
          ],
          [
            -3.6197523,
            40.4730638
          ],
          [
            -3.6199891,
            40.472984
          ],
          [
            -3.6201671,
            40.4729525
          ],
          [
            -3.6203289,
            40.4729414
          ],
          [
            -3.6212438,
            40.4729479
          ],
          [
            -3.6215241,
            40.472969
          ],
          [
            -3.6217403,
            40.4729966
          ],
          [
            -3.6219426,
            40.4730565
          ],
          [
            -3.6221244,
            40.4731408
          ],
          [
            -3.6223361,
            40.4732688
          ],
          [
            -3.6225238,
            40.4734145
          ],
          [
            -3.6226541,
            40.4735482
          ],
          [
            -3.6227598,
            40.4737119
          ],
          [
            -3.6228083,
            40.4738774
          ],
          [
            -3.6228315,
            40.4741034
          ],
          [
            -3.6228687,
            40.4748712
          ],
          [
            -3.6228754,
            40.4750075
          ],
          [
            -3.6229044,
            40.4751633
          ],
          [
            -3.6229632,
            40.4752816
          ],
          [
            -3.6230537,
            40.4753941
          ],
          [
            -3.6231747,
            40.4754894
          ],
          [
            -3.623348,
            40.4755955
          ],
          [
            -3.6240986,
            40.4760239
          ],
          [
            -3.6244971,
            40.4762555
          ],
          [
            -3.6245659,
            40.4763238
          ],
          [
            -3.624601,
            40.4763948
          ],
          [
            -3.6245957,
            40.4764766
          ],
          [
            -3.6245433,
            40.4765825
          ],
          [
            -3.6241877,
            40.4769857
          ],
          [
            -3.6235441,
            40.477653
          ],
          [
            -3.6228664,
            40.47833
          ],
          [
            -3.6224625,
            40.4788002
          ],
          [
            -3.6223701,
            40.4789345
          ],
          [
            -3.622298,
            40.4790842
          ],
          [
            -3.6222412,
            40.4792689
          ],
          [
            -3.6222124,
            40.479467
          ],
          [
            -3.6222127,
            40.4796463
          ],
          [
            -3.6222385,
            40.4798032
          ],
          [
            -3.6222896,
            40.4799515
          ],
          [
            -3.6223832,
            40.4800954
          ],
          [
            -3.622493,
            40.4802087
          ],
          [
            -3.6226663,
            40.4803553
          ],
          [
            -3.6228267,
            40.4804585
          ],
          [
            -3.6230372,
            40.4805452
          ],
          [
            -3.6232482,
            40.4805954
          ],
          [
            -3.6234636,
            40.4806306
          ],
          [
            -3.6237023,
            40.4806342
          ],
          [
            -3.6239456,
            40.4806046
          ],
          [
            -3.6241671,
            40.4805487
          ],
          [
            -3.6243488,
            40.4804808
          ],
          [
            -3.624507,
            40.4803816
          ],
          [
            -3.6246238,
            40.4802895
          ],
          [
            -3.6247272,
            40.4801553
          ],
          [
            -3.6248092,
            40.4800042
          ],
          [
            -3.624855,
            40.4798455
          ],
          [
            -3.6248622,
            40.4797111
          ],
          [
            -3.624819,
            40.4795638
          ],
          [
            -3.6247412,
            40.4794168
          ],
          [
            -3.6243375,
            40.4786402
          ],
          [
            -3.6242722,
            40.4784562
          ],
          [
            -3.624264,
            40.4783262
          ],
          [
            -3.6242969,
            40.4782023
          ],
          [
            -3.6243544,
            40.478111
          ],
          [
            -3.6244373,
            40.478024
          ],
          [
            -3.6245669,
            40.4779328
          ],
          [
            -3.6250091,
            40.4777059
          ],
          [
            -3.625152,
            40.4776175
          ],
          [
            -3.6252226,
            40.4775601
          ],
          [
            -3.6252529,
            40.4775111
          ],
          [
            -3.6252789,
            40.4774412
          ],
          [
            -3.625303,
            40.4773559
          ],
          [
            -3.6253,
            40.4761471
          ],
          [
            -3.6252853,
            40.4760421
          ],
          [
            -3.6252424,
            40.4759538
          ],
          [
            -3.6248783,
            40.4754556
          ],
          [
            -3.6248451,
            40.4753751
          ],
          [
            -3.624831,
            40.4753032
          ],
          [
            -3.6248288,
            40.4752225
          ],
          [
            -3.6248434,
            40.4751293
          ],
          [
            -3.6248715,
            40.4750642
          ],
          [
            -3.6249271,
            40.4750163
          ],
          [
            -3.6249948,
            40.4749746
          ],
          [
            -3.6250848,
            40.4749219
          ],
          [
            -3.6251727,
            40.4748683
          ],
          [
            -3.625269,
            40.4748131
          ],
          [
            -3.6253024,
            40.4747816
          ],
          [
            -3.6253195,
            40.4747509
          ],
          [
            -3.6253263,
            40.4747226
          ],
          [
            -3.6253242,
            40.474694
          ],
          [
            -3.6253066,
            40.4746559
          ],
          [
            -3.6252313,
            40.4745697
          ],
          [
            -3.6251773,
            40.4745176
          ],
          [
            -3.6251457,
            40.4744538
          ],
          [
            -3.6251266,
            40.4743913
          ],
          [
            -3.6249798,
            40.4738883
          ],
          [
            -3.6248618,
            40.4735812
          ],
          [
            -3.6248382,
            40.4735191
          ],
          [
            -3.624805,
            40.4734315
          ],
          [
            -3.6247787,
            40.4733836
          ],
          [
            -3.6245753,
            40.4731925
          ],
          [
            -3.6243455,
            40.4729851
          ],
          [
            -3.6241666,
            40.4727803
          ],
          [
            -3.6239068,
            40.472194
          ],
          [
            -3.6238818,
            40.4721265
          ],
          [
            -3.6238943,
            40.4720849
          ],
          [
            -3.6239362,
            40.4720634
          ],
          [
            -3.6240006,
            40.4720362
          ],
          [
            -3.6240547,
            40.472009
          ],
          [
            -3.6241007,
            40.4719742
          ],
          [
            -3.6241304,
            40.4719419
          ],
          [
            -3.624153,
            40.4719065
          ],
          [
            -3.6241681,
            40.4718687
          ],
          [
            -3.6241751,
            40.4718296
          ],
          [
            -3.6241736,
            40.4717881
          ],
          [
            -3.6241631,
            40.4717472
          ],
          [
            -3.6241438,
            40.4717082
          ],
          [
            -3.6241162,
            40.4716722
          ],
          [
            -3.6240427,
            40.4715885
          ],
          [
            -3.6240317,
            40.4715516
          ],
          [
            -3.6240427,
            40.4714974
          ],
          [
            -3.624116,
            40.4714033
          ],
          [
            -3.6241828,
            40.4713148
          ],
          [
            -3.6243029,
            40.4711127
          ],
          [
            -3.6243838,
            40.470955
          ],
          [
            -3.62446,
            40.4707754
          ],
          [
            -3.624514,
            40.4706204
          ],
          [
            -3.6245633,
            40.4704483
          ],
          [
            -3.6246003,
            40.4702566
          ],
          [
            -3.624614,
            40.4700929
          ],
          [
            -3.6246145,
            40.4699175
          ],
          [
            -3.6246146,
            40.4698651
          ],
          [
            -3.6246044,
            40.4696843
          ],
          [
            -3.6245719,
            40.4694748
          ],
          [
            -3.6245291,
            40.4693125
          ],
          [
            -3.6244512,
            40.4690245
          ],
          [
            -3.6243708,
            40.4688354
          ],
          [
            -3.6243046,
            40.4686398
          ],
          [
            -3.6242053,
            40.4684442
          ],
          [
            -3.6241468,
            40.4683228
          ],
          [
            -3.6239413,
            40.4680084
          ],
          [
            -3.6238301,
            40.4678372
          ],
          [
            -3.6234282,
            40.4673575
          ],
          [
            -3.6214382,
            40.4649706
          ],
          [
            -3.6211563,
            40.4646324
          ],
          [
            -3.6208816,
            40.4645071
          ],
          [
            -3.6206912,
            40.4644386
          ],
          [
            -3.6204441,
            40.464367
          ],
          [
            -3.62022,
            40.4643218
          ],
          [
            -3.6200631,
            40.4642982
          ],
          [
            -3.6194254,
            40.4643266
          ],
          [
            -3.6193354,
            40.464357
          ],
          [
            -3.6192971,
            40.4643913
          ],
          [
            -3.6192732,
            40.4644311
          ],
          [
            -3.6192546,
            40.4647327
          ],
          [
            -3.6192233,
            40.4647944
          ],
          [
            -3.6191743,
            40.464838
          ],
          [
            -3.6187017,
            40.4649269
          ],
          [
            -3.618206,
            40.4649844
          ],
          [
            -3.618137,
            40.4649924
          ],
          [
            -3.6168753,
            40.4651536
          ],
          [
            -3.6167552,
            40.4651689
          ],
          [
            -3.6164224,
            40.4652127
          ],
          [
            -3.61631,
            40.4652279
          ],
          [
            -3.616069,
            40.4652604
          ],
          [
            -3.6139199,
            40.4655505
          ]
        ]
      }
    }
  ]
}
