{
  "type": "FeatureCollection",
  "bbox": [
    -1.0217051,
    52.0728998,
    -1.0095276,
    52.0789393
  ],
  "metadata": {
    "schemaVersion": 1,
    "trackId": "gb-silverstone-circuit-3571477",
    "layoutId": "silverstone-national",
    "license": "ODbL-1.0",
    "attribution": "© OpenStreetMap contributors",
    "closed": true,
    "geometryStatus": "draft",
    "timingStatus": "missing",
    "timingMode": "shared",
    "lengthM": 2635.1,
    "reviewedAt": null,
    "notes": [
      "Draft route hypothesis: the source cycle is the unique closest nominal-distance match within conservative timing and distance checks. Approximate OSM trace length 2635.1 m. Difference from the supplied layout distance 3.9 m. Course configuration still requires visual review."
    ]
  },
  "features": [
    {
      "type": "Feature",
      "id": "trace",
      "properties": {
        "role": "trace",
        "sourceIds": [
          "osm-network-3571477"
        ]
      },
      "geometry": {
        "type": "LineString",
        "coordinates": [
          [
            -1.0201437,
            52.0762189
          ],
          [
            -1.0201628,
            52.0761507
          ],
          [
            -1.0201942,
            52.0760895
          ],
          [
            -1.0202189,
            52.0760579
          ],
          [
            -1.0202486,
            52.0760267
          ],
          [
            -1.020284,
            52.0759943
          ],
          [
            -1.0203248,
            52.0759609
          ],
          [
            -1.0203645,
            52.0759326
          ],
          [
            -1.0204108,
            52.0759076
          ],
          [
            -1.0204713,
            52.0758768
          ],
          [
            -1.0205134,
            52.0758579
          ],
          [
            -1.0205513,
            52.0758427
          ],
          [
            -1.020584,
            52.0758331
          ],
          [
            -1.0206194,
            52.0758237
          ],
          [
            -1.0206674,
            52.0758107
          ],
          [
            -1.0207213,
            52.0757987
          ],
          [
            -1.0207698,
            52.0757915
          ],
          [
            -1.0208145,
            52.0757881
          ],
          [
            -1.0208669,
            52.0757849
          ],
          [
            -1.0209259,
            52.0757829
          ],
          [
            -1.0209774,
            52.0757841
          ],
          [
            -1.0210347,
            52.0757881
          ],
          [
            -1.021083,
            52.0757943
          ],
          [
            -1.0211375,
            52.0758051
          ],
          [
            -1.0211887,
            52.0758167
          ],
          [
            -1.0212488,
            52.0758331
          ],
          [
            -1.0213182,
            52.0758552
          ],
          [
            -1.0213711,
            52.0758764
          ],
          [
            -1.0214165,
            52.0758975
          ],
          [
            -1.0214524,
            52.0759185
          ],
          [
            -1.0214864,
            52.0759404
          ],
          [
            -1.021519,
            52.0759651
          ],
          [
            -1.0215629,
            52.0760025
          ],
          [
            -1.0215781,
            52.076018
          ],
          [
            -1.0216054,
            52.0760465
          ],
          [
            -1.0216297,
            52.0760758
          ],
          [
            -1.0216463,
            52.0761026
          ],
          [
            -1.0216611,
            52.0761258
          ],
          [
            -1.021673,
            52.0761482
          ],
          [
            -1.0216826,
            52.0761678
          ],
          [
            -1.0216896,
            52.0761882
          ],
          [
            -1.021697,
            52.076211
          ],
          [
            -1.0217019,
            52.0762398
          ],
          [
            -1.0217051,
            52.0762608
          ],
          [
            -1.0217041,
            52.0762856
          ],
          [
            -1.0217019,
            52.0763074
          ],
          [
            -1.0216983,
            52.0763315
          ],
          [
            -1.021691,
            52.0763632
          ],
          [
            -1.0216781,
            52.0763961
          ],
          [
            -1.0216635,
            52.0764314
          ],
          [
            -1.0216333,
            52.0764763
          ],
          [
            -1.0216047,
            52.076512
          ],
          [
            -1.021363,
            52.0768042
          ],
          [
            -1.0210848,
            52.0771545
          ],
          [
            -1.0208748,
            52.0774173
          ],
          [
            -1.0207788,
            52.077537
          ],
          [
            -1.0207536,
            52.0775662
          ],
          [
            -1.0207252,
            52.0775992
          ],
          [
            -1.0206953,
            52.0776285
          ],
          [
            -1.0206664,
            52.0776564
          ],
          [
            -1.0206141,
            52.0777061
          ],
          [
            -1.020564,
            52.0777493
          ],
          [
            -1.0205181,
            52.0777835
          ],
          [
            -1.0204442,
            52.077836
          ],
          [
            -1.0203585,
            52.0778956
          ],
          [
            -1.0202712,
            52.0779555
          ],
          [
            -1.0201947,
            52.0780075
          ],
          [
            -1.0201193,
            52.0780531
          ],
          [
            -1.0199363,
            52.0781546
          ],
          [
            -1.0197369,
            52.078252
          ],
          [
            -1.0196425,
            52.078295
          ],
          [
            -1.0195617,
            52.0783307
          ],
          [
            -1.019497,
            52.078359
          ],
          [
            -1.0193471,
            52.0784142
          ],
          [
            -1.0192069,
            52.0784609
          ],
          [
            -1.0191066,
            52.0784885
          ],
          [
            -1.0190105,
            52.0785123
          ],
          [
            -1.0188829,
            52.0785388
          ],
          [
            -1.0187273,
            52.078566
          ],
          [
            -1.0186039,
            52.0785849
          ],
          [
            -1.0184882,
            52.0785987
          ],
          [
            -1.0183587,
            52.0786117
          ],
          [
            -1.0182272,
            52.0786235
          ],
          [
            -1.0180586,
            52.078636
          ],
          [
            -1.0178209,
            52.0786532
          ],
          [
            -1.0171968,
            52.0786915
          ],
          [
            -1.0152527,
            52.0788052
          ],
          [
            -1.0127209,
            52.0789308
          ],
          [
            -1.0124397,
            52.0789375
          ],
          [
            -1.012361,
            52.0789393
          ],
          [
            -1.0122953,
            52.0789384
          ],
          [
            -1.0122233,
            52.0789354
          ],
          [
            -1.0121556,
            52.0789277
          ],
          [
            -1.0120449,
            52.078909
          ],
          [
            -1.0119548,
            52.0788878
          ],
          [
            -1.0118663,
            52.0788642
          ],
          [
            -1.0117639,
            52.078833
          ],
          [
            -1.0116497,
            52.0787895
          ],
          [
            -1.0115147,
            52.0787237
          ],
          [
            -1.0114256,
            52.0786714
          ],
          [
            -1.0113689,
            52.0786319
          ],
          [
            -1.0113146,
            52.0785897
          ],
          [
            -1.0112692,
            52.0785473
          ],
          [
            -1.0112258,
            52.0785033
          ],
          [
            -1.0111833,
            52.0784522
          ],
          [
            -1.0111061,
            52.0783302
          ],
          [
            -1.0110336,
            52.0782038
          ],
          [
            -1.0109742,
            52.0781023
          ],
          [
            -1.0109273,
            52.0780046
          ],
          [
            -1.0108605,
            52.0778624
          ],
          [
            -1.0107016,
            52.0775156
          ],
          [
            -1.0105945,
            52.0772417
          ],
          [
            -1.0105465,
            52.0770894
          ],
          [
            -1.0104812,
            52.0768832
          ],
          [
            -1.0104248,
            52.0766657
          ],
          [
            -1.0104016,
            52.0765452
          ],
          [
            -1.0103834,
            52.076424
          ],
          [
            -1.0103586,
            52.0762489
          ],
          [
            -1.0103385,
            52.0760817
          ],
          [
            -1.0103123,
            52.0758356
          ],
          [
            -1.0102858,
            52.0755615
          ],
          [
            -1.0102559,
            52.0751509
          ],
          [
            -1.0102347,
            52.0747434
          ],
          [
            -1.0102276,
            52.0746332
          ],
          [
            -1.0102188,
            52.0745295
          ],
          [
            -1.01021,
            52.0744703
          ],
          [
            -1.0101978,
            52.0744118
          ],
          [
            -1.0101794,
            52.0743517
          ],
          [
            -1.0101542,
            52.0742823
          ],
          [
            -1.0101182,
            52.0742065
          ],
          [
            -1.010091,
            52.0741617
          ],
          [
            -1.0100551,
            52.0741078
          ],
          [
            -1.0100111,
            52.0740454
          ],
          [
            -1.0099654,
            52.0739838
          ],
          [
            -1.0099305,
            52.073939
          ],
          [
            -1.0098943,
            52.0739011
          ],
          [
            -1.009845,
            52.0738485
          ],
          [
            -1.0097931,
            52.0738005
          ],
          [
            -1.0096513,
            52.0736655
          ],
          [
            -1.0096117,
            52.0736213
          ],
          [
            -1.0095838,
            52.0735771
          ],
          [
            -1.0095574,
            52.0735288
          ],
          [
            -1.0095469,
            52.0735025
          ],
          [
            -1.0095391,
            52.073474
          ],
          [
            -1.0095336,
            52.0734492
          ],
          [
            -1.0095295,
            52.0734176
          ],
          [
            -1.0095288,
            52.0733936
          ],
          [
            -1.0095276,
            52.0733678
          ],
          [
            -1.0095305,
            52.0733339
          ],
          [
            -1.0095347,
            52.0733083
          ],
          [
            -1.0095402,
            52.0732846
          ],
          [
            -1.0095484,
            52.0732593
          ],
          [
            -1.0095642,
            52.0732234
          ],
          [
            -1.0095852,
            52.0731811
          ],
          [
            -1.0096001,
            52.0731513
          ],
          [
            -1.0096291,
            52.0731007
          ],
          [
            -1.0096448,
            52.0730825
          ],
          [
            -1.0096595,
            52.0730673
          ],
          [
            -1.0096907,
            52.073043
          ],
          [
            -1.0097287,
            52.0730226
          ],
          [
            -1.0097726,
            52.073003
          ],
          [
            -1.0098182,
            52.0729828
          ],
          [
            -1.0098644,
            52.0729636
          ],
          [
            -1.0099241,
            52.0729436
          ],
          [
            -1.0099771,
            52.0729318
          ],
          [
            -1.0100389,
            52.0729199
          ],
          [
            -1.0100974,
            52.0729127
          ],
          [
            -1.0101519,
            52.0729067
          ],
          [
            -1.0101925,
            52.0729036
          ],
          [
            -1.0102283,
            52.072901
          ],
          [
            -1.0102658,
            52.0728998
          ],
          [
            -1.0102924,
            52.0729014
          ],
          [
            -1.0103217,
            52.0729031
          ],
          [
            -1.0103531,
            52.072907
          ],
          [
            -1.0103801,
            52.0729101
          ],
          [
            -1.0104087,
            52.0729135
          ],
          [
            -1.0106021,
            52.0729392
          ],
          [
            -1.0110105,
            52.0729899
          ],
          [
            -1.0110773,
            52.0729978
          ],
          [
            -1.0111755,
            52.0730111
          ],
          [
            -1.0112169,
            52.0730185
          ],
          [
            -1.0112582,
            52.0730264
          ],
          [
            -1.0113009,
            52.0730369
          ],
          [
            -1.0113472,
            52.0730492
          ],
          [
            -1.0113897,
            52.0730632
          ],
          [
            -1.0114273,
            52.0730794
          ],
          [
            -1.0114961,
            52.0731083
          ],
          [
            -1.0115636,
            52.0731401
          ],
          [
            -1.0116136,
            52.0731668
          ],
          [
            -1.0117476,
            52.0732314
          ],
          [
            -1.0119989,
            52.0733689
          ],
          [
            -1.0123136,
            52.0735575
          ],
          [
            -1.0126005,
            52.0737199
          ],
          [
            -1.0128874,
            52.0738799
          ],
          [
            -1.0148965,
            52.0750079
          ],
          [
            -1.0158806,
            52.0755556
          ],
          [
            -1.0164331,
            52.0758663
          ],
          [
            -1.0165518,
            52.0759323
          ],
          [
            -1.0175337,
            52.0764747
          ],
          [
            -1.0184893,
            52.0769957
          ],
          [
            -1.018578,
            52.0770364
          ],
          [
            -1.0186453,
            52.0770626
          ],
          [
            -1.0187034,
            52.0770809
          ],
          [
            -1.0187702,
            52.0770994
          ],
          [
            -1.0188413,
            52.0771169
          ],
          [
            -1.0189099,
            52.0771294
          ],
          [
            -1.0189668,
            52.0771391
          ],
          [
            -1.0190163,
            52.0771455
          ],
          [
            -1.0190544,
            52.07715
          ],
          [
            -1.019129,
            52.0771544
          ],
          [
            -1.0192039,
            52.0771547
          ],
          [
            -1.0192788,
            52.0771549
          ],
          [
            -1.0193529,
            52.0771517
          ],
          [
            -1.0194277,
            52.0771449
          ],
          [
            -1.0195,
            52.0771361
          ],
          [
            -1.0195705,
            52.0771226
          ],
          [
            -1.0196414,
            52.077107
          ],
          [
            -1.0197104,
            52.0770866
          ],
          [
            -1.0197409,
            52.077077
          ],
          [
            -1.019799,
            52.0770558
          ],
          [
            -1.0198216,
            52.0770456
          ],
          [
            -1.0198498,
            52.0770311
          ],
          [
            -1.0198722,
            52.0770182
          ],
          [
            -1.0199124,
            52.0769912
          ],
          [
            -1.0199317,
            52.0769769
          ],
          [
            -1.0199566,
            52.0769585
          ],
          [
            -1.0199767,
            52.0769401
          ],
          [
            -1.0199969,
            52.0769183
          ],
          [
            -1.0200145,
            52.0768934
          ],
          [
            -1.020034,
            52.0768626
          ],
          [
            -1.0200481,
            52.0768286
          ],
          [
            -1.0200546,
            52.0767966
          ],
          [
            -1.0201437,
            52.0762189
          ]
        ]
      }
    }
  ]
}
