{
  "type": "FeatureCollection",
  "bbox": [
    -1.0243291,
    52.0635168,
    -1.0105698,
    52.0725319
  ],
  "metadata": {
    "schemaVersion": 1,
    "trackId": "gb-silverstone-circuit-3571477",
    "layoutId": "silverstone-international",
    "license": "ODbL-1.0",
    "attribution": "© OpenStreetMap contributors",
    "closed": true,
    "geometryStatus": "draft",
    "timingStatus": "missing",
    "timingMode": "shared",
    "lengthM": 2975.9,
    "reviewedAt": null,
    "notes": [
      "Draft configuration: Historical southern international configuration uses the rounded southern outer corner and northern shoulder; the additional northern zigzag branch is excluded. Branch identity was checked against catalogue layout facts and circuit identification references. Independent source distance 2975.9 m; no coordinates are changed to match a diagram or distance. Travel direction and historical alignment remain provisional."
    ]
  },
  "features": [
    {
      "type": "Feature",
      "id": "trace",
      "properties": {
        "role": "trace",
        "sourceIds": [
          "osm-selection-3571477"
        ]
      },
      "geometry": {
        "type": "LineString",
        "coordinates": [
          [
            -1.0112691,
            52.0697491
          ],
          [
            -1.0113212,
            52.069696
          ],
          [
            -1.011383,
            52.0696242
          ],
          [
            -1.0124189,
            52.0684607
          ],
          [
            -1.0132389,
            52.0674961
          ],
          [
            -1.0143761,
            52.066173
          ],
          [
            -1.0147775,
            52.0657184
          ],
          [
            -1.0149618,
            52.0655057
          ],
          [
            -1.015154,
            52.065292
          ],
          [
            -1.0152161,
            52.0652282
          ],
          [
            -1.0153372,
            52.0651012
          ],
          [
            -1.0154237,
            52.0650114
          ],
          [
            -1.0154831,
            52.0649526
          ],
          [
            -1.0155381,
            52.0648992
          ],
          [
            -1.0156514,
            52.0647868
          ],
          [
            -1.0157556,
            52.0646862
          ],
          [
            -1.0159301,
            52.0645244
          ],
          [
            -1.0160682,
            52.0643993
          ],
          [
            -1.0161379,
            52.0643359
          ],
          [
            -1.0161973,
            52.0642818
          ],
          [
            -1.0163368,
            52.0641612
          ],
          [
            -1.0164228,
            52.0640892
          ],
          [
            -1.0165217,
            52.0640018
          ],
          [
            -1.0166265,
            52.0639144
          ],
          [
            -1.016703,
            52.0638531
          ],
          [
            -1.0167539,
            52.0638151
          ],
          [
            -1.0168125,
            52.0637751
          ],
          [
            -1.0168585,
            52.063746
          ],
          [
            -1.0169015,
            52.0637214
          ],
          [
            -1.0169546,
            52.0636942
          ],
          [
            -1.0169896,
            52.0636771
          ],
          [
            -1.0170291,
            52.0636582
          ],
          [
            -1.0170729,
            52.0636366
          ],
          [
            -1.0171263,
            52.0636153
          ],
          [
            -1.0171952,
            52.0635953
          ],
          [
            -1.0172753,
            52.0635733
          ],
          [
            -1.0173393,
            52.0635581
          ],
          [
            -1.0174115,
            52.0635455
          ],
          [
            -1.0174801,
            52.0635344
          ],
          [
            -1.0175711,
            52.0635252
          ],
          [
            -1.017635,
            52.0635215
          ],
          [
            -1.0176969,
            52.0635185
          ],
          [
            -1.0177527,
            52.0635168
          ],
          [
            -1.0178241,
            52.0635173
          ],
          [
            -1.0179353,
            52.0635231
          ],
          [
            -1.0180174,
            52.0635321
          ],
          [
            -1.0180953,
            52.0635454
          ],
          [
            -1.018171,
            52.0635599
          ],
          [
            -1.0182446,
            52.063577
          ],
          [
            -1.0183238,
            52.0635973
          ],
          [
            -1.0184146,
            52.0636264
          ],
          [
            -1.0184866,
            52.0636535
          ],
          [
            -1.018552,
            52.0636829
          ],
          [
            -1.0185948,
            52.0637031
          ],
          [
            -1.0186356,
            52.0637257
          ],
          [
            -1.018688,
            52.0637567
          ],
          [
            -1.0187303,
            52.0637812
          ],
          [
            -1.0187754,
            52.063815
          ],
          [
            -1.0188115,
            52.0638432
          ],
          [
            -1.0188505,
            52.0638777
          ],
          [
            -1.0188949,
            52.0639205
          ],
          [
            -1.0189269,
            52.0639551
          ],
          [
            -1.0189661,
            52.0640051
          ],
          [
            -1.0190094,
            52.0640713
          ],
          [
            -1.0190474,
            52.0641325
          ],
          [
            -1.0190875,
            52.0641878
          ],
          [
            -1.0191273,
            52.0642456
          ],
          [
            -1.0191678,
            52.064295
          ],
          [
            -1.0192083,
            52.0643437
          ],
          [
            -1.0192483,
            52.0643904
          ],
          [
            -1.0192967,
            52.0644473
          ],
          [
            -1.0193489,
            52.0645041
          ],
          [
            -1.0194128,
            52.0645721
          ],
          [
            -1.0194926,
            52.0646522
          ],
          [
            -1.0196927,
            52.0648411
          ],
          [
            -1.0197565,
            52.0649
          ],
          [
            -1.0198353,
            52.064969
          ],
          [
            -1.019944,
            52.0650601
          ],
          [
            -1.0200108,
            52.0651121
          ],
          [
            -1.0200699,
            52.0651591
          ],
          [
            -1.0201421,
            52.0652143
          ],
          [
            -1.02021,
            52.0652612
          ],
          [
            -1.0203762,
            52.0653747
          ],
          [
            -1.0204477,
            52.0654181
          ],
          [
            -1.0209204,
            52.0657263
          ],
          [
            -1.0212495,
            52.0659547
          ],
          [
            -1.0217663,
            52.0663323
          ],
          [
            -1.0219824,
            52.0664893
          ],
          [
            -1.0220281,
            52.0665174
          ],
          [
            -1.022081,
            52.066539
          ],
          [
            -1.0221325,
            52.0665518
          ],
          [
            -1.0221982,
            52.0665554
          ],
          [
            -1.0222606,
            52.0665499
          ],
          [
            -1.0223194,
            52.0665388
          ],
          [
            -1.0223762,
            52.066521
          ],
          [
            -1.022433,
            52.0664928
          ],
          [
            -1.0227559,
            52.0662934
          ],
          [
            -1.022785,
            52.0662795
          ],
          [
            -1.0228397,
            52.0662565
          ],
          [
            -1.0229153,
            52.0662402
          ],
          [
            -1.0230158,
            52.0662309
          ],
          [
            -1.0230535,
            52.0662312
          ],
          [
            -1.0231097,
            52.066232
          ],
          [
            -1.0231791,
            52.0662414
          ],
          [
            -1.0232406,
            52.0662567
          ],
          [
            -1.023299,
            52.0662756
          ],
          [
            -1.0233667,
            52.0663087
          ],
          [
            -1.0234526,
            52.0663611
          ],
          [
            -1.0235834,
            52.0664458
          ],
          [
            -1.0237027,
            52.0665311
          ],
          [
            -1.0238124,
            52.0666157
          ],
          [
            -1.0238474,
            52.0666443
          ],
          [
            -1.0239336,
            52.0667237
          ],
          [
            -1.0240011,
            52.0667984
          ],
          [
            -1.0240841,
            52.066897
          ],
          [
            -1.0241579,
            52.0670025
          ],
          [
            -1.0242179,
            52.0671113
          ],
          [
            -1.0242568,
            52.0671986
          ],
          [
            -1.0242924,
            52.067291
          ],
          [
            -1.0243036,
            52.0673354
          ],
          [
            -1.0243154,
            52.0673798
          ],
          [
            -1.0243291,
            52.0674523
          ],
          [
            -1.0243233,
            52.0675158
          ],
          [
            -1.0243091,
            52.0675678
          ],
          [
            -1.024283,
            52.0676134
          ],
          [
            -1.0242469,
            52.0676512
          ],
          [
            -1.0241939,
            52.0676956
          ],
          [
            -1.0240793,
            52.0677843
          ],
          [
            -1.0240602,
            52.0677997
          ],
          [
            -1.0240046,
            52.0678435
          ],
          [
            -1.0234867,
            52.0682609
          ],
          [
            -1.0221521,
            52.0693366
          ],
          [
            -1.020651,
            52.0705464
          ],
          [
            -1.0201111,
            52.0709772
          ],
          [
            -1.0200033,
            52.0710641
          ],
          [
            -1.019897,
            52.0711436
          ],
          [
            -1.0198447,
            52.0711803
          ],
          [
            -1.0198168,
            52.0711969
          ],
          [
            -1.0197881,
            52.0712109
          ],
          [
            -1.0197458,
            52.0712278
          ],
          [
            -1.0196992,
            52.0712435
          ],
          [
            -1.0196489,
            52.0712576
          ],
          [
            -1.0195992,
            52.0712719
          ],
          [
            -1.0195558,
            52.0712809
          ],
          [
            -1.0194971,
            52.0712904
          ],
          [
            -1.019437,
            52.0713002
          ],
          [
            -1.0193787,
            52.0713069
          ],
          [
            -1.0192979,
            52.0713147
          ],
          [
            -1.0192042,
            52.0713222
          ],
          [
            -1.0191227,
            52.0713268
          ],
          [
            -1.0190534,
            52.0713295
          ],
          [
            -1.0189555,
            52.0713301
          ],
          [
            -1.0188139,
            52.071329
          ],
          [
            -1.0187356,
            52.0713259
          ],
          [
            -1.0186569,
            52.0713202
          ],
          [
            -1.0184816,
            52.0713056
          ],
          [
            -1.0182887,
            52.0712866
          ],
          [
            -1.0180557,
            52.0712662
          ],
          [
            -1.017438,
            52.0712055
          ],
          [
            -1.0172535,
            52.0711883
          ],
          [
            -1.0171522,
            52.071183
          ],
          [
            -1.0170492,
            52.0711802
          ],
          [
            -1.0169386,
            52.0711809
          ],
          [
            -1.0168097,
            52.0711887
          ],
          [
            -1.0166983,
            52.0711961
          ],
          [
            -1.0165877,
            52.0712084
          ],
          [
            -1.0164823,
            52.0712257
          ],
          [
            -1.01638,
            52.0712436
          ],
          [
            -1.016302,
            52.0712587
          ],
          [
            -1.0161928,
            52.0712843
          ],
          [
            -1.016096,
            52.0713113
          ],
          [
            -1.0159838,
            52.0713466
          ],
          [
            -1.0158763,
            52.0713881
          ],
          [
            -1.0157059,
            52.0714672
          ],
          [
            -1.0136593,
            52.0724757
          ],
          [
            -1.0135823,
            52.0725023
          ],
          [
            -1.0135306,
            52.0725159
          ],
          [
            -1.0134876,
            52.0725237
          ],
          [
            -1.0134443,
            52.0725277
          ],
          [
            -1.0133964,
            52.0725307
          ],
          [
            -1.0133532,
            52.0725319
          ],
          [
            -1.0133173,
            52.0725299
          ],
          [
            -1.0132775,
            52.0725238
          ],
          [
            -1.0132324,
            52.0725124
          ],
          [
            -1.0131957,
            52.0725002
          ],
          [
            -1.0131601,
            52.0724857
          ],
          [
            -1.013126,
            52.0724689
          ],
          [
            -1.0130942,
            52.0724508
          ],
          [
            -1.0130599,
            52.0724166
          ],
          [
            -1.0130359,
            52.0723783
          ],
          [
            -1.0129562,
            52.0722297
          ],
          [
            -1.0126176,
            52.0715511
          ],
          [
            -1.0126061,
            52.0715326
          ],
          [
            -1.0125933,
            52.071517
          ],
          [
            -1.0125799,
            52.071503
          ],
          [
            -1.012564,
            52.0714884
          ],
          [
            -1.0125395,
            52.0714697
          ],
          [
            -1.0125096,
            52.0714505
          ],
          [
            -1.0124791,
            52.0714346
          ],
          [
            -1.0124441,
            52.0714208
          ],
          [
            -1.0123382,
            52.071382
          ],
          [
            -1.0122738,
            52.0713589
          ],
          [
            -1.0122363,
            52.0713425
          ],
          [
            -1.0117132,
            52.0711554
          ],
          [
            -1.0112739,
            52.0709956
          ],
          [
            -1.0107987,
            52.0708227
          ],
          [
            -1.0107503,
            52.0708017
          ],
          [
            -1.010699,
            52.0707839
          ],
          [
            -1.0106584,
            52.0707644
          ],
          [
            -1.0106369,
            52.070751
          ],
          [
            -1.0106176,
            52.0707358
          ],
          [
            -1.0106007,
            52.0707157
          ],
          [
            -1.0105947,
            52.0707051
          ],
          [
            -1.0105892,
            52.0706956
          ],
          [
            -1.01058,
            52.0706767
          ],
          [
            -1.0105746,
            52.0706563
          ],
          [
            -1.0105735,
            52.0706512
          ],
          [
            -1.0105698,
            52.0706341
          ],
          [
            -1.0105705,
            52.0706238
          ],
          [
            -1.0105715,
            52.070608
          ],
          [
            -1.0105777,
            52.0705807
          ],
          [
            -1.0105998,
            52.0705438
          ],
          [
            -1.010777,
            52.0703219
          ],
          [
            -1.0108915,
            52.0701779
          ],
          [
            -1.0110534,
            52.0699786
          ],
          [
            -1.0112691,
            52.0697491
          ]
        ]
      }
    }
  ]
}
