{
  "type": "FeatureCollection",
  "bbox": [
    0.2682267,
    51.9853714,
    0.2773206,
    51.9919916
  ],
  "metadata": {
    "schemaVersion": 1,
    "trackId": "gb-carver-barracks-615ac11d",
    "layoutId": "carver-barracks",
    "license": "ODbL-1.0",
    "attribution": "© Environment Agency copyright and/or database right 2022. All rights reserved. Contains public sector information licensed under the Open Government Licence v3.0; independent centerline digitization by OpenRacetrackDB.",
    "closed": true,
    "geometryStatus": "draft",
    "timingStatus": "missing",
    "timingMode": "shared",
    "lengthM": 2205.7,
    "reviewedAt": null,
    "notes": [
      "The venue operator identifies the approximately 1.5-mile runway circuit at former RAF Debden. The supplied configuration identifies the short northern cross-runway, eastern main runway, southern perimeter return and curved western perimeter. Independent Environment Agency 2018 one-metre LiDAR intensity imagery locates those permanent surfaces. The northern airfield hairpin, long westward runway, base access and temporary cone chicanes are excluded. The independently measured 2,205.7 m differs from the supplied 2,247 m; it is not scaled. Exact survey grids, member names, source hashes, crop transform and nearest-neighbor reprojection are pinned. This is reflected laser intensity, not colour photography. Racing-line placement, temporary event furniture and historical correspondence remain draft. Private timing data does not determine geometry. Independently digitized aerial centerline: 2205.7 m. Direction, historical configuration and fine corner alignment remain draft; no course coordinates come from the comparison catalogue."
    ]
  },
  "features": [
    {
      "type": "Feature",
      "id": "trace",
      "properties": {
        "role": "trace",
        "sourceIds": [
          "ea-carver-barracks-intensity-2018"
        ]
      },
      "geometry": {
        "type": "LineString",
        "coordinates": [
          [
            0.2682592,
            51.9917916
          ],
          [
            0.2689412,
            51.9918116
          ],
          [
            0.2696232,
            51.9918316
          ],
          [
            0.2702728,
            51.9918516
          ],
          [
            0.2709224,
            51.9918716
          ],
          [
            0.2715719,
            51.9918916
          ],
          [
            0.2722215,
            51.9919116
          ],
          [
            0.2728711,
            51.9919316
          ],
          [
            0.2735206,
            51.9919516
          ],
          [
            0.2739753,
            51.9919716
          ],
          [
            0.27443,
            51.9919916
          ],
          [
            0.2746249,
            51.9915916
          ],
          [
            0.2748197,
            51.9911916
          ],
          [
            0.2749984,
            51.9907916
          ],
          [
            0.275177,
            51.9903916
          ],
          [
            0.2753719,
            51.9899916
          ],
          [
            0.2755667,
            51.9895916
          ],
          [
            0.2757616,
            51.9891916
          ],
          [
            0.2759565,
            51.9887916
          ],
          [
            0.2761513,
            51.9883916
          ],
          [
            0.2763462,
            51.9879916
          ],
          [
            0.2765411,
            51.9875915
          ],
          [
            0.2767359,
            51.9871915
          ],
          [
            0.2769146,
            51.9867915
          ],
          [
            0.2770932,
            51.9863915
          ],
          [
            0.2772069,
            51.9861214
          ],
          [
            0.2773206,
            51.9858514
          ],
          [
            0.2767197,
            51.9857314
          ],
          [
            0.2761189,
            51.9856114
          ],
          [
            0.2756317,
            51.9855314
          ],
          [
            0.2751445,
            51.9854514
          ],
          [
            0.27443,
            51.9853714
          ],
          [
            0.2738454,
            51.9853914
          ],
          [
            0.2734881,
            51.9855714
          ],
          [
            0.2732933,
            51.9858314
          ],
          [
            0.2732121,
            51.9861314
          ],
          [
            0.2731309,
            51.9864315
          ],
          [
            0.2730334,
            51.9867315
          ],
          [
            0.272936,
            51.9870315
          ],
          [
            0.2726762,
            51.9874915
          ],
          [
            0.2724488,
            51.9877015
          ],
          [
            0.2722215,
            51.9879116
          ],
          [
            0.2719292,
            51.9881516
          ],
          [
            0.2716369,
            51.9883916
          ],
          [
            0.2713121,
            51.9886416
          ],
          [
            0.2709873,
            51.9888916
          ],
          [
            0.2706788,
            51.9891616
          ],
          [
            0.2703702,
            51.9894316
          ],
          [
            0.2700779,
            51.9897116
          ],
          [
            0.2697856,
            51.9899916
          ],
          [
            0.2695258,
            51.9902316
          ],
          [
            0.269266,
            51.9904716
          ],
          [
            0.2690062,
            51.9907116
          ],
          [
            0.2687463,
            51.9909516
          ],
          [
            0.2683891,
            51.9912716
          ],
          [
            0.2682267,
            51.9915316
          ],
          [
            0.2682592,
            51.9917916
          ]
        ]
      }
    }
  ]
}
