{
  "type": "FeatureCollection",
  "bbox": [
    -95.6772567,
    38.9189978,
    -95.6708236,
    38.930925
  ],
  "metadata": {
    "schemaVersion": 1,
    "trackId": "us-heartland-park-raceway-137283766",
    "layoutId": "heartland-park-of-topeka-c",
    "license": "ODbL-1.0",
    "attribution": "© OpenStreetMap contributors",
    "closed": true,
    "geometryStatus": "draft",
    "timingStatus": "missing",
    "timingMode": "shared",
    "lengthM": 3467.3,
    "reviewedAt": null,
    "notes": [
      "Draft configuration: Northern S bend and direct southern diagonal connector, omitting the extra southeast hairpin. Branch identity was checked against catalogue layout facts and circuit identification references. Independent source distance 3467.3 m; no coordinates are changed to match a diagram or distance. Travel direction and historical alignment remain provisional."
    ]
  },
  "features": [
    {
      "type": "Feature",
      "id": "trace",
      "properties": {
        "role": "trace",
        "sourceIds": [
          "osm-selection-137283766"
        ]
      },
      "geometry": {
        "type": "LineString",
        "coordinates": [
          [
            -95.6708236,
            38.922951
          ],
          [
            -95.671039,
            38.9247751
          ],
          [
            -95.6710923,
            38.9249409
          ],
          [
            -95.6712522,
            38.92501
          ],
          [
            -95.6715719,
            38.9250515
          ],
          [
            -95.6717496,
            38.9251759
          ],
          [
            -95.6718917,
            38.9253279
          ],
          [
            -95.6719272,
            38.925632
          ],
          [
            -95.6718739,
            38.9258531
          ],
          [
            -95.671643,
            38.9261848
          ],
          [
            -95.6714476,
            38.9266547
          ],
          [
            -95.6715009,
            38.9270416
          ],
          [
            -95.672072,
            38.928709
          ],
          [
            -95.6723891,
            38.9297227
          ],
          [
            -95.672549,
            38.9298747
          ],
          [
            -95.6728332,
            38.9299438
          ],
          [
            -95.6739347,
            38.9300959
          ],
          [
            -95.6741656,
            38.9302064
          ],
          [
            -95.6743433,
            38.9305243
          ],
          [
            -95.6745387,
            38.9308145
          ],
          [
            -95.6747696,
            38.930925
          ],
          [
            -95.6750894,
            38.9308974
          ],
          [
            -95.6753737,
            38.9307592
          ],
          [
            -95.6758178,
            38.9302064
          ],
          [
            -95.6760253,
            38.9300619
          ],
          [
            -95.676281,
            38.9300622
          ],
          [
            -95.6766705,
            38.9302893
          ],
          [
            -95.6768659,
            38.9303999
          ],
          [
            -95.6771146,
            38.9303723
          ],
          [
            -95.6772567,
            38.930165
          ],
          [
            -95.677241,
            38.9296621
          ],
          [
            -95.677239,
            38.9295983
          ],
          [
            -95.6765937,
            38.9258909
          ],
          [
            -95.6765135,
            38.9257158
          ],
          [
            -95.6764271,
            38.9255272
          ],
          [
            -95.675676,
            38.9238871
          ],
          [
            -95.6757112,
            38.9224808
          ],
          [
            -95.6760042,
            38.9223528
          ],
          [
            -95.6761901,
            38.9222474
          ],
          [
            -95.6761996,
            38.9222976
          ],
          [
            -95.6768278,
            38.9222351
          ],
          [
            -95.6769665,
            38.9221619
          ],
          [
            -95.6770107,
            38.9220802
          ],
          [
            -95.6770118,
            38.9219888
          ],
          [
            -95.6768974,
            38.9214122
          ],
          [
            -95.6765284,
            38.9195507
          ],
          [
            -95.6763685,
            38.9193433
          ],
          [
            -95.6761553,
            38.9191913
          ],
          [
            -95.6758711,
            38.9190807
          ],
          [
            -95.6755335,
            38.9189978
          ],
          [
            -95.6751072,
            38.9190669
          ],
          [
            -95.6746098,
            38.9193572
          ],
          [
            -95.6744676,
            38.9195783
          ],
          [
            -95.6744499,
            38.9198686
          ],
          [
            -95.674663,
            38.921071
          ],
          [
            -95.674592,
            38.9213336
          ],
          [
            -95.6742722,
            38.9215548
          ],
          [
            -95.6731353,
            38.921845
          ],
          [
            -95.6712522,
            38.9224808
          ],
          [
            -95.6710212,
            38.9226467
          ],
          [
            -95.6708236,
            38.922951
          ]
        ]
      }
    }
  ]
}
