{
  "type": "FeatureCollection",
  "bbox": [
    13.9222915,
    51.5277059,
    13.9369453,
    51.5356787
  ],
  "metadata": {
    "schemaVersion": 1,
    "trackId": "de-lausitzring-7a32e980",
    "layoutId": "lausitzring-gp-3-2km",
    "license": "ODbL-1.0",
    "attribution": "© OpenStreetMap contributors",
    "closed": true,
    "geometryStatus": "draft",
    "timingStatus": "missing",
    "timingMode": "shared",
    "lengthM": 3095.6,
    "reviewedAt": null,
    "notes": [
      "Draft route hypothesis: the source cycle is the unique closest nominal-distance match within conservative timing and distance checks. Approximate OSM trace length 3095.6 m. Difference from the supplied layout distance 0.4 m. Course configuration still requires visual review."
    ]
  },
  "features": [
    {
      "type": "Feature",
      "id": "trace",
      "properties": {
        "role": "trace",
        "sourceIds": [
          "osm-network-31323174"
        ]
      },
      "geometry": {
        "type": "LineString",
        "coordinates": [
          [
            13.9324024,
            51.5356755
          ],
          [
            13.931733,
            51.5355467
          ],
          [
            13.9292316,
            51.5350927
          ],
          [
            13.9279679,
            51.5348666
          ],
          [
            13.9260528,
            51.5345128
          ],
          [
            13.924686,
            51.5342596
          ],
          [
            13.9238866,
            51.534114
          ],
          [
            13.9236583,
            51.5340034
          ],
          [
            13.9234716,
            51.5338743
          ],
          [
            13.9234094,
            51.5338199
          ],
          [
            13.9233579,
            51.5337563
          ],
          [
            13.9233222,
            51.533696
          ],
          [
            13.9232927,
            51.5336251
          ],
          [
            13.9232744,
            51.533549
          ],
          [
            13.9232618,
            51.5334616
          ],
          [
            13.9232227,
            51.5333259
          ],
          [
            13.9231686,
            51.5332192
          ],
          [
            13.9230067,
            51.5330959
          ],
          [
            13.9229794,
            51.5330616
          ],
          [
            13.9228445,
            51.5329676
          ],
          [
            13.9226702,
            51.532877
          ],
          [
            13.9225488,
            51.5328176
          ],
          [
            13.9224379,
            51.5327363
          ],
          [
            13.9223545,
            51.5326388
          ],
          [
            13.9223092,
            51.5325711
          ],
          [
            13.9222915,
            51.5324842
          ],
          [
            13.9222947,
            51.5323517
          ],
          [
            13.9223341,
            51.5322665
          ],
          [
            13.9223943,
            51.5321787
          ],
          [
            13.9224731,
            51.5321
          ],
          [
            13.9225792,
            51.5320304
          ],
          [
            13.9231558,
            51.5318005
          ],
          [
            13.9236414,
            51.5316191
          ],
          [
            13.9237221,
            51.5315744
          ],
          [
            13.9237866,
            51.5315023
          ],
          [
            13.9238262,
            51.5314192
          ],
          [
            13.9238314,
            51.5313169
          ],
          [
            13.9238075,
            51.5312587
          ],
          [
            13.9237673,
            51.531208
          ],
          [
            13.9236526,
            51.5311261
          ],
          [
            13.9235606,
            51.5310935
          ],
          [
            13.9233967,
            51.531069
          ],
          [
            13.923266,
            51.5310483
          ],
          [
            13.9231269,
            51.5310019
          ],
          [
            13.9230149,
            51.5309167
          ],
          [
            13.9229817,
            51.530816
          ],
          [
            13.9230128,
            51.530736
          ],
          [
            13.9230705,
            51.5306906
          ],
          [
            13.9234033,
            51.5304101
          ],
          [
            13.9270398,
            51.5294087
          ],
          [
            13.9309775,
            51.5283555
          ],
          [
            13.9318804,
            51.5281095
          ],
          [
            13.9319431,
            51.5280924
          ],
          [
            13.9323023,
            51.5280038
          ],
          [
            13.9327378,
            51.5278937
          ],
          [
            13.9334675,
            51.5277519
          ],
          [
            13.9340946,
            51.5277059
          ],
          [
            13.9346539,
            51.5277477
          ],
          [
            13.9349869,
            51.5277941
          ],
          [
            13.9356648,
            51.5279824
          ],
          [
            13.9362316,
            51.5283184
          ],
          [
            13.9366358,
            51.5287003
          ],
          [
            13.9368322,
            51.5290073
          ],
          [
            13.9369453,
            51.5294182
          ],
          [
            13.9369242,
            51.529707
          ],
          [
            13.9367498,
            51.5303377
          ],
          [
            13.9362199,
            51.5324484
          ],
          [
            13.9360081,
            51.5331155
          ],
          [
            13.9358539,
            51.5332876
          ],
          [
            13.9357401,
            51.5334752
          ],
          [
            13.9355428,
            51.5339922
          ],
          [
            13.9354203,
            51.5342789
          ],
          [
            13.9352805,
            51.5345633
          ],
          [
            13.9350787,
            51.5347953
          ],
          [
            13.9348357,
            51.5350068
          ],
          [
            13.9345598,
            51.5351859
          ],
          [
            13.9343582,
            51.5352944
          ],
          [
            13.9341849,
            51.5353742
          ],
          [
            13.933967,
            51.5354833
          ],
          [
            13.9337499,
            51.5355418
          ],
          [
            13.933477,
            51.5356057
          ],
          [
            13.9332511,
            51.5356441
          ],
          [
            13.9329224,
            51.5356678
          ],
          [
            13.9326466,
            51.5356787
          ],
          [
            13.9324024,
            51.5356755
          ]
        ]
      }
    }
  ]
}
