{
  "type": "FeatureCollection",
  "bbox": [
    -119.2493688,
    39.5348859,
    -119.2404195,
    39.5462498
  ],
  "metadata": {
    "schemaVersion": 1,
    "trackId": "us-reno-fernley-h-c926ace0",
    "layoutId": "reno-fernley-h",
    "license": "ODbL-1.0",
    "attribution": "USGS, USDA, The National Map: public-domain NAIP orthoimagery; centerline digitization by OpenRacetrackDB",
    "closed": true,
    "geometryStatus": "draft",
    "timingStatus": "missing",
    "timingMode": "shared",
    "lengthM": 4132.9,
    "reviewedAt": null,
    "notes": [
      "The historical Configuration H uses the Northern full terminal loop, Western upper S return, central small hairpin and Eastern middle straight, with the Southern internal chicane before the Southwestern terminal return. The 2006 organizer report identifies Configuration H, avoiding the rough old back sector. The original operator course plan identifies the alternate internal branches: https://www.kstreetstudio.com/files/tinyvette/renofernley/RF-TrackMap.pdf . Centerline pixels are independently inspected on public-domain 2022 NAIP imagery; no comparison-diagram pixels or coordinates supply geometry. The larger Western back sector, large central U and pit/staging lanes are excluded. Fine historical barrier, surface and Southern chicane alignment remain draft; the independent measured length is unscaled. Independently digitized aerial centerline: 4132.9 m. Direction, historical configuration and fine corner alignment remain draft; no course coordinates come from the comparison catalogue."
    ]
  },
  "features": [
    {
      "type": "Feature",
      "id": "trace",
      "properties": {
        "role": "trace",
        "sourceIds": [
          "usgs-naip-2022-reno-fernley-focused"
        ]
      },
      "geometry": {
        "type": "LineString",
        "coordinates": [
          [
            -119.2436302,
            39.5349136
          ],
          [
            -119.2435224,
            39.535006
          ],
          [
            -119.2434145,
            39.5350984
          ],
          [
            -119.2433726,
            39.5352832
          ],
          [
            -119.2433307,
            39.535468
          ],
          [
            -119.2432588,
            39.5356712
          ],
          [
            -119.2431869,
            39.5358745
          ],
          [
            -119.243115,
            39.5360778
          ],
          [
            -119.2430432,
            39.5362811
          ],
          [
            -119.2429713,
            39.5364843
          ],
          [
            -119.2428994,
            39.5366876
          ],
          [
            -119.2428275,
            39.5368909
          ],
          [
            -119.2427556,
            39.5370941
          ],
          [
            -119.2426837,
            39.5372974
          ],
          [
            -119.2426119,
            39.5375007
          ],
          [
            -119.242532,
            39.5377162
          ],
          [
            -119.2424521,
            39.5379318
          ],
          [
            -119.2423723,
            39.5381474
          ],
          [
            -119.2422924,
            39.538363
          ],
          [
            -119.2422125,
            39.5385786
          ],
          [
            -119.2421326,
            39.5387942
          ],
          [
            -119.2420528,
            39.5390097
          ],
          [
            -119.2419729,
            39.5392253
          ],
          [
            -119.241893,
            39.5394409
          ],
          [
            -119.2418132,
            39.5396565
          ],
          [
            -119.2417333,
            39.539872
          ],
          [
            -119.2416534,
            39.5400876
          ],
          [
            -119.241585,
            39.5402856
          ],
          [
            -119.2415165,
            39.5404836
          ],
          [
            -119.2414481,
            39.5406816
          ],
          [
            -119.2413796,
            39.5408795
          ],
          [
            -119.2413111,
            39.5410775
          ],
          [
            -119.2412427,
            39.5412755
          ],
          [
            -119.2411742,
            39.5414735
          ],
          [
            -119.2410544,
            39.541612
          ],
          [
            -119.2409346,
            39.5417506
          ],
          [
            -119.2409765,
            39.5418892
          ],
          [
            -119.2410185,
            39.5420278
          ],
          [
            -119.2410704,
            39.5421818
          ],
          [
            -119.2411223,
            39.5423357
          ],
          [
            -119.2411742,
            39.5424897
          ],
          [
            -119.2411662,
            39.5426437
          ],
          [
            -119.2411582,
            39.5427977
          ],
          [
            -119.2411503,
            39.5429517
          ],
          [
            -119.2410784,
            39.5431364
          ],
          [
            -119.2410065,
            39.5433212
          ],
          [
            -119.2409346,
            39.543506
          ],
          [
            -119.2409346,
            39.5437369
          ],
          [
            -119.2409346,
            39.5439679
          ],
          [
            -119.2409346,
            39.5441157
          ],
          [
            -119.2409346,
            39.5442635
          ],
          [
            -119.2408747,
            39.544416
          ],
          [
            -119.2408148,
            39.5445684
          ],
          [
            -119.240725,
            39.5447393
          ],
          [
            -119.2406351,
            39.5449102
          ],
          [
            -119.2405453,
            39.5451088
          ],
          [
            -119.2404554,
            39.5453075
          ],
          [
            -119.2404195,
            39.5455292
          ],
          [
            -119.2404374,
            39.5456447
          ],
          [
            -119.2404554,
            39.5457601
          ],
          [
            -119.2405752,
            39.5459634
          ],
          [
            -119.2407549,
            39.5460835
          ],
          [
            -119.2409945,
            39.5461943
          ],
          [
            -119.2411443,
            39.546222
          ],
          [
            -119.241294,
            39.5462498
          ],
          [
            -119.2414438,
            39.5462267
          ],
          [
            -119.2415935,
            39.5462036
          ],
          [
            -119.2418331,
            39.5461112
          ],
          [
            -119.2419769,
            39.5459449
          ],
          [
            -119.2420488,
            39.5457601
          ],
          [
            -119.2420608,
            39.54558
          ],
          [
            -119.2420727,
            39.5453998
          ],
          [
            -119.2420787,
            39.5452566
          ],
          [
            -119.2420847,
            39.5451135
          ],
          [
            -119.2420967,
            39.5449195
          ],
          [
            -119.2420248,
            39.5446977
          ],
          [
            -119.2419889,
            39.544513
          ],
          [
            -119.2420128,
            39.5443559
          ],
          [
            -119.2420967,
            39.5442543
          ],
          [
            -119.2422225,
            39.5441434
          ],
          [
            -119.2423483,
            39.5440326
          ],
          [
            -119.2424681,
            39.5439263
          ],
          [
            -119.2425879,
            39.5438201
          ],
          [
            -119.2426478,
            39.5437046
          ],
          [
            -119.2427077,
            39.5435891
          ],
          [
            -119.2427676,
            39.5434598
          ],
          [
            -119.2428275,
            39.5433304
          ],
          [
            -119.2428994,
            39.5431087
          ],
          [
            -119.2429952,
            39.5429886
          ],
          [
            -119.2431869,
            39.5429609
          ],
          [
            -119.2433546,
            39.543044
          ],
          [
            -119.2436062,
            39.5431641
          ],
          [
            -119.243756,
            39.5432011
          ],
          [
            -119.2439057,
            39.5432381
          ],
          [
            -119.2440675,
            39.5432565
          ],
          [
            -119.2442292,
            39.543275
          ],
          [
            -119.2445167,
            39.5432473
          ],
          [
            -119.2446964,
            39.5431734
          ],
          [
            -119.2448881,
            39.5430163
          ],
          [
            -119.2450319,
            39.5428777
          ],
          [
            -119.2452475,
            39.5428408
          ],
          [
            -119.2454871,
            39.5428777
          ],
          [
            -119.2457267,
            39.5429055
          ],
          [
            -119.2459184,
            39.5428962
          ],
          [
            -119.2460742,
            39.5428316
          ],
          [
            -119.2462299,
            39.5426837
          ],
          [
            -119.2463497,
            39.5424805
          ],
          [
            -119.2464456,
            39.5422772
          ],
          [
            -119.2465294,
            39.5420555
          ],
          [
            -119.2465294,
            39.5419354
          ],
          [
            -119.2464456,
            39.5418061
          ],
          [
            -119.2462778,
            39.5417321
          ],
          [
            -119.2460862,
            39.5417229
          ],
          [
            -119.2458466,
            39.5417599
          ],
          [
            -119.2456069,
            39.5418523
          ],
          [
            -119.2454153,
            39.5419262
          ],
          [
            -119.2452236,
            39.5419539
          ],
          [
            -119.2450798,
            39.5419077
          ],
          [
            -119.244936,
            39.5417968
          ],
          [
            -119.2448881,
            39.5416582
          ],
          [
            -119.2448881,
            39.5415335
          ],
          [
            -119.2448881,
            39.5414088
          ],
          [
            -119.2449121,
            39.5411871
          ],
          [
            -119.2449959,
            39.5410023
          ],
          [
            -119.2451277,
            39.5408175
          ],
          [
            -119.2451637,
            39.5407251
          ],
          [
            -119.2450918,
            39.540642
          ],
          [
            -119.244972,
            39.5405588
          ],
          [
            -119.2448282,
            39.5406512
          ],
          [
            -119.2446485,
            39.5407297
          ],
          [
            -119.2444688,
            39.5408083
          ],
          [
            -119.2442532,
            39.5408729
          ],
          [
            -119.2441034,
            39.5408868
          ],
          [
            -119.2439537,
            39.5409007
          ],
          [
            -119.2438099,
            39.5408637
          ],
          [
            -119.2437021,
            39.5407344
          ],
          [
            -119.2436542,
            39.5405681
          ],
          [
            -119.2436542,
            39.5404248
          ],
          [
            -119.2436542,
            39.5402816
          ],
          [
            -119.2436601,
            39.5401523
          ],
          [
            -119.2436661,
            39.540023
          ],
          [
            -119.2436901,
            39.5398012
          ],
          [
            -119.243738,
            39.5396765
          ],
          [
            -119.2437859,
            39.5395518
          ],
          [
            -119.2438578,
            39.5393808
          ],
          [
            -119.2439297,
            39.5392099
          ],
          [
            -119.2440196,
            39.5390251
          ],
          [
            -119.2441094,
            39.5388404
          ],
          [
            -119.2441973,
            39.538671
          ],
          [
            -119.2442851,
            39.5385016
          ],
          [
            -119.244373,
            39.5383322
          ],
          [
            -119.2444608,
            39.5381782
          ],
          [
            -119.2445487,
            39.5380242
          ],
          [
            -119.2446365,
            39.5378702
          ],
          [
            -119.2447244,
            39.5377132
          ],
          [
            -119.2448122,
            39.5375561
          ],
          [
            -119.2449001,
            39.537399
          ],
          [
            -119.244988,
            39.5372481
          ],
          [
            -119.2450758,
            39.5370972
          ],
          [
            -119.2451637,
            39.5369463
          ],
          [
            -119.2452555,
            39.5367923
          ],
          [
            -119.2453474,
            39.5366383
          ],
          [
            -119.2454392,
            39.5364843
          ],
          [
            -119.245565,
            39.5362949
          ],
          [
            -119.2456908,
            39.5361055
          ],
          [
            -119.2458226,
            39.5359484
          ],
          [
            -119.2459783,
            39.5358376
          ],
          [
            -119.2461341,
            39.5357729
          ],
          [
            -119.2463258,
            39.5357452
          ],
          [
            -119.2465654,
            39.5357821
          ],
          [
            -119.2467571,
            39.535856
          ],
          [
            -119.2469487,
            39.5359854
          ],
          [
            -119.2471524,
            39.536124
          ],
          [
            -119.2473561,
            39.5362718
          ],
          [
            -119.2474639,
            39.536318
          ],
          [
            -119.2475358,
            39.5362626
          ],
          [
            -119.2475717,
            39.5361794
          ],
          [
            -119.2475478,
            39.5360685
          ],
          [
            -119.2474759,
            39.5359762
          ],
          [
            -119.2474399,
            39.5358745
          ],
          [
            -119.2474998,
            39.5357821
          ],
          [
            -119.2476556,
            39.5357359
          ],
          [
            -119.2479431,
            39.5357452
          ],
          [
            -119.2481288,
            39.5357498
          ],
          [
            -119.2483145,
            39.5357544
          ],
          [
            -119.2485361,
            39.535759
          ],
          [
            -119.2487578,
            39.5357636
          ],
          [
            -119.2489974,
            39.5357452
          ],
          [
            -119.2491771,
            39.5356712
          ],
          [
            -119.2493209,
            39.5355604
          ],
          [
            -119.2493688,
            39.5354125
          ],
          [
            -119.2493568,
            39.5352832
          ],
          [
            -119.2492729,
            39.5351446
          ],
          [
            -119.2491172,
            39.535043
          ],
          [
            -119.2489375,
            39.5350152
          ],
          [
            -119.2487218,
            39.535043
          ],
          [
            -119.2484463,
            39.5351076
          ],
          [
            -119.2482846,
            39.5351492
          ],
          [
            -119.2481228,
            39.5351908
          ],
          [
            -119.2478593,
            39.5352185
          ],
          [
            -119.2476915,
            39.5352046
          ],
          [
            -119.2475238,
            39.5351908
          ],
          [
            -119.2473381,
            39.5351492
          ],
          [
            -119.2471524,
            39.5351076
          ],
          [
            -119.2469188,
            39.5350476
          ],
          [
            -119.2466852,
            39.5349875
          ],
          [
            -119.2464635,
            39.5349459
          ],
          [
            -119.2462419,
            39.5349044
          ],
          [
            -119.2460143,
            39.5348951
          ],
          [
            -119.2457867,
            39.5348859
          ],
          [
            -119.245567,
            39.534889
          ],
          [
            -119.2453474,
            39.534892
          ],
          [
            -119.2451277,
            39.5348951
          ],
          [
            -119.2448881,
            39.5348982
          ],
          [
            -119.2446485,
            39.5349013
          ],
          [
            -119.2444089,
            39.5349044
          ],
          [
            -119.2441493,
            39.5349074
          ],
          [
            -119.2438898,
            39.5349105
          ],
          [
            -119.2436302,
            39.5349136
          ]
        ]
      }
    }
  ]
}
