{
  "type": "FeatureCollection",
  "bbox": [
    1.3687751,
    48.7544688,
    1.3708798,
    48.7573999
  ],
  "metadata": {
    "schemaVersion": 1,
    "trackId": "fr-circuits-de-l-ouest-parisien-297738878",
    "layoutId": "dreux",
    "license": "ODbL-1.0",
    "attribution": "© OpenStreetMap contributors",
    "closed": true,
    "geometryStatus": "draft",
    "timingStatus": "missing",
    "timingMode": "shared",
    "lengthM": 944.4,
    "reviewedAt": null,
    "notes": [
      "Draft route hypothesis: the source cycle is the unique closest nominal-distance match within conservative timing and distance checks. Approximate OSM trace length 944.4 m. Difference from the supplied layout distance 1.4 m. Course configuration still requires visual review."
    ]
  },
  "features": [
    {
      "type": "Feature",
      "id": "trace",
      "properties": {
        "role": "trace",
        "sourceIds": [
          "osm-network-297738880"
        ]
      },
      "geometry": {
        "type": "LineString",
        "coordinates": [
          [
            1.3697005,
            48.7550613
          ],
          [
            1.3697743,
            48.7550182
          ],
          [
            1.3698252,
            48.754978
          ],
          [
            1.3698502,
            48.7549367
          ],
          [
            1.3698608,
            48.7549021
          ],
          [
            1.3698595,
            48.7548697
          ],
          [
            1.3698511,
            48.7548334
          ],
          [
            1.3698189,
            48.7547717
          ],
          [
            1.3697657,
            48.7547076
          ],
          [
            1.3696808,
            48.7546265
          ],
          [
            1.3696005,
            48.7545685
          ],
          [
            1.3695558,
            48.7545421
          ],
          [
            1.3694844,
            48.7545113
          ],
          [
            1.3693791,
            48.7544824
          ],
          [
            1.3693131,
            48.7544722
          ],
          [
            1.369251,
            48.7544688
          ],
          [
            1.3691677,
            48.7544739
          ],
          [
            1.3690964,
            48.7544833
          ],
          [
            1.3690283,
            48.7545023
          ],
          [
            1.368976,
            48.7545226
          ],
          [
            1.3689237,
            48.7545493
          ],
          [
            1.3688788,
            48.7545816
          ],
          [
            1.3688377,
            48.7546213
          ],
          [
            1.3688092,
            48.7546621
          ],
          [
            1.3687869,
            48.7547107
          ],
          [
            1.3687787,
            48.7547483
          ],
          [
            1.3687751,
            48.7548219
          ],
          [
            1.3687783,
            48.7550549
          ],
          [
            1.3687916,
            48.7560111
          ],
          [
            1.3687824,
            48.7562725
          ],
          [
            1.3687881,
            48.7563048
          ],
          [
            1.3687985,
            48.7563346
          ],
          [
            1.3688227,
            48.756378
          ],
          [
            1.3688501,
            48.756411
          ],
          [
            1.3688857,
            48.7564416
          ],
          [
            1.3689244,
            48.7564685
          ],
          [
            1.3689608,
            48.7564868
          ],
          [
            1.3689981,
            48.7565044
          ],
          [
            1.3690397,
            48.7565252
          ],
          [
            1.3690819,
            48.7565509
          ],
          [
            1.369115,
            48.7565761
          ],
          [
            1.3691468,
            48.7566032
          ],
          [
            1.3691719,
            48.7566324
          ],
          [
            1.3691938,
            48.7566658
          ],
          [
            1.3692062,
            48.7567028
          ],
          [
            1.3692131,
            48.7567377
          ],
          [
            1.3692124,
            48.7567786
          ],
          [
            1.3692047,
            48.7569297
          ],
          [
            1.3692149,
            48.7569895
          ],
          [
            1.3692352,
            48.7570384
          ],
          [
            1.3692663,
            48.7570925
          ],
          [
            1.3693059,
            48.7571314
          ],
          [
            1.3693624,
            48.7571748
          ],
          [
            1.3694247,
            48.7572169
          ],
          [
            1.3695194,
            48.7572652
          ],
          [
            1.3695932,
            48.7572996
          ],
          [
            1.369689,
            48.7573385
          ],
          [
            1.3698177,
            48.7573777
          ],
          [
            1.369904,
            48.757394
          ],
          [
            1.3699857,
            48.7573999
          ],
          [
            1.3700654,
            48.7573949
          ],
          [
            1.3701569,
            48.7573751
          ],
          [
            1.3702385,
            48.7573437
          ],
          [
            1.3702953,
            48.7573104
          ],
          [
            1.3703352,
            48.7572798
          ],
          [
            1.3703895,
            48.757229
          ],
          [
            1.3704237,
            48.7571824
          ],
          [
            1.3704366,
            48.7571496
          ],
          [
            1.370445,
            48.7571195
          ],
          [
            1.3704466,
            48.7570795
          ],
          [
            1.3704406,
            48.7570405
          ],
          [
            1.3704276,
            48.7569973
          ],
          [
            1.3704188,
            48.7569593
          ],
          [
            1.3704184,
            48.7569288
          ],
          [
            1.370422,
            48.7568893
          ],
          [
            1.3704385,
            48.7568421
          ],
          [
            1.3704651,
            48.7567941
          ],
          [
            1.3705216,
            48.756729
          ],
          [
            1.3705788,
            48.7566945
          ],
          [
            1.3706359,
            48.7566642
          ],
          [
            1.3706873,
            48.756638
          ],
          [
            1.3707499,
            48.7566039
          ],
          [
            1.370793,
            48.7565709
          ],
          [
            1.3708269,
            48.7565317
          ],
          [
            1.3708549,
            48.7564948
          ],
          [
            1.3708743,
            48.7564413
          ],
          [
            1.3708798,
            48.7563906
          ],
          [
            1.3708757,
            48.7563466
          ],
          [
            1.3708579,
            48.756299
          ],
          [
            1.3707368,
            48.756156
          ],
          [
            1.3705292,
            48.7559016
          ],
          [
            1.3704479,
            48.7558148
          ],
          [
            1.3703967,
            48.7557749
          ],
          [
            1.3703285,
            48.7557432
          ],
          [
            1.3702741,
            48.7557226
          ],
          [
            1.3701957,
            48.7557078
          ],
          [
            1.370148,
            48.7557095
          ],
          [
            1.3701274,
            48.7557103
          ],
          [
            1.3700763,
            48.7557156
          ],
          [
            1.3700152,
            48.7557326
          ],
          [
            1.369958,
            48.755752
          ],
          [
            1.3699118,
            48.7557748
          ],
          [
            1.3698769,
            48.7557952
          ],
          [
            1.3697977,
            48.7558451
          ],
          [
            1.369483,
            48.7560615
          ],
          [
            1.3694378,
            48.7560848
          ],
          [
            1.3693963,
            48.7560996
          ],
          [
            1.3693617,
            48.7561083
          ],
          [
            1.3693213,
            48.7561134
          ],
          [
            1.3692791,
            48.7561141
          ],
          [
            1.3692405,
            48.7561108
          ],
          [
            1.3692054,
            48.756103
          ],
          [
            1.3691707,
            48.7560876
          ],
          [
            1.3691442,
            48.7560656
          ],
          [
            1.3691262,
            48.7560401
          ],
          [
            1.3691175,
            48.756008
          ],
          [
            1.3691179,
            48.7559755
          ],
          [
            1.3691223,
            48.7559391
          ],
          [
            1.3691824,
            48.7556707
          ],
          [
            1.3691909,
            48.7556235
          ],
          [
            1.3691915,
            48.7555646
          ],
          [
            1.3691778,
            48.755447
          ],
          [
            1.3691926,
            48.755378
          ],
          [
            1.3692154,
            48.7553364
          ],
          [
            1.3692547,
            48.755296
          ],
          [
            1.3693051,
            48.7552617
          ],
          [
            1.3693594,
            48.7552322
          ],
          [
            1.3694259,
            48.7552017
          ],
          [
            1.3695514,
            48.7551423
          ],
          [
            1.3697005,
            48.7550613
          ]
        ]
      }
    }
  ]
}
