{
  "type": "FeatureCollection",
  "bbox": [
    -94.8340837,
    39.1115264,
    -94.8266594,
    39.1198827
  ],
  "metadata": {
    "schemaVersion": 1,
    "trackId": "us-kansas-speedway-road-course-37552701",
    "layoutId": "main",
    "license": "ODbL-1.0",
    "attribution": "© OpenStreetMap contributors",
    "closed": true,
    "geometryStatus": "draft",
    "timingStatus": "missing",
    "timingMode": "shared",
    "lengthM": 2477.2,
    "reviewedAt": null,
    "notes": [
      "Closed named OSM raceway retained as a course candidate. Named-layout association requires review.",
      "Source way order and shared node IDs are retained. No nearby endpoints are joined and no reference boundaries are read."
    ]
  },
  "features": [
    {
      "type": "Feature",
      "id": "trace",
      "properties": {
        "role": "trace",
        "sourceIds": [
          "osm-snapshot"
        ]
      },
      "geometry": {
        "type": "LineString",
        "coordinates": [
          [
            -94.8338407,
            39.1165711
          ],
          [
            -94.8339318,
            39.1163216
          ],
          [
            -94.8339918,
            39.1160892
          ],
          [
            -94.834043,
            39.1158261
          ],
          [
            -94.8340731,
            39.1155798
          ],
          [
            -94.8340837,
            39.1153415
          ],
          [
            -94.8340713,
            39.1150774
          ],
          [
            -94.8340395,
            39.114806
          ],
          [
            -94.8339994,
            39.1146138
          ],
          [
            -94.8336797,
            39.113326
          ],
          [
            -94.8336311,
            39.1131449
          ],
          [
            -94.8335495,
            39.1129439
          ],
          [
            -94.8334534,
            39.1127619
          ],
          [
            -94.8333349,
            39.1125761
          ],
          [
            -94.8331701,
            39.1123766
          ],
          [
            -94.8329641,
            39.11219
          ],
          [
            -94.8327286,
            39.11202
          ],
          [
            -94.8324887,
            39.11188
          ],
          [
            -94.8322475,
            39.1117675
          ],
          [
            -94.8319797,
            39.1116742
          ],
          [
            -94.8316979,
            39.1115992
          ],
          [
            -94.8314472,
            39.1115571
          ],
          [
            -94.831181,
            39.111529
          ],
          [
            -94.8308702,
            39.1115264
          ],
          [
            -94.8305429,
            39.1115564
          ],
          [
            -94.8302135,
            39.1116208
          ],
          [
            -94.8299018,
            39.1117079
          ],
          [
            -94.8296188,
            39.111821
          ],
          [
            -94.8293533,
            39.1119576
          ],
          [
            -94.8291177,
            39.1121195
          ],
          [
            -94.8288873,
            39.1123009
          ],
          [
            -94.8286876,
            39.1125199
          ],
          [
            -94.828535,
            39.1127356
          ],
          [
            -94.8283923,
            39.1129799
          ],
          [
            -94.8282328,
            39.1132893
          ],
          [
            -94.8280826,
            39.1136317
          ],
          [
            -94.8274798,
            39.1151304
          ],
          [
            -94.8268888,
            39.1166897
          ],
          [
            -94.826807,
            39.1169388
          ],
          [
            -94.8267384,
            39.1171755
          ],
          [
            -94.8266932,
            39.1174069
          ],
          [
            -94.8266701,
            39.1176063
          ],
          [
            -94.8266594,
            39.1178337
          ],
          [
            -94.8266792,
            39.1180198
          ],
          [
            -94.826718,
            39.1182059
          ],
          [
            -94.8267726,
            39.1183811
          ],
          [
            -94.8268561,
            39.1185562
          ],
          [
            -94.8269749,
            39.1187575
          ],
          [
            -94.8271002,
            39.1189263
          ],
          [
            -94.8272369,
            39.1190781
          ],
          [
            -94.8274187,
            39.1192372
          ],
          [
            -94.8276241,
            39.1193918
          ],
          [
            -94.8278681,
            39.1195293
          ],
          [
            -94.8281201,
            39.1196504
          ],
          [
            -94.8283809,
            39.1197373
          ],
          [
            -94.8286455,
            39.1198134
          ],
          [
            -94.8289144,
            39.1198541
          ],
          [
            -94.8291826,
            39.1198811
          ],
          [
            -94.8294662,
            39.1198827
          ],
          [
            -94.8297191,
            39.1198669
          ],
          [
            -94.8299587,
            39.1198328
          ],
          [
            -94.8301775,
            39.1197866
          ],
          [
            -94.8304101,
            39.1197235
          ],
          [
            -94.8306357,
            39.1196408
          ],
          [
            -94.8309096,
            39.1195131
          ],
          [
            -94.8311891,
            39.1193395
          ],
          [
            -94.8314498,
            39.1191448
          ],
          [
            -94.8324574,
            39.1183585
          ],
          [
            -94.8327492,
            39.1181159
          ],
          [
            -94.8330027,
            39.117869
          ],
          [
            -94.8331763,
            39.1176748
          ],
          [
            -94.8333172,
            39.1175024
          ],
          [
            -94.8334652,
            39.1172926
          ],
          [
            -94.8336088,
            39.1170644
          ],
          [
            -94.833741,
            39.11681
          ],
          [
            -94.8338407,
            39.1165711
          ]
        ]
      }
    }
  ]
}
