{
  "type": "FeatureCollection",
  "bbox": [
    13.3921367,
    58.5450373,
    13.4067137,
    58.5473795
  ],
  "metadata": {
    "schemaVersion": 1,
    "trackId": "se-kinnekulle-ring-24783023",
    "layoutId": "main",
    "license": "ODbL-1.0",
    "attribution": "© OpenStreetMap contributors",
    "closed": true,
    "geometryStatus": "draft",
    "timingStatus": "missing",
    "timingMode": "shared",
    "lengthM": 2057.3,
    "reviewedAt": null,
    "notes": [
      "Connected OSM course candidate. The selected loop is the longest simple source-node cycle after explicit exclusions; its association with a named circuit configuration requires review.",
      "Source way order and shared node IDs are retained. No nearby endpoints are joined and no reference boundaries are read.",
      "Some source ways lack one-way direction tags. Travel direction is provisional."
    ]
  },
  "features": [
    {
      "type": "Feature",
      "id": "trace",
      "properties": {
        "role": "trace",
        "sourceIds": [
          "osm-snapshot"
        ]
      },
      "geometry": {
        "type": "LineString",
        "coordinates": [
          [
            13.4030364,
            58.5466966
          ],
          [
            13.4026606,
            58.5466056
          ],
          [
            13.4024756,
            58.5465731
          ],
          [
            13.4023256,
            58.5465588
          ],
          [
            13.4021779,
            58.5465588
          ],
          [
            13.4020355,
            58.5465671
          ],
          [
            13.4017032,
            58.5466001
          ],
          [
            13.4009911,
            58.5466841
          ],
          [
            13.3998176,
            58.5468511
          ],
          [
            13.3993901,
            58.5469056
          ],
          [
            13.3992055,
            58.5469235
          ],
          [
            13.3989523,
            58.5469387
          ],
          [
            13.3984382,
            58.5469563
          ],
          [
            13.3978485,
            58.5469676
          ],
          [
            13.3973611,
            58.5469689
          ],
          [
            13.3968571,
            58.5469537
          ],
          [
            13.395905,
            58.5468876
          ],
          [
            13.3950372,
            58.54681
          ],
          [
            13.3942275,
            58.5467285
          ],
          [
            13.3934864,
            58.5466432
          ],
          [
            13.3930986,
            58.5465887
          ],
          [
            13.3928485,
            58.5465432
          ],
          [
            13.3926023,
            58.5464746
          ],
          [
            13.3924348,
            58.5464045
          ],
          [
            13.3923134,
            58.5463426
          ],
          [
            13.3922343,
            58.5462737
          ],
          [
            13.3921657,
            58.5461953
          ],
          [
            13.3921367,
            58.5461169
          ],
          [
            13.392142,
            58.5460467
          ],
          [
            13.3921697,
            58.5459984
          ],
          [
            13.3922185,
            58.5459489
          ],
          [
            13.3923424,
            58.5458732
          ],
          [
            13.3925095,
            58.5457888
          ],
          [
            13.392724,
            58.5456983
          ],
          [
            13.3937393,
            58.5452939
          ],
          [
            13.3940205,
            58.5451893
          ],
          [
            13.394179,
            58.5451348
          ],
          [
            13.3943506,
            58.5450871
          ],
          [
            13.394496,
            58.5450628
          ],
          [
            13.3946546,
            58.545055
          ],
          [
            13.3947879,
            58.5450587
          ],
          [
            13.3949194,
            58.5450716
          ],
          [
            13.3950481,
            58.5451027
          ],
          [
            13.3951544,
            58.5451397
          ],
          [
            13.3952476,
            58.5451806
          ],
          [
            13.3953166,
            58.5452253
          ],
          [
            13.3953707,
            58.5452789
          ],
          [
            13.3954117,
            58.5453382
          ],
          [
            13.3954826,
            58.5454677
          ],
          [
            13.3955394,
            58.5455921
          ],
          [
            13.395591,
            58.5456861
          ],
          [
            13.3956301,
            58.5457433
          ],
          [
            13.3956898,
            58.5457988
          ],
          [
            13.3957382,
            58.5458377
          ],
          [
            13.3958073,
            58.5458786
          ],
          [
            13.3958874,
            58.5459107
          ],
          [
            13.3960255,
            58.5459555
          ],
          [
            13.3961674,
            58.5459879
          ],
          [
            13.3963108,
            58.5460119
          ],
          [
            13.3964824,
            58.5460314
          ],
          [
            13.3966479,
            58.5460411
          ],
          [
            13.3968218,
            58.5460431
          ],
          [
            13.3970064,
            58.5460372
          ],
          [
            13.3971873,
            58.5460246
          ],
          [
            13.3973272,
            58.5460051
          ],
          [
            13.3974484,
            58.5459779
          ],
          [
            13.397592,
            58.5459341
          ],
          [
            13.3977189,
            58.5458864
          ],
          [
            13.3978308,
            58.5458348
          ],
          [
            13.3979744,
            58.5457618
          ],
          [
            13.3980958,
            58.5456924
          ],
          [
            13.3982649,
            58.5455761
          ],
          [
            13.3984344,
            58.5454435
          ],
          [
            13.3985689,
            58.5453279
          ],
          [
            13.3986751,
            58.5452493
          ],
          [
            13.3988185,
            58.5451677
          ],
          [
            13.3989487,
            58.5451098
          ],
          [
            13.3991106,
            58.5450684
          ],
          [
            13.3992481,
            58.5450469
          ],
          [
            13.3994063,
            58.5450373
          ],
          [
            13.3995751,
            58.54504
          ],
          [
            13.3997571,
            58.5450552
          ],
          [
            13.3999523,
            58.5450841
          ],
          [
            13.4001574,
            58.5451304
          ],
          [
            13.400311,
            58.5451818
          ],
          [
            13.4004481,
            58.5452327
          ],
          [
            13.4005958,
            58.5453002
          ],
          [
            13.4007026,
            58.5453635
          ],
          [
            13.4007897,
            58.5454323
          ],
          [
            13.4008717,
            58.5455191
          ],
          [
            13.4009765,
            58.5456418
          ],
          [
            13.4011677,
            58.5458787
          ],
          [
            13.4012882,
            58.5460042
          ],
          [
            13.401385,
            58.5460884
          ],
          [
            13.4014992,
            58.5461813
          ],
          [
            13.4016032,
            58.5462412
          ],
          [
            13.4017338,
            58.5462885
          ],
          [
            13.4018569,
            58.5463235
          ],
          [
            13.4020191,
            58.5463518
          ],
          [
            13.4022336,
            58.5463761
          ],
          [
            13.4024099,
            58.5463889
          ],
          [
            13.4026196,
            58.5463965
          ],
          [
            13.4027707,
            58.5463946
          ],
          [
            13.402933,
            58.5463907
          ],
          [
            13.4031552,
            58.5463711
          ],
          [
            13.4047838,
            58.5461685
          ],
          [
            13.4051031,
            58.5461417
          ],
          [
            13.4052986,
            58.5461374
          ],
          [
            13.4055018,
            58.5461432
          ],
          [
            13.4056939,
            58.5461637
          ],
          [
            13.4058487,
            58.546188
          ],
          [
            13.4060128,
            58.5462259
          ],
          [
            13.4061626,
            58.5462724
          ],
          [
            13.406304,
            58.546336
          ],
          [
            13.4064363,
            58.5464153
          ],
          [
            13.4065545,
            58.5465102
          ],
          [
            13.4066407,
            58.5466008
          ],
          [
            13.4066961,
            58.5466972
          ],
          [
            13.4067137,
            58.5467781
          ],
          [
            13.4067047,
            58.5468553
          ],
          [
            13.4066764,
            58.546928
          ],
          [
            13.406626,
            58.5470078
          ],
          [
            13.4065589,
            58.5470847
          ],
          [
            13.4064936,
            58.5471469
          ],
          [
            13.4064171,
            58.5472024
          ],
          [
            13.4063239,
            58.5472579
          ],
          [
            13.4062418,
            58.5472919
          ],
          [
            13.4061433,
            58.5473236
          ],
          [
            13.406046,
            58.5473493
          ],
          [
            13.4059695,
            58.5473639
          ],
          [
            13.4058968,
            58.5473746
          ],
          [
            13.405825,
            58.5473795
          ],
          [
            13.4057541,
            58.5473787
          ],
          [
            13.4056832,
            58.5473726
          ],
          [
            13.4056024,
            58.5473614
          ],
          [
            13.4054686,
            58.5473376
          ],
          [
            13.4052538,
            58.5472862
          ],
          [
            13.4030364,
            58.5466966
          ]
        ]
      }
    }
  ]
}
