{
  "type": "FeatureCollection",
  "bbox": [
    120.4809309,
    22.4498197,
    120.4812498,
    22.4563451
  ],
  "metadata": {
    "schemaVersion": 1,
    "trackId": "tw-penbay-fia-6ece852f",
    "layoutId": "penbay-fia-international-drag",
    "license": "ODbL-1.0",
    "attribution": "© OpenStreetMap contributors",
    "closed": false,
    "geometryStatus": "draft",
    "timingStatus": "missing",
    "timingMode": "shared",
    "lengthM": 727.2,
    "reviewedAt": null,
    "notes": [
      "Draft configuration: The supplied layout identifies a straight rather than a closed circuit. The race organizer describes a 700 m drag straight including start and deceleration distance. Exact independent public nodes retain the northern straight extension and western main straight, with no return loop or invented endpoint. The 727.2 m mapped extent includes the full available straight and is not asserted to be a homologated timed distance. Only one shared timing marker is supplied; a separate timed finish and direction remain unverified. Branch identity was checked against catalogue layout facts and circuit identification references. Independent source distance 727.2 m; no coordinates are changed to match a diagram or distance. Travel direction and historical alignment remain provisional."
    ]
  },
  "features": [
    {
      "type": "Feature",
      "id": "trace",
      "properties": {
        "role": "trace",
        "sourceIds": [
          "osm-selection-645849365"
        ]
      },
      "geometry": {
        "type": "LineString",
        "coordinates": [
          [
            120.4809309,
            22.4563451
          ],
          [
            120.4810343,
            22.454889
          ],
          [
            120.4810949,
            22.4547183
          ],
          [
            120.481177,
            22.4519864
          ],
          [
            120.4812498,
            22.4498197
          ]
        ]
      }
    }
  ]
}
