{
  "type": "FeatureCollection",
  "bbox": [
    23.3597058,
    37.9857804,
    23.3664009,
    37.988441
  ],
  "metadata": {
    "schemaVersion": 1,
    "trackId": "gr-athens-circuit-megara-70043231",
    "layoutId": "main",
    "license": "ODbL-1.0",
    "attribution": "© OpenStreetMap contributors",
    "closed": true,
    "geometryStatus": "draft",
    "timingStatus": "missing",
    "timingMode": "shared",
    "lengthM": 2052.9,
    "reviewedAt": null,
    "notes": [
      "Connected OSM course candidate. The selected loop is the longest simple source-node cycle after explicit exclusions; its association with a named circuit configuration requires review.",
      "Source way order and shared node IDs are retained. No nearby endpoints are joined and no reference boundaries are read.",
      "Some source ways lack one-way direction tags. Travel direction is provisional."
    ]
  },
  "features": [
    {
      "type": "Feature",
      "id": "trace",
      "properties": {
        "role": "trace",
        "sourceIds": [
          "osm-snapshot"
        ]
      },
      "geometry": {
        "type": "LineString",
        "coordinates": [
          [
            23.3651967,
            37.9880991
          ],
          [
            23.3646401,
            37.9881463
          ],
          [
            23.3632332,
            37.9882653
          ],
          [
            23.3622599,
            37.9883541
          ],
          [
            23.3606698,
            37.988441
          ],
          [
            23.3605607,
            37.9884379
          ],
          [
            23.3604787,
            37.9884132
          ],
          [
            23.3604012,
            37.9883734
          ],
          [
            23.3603527,
            37.9883068
          ],
          [
            23.3603435,
            37.9882156
          ],
          [
            23.3603456,
            37.9881507
          ],
          [
            23.3602616,
            37.987963
          ],
          [
            23.3602125,
            37.9879078
          ],
          [
            23.3600327,
            37.9877403
          ],
          [
            23.3598716,
            37.9876244
          ],
          [
            23.3597946,
            37.98756
          ],
          [
            23.3597455,
            37.9874974
          ],
          [
            23.3597198,
            37.9874293
          ],
          [
            23.3597058,
            37.9873538
          ],
          [
            23.3597152,
            37.9872876
          ],
          [
            23.3597385,
            37.9872232
          ],
          [
            23.3597946,
            37.9871459
          ],
          [
            23.3598506,
            37.987087
          ],
          [
            23.3599277,
            37.9870226
          ],
          [
            23.3599977,
            37.986971
          ],
          [
            23.3600561,
            37.9869342
          ],
          [
            23.3601028,
            37.9869066
          ],
          [
            23.3602125,
            37.9868551
          ],
          [
            23.3603106,
            37.9868183
          ],
          [
            23.360397,
            37.9867944
          ],
          [
            23.3605021,
            37.9867723
          ],
          [
            23.3605955,
            37.9867705
          ],
          [
            23.3606692,
            37.9867763
          ],
          [
            23.3607912,
            37.986803
          ],
          [
            23.360906,
            37.986862
          ],
          [
            23.3609752,
            37.9869453
          ],
          [
            23.3611608,
            37.9873021
          ],
          [
            23.3612222,
            37.9873677
          ],
          [
            23.3612929,
            37.9874185
          ],
          [
            23.3614021,
            37.9874711
          ],
          [
            23.3615339,
            37.9875149
          ],
          [
            23.3631446,
            37.987836
          ],
          [
            23.3634359,
            37.9878882
          ],
          [
            23.3635546,
            37.9878954
          ],
          [
            23.3636958,
            37.9878955
          ],
          [
            23.3638575,
            37.9878658
          ],
          [
            23.3641183,
            37.9877926
          ],
          [
            23.3643174,
            37.9877155
          ],
          [
            23.3644054,
            37.9876591
          ],
          [
            23.3644481,
            37.9876077
          ],
          [
            23.3644685,
            37.9875486
          ],
          [
            23.36446,
            37.9874781
          ],
          [
            23.3644154,
            37.987391
          ],
          [
            23.3643753,
            37.9873491
          ],
          [
            23.3642895,
            37.9873076
          ],
          [
            23.3641947,
            37.9872759
          ],
          [
            23.3634927,
            37.9871317
          ],
          [
            23.3623544,
            37.986885
          ],
          [
            23.3622546,
            37.986848
          ],
          [
            23.3620711,
            37.9867524
          ],
          [
            23.3618883,
            37.9866372
          ],
          [
            23.3617471,
            37.986497
          ],
          [
            23.3616413,
            37.986337
          ],
          [
            23.3616088,
            37.9862094
          ],
          [
            23.3615986,
            37.9861007
          ],
          [
            23.3616038,
            37.9860022
          ],
          [
            23.361637,
            37.9859235
          ],
          [
            23.3616731,
            37.9858573
          ],
          [
            23.3617407,
            37.9858003
          ],
          [
            23.3618281,
            37.9857845
          ],
          [
            23.3618819,
            37.9857804
          ],
          [
            23.3619362,
            37.9857846
          ],
          [
            23.3620373,
            37.9858128
          ],
          [
            23.3621559,
            37.9858957
          ],
          [
            23.3622411,
            37.9860225
          ],
          [
            23.3623488,
            37.9863344
          ],
          [
            23.3624805,
            37.9865181
          ],
          [
            23.3625542,
            37.9865802
          ],
          [
            23.3626777,
            37.9866171
          ],
          [
            23.3629297,
            37.9866631
          ],
          [
            23.3636308,
            37.9867862
          ],
          [
            23.365029,
            37.9870367
          ],
          [
            23.3651889,
            37.9870845
          ],
          [
            23.3653298,
            37.9871334
          ],
          [
            23.3654033,
            37.9871661
          ],
          [
            23.3656613,
            37.9872738
          ],
          [
            23.3662452,
            37.9875459
          ],
          [
            23.3663203,
            37.9876029
          ],
          [
            23.3663893,
            37.9876883
          ],
          [
            23.3664009,
            37.9877908
          ],
          [
            23.3663858,
            37.9878736
          ],
          [
            23.3663402,
            37.9879502
          ],
          [
            23.3662551,
            37.9880045
          ],
          [
            23.3661352,
            37.9880364
          ],
          [
            23.3651967,
            37.9880991
          ]
        ]
      }
    }
  ]
}
