{
  "type": "FeatureCollection",
  "bbox": [
    121.8638178,
    29.7576037,
    121.8704453,
    29.7656854
  ],
  "metadata": {
    "schemaVersion": 1,
    "trackId": "cn-ningbo-international-speedpark-1106938567",
    "layoutId": "main",
    "license": "ODbL-1.0",
    "attribution": "© OpenStreetMap contributors",
    "closed": true,
    "geometryStatus": "draft",
    "timingStatus": "missing",
    "timingMode": "shared",
    "lengthM": 3968.1,
    "reviewedAt": null,
    "notes": [
      "Connected OSM course candidate. The selected loop is the longest simple source-node cycle after explicit exclusions; its association with a named circuit configuration requires review.",
      "Source way order and shared node IDs are retained. No nearby endpoints are joined and no Racelogic boundaries are read."
    ]
  },
  "features": [
    {
      "type": "Feature",
      "id": "trace",
      "properties": {
        "role": "trace",
        "sourceIds": [
          "osm-snapshot"
        ]
      },
      "geometry": {
        "type": "LineString",
        "coordinates": [
          [
            121.8639883,
            29.7589132
          ],
          [
            121.8643592,
            29.7577206
          ],
          [
            121.8644567,
            29.7576389
          ],
          [
            121.8647511,
            29.7576037
          ],
          [
            121.8657661,
            29.7578504
          ],
          [
            121.8658879,
            29.7580707
          ],
          [
            121.8657864,
            29.7587404
          ],
          [
            121.8657864,
            29.7590752
          ],
          [
            121.8661924,
            29.7596039
          ],
          [
            121.868395,
            29.7615689
          ],
          [
            121.8684254,
            29.7617275
          ],
          [
            121.8682427,
            29.7619389
          ],
          [
            121.8681108,
            29.7621945
          ],
          [
            121.8681209,
            29.7623619
          ],
          [
            121.8683138,
            29.7625557
          ],
          [
            121.8686995,
            29.7625822
          ],
          [
            121.8689025,
            29.7625205
          ],
          [
            121.8694404,
            29.7619389
          ],
          [
            121.8694303,
            29.7614896
          ],
          [
            121.8692374,
            29.7610226
          ],
          [
            121.8670348,
            29.7590312
          ],
          [
            121.8669029,
            29.7588021
          ],
          [
            121.8669841,
            29.758617
          ],
          [
            121.8671871,
            29.7585953
          ],
          [
            121.8676337,
            29.7589871
          ],
          [
            121.8682732,
            29.7594629
          ],
          [
            121.8704453,
            29.7614984
          ],
          [
            121.8704453,
            29.7616041
          ],
          [
            121.8692882,
            29.7631196
          ],
          [
            121.8690446,
            29.7630844
          ],
          [
            121.8688619,
            29.7630932
          ],
          [
            121.8687401,
            29.7632606
          ],
          [
            121.8685574,
            29.7641682
          ],
          [
            121.8682914,
            29.7645399
          ],
          [
            121.868129,
            29.764628
          ],
          [
            121.8677941,
            29.7646104
          ],
          [
            121.8673779,
            29.7648131
          ],
          [
            121.8669009,
            29.7651479
          ],
          [
            121.8664949,
            29.7656677
          ],
          [
            121.8662309,
            29.7656854
          ],
          [
            121.8660685,
            29.7656237
          ],
          [
            121.8660381,
            29.7654739
          ],
          [
            121.8660685,
            29.7652712
          ],
          [
            121.8673492,
            29.7643158
          ],
          [
            121.8678696,
            29.764168
          ],
          [
            121.8681493,
            29.7634474
          ],
          [
            121.8679971,
            29.7632359
          ],
          [
            121.867855,
            29.7632006
          ],
          [
            121.8676317,
            29.7632976
          ],
          [
            121.8674232,
            29.7634163
          ],
          [
            121.8663629,
            29.7640201
          ],
          [
            121.8662106,
            29.7640025
          ],
          [
            121.8655915,
            29.7634914
          ],
          [
            121.8646534,
            29.7635539
          ],
          [
            121.8644209,
            29.7633947
          ],
          [
            121.8642522,
            29.7627288
          ],
          [
            121.8641341,
            29.7610544
          ],
          [
            121.8638178,
            29.7593496
          ],
          [
            121.8639883,
            29.7589132
          ]
        ]
      }
    }
  ]
}
