{
  "type": "FeatureCollection",
  "bbox": [
    -81.4184134,
    42.9290283,
    -81.4167993,
    42.9316184
  ],
  "metadata": {
    "schemaVersion": 1,
    "trackId": "ca-delaware-speedway-23968411",
    "layoutId": "main",
    "license": "ODbL-1.0",
    "attribution": "© OpenStreetMap contributors",
    "closed": true,
    "geometryStatus": "draft",
    "timingStatus": "missing",
    "timingMode": "shared",
    "lengthM": 707.8,
    "reviewedAt": null,
    "notes": [
      "Closed named OSM raceway retained as a course candidate. Named-layout association requires review.",
      "Source way order and shared node IDs are retained. No nearby endpoints are joined and no Racelogic boundaries are read.",
      "Some source ways lack one-way direction tags. Travel direction is provisional."
    ]
  },
  "features": [
    {
      "type": "Feature",
      "id": "trace",
      "properties": {
        "role": "trace",
        "sourceIds": [
          "osm-snapshot"
        ]
      },
      "geometry": {
        "type": "LineString",
        "coordinates": [
          [
            -81.4176667,
            42.9316184
          ],
          [
            -81.4180363,
            42.9315908
          ],
          [
            -81.4182927,
            42.9314638
          ],
          [
            -81.4184134,
            42.9312318
          ],
          [
            -81.4183003,
            42.9294812
          ],
          [
            -81.4181117,
            42.9291609
          ],
          [
            -81.4177346,
            42.9290283
          ],
          [
            -81.4172066,
            42.9290946
          ],
          [
            -81.4169653,
            42.9292492
          ],
          [
            -81.4167993,
            42.9295475
          ],
          [
            -81.4169954,
            42.9304752
          ],
          [
            -81.417184,
            42.9312815
          ],
          [
            -81.4173499,
            42.9314859
          ],
          [
            -81.4176667,
            42.9316184
          ]
        ]
      }
    }
  ]
}
