{
  "type": "FeatureCollection",
  "bbox": [
    11.8052237,
    60.7004954,
    11.8178257,
    60.7081902
  ],
  "metadata": {
    "schemaVersion": 1,
    "trackId": "no-valerbanen-837348585",
    "layoutId": "main",
    "license": "ODbL-1.0",
    "attribution": "© OpenStreetMap contributors",
    "closed": true,
    "geometryStatus": "draft",
    "timingStatus": "missing",
    "timingMode": "shared",
    "lengthM": 3434.7,
    "reviewedAt": null,
    "notes": [
      "Connected OSM course candidate. The selected loop is the longest simple source-node cycle after explicit exclusions; its association with a named circuit configuration requires review.",
      "Source way order and shared node IDs are retained. No nearby endpoints are joined and no Racelogic boundaries are read.",
      "Some source ways lack one-way direction tags. Travel direction is provisional."
    ]
  },
  "features": [
    {
      "type": "Feature",
      "id": "trace",
      "properties": {
        "role": "trace",
        "sourceIds": [
          "osm-snapshot"
        ]
      },
      "geometry": {
        "type": "LineString",
        "coordinates": [
          [
            11.8084578,
            60.704265
          ],
          [
            11.8082498,
            60.7042851
          ],
          [
            11.8080023,
            60.7043422
          ],
          [
            11.8077782,
            60.7044176
          ],
          [
            11.8076287,
            60.7044793
          ],
          [
            11.8074839,
            60.7045387
          ],
          [
            11.8073859,
            60.7045936
          ],
          [
            11.8070356,
            60.7049112
          ],
          [
            11.8067287,
            60.7052555
          ],
          [
            11.8066527,
            60.7053408
          ],
          [
            11.8052797,
            60.7067758
          ],
          [
            11.8052237,
            60.7068763
          ],
          [
            11.8052237,
            60.7069471
          ],
          [
            11.8052377,
            60.7070202
          ],
          [
            11.8052657,
            60.7070865
          ],
          [
            11.8053264,
            60.7071436
          ],
          [
            11.8062371,
            60.7075618
          ],
          [
            11.8065313,
            60.7076577
          ],
          [
            11.8067181,
            60.7077011
          ],
          [
            11.8069189,
            60.7077217
          ],
          [
            11.807087,
            60.7077217
          ],
          [
            11.8073485,
            60.707708
          ],
          [
            11.807512,
            60.7076897
          ],
          [
            11.8077408,
            60.7076303
          ],
          [
            11.8080537,
            60.7074521
          ],
          [
            11.8097894,
            60.7062836
          ],
          [
            11.8106918,
            60.7057426
          ],
          [
            11.8120792,
            60.7048768
          ],
          [
            11.8132896,
            60.7040836
          ],
          [
            11.81358,
            60.7040566
          ],
          [
            11.8140545,
            60.7040837
          ],
          [
            11.8148001,
            60.704135
          ],
          [
            11.8148186,
            60.704349
          ],
          [
            11.8147446,
            60.7044696
          ],
          [
            11.8145475,
            60.7045752
          ],
          [
            11.8142908,
            60.7046618
          ],
          [
            11.81411,
            60.7046204
          ],
          [
            11.8138388,
            60.7046174
          ],
          [
            11.813543,
            60.7046325
          ],
          [
            11.8132349,
            60.704741
          ],
          [
            11.8130316,
            60.7048556
          ],
          [
            11.8129022,
            60.7049792
          ],
          [
            11.8128159,
            60.7051239
          ],
          [
            11.8127112,
            60.7054224
          ],
          [
            11.8126249,
            60.7056395
          ],
          [
            11.8123907,
            60.7057903
          ],
          [
            11.8121689,
            60.7058958
          ],
          [
            11.8113555,
            60.7060767
          ],
          [
            11.8111213,
            60.7061792
          ],
          [
            11.8110043,
            60.7062847
          ],
          [
            11.8108256,
            60.7065953
          ],
          [
            11.8106838,
            60.7067702
          ],
          [
            11.8103819,
            60.7070536
          ],
          [
            11.8101477,
            60.7071862
          ],
          [
            11.8098026,
            60.707334
          ],
          [
            11.8095808,
            60.7074154
          ],
          [
            11.8094268,
            60.707545
          ],
          [
            11.8093528,
            60.7076505
          ],
          [
            11.8093775,
            60.7077892
          ],
          [
            11.8094206,
            60.7078887
          ],
          [
            11.8095007,
            60.7080063
          ],
          [
            11.8096732,
            60.7080847
          ],
          [
            11.8098704,
            60.7081419
          ],
          [
            11.8101231,
            60.7081902
          ],
          [
            11.8103203,
            60.7081902
          ],
          [
            11.8105791,
            60.7081781
          ],
          [
            11.8108317,
            60.7081148
          ],
          [
            11.8109796,
            60.7080364
          ],
          [
            11.8111521,
            60.7079188
          ],
          [
            11.8112076,
            60.7078043
          ],
          [
            11.8111645,
            60.7075118
          ],
          [
            11.8111891,
            60.7074003
          ],
          [
            11.8113185,
            60.70734
          ],
          [
            11.8115342,
            60.7072797
          ],
          [
            11.8118485,
            60.7072405
          ],
          [
            11.8120641,
            60.707138
          ],
          [
            11.8145654,
            60.7050866
          ],
          [
            11.8155272,
            60.7042978
          ],
          [
            11.8158169,
            60.7040385
          ],
          [
            11.8158723,
            60.7038967
          ],
          [
            11.8157745,
            60.7037462
          ],
          [
            11.8177764,
            60.7020363
          ],
          [
            11.8178011,
            60.7019579
          ],
          [
            11.8178257,
            60.7018433
          ],
          [
            11.8178072,
            60.7017106
          ],
          [
            11.8176778,
            60.7015719
          ],
          [
            11.8165008,
            60.7007215
          ],
          [
            11.8162174,
            60.7005647
          ],
          [
            11.8161434,
            60.7005496
          ],
          [
            11.8159154,
            60.7004954
          ],
          [
            11.8157244,
            60.7004954
          ],
          [
            11.8154903,
            60.7005346
          ],
          [
            11.8151945,
            60.7007336
          ],
          [
            11.812758,
            60.7027671
          ],
          [
            11.8124832,
            60.7029964
          ],
          [
            11.8127913,
            60.7031369
          ],
          [
            11.8128282,
            60.7031791
          ],
          [
            11.8127851,
            60.7032635
          ],
          [
            11.8126557,
            60.7033419
          ],
          [
            11.8122918,
            60.7035391
          ],
          [
            11.8113295,
            60.7038496
          ],
          [
            11.8103279,
            60.7041735
          ],
          [
            11.809962,
            60.7042331
          ],
          [
            11.8097465,
            60.704259
          ],
          [
            11.8092627,
            60.704259
          ],
          [
            11.8084578,
            60.704265
          ]
        ]
      }
    }
  ]
}
