{
  "type": "FeatureCollection",
  "bbox": [
    11.8052237,
    60.7004954,
    11.8178257,
    60.7077217
  ],
  "metadata": {
    "schemaVersion": 1,
    "trackId": "no-valerbanen-837348585",
    "layoutId": "valerbanen",
    "license": "ODbL-1.0",
    "attribution": "© OpenStreetMap contributors",
    "closed": true,
    "geometryStatus": "draft",
    "timingStatus": "missing",
    "timingMode": "shared",
    "lengthM": 2255.1,
    "reviewedAt": null,
    "notes": [
      "Draft configuration: Main circuit with direct northwestern bend and southeastern outer loop; excludes the northwestern skid-pad detour. Branch identity was checked against catalogue layout facts and circuit identification references. Independent source distance 2255.1 m; no coordinates are changed to match a diagram or distance. Travel direction and historical alignment remain provisional."
    ]
  },
  "features": [
    {
      "type": "Feature",
      "id": "trace",
      "properties": {
        "role": "trace",
        "sourceIds": [
          "osm-selection-837348585"
        ]
      },
      "geometry": {
        "type": "LineString",
        "coordinates": [
          [
            11.8084578,
            60.704265
          ],
          [
            11.8082498,
            60.7042851
          ],
          [
            11.8080023,
            60.7043422
          ],
          [
            11.8077782,
            60.7044176
          ],
          [
            11.8076287,
            60.7044793
          ],
          [
            11.8074839,
            60.7045387
          ],
          [
            11.8073859,
            60.7045936
          ],
          [
            11.8070356,
            60.7049112
          ],
          [
            11.8067287,
            60.7052555
          ],
          [
            11.8066527,
            60.7053408
          ],
          [
            11.8052797,
            60.7067758
          ],
          [
            11.8052237,
            60.7068763
          ],
          [
            11.8052237,
            60.7069471
          ],
          [
            11.8052377,
            60.7070202
          ],
          [
            11.8052657,
            60.7070865
          ],
          [
            11.8053264,
            60.7071436
          ],
          [
            11.8062371,
            60.7075618
          ],
          [
            11.8065313,
            60.7076577
          ],
          [
            11.8067181,
            60.7077011
          ],
          [
            11.8069189,
            60.7077217
          ],
          [
            11.807087,
            60.7077217
          ],
          [
            11.8073485,
            60.707708
          ],
          [
            11.807512,
            60.7076897
          ],
          [
            11.8077408,
            60.7076303
          ],
          [
            11.8080537,
            60.7074521
          ],
          [
            11.8097894,
            60.7062836
          ],
          [
            11.8106918,
            60.7057426
          ],
          [
            11.8120792,
            60.7048768
          ],
          [
            11.8132896,
            60.7040836
          ],
          [
            11.81358,
            60.7040566
          ],
          [
            11.8140545,
            60.7040837
          ],
          [
            11.8148001,
            60.704135
          ],
          [
            11.8150774,
            60.7041199
          ],
          [
            11.8152684,
            60.7040656
          ],
          [
            11.8155334,
            60.7039661
          ],
          [
            11.8156936,
            60.7038153
          ],
          [
            11.8157745,
            60.7037462
          ],
          [
            11.8177764,
            60.7020363
          ],
          [
            11.8178011,
            60.7019579
          ],
          [
            11.8178257,
            60.7018433
          ],
          [
            11.8178072,
            60.7017106
          ],
          [
            11.8176778,
            60.7015719
          ],
          [
            11.8165008,
            60.7007215
          ],
          [
            11.8162174,
            60.7005647
          ],
          [
            11.8161434,
            60.7005496
          ],
          [
            11.8159154,
            60.7004954
          ],
          [
            11.8157244,
            60.7004954
          ],
          [
            11.8154903,
            60.7005346
          ],
          [
            11.8151945,
            60.7007336
          ],
          [
            11.812758,
            60.7027671
          ],
          [
            11.8124832,
            60.7029964
          ],
          [
            11.8123907,
            60.7030736
          ],
          [
            11.8123106,
            60.703167
          ],
          [
            11.8123045,
            60.7033118
          ],
          [
            11.8122918,
            60.7035391
          ],
          [
            11.8113295,
            60.7038496
          ],
          [
            11.8103279,
            60.7041735
          ],
          [
            11.809962,
            60.7042331
          ],
          [
            11.8097465,
            60.704259
          ],
          [
            11.8092627,
            60.704259
          ],
          [
            11.8084578,
            60.704265
          ]
        ]
      }
    }
  ]
}
