{
  "type": "FeatureCollection",
  "bbox": [
    18.5262662,
    -33.8285148,
    18.5314959,
    -33.8199877
  ],
  "metadata": {
    "schemaVersion": 1,
    "trackId": "za-killarney-raceway-42125321",
    "layoutId": "main",
    "license": "ODbL-1.0",
    "attribution": "© OpenStreetMap contributors",
    "closed": true,
    "geometryStatus": "draft",
    "timingStatus": "missing",
    "timingMode": "shared",
    "lengthM": 3268.1,
    "reviewedAt": null,
    "notes": [
      "Closed named OSM raceway retained as a course candidate. Named-layout association requires review.",
      "Source way order and shared node IDs are retained. No nearby endpoints are joined and no reference boundaries are read.",
      "Some source ways lack one-way direction tags. Travel direction is provisional.",
      "Draft association of the supplied venue-level entry to the existing independently mapped full course at Killarney Raceway. This venue has one supplied entry and one retained independent course, with a timing point on that course. Source trace distance 3268.1 m; supplied distance 3272 m. The association preserves the independent source geometry and remains provisional where corner configurations or historical distances differ."
    ]
  },
  "features": [
    {
      "type": "Feature",
      "id": "trace",
      "properties": {
        "role": "trace",
        "sourceIds": [
          "osm-snapshot"
        ]
      },
      "geometry": {
        "type": "LineString",
        "coordinates": [
          [
            18.5296505,
            -33.8209891
          ],
          [
            18.5296083,
            -33.8209223
          ],
          [
            18.5295687,
            -33.820876
          ],
          [
            18.5294775,
            -33.8207969
          ],
          [
            18.5294004,
            -33.820739
          ],
          [
            18.5293253,
            -33.8206961
          ],
          [
            18.5292522,
            -33.8206694
          ],
          [
            18.529159,
            -33.8206493
          ],
          [
            18.5290564,
            -33.8206398
          ],
          [
            18.5289625,
            -33.8206376
          ],
          [
            18.5288586,
            -33.8206465
          ],
          [
            18.528758,
            -33.8206666
          ],
          [
            18.5287074,
            -33.820682
          ],
          [
            18.5286775,
            -33.8206911
          ],
          [
            18.5285937,
            -33.820724
          ],
          [
            18.5285106,
            -33.8207646
          ],
          [
            18.5284448,
            -33.8207992
          ],
          [
            18.5283711,
            -33.8208532
          ],
          [
            18.5283114,
            -33.8209161
          ],
          [
            18.5282635,
            -33.8209799
          ],
          [
            18.5282251,
            -33.8210587
          ],
          [
            18.5279793,
            -33.8217174
          ],
          [
            18.5278637,
            -33.8220272
          ],
          [
            18.5276314,
            -33.8226498
          ],
          [
            18.5276023,
            -33.8227278
          ],
          [
            18.5272071,
            -33.8238338
          ],
          [
            18.5271698,
            -33.8239088
          ],
          [
            18.5271413,
            -33.8239491
          ],
          [
            18.5271089,
            -33.8239875
          ],
          [
            18.5270735,
            -33.8240195
          ],
          [
            18.5270307,
            -33.8240472
          ],
          [
            18.5269795,
            -33.8240745
          ],
          [
            18.5269264,
            -33.8240986
          ],
          [
            18.5268671,
            -33.8241104
          ],
          [
            18.5267916,
            -33.824118
          ],
          [
            18.5267022,
            -33.8241078
          ],
          [
            18.5266005,
            -33.8240784
          ],
          [
            18.5265221,
            -33.8240494
          ],
          [
            18.5264326,
            -33.8239888
          ],
          [
            18.5263725,
            -33.8239248
          ],
          [
            18.5263285,
            -33.8238643
          ],
          [
            18.526294,
            -33.8237943
          ],
          [
            18.5262739,
            -33.8237251
          ],
          [
            18.5262662,
            -33.8236445
          ],
          [
            18.5262675,
            -33.8236223
          ],
          [
            18.5262709,
            -33.8235639
          ],
          [
            18.5262802,
            -33.8234704
          ],
          [
            18.5263032,
            -33.8233885
          ],
          [
            18.5263314,
            -33.8233199
          ],
          [
            18.5263814,
            -33.8232319
          ],
          [
            18.526926,
            -33.8224975
          ],
          [
            18.5270097,
            -33.822366
          ],
          [
            18.5270444,
            -33.8223069
          ],
          [
            18.5270723,
            -33.822234
          ],
          [
            18.5270878,
            -33.8221601
          ],
          [
            18.5271202,
            -33.8218673
          ],
          [
            18.52718,
            -33.8213263
          ],
          [
            18.527189,
            -33.8212451
          ],
          [
            18.5272545,
            -33.8206525
          ],
          [
            18.5272696,
            -33.8205602
          ],
          [
            18.5273009,
            -33.8204742
          ],
          [
            18.5273515,
            -33.8203802
          ],
          [
            18.5274093,
            -33.8203062
          ],
          [
            18.5274959,
            -33.8202202
          ],
          [
            18.5275829,
            -33.8201535
          ],
          [
            18.5277198,
            -33.8200802
          ],
          [
            18.5278612,
            -33.8200288
          ],
          [
            18.5279928,
            -33.8199989
          ],
          [
            18.5281073,
            -33.8199877
          ],
          [
            18.5282309,
            -33.8199889
          ],
          [
            18.5283794,
            -33.8200068
          ],
          [
            18.5284536,
            -33.8200237
          ],
          [
            18.5285024,
            -33.8200349
          ],
          [
            18.528738,
            -33.8201025
          ],
          [
            18.5298983,
            -33.8204686
          ],
          [
            18.5305118,
            -33.8206622
          ],
          [
            18.5307689,
            -33.8207433
          ],
          [
            18.5309159,
            -33.8207914
          ],
          [
            18.531,
            -33.8208241
          ],
          [
            18.5310778,
            -33.8208633
          ],
          [
            18.5311469,
            -33.8209116
          ],
          [
            18.5312063,
            -33.8209624
          ],
          [
            18.53126,
            -33.8210233
          ],
          [
            18.5312924,
            -33.8210694
          ],
          [
            18.531321,
            -33.8211306
          ],
          [
            18.5313569,
            -33.8212341
          ],
          [
            18.5314419,
            -33.8215071
          ],
          [
            18.5314686,
            -33.8216045
          ],
          [
            18.5314867,
            -33.8216804
          ],
          [
            18.5314959,
            -33.8217435
          ],
          [
            18.5314942,
            -33.8218063
          ],
          [
            18.5314789,
            -33.8218656
          ],
          [
            18.531449,
            -33.8219234
          ],
          [
            18.5314217,
            -33.8219676
          ],
          [
            18.531393,
            -33.8220154
          ],
          [
            18.5307027,
            -33.8229816
          ],
          [
            18.5303697,
            -33.8234477
          ],
          [
            18.5302641,
            -33.8236109
          ],
          [
            18.5299325,
            -33.8241234
          ],
          [
            18.5294872,
            -33.8248915
          ],
          [
            18.5284374,
            -33.8271034
          ],
          [
            18.5280797,
            -33.8277978
          ],
          [
            18.5279814,
            -33.8279665
          ],
          [
            18.5278733,
            -33.8281384
          ],
          [
            18.5277886,
            -33.8282321
          ],
          [
            18.5277093,
            -33.8283208
          ],
          [
            18.5276268,
            -33.8283922
          ],
          [
            18.5275201,
            -33.8284588
          ],
          [
            18.5273714,
            -33.8285084
          ],
          [
            18.5272604,
            -33.8285148
          ],
          [
            18.5271561,
            -33.8284975
          ],
          [
            18.5270786,
            -33.8284649
          ],
          [
            18.5270119,
            -33.8284224
          ],
          [
            18.5269539,
            -33.8283651
          ],
          [
            18.5269092,
            -33.8282627
          ],
          [
            18.5269054,
            -33.8281659
          ],
          [
            18.5269255,
            -33.8280652
          ],
          [
            18.527008,
            -33.8279445
          ],
          [
            18.5270738,
            -33.8278712
          ],
          [
            18.527806,
            -33.8271507
          ],
          [
            18.5279295,
            -33.8270292
          ],
          [
            18.5280521,
            -33.8268866
          ],
          [
            18.5282409,
            -33.8266549
          ],
          [
            18.5283169,
            -33.8265341
          ],
          [
            18.5284011,
            -33.8263917
          ],
          [
            18.5284974,
            -33.8261817
          ],
          [
            18.5285663,
            -33.8260108
          ],
          [
            18.5290773,
            -33.8238187
          ],
          [
            18.5292049,
            -33.8232715
          ],
          [
            18.5292591,
            -33.8230389
          ],
          [
            18.5294829,
            -33.8221434
          ],
          [
            18.5296156,
            -33.8216181
          ],
          [
            18.5296887,
            -33.8212983
          ],
          [
            18.5296974,
            -33.8212292
          ],
          [
            18.5296974,
            -33.8211802
          ],
          [
            18.5296914,
            -33.8211167
          ],
          [
            18.5296726,
            -33.8210487
          ],
          [
            18.5296505,
            -33.8209891
          ]
        ]
      }
    }
  ]
}
