{
  "type": "FeatureCollection",
  "bbox": [
    38.2375562,
    55.552117,
    38.246085,
    55.5564011
  ],
  "metadata": {
    "schemaVersion": 1,
    "trackId": "ru-ramenskoe-860ae810",
    "layoutId": "ramenskoe",
    "license": "ODbL-1.0",
    "attribution": "Contains modified Copernicus Sentinel data 2025; independent centerline digitization by OpenRacetrackDB",
    "closed": true,
    "geometryStatus": "draft",
    "timingStatus": "missing",
    "timingMode": "shared",
    "lengthM": 1538.7,
    "reviewedAt": null,
    "notes": [
      "Historical winter motorsport oval on the Ramenskoe hippodrome. The hippodrome operator documents annual winter car races from 1997 to 2011. The municipal report identifies the 1,600 m ice oval and 16 m width. Independent 2025 satellite imagery supplies the permanent oval footprint; temporary snow/ice racing-line alignment is unverified and remains a draft. The unrelated northern sports track and inner field are excluded. Native satellite ground resolution is 10 m. Nearest-neighbor rendering does not add resolution. Fine corner alignment and historical direction remain draft; no vertices are fitted to private diagrams, timing positions or nominal distance. Independently digitized aerial centerline: 1538.7 m. Direction, historical configuration and fine corner alignment remain draft; no course coordinates come from the comparison catalogue."
    ]
  },
  "features": [
    {
      "type": "Feature",
      "id": "trace",
      "properties": {
        "role": "trace",
        "sourceIds": [
          "copernicus-sentinel-ramenskoe-current-independent-roads"
        ]
      },
      "geometry": {
        "type": "LineString",
        "coordinates": [
          [
            38.2435391,
            55.5562931
          ],
          [
            38.2443665,
            55.5564011
          ],
          [
            38.245194,
            55.5563291
          ],
          [
            38.2457668,
            55.5560771
          ],
          [
            38.246085,
            55.5556451
          ],
          [
            38.246085,
            55.5552131
          ],
          [
            38.2457668,
            55.5547451
          ],
          [
            38.245194,
            55.5543131
          ],
          [
            38.2447166,
            55.5540791
          ],
          [
            38.2442392,
            55.5538451
          ],
          [
            38.2437301,
            55.5536111
          ],
          [
            38.2432209,
            55.5533771
          ],
          [
            38.2427117,
            55.5531071
          ],
          [
            38.2422025,
            55.552837
          ],
          [
            38.2416933,
            55.552621
          ],
          [
            38.2411841,
            55.552405
          ],
          [
            38.2407068,
            55.552279
          ],
          [
            38.2402294,
            55.552153
          ],
          [
            38.239752,
            55.552135
          ],
          [
            38.2392747,
            55.552117
          ],
          [
            38.2384472,
            55.552333
          ],
          [
            38.2378744,
            55.552657
          ],
          [
            38.2375562,
            55.5530891
          ],
          [
            38.2375562,
            55.5535571
          ],
          [
            38.2378744,
            55.5540251
          ],
          [
            38.2381927,
            55.5542591
          ],
          [
            38.2385109,
            55.5544931
          ],
          [
            38.2390519,
            55.5547451
          ],
          [
            38.2395929,
            55.5549971
          ],
          [
            38.2401339,
            55.5552491
          ],
          [
            38.2406749,
            55.5555011
          ],
          [
            38.2412159,
            55.5557531
          ],
          [
            38.241757,
            55.5560051
          ],
          [
            38.2422661,
            55.5560951
          ],
          [
            38.2427753,
            55.5561851
          ],
          [
            38.2435391,
            55.5562931
          ]
        ]
      }
    }
  ]
}
