{
  "type": "FeatureCollection",
  "bbox": [
    24.4490379,
    58.3985112,
    24.4554905,
    58.4052671
  ],
  "metadata": {
    "schemaVersion": 2,
    "geometryKind": "network",
    "trackId": "ee-porsche-ring-45482078",
    "layoutId": "sauga-circuit-combo",
    "license": "ODbL-1.0",
    "attribution": "© OpenStreetMap contributors",
    "closed": false,
    "geometryStatus": "draft",
    "timingStatus": "missing",
    "timingMode": "shared",
    "lengthM": 2268.9,
    "reviewedAt": null,
    "notes": []
  },
  "features": [
    {
      "type": "Feature",
      "id": "trace",
      "properties": {
        "role": "trace",
        "sourceIds": [
          "osm-network-sauga-circuit-combo"
        ]
      },
      "geometry": {
        "type": "MultiLineString",
        "coordinates": [
          [
            [
              24.4490746,
              58.3994587
            ],
            [
              24.4492364,
              58.3994774
            ],
            [
              24.4494683,
              58.3995235
            ],
            [
              24.4499102,
              58.3996784
            ],
            [
              24.4503092,
              58.3998182
            ],
            [
              24.4512111,
              58.4001006
            ],
            [
              24.4515059,
              58.4002092
            ],
            [
              24.4517322,
              58.4002925
            ],
            [
              24.4518179,
              58.4003645
            ],
            [
              24.451859,
              58.4004502
            ],
            [
              24.4518898,
              58.4005839
            ],
            [
              24.4519207,
              58.4007896
            ],
            [
              24.4519077,
              58.4008754
            ],
            [
              24.4519004,
              58.4009409
            ],
            [
              24.4521691,
              58.4010262
            ],
            [
              24.4527204,
              58.4013811
            ],
            [
              24.4527999,
              58.4014323
            ],
            [
              24.453704,
              58.4020021
            ],
            [
              24.4538925,
              58.4021992
            ],
            [
              24.4539139,
              58.402362
            ],
            [
              24.4538625,
              58.402482
            ],
            [
              24.453614,
              58.4026106
            ],
            [
              24.4533912,
              58.4026534
            ],
            [
              24.4529284,
              58.4026748
            ],
            [
              24.4526689,
              58.4026992
            ],
            [
              24.4521529,
              58.4027477
            ],
            [
              24.451733,
              58.4028334
            ],
            [
              24.4508504,
              58.4030476
            ],
            [
              24.4498435,
              58.403309
            ],
            [
              24.4495692,
              58.4034289
            ],
            [
              24.4493914,
              58.4035832
            ],
            [
              24.4493079,
              58.4037589
            ],
            [
              24.4493422,
              58.4039345
            ],
            [
              24.4493825,
              58.4039687
            ],
            [
              24.4494536,
              58.4040288
            ],
            [
              24.4496164,
              58.4041145
            ],
            [
              24.4505819,
              58.4045329
            ],
            [
              24.4511289,
              58.40477
            ],
            [
              24.4520758,
              58.4051728
            ],
            [
              24.4523929,
              58.4052671
            ],
            [
              24.4527399,
              58.4052671
            ],
            [
              24.4530398,
              58.4052285
            ],
            [
              24.4532969,
              58.4051385
            ],
            [
              24.4535036,
              58.4049963
            ],
            [
              24.4553386,
              58.4026904
            ],
            [
              24.4554658,
              58.402391
            ],
            [
              24.4554905,
              58.4021495
            ],
            [
              24.45547,
              58.4019332
            ],
            [
              24.4553903,
              58.4017704
            ],
            [
              24.4552838,
              58.4015942
            ],
            [
              24.4551095,
              58.4013873
            ],
            [
              24.4535514,
              58.4001842
            ],
            [
              24.4532301,
              58.3999361
            ],
            [
              24.4524863,
              58.3993773
            ],
            [
              24.4520877,
              58.3990631
            ],
            [
              24.4516807,
              58.3988038
            ],
            [
              24.4513894,
              58.3986883
            ],
            [
              24.4509918,
              58.3985718
            ],
            [
              24.450697,
              58.3985137
            ],
            [
              24.4503349,
              58.3985112
            ],
            [
              24.4500557,
              58.3985706
            ],
            [
              24.449794,
              58.3986666
            ],
            [
              24.4493968,
              58.3988529
            ],
            [
              24.4491583,
              58.3990014
            ],
            [
              24.4490722,
              58.3990928
            ],
            [
              24.4490414,
              58.3991854
            ],
            [
              24.4490379,
              58.3992951
            ],
            [
              24.4490746,
              58.3994587
            ]
          ],
          [
            [
              24.4490746,
              58.3994587
            ],
            [
              24.4492364,
              58.3994774
            ],
            [
              24.4494683,
              58.3995235
            ],
            [
              24.4499102,
              58.3996784
            ],
            [
              24.4503092,
              58.3998182
            ],
            [
              24.4512111,
              58.4001006
            ],
            [
              24.4515059,
              58.4002092
            ],
            [
              24.4517322,
              58.4002925
            ],
            [
              24.4518179,
              58.4003645
            ],
            [
              24.451859,
              58.4004502
            ],
            [
              24.4518898,
              58.4005839
            ],
            [
              24.4519207,
              58.4007896
            ],
            [
              24.4519077,
              58.4008754
            ],
            [
              24.4519004,
              58.4009409
            ],
            [
              24.4521691,
              58.4010262
            ],
            [
              24.4527204,
              58.4013811
            ],
            [
              24.4527999,
              58.4014323
            ],
            [
              24.453704,
              58.4020021
            ],
            [
              24.4538925,
              58.4021992
            ],
            [
              24.4539139,
              58.402362
            ],
            [
              24.4538625,
              58.402482
            ],
            [
              24.453614,
              58.4026106
            ],
            [
              24.4538471,
              58.4026097
            ],
            [
              24.4541007,
              58.4025926
            ],
            [
              24.4543064,
              58.402524
            ],
            [
              24.4546218,
              58.4023286
            ],
            [
              24.454948,
              58.402127
            ],
            [
              24.455225,
              58.4018967
            ],
            [
              24.4553903,
              58.4017704
            ],
            [
              24.4552838,
              58.4015942
            ],
            [
              24.4551095,
              58.4013873
            ],
            [
              24.4535514,
              58.4001842
            ],
            [
              24.4532301,
              58.3999361
            ],
            [
              24.4524863,
              58.3993773
            ],
            [
              24.4520877,
              58.3990631
            ],
            [
              24.4516807,
              58.3988038
            ],
            [
              24.4513894,
              58.3986883
            ],
            [
              24.4509918,
              58.3985718
            ],
            [
              24.450697,
              58.3985137
            ],
            [
              24.4503349,
              58.3985112
            ],
            [
              24.4500557,
              58.3985706
            ],
            [
              24.449794,
              58.3986666
            ],
            [
              24.4493968,
              58.3988529
            ],
            [
              24.4491583,
              58.3990014
            ],
            [
              24.4490722,
              58.3990928
            ],
            [
              24.4490414,
              58.3991854
            ],
            [
              24.4490379,
              58.3992951
            ],
            [
              24.4490746,
              58.3994587
            ]
          ]
        ]
      }
    }
  ]
}
