{
  "type": "FeatureCollection",
  "bbox": [
    33.8002439,
    35.0226379,
    33.8014488,
    35.0273952
  ],
  "metadata": {
    "schemaVersion": 1,
    "trackId": "cy-achna-speedway-ab0bcabd",
    "layoutId": "achna-full-straight",
    "license": "ODbL-1.0",
    "attribution": "© OpenStreetMap contributors",
    "closed": false,
    "geometryStatus": "draft",
    "timingStatus": "missing",
    "timingMode": "shared",
    "lengthM": 540.3,
    "reviewedAt": null,
    "notes": [
      "The operator course plan shows the long cross-course straight continuing beyond the closed circuit. Independent source way 734690065 indices 0 through 6 retain the real southern open end and northern hairpin junction. This physical straight is a component of the full-straight configuration, not an invented closed lap or a surveyed timed drag distance. Exact source coordinates are unchanged; historical alignment and direction remain provisional."
    ]
  },
  "features": [
    {
      "type": "Feature",
      "id": "trace",
      "properties": {
        "role": "trace",
        "sourceIds": [
          "osm-components-734690065"
        ]
      },
      "geometry": {
        "type": "LineString",
        "coordinates": [
          [
            33.8002439,
            35.0226379
          ],
          [
            33.8004307,
            35.0235328
          ],
          [
            33.8005137,
            35.0238364
          ],
          [
            33.8006286,
            35.0242566
          ],
          [
            33.8010098,
            35.0256514
          ],
          [
            33.8011899,
            35.026367
          ],
          [
            33.8014488,
            35.0273952
          ]
        ]
      }
    }
  ]
}
