{
  "type": "FeatureCollection",
  "bbox": [
    2.9433865,
    46.7144974,
    2.9566287,
    46.7191867
  ],
  "metadata": {
    "schemaVersion": 1,
    "trackId": "fr-circuit-de-lurcy-levis-171049670",
    "layoutId": "circuit-de-lurcy-levis",
    "license": "ODbL-1.0",
    "attribution": "© OpenStreetMap contributors",
    "closed": true,
    "geometryStatus": "draft",
    "timingStatus": "missing",
    "timingMode": "shared",
    "lengthM": 2590.8,
    "reviewedAt": null,
    "notes": [
      "Draft route hypothesis: the source cycle is the unique closest nominal-distance match within conservative timing and distance checks. Approximate OSM trace length 2590.8 m. Difference from the supplied layout distance 5.8 m. Course configuration still requires visual review."
    ]
  },
  "features": [
    {
      "type": "Feature",
      "id": "trace",
      "properties": {
        "role": "trace",
        "sourceIds": [
          "osm-network-171049670"
        ]
      },
      "geometry": {
        "type": "LineString",
        "coordinates": [
          [
            2.9544344,
            46.718144
          ],
          [
            2.9540223,
            46.7179564
          ],
          [
            2.9510407,
            46.7165987
          ],
          [
            2.9501358,
            46.7161866
          ],
          [
            2.9495699,
            46.715929
          ],
          [
            2.9466215,
            46.7145863
          ],
          [
            2.94642,
            46.714536
          ],
          [
            2.9462188,
            46.7145066
          ],
          [
            2.9459855,
            46.7144974
          ],
          [
            2.945779,
            46.7144992
          ],
          [
            2.9455481,
            46.7145235
          ],
          [
            2.9452836,
            46.7145807
          ],
          [
            2.9449376,
            46.7146899
          ],
          [
            2.9441616,
            46.7150029
          ],
          [
            2.9439819,
            46.7150926
          ],
          [
            2.9438796,
            46.7151491
          ],
          [
            2.9437913,
            46.7152122
          ],
          [
            2.9436949,
            46.7152921
          ],
          [
            2.9436056,
            46.7153846
          ],
          [
            2.9435326,
            46.7154826
          ],
          [
            2.9435013,
            46.7155362
          ],
          [
            2.9434372,
            46.7156656
          ],
          [
            2.9433992,
            46.7157816
          ],
          [
            2.9433865,
            46.7159212
          ],
          [
            2.9434065,
            46.7160695
          ],
          [
            2.943448,
            46.7161979
          ],
          [
            2.9435016,
            46.7163263
          ],
          [
            2.9435783,
            46.7164422
          ],
          [
            2.9436753,
            46.7165413
          ],
          [
            2.9437865,
            46.7166456
          ],
          [
            2.9438818,
            46.7167086
          ],
          [
            2.944012,
            46.7167846
          ],
          [
            2.9441483,
            46.7168538
          ],
          [
            2.9444108,
            46.7169372
          ],
          [
            2.9446136,
            46.716982
          ],
          [
            2.9448302,
            46.7170032
          ],
          [
            2.9450037,
            46.7170085
          ],
          [
            2.9452595,
            46.7169934
          ],
          [
            2.9458692,
            46.7169022
          ],
          [
            2.9464121,
            46.7168162
          ],
          [
            2.9466612,
            46.7167924
          ],
          [
            2.9468257,
            46.7167881
          ],
          [
            2.9469495,
            46.7168058
          ],
          [
            2.9470448,
            46.7168292
          ],
          [
            2.9471846,
            46.7168836
          ],
          [
            2.947383,
            46.7169887
          ],
          [
            2.9478781,
            46.7172557
          ],
          [
            2.9480424,
            46.7173355
          ],
          [
            2.9482478,
            46.7174024
          ],
          [
            2.9483575,
            46.717426
          ],
          [
            2.9485058,
            46.7174399
          ],
          [
            2.948627,
            46.7174399
          ],
          [
            2.9487444,
            46.7174253
          ],
          [
            2.9488144,
            46.7174146
          ],
          [
            2.9489057,
            46.7173959
          ],
          [
            2.9489625,
            46.717381
          ],
          [
            2.9491379,
            46.7173286
          ],
          [
            2.9492025,
            46.7173124
          ],
          [
            2.9492912,
            46.7172963
          ],
          [
            2.9493595,
            46.7172893
          ],
          [
            2.949451,
            46.7172824
          ],
          [
            2.949592,
            46.717276
          ],
          [
            2.949785,
            46.7172872
          ],
          [
            2.94994,
            46.7173044
          ],
          [
            2.9501062,
            46.7173313
          ],
          [
            2.9501953,
            46.7173491
          ],
          [
            2.9502539,
            46.7173652
          ],
          [
            2.950346,
            46.7174057
          ],
          [
            2.9504516,
            46.7174647
          ],
          [
            2.9505467,
            46.717538
          ],
          [
            2.9506776,
            46.7176375
          ],
          [
            2.9507777,
            46.7177554
          ],
          [
            2.9508515,
            46.7178644
          ],
          [
            2.9508856,
            46.7179617
          ],
          [
            2.9509109,
            46.7180549
          ],
          [
            2.9509207,
            46.7181743
          ],
          [
            2.9509077,
            46.7182658
          ],
          [
            2.9508615,
            46.7183894
          ],
          [
            2.9507779,
            46.7185578
          ],
          [
            2.9507605,
            46.7186272
          ],
          [
            2.9507763,
            46.7186991
          ],
          [
            2.9507994,
            46.7187329
          ],
          [
            2.9508443,
            46.718773
          ],
          [
            2.950897,
            46.718802
          ],
          [
            2.9509851,
            46.7188277
          ],
          [
            2.9510934,
            46.7188308
          ],
          [
            2.9511563,
            46.7188232
          ],
          [
            2.9512624,
            46.7187757
          ],
          [
            2.9514443,
            46.7186474
          ],
          [
            2.9515911,
            46.7185487
          ],
          [
            2.9516918,
            46.718495
          ],
          [
            2.9517667,
            46.7184665
          ],
          [
            2.9518424,
            46.7184483
          ],
          [
            2.9519765,
            46.7184325
          ],
          [
            2.9520635,
            46.7184368
          ],
          [
            2.9521484,
            46.7184523
          ],
          [
            2.9522479,
            46.7184856
          ],
          [
            2.952308,
            46.7185126
          ],
          [
            2.9523702,
            46.7185468
          ],
          [
            2.9526,
            46.7187373
          ],
          [
            2.9529514,
            46.719011
          ],
          [
            2.9530912,
            46.7191007
          ],
          [
            2.9531843,
            46.719138
          ],
          [
            2.9533361,
            46.7191706
          ],
          [
            2.9534449,
            46.7191851
          ],
          [
            2.9535852,
            46.7191867
          ],
          [
            2.9536856,
            46.7191735
          ],
          [
            2.9538368,
            46.7191389
          ],
          [
            2.9539686,
            46.7190895
          ],
          [
            2.9540318,
            46.7190658
          ],
          [
            2.9546238,
            46.7188234
          ],
          [
            2.954999,
            46.7186731
          ],
          [
            2.9551101,
            46.7186317
          ],
          [
            2.955198,
            46.7186095
          ],
          [
            2.9552704,
            46.7186033
          ],
          [
            2.9553652,
            46.7186138
          ],
          [
            2.9555386,
            46.7186527
          ],
          [
            2.9556482,
            46.7187012
          ],
          [
            2.9557742,
            46.718738
          ],
          [
            2.9558949,
            46.7187573
          ],
          [
            2.9560276,
            46.718765
          ],
          [
            2.9561212,
            46.718752
          ],
          [
            2.9562318,
            46.718717
          ],
          [
            2.9563772,
            46.7186517
          ],
          [
            2.9564718,
            46.7185844
          ],
          [
            2.9565454,
            46.718502
          ],
          [
            2.9565999,
            46.7184043
          ],
          [
            2.9566287,
            46.7182865
          ],
          [
            2.9566287,
            46.7182024
          ],
          [
            2.9565869,
            46.7180979
          ],
          [
            2.9565365,
            46.7180239
          ],
          [
            2.9564578,
            46.7179454
          ],
          [
            2.9563699,
            46.7178885
          ],
          [
            2.9562919,
            46.7178517
          ],
          [
            2.9561812,
            46.7178133
          ],
          [
            2.9560639,
            46.7177876
          ],
          [
            2.9559624,
            46.7177744
          ],
          [
            2.9558387,
            46.7177777
          ],
          [
            2.9557183,
            46.7177954
          ],
          [
            2.955541,
            46.7178441
          ],
          [
            2.9554394,
            46.7178871
          ],
          [
            2.9553175,
            46.7179486
          ],
          [
            2.9551119,
            46.7180409
          ],
          [
            2.9549872,
            46.7180898
          ],
          [
            2.9548569,
            46.7181229
          ],
          [
            2.9547362,
            46.718144
          ],
          [
            2.95459,
            46.7181541
          ],
          [
            2.9545192,
            46.7181539
          ],
          [
            2.9544344,
            46.718144
          ]
        ]
      }
    }
  ]
}
