{
  "type": "FeatureCollection",
  "bbox": [
    -79.8589848,
    42.9004152,
    -79.8530732,
    42.9056179
  ],
  "metadata": {
    "schemaVersion": 1,
    "trackId": "ca-toronto-motorsports-park-440159413",
    "layoutId": "toronto-motorsports-park-full-course",
    "license": "ODbL-1.0",
    "attribution": "© OpenStreetMap contributors",
    "closed": true,
    "geometryStatus": "draft",
    "timingStatus": "missing",
    "timingMode": "shared",
    "lengthM": 2355.4,
    "reviewedAt": null,
    "notes": [
      "Draft route hypothesis: the source cycle is the unique closest nominal-distance match within conservative timing and distance checks. Approximate OSM trace length 2355.4 m. Difference from the supplied layout distance 19.4 m. Course configuration still requires visual review."
    ]
  },
  "features": [
    {
      "type": "Feature",
      "id": "trace",
      "properties": {
        "role": "trace",
        "sourceIds": [
          "osm-network-440159413"
        ]
      },
      "geometry": {
        "type": "LineString",
        "coordinates": [
          [
            -79.8567505,
            42.9004899
          ],
          [
            -79.8589848,
            42.9051581
          ],
          [
            -79.858966,
            42.9052308
          ],
          [
            -79.8589043,
            42.9053428
          ],
          [
            -79.8587112,
            42.9054862
          ],
          [
            -79.8585717,
            42.9055589
          ],
          [
            -79.8583052,
            42.9056033
          ],
          [
            -79.8582177,
            42.9056179
          ],
          [
            -79.8579494,
            42.9055943
          ],
          [
            -79.8568247,
            42.9054121
          ],
          [
            -79.8533146,
            42.9048438
          ],
          [
            -79.8531979,
            42.9047799
          ],
          [
            -79.8531241,
            42.9047082
          ],
          [
            -79.8530732,
            42.9045157
          ],
          [
            -79.8530839,
            42.9040284
          ],
          [
            -79.8531831,
            42.9039204
          ],
          [
            -79.8533253,
            42.9038359
          ],
          [
            -79.8535238,
            42.903832
          ],
          [
            -79.8536692,
            42.9038711
          ],
          [
            -79.8544062,
            42.9042838
          ],
          [
            -79.8545645,
            42.9043074
          ],
          [
            -79.854763,
            42.9042583
          ],
          [
            -79.8548622,
            42.904162
          ],
          [
            -79.8550151,
            42.9040697
          ],
          [
            -79.8552002,
            42.9040324
          ],
          [
            -79.8554147,
            42.9040559
          ],
          [
            -79.8555703,
            42.9041031
          ],
          [
            -79.8557259,
            42.9042092
          ],
          [
            -79.8558707,
            42.9043408
          ],
          [
            -79.8559826,
            42.904413
          ],
          [
            -79.8571374,
            42.9049477
          ],
          [
            -79.8572896,
            42.9050206
          ],
          [
            -79.8574961,
            42.9050324
          ],
          [
            -79.8576624,
            42.9049597
          ],
          [
            -79.8577375,
            42.9048438
          ],
          [
            -79.8577509,
            42.9046945
          ],
          [
            -79.8568068,
            42.9031541
          ],
          [
            -79.8567344,
            42.9030923
          ],
          [
            -79.8565386,
            42.9030279
          ],
          [
            -79.8564179,
            42.9029557
          ],
          [
            -79.8561416,
            42.9024488
          ],
          [
            -79.8560343,
            42.9023898
          ],
          [
            -79.8558828,
            42.9023781
          ],
          [
            -79.8550084,
            42.9025264
          ],
          [
            -79.8548649,
            42.9025048
          ],
          [
            -79.85472,
            42.9024095
          ],
          [
            -79.8546986,
            42.9023112
          ],
          [
            -79.8547402,
            42.9022012
          ],
          [
            -79.8549212,
            42.9020627
          ],
          [
            -79.8559083,
            42.9013731
          ],
          [
            -79.8559552,
            42.9012237
          ],
          [
            -79.8559485,
            42.9010381
          ],
          [
            -79.8559056,
            42.9006628
          ],
          [
            -79.8559351,
            42.9005685
          ],
          [
            -79.8559968,
            42.9005076
          ],
          [
            -79.8561684,
            42.9004594
          ],
          [
            -79.8565547,
            42.9004152
          ],
          [
            -79.85667,
            42.900428
          ],
          [
            -79.8567357,
            42.9004663
          ],
          [
            -79.8567505,
            42.9004899
          ]
        ]
      }
    }
  ]
}
