{
  "type": "FeatureCollection",
  "bbox": [
    -1.0893646,
    52.2755428,
    -1.0868145,
    52.2775664
  ],
  "metadata": {
    "schemaVersion": 1,
    "trackId": "gb-whilton-mill-8610510a",
    "layoutId": "whilton-mill-international",
    "license": "ODbL-1.0",
    "attribution": "© OpenStreetMap contributors",
    "closed": true,
    "geometryStatus": "draft",
    "timingStatus": "missing",
    "timingMode": "shared",
    "lengthM": 1042.8,
    "reviewedAt": null,
    "notes": [
      "Draft route hypothesis: the source cycle is the unique closest nominal-distance match within conservative timing and distance checks. Approximate OSM trace length 1042.8 m. Difference from the supplied layout distance 14.2 m. Course configuration still requires visual review."
    ]
  },
  "features": [
    {
      "type": "Feature",
      "id": "trace",
      "properties": {
        "role": "trace",
        "sourceIds": [
          "osm-network-244268438"
        ]
      },
      "geometry": {
        "type": "LineString",
        "coordinates": [
          [
            -1.0887478,
            52.2756072
          ],
          [
            -1.0888059,
            52.2762669
          ],
          [
            -1.0888432,
            52.2766449
          ],
          [
            -1.0888478,
            52.2766714
          ],
          [
            -1.088858,
            52.276696
          ],
          [
            -1.0888697,
            52.276717
          ],
          [
            -1.0888863,
            52.2767355
          ],
          [
            -1.0889172,
            52.2767565
          ],
          [
            -1.0889985,
            52.2767922
          ],
          [
            -1.0890847,
            52.2768267
          ],
          [
            -1.0891669,
            52.2768601
          ],
          [
            -1.089226,
            52.2768893
          ],
          [
            -1.0892662,
            52.2769091
          ],
          [
            -1.0893005,
            52.2769311
          ],
          [
            -1.0893235,
            52.27695
          ],
          [
            -1.0893367,
            52.2769638
          ],
          [
            -1.0893477,
            52.2769774
          ],
          [
            -1.0893563,
            52.2769908
          ],
          [
            -1.089361,
            52.2770045
          ],
          [
            -1.0893628,
            52.2770175
          ],
          [
            -1.0893646,
            52.2770314
          ],
          [
            -1.0893612,
            52.2770513
          ],
          [
            -1.0893547,
            52.2770662
          ],
          [
            -1.0893459,
            52.2770856
          ],
          [
            -1.0893204,
            52.2771143
          ],
          [
            -1.089283,
            52.2771458
          ],
          [
            -1.0891347,
            52.2772567
          ],
          [
            -1.0889613,
            52.2773698
          ],
          [
            -1.0888511,
            52.2774224
          ],
          [
            -1.0887467,
            52.2774633
          ],
          [
            -1.0886364,
            52.2774969
          ],
          [
            -1.0885457,
            52.2775255
          ],
          [
            -1.0884998,
            52.2775394
          ],
          [
            -1.0884436,
            52.2775478
          ],
          [
            -1.0883855,
            52.2775501
          ],
          [
            -1.0880316,
            52.2775545
          ],
          [
            -1.08697,
            52.2775664
          ],
          [
            -1.0869422,
            52.2775654
          ],
          [
            -1.0869072,
            52.2775569
          ],
          [
            -1.086881,
            52.2775465
          ],
          [
            -1.0868569,
            52.2775325
          ],
          [
            -1.0868387,
            52.2775177
          ],
          [
            -1.0868241,
            52.2774978
          ],
          [
            -1.0868145,
            52.2774781
          ],
          [
            -1.0868147,
            52.277457
          ],
          [
            -1.0868245,
            52.2774379
          ],
          [
            -1.0868464,
            52.2774115
          ],
          [
            -1.0870197,
            52.2772748
          ],
          [
            -1.0870322,
            52.277264
          ],
          [
            -1.0870494,
            52.2772492
          ],
          [
            -1.0870668,
            52.2772311
          ],
          [
            -1.0870747,
            52.2772177
          ],
          [
            -1.0870807,
            52.2772027
          ],
          [
            -1.087083,
            52.2771851
          ],
          [
            -1.0870793,
            52.2771701
          ],
          [
            -1.0870721,
            52.2771547
          ],
          [
            -1.0870428,
            52.2771158
          ],
          [
            -1.0869372,
            52.2769755
          ],
          [
            -1.0869051,
            52.2769312
          ],
          [
            -1.0868808,
            52.2768889
          ],
          [
            -1.0868653,
            52.2768429
          ],
          [
            -1.0868553,
            52.2768137
          ],
          [
            -1.0868443,
            52.2767796
          ],
          [
            -1.0868414,
            52.2767595
          ],
          [
            -1.0868385,
            52.2767426
          ],
          [
            -1.0868398,
            52.2767288
          ],
          [
            -1.086844,
            52.2767177
          ],
          [
            -1.0868519,
            52.2767075
          ],
          [
            -1.0868608,
            52.2766989
          ],
          [
            -1.0868709,
            52.2766921
          ],
          [
            -1.0868867,
            52.2766842
          ],
          [
            -1.0872098,
            52.2765317
          ],
          [
            -1.0877317,
            52.2762825
          ],
          [
            -1.0877711,
            52.27627
          ],
          [
            -1.087804,
            52.2762642
          ],
          [
            -1.0878387,
            52.2762652
          ],
          [
            -1.0878692,
            52.2762736
          ],
          [
            -1.0878965,
            52.2762874
          ],
          [
            -1.0879144,
            52.2762994
          ],
          [
            -1.0879226,
            52.2763116
          ],
          [
            -1.0879274,
            52.2763286
          ],
          [
            -1.0879257,
            52.2763521
          ],
          [
            -1.087924,
            52.2763653
          ],
          [
            -1.0879098,
            52.2763968
          ],
          [
            -1.0875997,
            52.276961
          ],
          [
            -1.0875838,
            52.2769924
          ],
          [
            -1.087509,
            52.2771404
          ],
          [
            -1.0875029,
            52.2771645
          ],
          [
            -1.0875074,
            52.277186
          ],
          [
            -1.0875227,
            52.277209
          ],
          [
            -1.087544,
            52.2772267
          ],
          [
            -1.0875712,
            52.2772441
          ],
          [
            -1.0876043,
            52.2772562
          ],
          [
            -1.0876457,
            52.2772643
          ],
          [
            -1.0876771,
            52.2772669
          ],
          [
            -1.0877217,
            52.2772677
          ],
          [
            -1.0880548,
            52.2772661
          ],
          [
            -1.088441,
            52.2772678
          ],
          [
            -1.0884715,
            52.2772662
          ],
          [
            -1.0885165,
            52.2772621
          ],
          [
            -1.0885482,
            52.2772557
          ],
          [
            -1.0885745,
            52.2772491
          ],
          [
            -1.0886007,
            52.2772404
          ],
          [
            -1.0886239,
            52.2772315
          ],
          [
            -1.088641,
            52.2772207
          ],
          [
            -1.0886555,
            52.2772062
          ],
          [
            -1.0886722,
            52.2771891
          ],
          [
            -1.0886863,
            52.2771721
          ],
          [
            -1.088695,
            52.2771543
          ],
          [
            -1.0886988,
            52.2771372
          ],
          [
            -1.0887002,
            52.277125
          ],
          [
            -1.0886953,
            52.2771108
          ],
          [
            -1.0886852,
            52.27709
          ],
          [
            -1.0886704,
            52.2770741
          ],
          [
            -1.0886537,
            52.2770582
          ],
          [
            -1.0886294,
            52.2770427
          ],
          [
            -1.0885781,
            52.277022
          ],
          [
            -1.0885479,
            52.2770106
          ],
          [
            -1.0885181,
            52.2770005
          ],
          [
            -1.0884869,
            52.2769836
          ],
          [
            -1.0884592,
            52.2769637
          ],
          [
            -1.0884259,
            52.2769275
          ],
          [
            -1.0884042,
            52.2769033
          ],
          [
            -1.0883855,
            52.2768774
          ],
          [
            -1.088376,
            52.2768374
          ],
          [
            -1.0883654,
            52.2767393
          ],
          [
            -1.0882837,
            52.275951
          ],
          [
            -1.088273,
            52.2759199
          ],
          [
            -1.0882527,
            52.2758957
          ],
          [
            -1.0882303,
            52.2758795
          ],
          [
            -1.0882078,
            52.2758672
          ],
          [
            -1.0881782,
            52.2758607
          ],
          [
            -1.088147,
            52.275858
          ],
          [
            -1.0881167,
            52.2758588
          ],
          [
            -1.0880818,
            52.2758591
          ],
          [
            -1.0880369,
            52.2758599
          ],
          [
            -1.0878575,
            52.2758629
          ],
          [
            -1.0878154,
            52.2758628
          ],
          [
            -1.0877679,
            52.2758553
          ],
          [
            -1.0877308,
            52.275843
          ],
          [
            -1.0877062,
            52.275828
          ],
          [
            -1.0876911,
            52.2758118
          ],
          [
            -1.0876827,
            52.2757962
          ],
          [
            -1.0876802,
            52.2757865
          ],
          [
            -1.0876815,
            52.2757765
          ],
          [
            -1.0877621,
            52.2756262
          ],
          [
            -1.0877772,
            52.275611
          ],
          [
            -1.0878008,
            52.2755962
          ],
          [
            -1.0878238,
            52.2755832
          ],
          [
            -1.0878571,
            52.2755735
          ],
          [
            -1.0879085,
            52.2755679
          ],
          [
            -1.0883583,
            52.2755482
          ],
          [
            -1.0885326,
            52.2755445
          ],
          [
            -1.0885773,
            52.2755428
          ],
          [
            -1.0886032,
            52.2755434
          ],
          [
            -1.088631,
            52.2755461
          ],
          [
            -1.0886533,
            52.2755493
          ],
          [
            -1.0886688,
            52.2755528
          ],
          [
            -1.0886874,
            52.2755586
          ],
          [
            -1.0887037,
            52.2755662
          ],
          [
            -1.0887185,
            52.275574
          ],
          [
            -1.0887311,
            52.2755826
          ],
          [
            -1.0887387,
            52.2755901
          ],
          [
            -1.0887449,
            52.2755983
          ],
          [
            -1.0887478,
            52.2756072
          ]
        ]
      }
    }
  ]
}
