{
  "type": "FeatureCollection",
  "bbox": [
    -58.1884523,
    -34.9823758,
    -58.174367,
    -34.9736947
  ],
  "metadata": {
    "schemaVersion": 1,
    "trackId": "ar-autodromo-roberto-mouras-53021031",
    "layoutId": "main",
    "license": "ODbL-1.0",
    "attribution": "© OpenStreetMap contributors",
    "closed": true,
    "geometryStatus": "draft",
    "timingStatus": "missing",
    "timingMode": "shared",
    "lengthM": 4218.7,
    "reviewedAt": null,
    "notes": [
      "Connected OSM course candidate. The selected loop is the longest simple source-node cycle after explicit exclusions; its association with a named circuit configuration requires review.",
      "Source way order and shared node IDs are retained. No nearby endpoints are joined and no reference boundaries are read."
    ]
  },
  "features": [
    {
      "type": "Feature",
      "id": "trace",
      "properties": {
        "role": "trace",
        "sourceIds": [
          "osm-snapshot"
        ]
      },
      "geometry": {
        "type": "LineString",
        "coordinates": [
          [
            -58.1760772,
            -34.9822367
          ],
          [
            -58.1764402,
            -34.9820494
          ],
          [
            -58.1794919,
            -34.9806487
          ],
          [
            -58.1795839,
            -34.9806033
          ],
          [
            -58.1796843,
            -34.980466
          ],
          [
            -58.1796843,
            -34.9803807
          ],
          [
            -58.1796436,
            -34.9802621
          ],
          [
            -58.1795802,
            -34.9800655
          ],
          [
            -58.1795666,
            -34.9799913
          ],
          [
            -58.1795847,
            -34.979906
          ],
          [
            -58.1796436,
            -34.9798356
          ],
          [
            -58.1797296,
            -34.979791
          ],
          [
            -58.1798201,
            -34.9797873
          ],
          [
            -58.1799197,
            -34.9798207
          ],
          [
            -58.1800057,
            -34.9798764
          ],
          [
            -58.1801324,
            -34.9799654
          ],
          [
            -58.1802456,
            -34.9800062
          ],
          [
            -58.1804131,
            -34.9800247
          ],
          [
            -58.1805896,
            -34.9800247
          ],
          [
            -58.180883,
            -34.9799631
          ],
          [
            -58.1820758,
            -34.9793752
          ],
          [
            -58.1831902,
            -34.978872
          ],
          [
            -58.1841321,
            -34.9784466
          ],
          [
            -58.1843986,
            -34.9783262
          ],
          [
            -58.1846099,
            -34.9780226
          ],
          [
            -58.1846602,
            -34.9779224
          ],
          [
            -58.1846653,
            -34.9778074
          ],
          [
            -58.1846914,
            -34.9776132
          ],
          [
            -58.1847425,
            -34.9775425
          ],
          [
            -58.184848,
            -34.9774866
          ],
          [
            -58.1850081,
            -34.9774488
          ],
          [
            -58.1851772,
            -34.9774629
          ],
          [
            -58.1856757,
            -34.9775103
          ],
          [
            -58.1861369,
            -34.9775275
          ],
          [
            -58.1870088,
            -34.9771251
          ],
          [
            -58.1874168,
            -34.9768902
          ],
          [
            -58.1877754,
            -34.9766429
          ],
          [
            -58.1880845,
            -34.9763833
          ],
          [
            -58.1882205,
            -34.9761824
          ],
          [
            -58.1883236,
            -34.9759969
          ],
          [
            -58.1883905,
            -34.9758115
          ],
          [
            -58.1884305,
            -34.9755951
          ],
          [
            -58.1884523,
            -34.9753787
          ],
          [
            -58.1884375,
            -34.9751333
          ],
          [
            -58.1883956,
            -34.974925
          ],
          [
            -58.1882642,
            -34.9746096
          ],
          [
            -58.1880633,
            -34.9743464
          ],
          [
            -58.1877877,
            -34.9741115
          ],
          [
            -58.1874632,
            -34.973926
          ],
          [
            -58.1870313,
            -34.9737634
          ],
          [
            -58.1866895,
            -34.9736961
          ],
          [
            -58.1862828,
            -34.9736947
          ],
          [
            -58.1858599,
            -34.9737411
          ],
          [
            -58.1855005,
            -34.9738024
          ],
          [
            -58.1851371,
            -34.9739292
          ],
          [
            -58.1834605,
            -34.9746524
          ],
          [
            -58.1829351,
            -34.9748687
          ],
          [
            -58.182574,
            -34.9749683
          ],
          [
            -58.1823168,
            -34.9749825
          ],
          [
            -58.1820188,
            -34.9749336
          ],
          [
            -58.1817825,
            -34.9748113
          ],
          [
            -58.1812868,
            -34.9743625
          ],
          [
            -58.1810535,
            -34.9742166
          ],
          [
            -58.1808075,
            -34.974165
          ],
          [
            -58.1805706,
            -34.9741579
          ],
          [
            -58.180076,
            -34.9742506
          ],
          [
            -58.1793497,
            -34.9744124
          ],
          [
            -58.1788119,
            -34.9745411
          ],
          [
            -58.1785621,
            -34.9746241
          ],
          [
            -58.1783937,
            -34.974722
          ],
          [
            -58.1782294,
            -34.9748455
          ],
          [
            -58.1781195,
            -34.9749615
          ],
          [
            -58.1780148,
            -34.9751507
          ],
          [
            -58.1779464,
            -34.9753324
          ],
          [
            -58.1778846,
            -34.9757775
          ],
          [
            -58.1778425,
            -34.9759345
          ],
          [
            -58.1777733,
            -34.9760989
          ],
          [
            -58.177641,
            -34.9763017
          ],
          [
            -58.1775073,
            -34.9764402
          ],
          [
            -58.1773283,
            -34.9765564
          ],
          [
            -58.1771477,
            -34.9766442
          ],
          [
            -58.1768585,
            -34.9767171
          ],
          [
            -58.1765982,
            -34.9767488
          ],
          [
            -58.1763516,
            -34.9767789
          ],
          [
            -58.1760607,
            -34.9768172
          ],
          [
            -58.1758151,
            -34.9769001
          ],
          [
            -58.1756785,
            -34.97702
          ],
          [
            -58.1755673,
            -34.9772203
          ],
          [
            -58.1755425,
            -34.9774193
          ],
          [
            -58.1755523,
            -34.9775776
          ],
          [
            -58.1756073,
            -34.9777692
          ],
          [
            -58.1757377,
            -34.9779349
          ],
          [
            -58.1759431,
            -34.9780626
          ],
          [
            -58.1761921,
            -34.9781636
          ],
          [
            -58.1763903,
            -34.9782032
          ],
          [
            -58.1766156,
            -34.9782131
          ],
          [
            -58.1769531,
            -34.9781698
          ],
          [
            -58.1780701,
            -34.9780276
          ],
          [
            -58.1784693,
            -34.9780165
          ],
          [
            -58.1786668,
            -34.9780857
          ],
          [
            -58.1788366,
            -34.9782019
          ],
          [
            -58.1789073,
            -34.9783546
          ],
          [
            -58.1789193,
            -34.978537
          ],
          [
            -58.1788416,
            -34.9787014
          ],
          [
            -58.1787006,
            -34.9788436
          ],
          [
            -58.1784676,
            -34.9789747
          ],
          [
            -58.1751598,
            -34.9805263
          ],
          [
            -58.1748225,
            -34.9807301
          ],
          [
            -58.1746229,
            -34.9808897
          ],
          [
            -58.1744866,
            -34.9810492
          ],
          [
            -58.1743997,
            -34.9812171
          ],
          [
            -58.1743671,
            -34.9813331
          ],
          [
            -58.174367,
            -34.9815252
          ],
          [
            -58.174394,
            -34.981695
          ],
          [
            -58.1744552,
            -34.9818355
          ],
          [
            -58.1745527,
            -34.981976
          ],
          [
            -58.1746642,
            -34.9821135
          ],
          [
            -58.1747938,
            -34.9822064
          ],
          [
            -58.1750905,
            -34.9823301
          ],
          [
            -58.1753082,
            -34.9823752
          ],
          [
            -58.175535,
            -34.9823758
          ],
          [
            -58.1758043,
            -34.982325
          ],
          [
            -58.1760772,
            -34.9822367
          ]
        ]
      }
    }
  ]
}
