{
  "type": "FeatureCollection",
  "bbox": [
    -60.2055818,
    -33.4018488,
    -60.1955979,
    -33.3934906
  ],
  "metadata": {
    "schemaVersion": 1,
    "trackId": "ar-autodromo-san-nicolas-ciudad-549052237",
    "layoutId": "main",
    "license": "ODbL-1.0",
    "attribution": "© OpenStreetMap contributors",
    "closed": true,
    "geometryStatus": "draft",
    "timingStatus": "missing",
    "timingMode": "shared",
    "lengthM": 4014.8,
    "reviewedAt": null,
    "notes": [
      "Connected OSM course candidate. The selected loop is the longest simple source-node cycle after explicit exclusions; its association with a named circuit configuration requires review.",
      "Source way order and shared node IDs are retained. No nearby endpoints are joined and no Racelogic boundaries are read."
    ]
  },
  "features": [
    {
      "type": "Feature",
      "id": "trace",
      "properties": {
        "role": "trace",
        "sourceIds": [
          "osm-snapshot"
        ]
      },
      "geometry": {
        "type": "LineString",
        "coordinates": [
          [
            -60.1977436,
            -33.4018488
          ],
          [
            -60.1979139,
            -33.4018309
          ],
          [
            -60.1981044,
            -33.4017973
          ],
          [
            -60.1981774,
            -33.4017764
          ],
          [
            -60.1983691,
            -33.4017214
          ],
          [
            -60.1985247,
            -33.401649
          ],
          [
            -60.1988224,
            -33.4015013
          ],
          [
            -60.1994412,
            -33.4011637
          ],
          [
            -60.2000786,
            -33.4008132
          ],
          [
            -60.2007129,
            -33.4004706
          ],
          [
            -60.2013842,
            -33.4001103
          ],
          [
            -60.2020265,
            -33.399775
          ],
          [
            -60.2022936,
            -33.3996297
          ],
          [
            -60.2023376,
            -33.3995617
          ],
          [
            -60.2023611,
            -33.3995004
          ],
          [
            -60.2023679,
            -33.3994459
          ],
          [
            -60.202363,
            -33.3993945
          ],
          [
            -60.2023313,
            -33.3993135
          ],
          [
            -60.2022795,
            -33.3992498
          ],
          [
            -60.2021935,
            -33.3991571
          ],
          [
            -60.2020392,
            -33.3990027
          ],
          [
            -60.2018622,
            -33.3988305
          ],
          [
            -60.2017803,
            -33.3988034
          ],
          [
            -60.2016645,
            -33.3987843
          ],
          [
            -60.2015298,
            -33.3987696
          ],
          [
            -60.2013478,
            -33.3987742
          ],
          [
            -60.2012209,
            -33.3987981
          ],
          [
            -60.2011483,
            -33.3988451
          ],
          [
            -60.2005387,
            -33.3992425
          ],
          [
            -60.199911,
            -33.3996511
          ],
          [
            -60.1993269,
            -33.4000323
          ],
          [
            -60.1987333,
            -33.4004183
          ],
          [
            -60.1985979,
            -33.4004717
          ],
          [
            -60.1983619,
            -33.400559
          ],
          [
            -60.1981768,
            -33.4006172
          ],
          [
            -60.1980239,
            -33.4006596
          ],
          [
            -60.1979542,
            -33.400662
          ],
          [
            -60.1977879,
            -33.4006889
          ],
          [
            -60.1976108,
            -33.4006911
          ],
          [
            -60.1974699,
            -33.400672
          ],
          [
            -60.1973748,
            -33.4006194
          ],
          [
            -60.1973131,
            -33.4005232
          ],
          [
            -60.1973503,
            -33.4003947
          ],
          [
            -60.1974111,
            -33.4002699
          ],
          [
            -60.1975082,
            -33.4001159
          ],
          [
            -60.1976598,
            -33.3999616
          ],
          [
            -60.1978554,
            -33.3997972
          ],
          [
            -60.1980257,
            -33.3996755
          ],
          [
            -60.1986006,
            -33.3992779
          ],
          [
            -60.1991645,
            -33.398888
          ],
          [
            -60.1994706,
            -33.3986763
          ],
          [
            -60.1997795,
            -33.3984627
          ],
          [
            -60.2003892,
            -33.3980425
          ],
          [
            -60.2009288,
            -33.3976776
          ],
          [
            -60.2014464,
            -33.3973094
          ],
          [
            -60.2016872,
            -33.3971541
          ],
          [
            -60.2017997,
            -33.3970863
          ],
          [
            -60.2019537,
            -33.3970544
          ],
          [
            -60.2021123,
            -33.3970553
          ],
          [
            -60.2022778,
            -33.3971074
          ],
          [
            -60.2023834,
            -33.3971802
          ],
          [
            -60.2024815,
            -33.397272
          ],
          [
            -60.2027944,
            -33.3976081
          ],
          [
            -60.2031366,
            -33.3979546
          ],
          [
            -60.2033642,
            -33.3981809
          ],
          [
            -60.2034873,
            -33.3982707
          ],
          [
            -60.2037029,
            -33.3983795
          ],
          [
            -60.2038724,
            -33.3984265
          ],
          [
            -60.2041568,
            -33.3984485
          ],
          [
            -60.2043356,
            -33.3984244
          ],
          [
            -60.2044652,
            -33.3983971
          ],
          [
            -60.2046002,
            -33.3983214
          ],
          [
            -60.2048434,
            -33.3981609
          ],
          [
            -60.2049185,
            -33.3981047
          ],
          [
            -60.2052069,
            -33.3978349
          ],
          [
            -60.205349,
            -33.3976412
          ],
          [
            -60.2054509,
            -33.3974285
          ],
          [
            -60.2055287,
            -33.3971867
          ],
          [
            -60.205569,
            -33.3969986
          ],
          [
            -60.2055793,
            -33.3968369
          ],
          [
            -60.2055818,
            -33.3967982
          ],
          [
            -60.2055519,
            -33.3966188
          ],
          [
            -60.2054818,
            -33.3963425
          ],
          [
            -60.2054,
            -33.3961185
          ],
          [
            -60.2052813,
            -33.3959145
          ],
          [
            -60.2049836,
            -33.3955483
          ],
          [
            -60.2046156,
            -33.3951812
          ],
          [
            -60.2042759,
            -33.3948206
          ],
          [
            -60.2041227,
            -33.3946707
          ],
          [
            -60.2040401,
            -33.3944547
          ],
          [
            -60.203973,
            -33.3943584
          ],
          [
            -60.2038309,
            -33.3942195
          ],
          [
            -60.2037692,
            -33.3941591
          ],
          [
            -60.203737,
            -33.3941143
          ],
          [
            -60.2037156,
            -33.3940516
          ],
          [
            -60.2036753,
            -33.3939329
          ],
          [
            -60.2036405,
            -33.3937604
          ],
          [
            -60.203619,
            -33.3936865
          ],
          [
            -60.2035855,
            -33.3936502
          ],
          [
            -60.2035278,
            -33.3936076
          ],
          [
            -60.2034634,
            -33.393569
          ],
          [
            -60.2033702,
            -33.3935248
          ],
          [
            -60.2032757,
            -33.3934984
          ],
          [
            -60.2032053,
            -33.3934906
          ],
          [
            -60.2031147,
            -33.3934979
          ],
          [
            -60.203041,
            -33.3935208
          ],
          [
            -60.2029632,
            -33.3935684
          ],
          [
            -60.2025367,
            -33.3938713
          ],
          [
            -60.2024636,
            -33.3939284
          ],
          [
            -60.2024348,
            -33.3939547
          ],
          [
            -60.2024073,
            -33.39399
          ],
          [
            -60.2023825,
            -33.3940337
          ],
          [
            -60.2023731,
            -33.3941132
          ],
          [
            -60.202355,
            -33.3942861
          ],
          [
            -60.2023349,
            -33.3944535
          ],
          [
            -60.2023175,
            -33.3946512
          ],
          [
            -60.2023081,
            -33.3947508
          ],
          [
            -60.202294,
            -33.394888
          ],
          [
            -60.2022752,
            -33.3950414
          ],
          [
            -60.2022564,
            -33.3951802
          ],
          [
            -60.2022377,
            -33.395253
          ],
          [
            -60.2021921,
            -33.3953191
          ],
          [
            -60.2021263,
            -33.3953829
          ],
          [
            -60.2018608,
            -33.3955631
          ],
          [
            -60.2015989,
            -33.3957399
          ],
          [
            -60.2012958,
            -33.3959441
          ],
          [
            -60.2011654,
            -33.3960315
          ],
          [
            -60.2010213,
            -33.3961297
          ],
          [
            -60.2008758,
            -33.3962309
          ],
          [
            -60.2005897,
            -33.39643
          ],
          [
            -60.2000785,
            -33.3967858
          ],
          [
            -60.1998063,
            -33.3969751
          ],
          [
            -60.1996601,
            -33.3970769
          ],
          [
            -60.199601,
            -33.3971296
          ],
          [
            -60.1995654,
            -33.3971728
          ],
          [
            -60.1995246,
            -33.3972113
          ],
          [
            -60.1993731,
            -33.3973289
          ],
          [
            -60.1992014,
            -33.3974531
          ],
          [
            -60.1989708,
            -33.3976311
          ],
          [
            -60.1987173,
            -33.3978383
          ],
          [
            -60.1986863,
            -33.3978724
          ],
          [
            -60.1984873,
            -33.3980912
          ],
          [
            -60.1984266,
            -33.3981339
          ],
          [
            -60.1978699,
            -33.3985188
          ],
          [
            -60.197298,
            -33.398911
          ],
          [
            -60.196734,
            -33.3992998
          ],
          [
            -60.1960572,
            -33.3997664
          ],
          [
            -60.1958218,
            -33.3999566
          ],
          [
            -60.1957641,
            -33.4000227
          ],
          [
            -60.1957105,
            -33.4000966
          ],
          [
            -60.1956609,
            -33.4001906
          ],
          [
            -60.1956367,
            -33.4002634
          ],
          [
            -60.1956139,
            -33.4003687
          ],
          [
            -60.1955979,
            -33.4004426
          ],
          [
            -60.1956005,
            -33.400559
          ],
          [
            -60.1956099,
            -33.4006698
          ],
          [
            -60.1956367,
            -33.4007639
          ],
          [
            -60.1956622,
            -33.4008389
          ],
          [
            -60.1957159,
            -33.4009385
          ],
          [
            -60.1957923,
            -33.401046
          ],
          [
            -60.1958862,
            -33.4011613
          ],
          [
            -60.1959908,
            -33.4012543
          ],
          [
            -60.1961906,
            -33.40142
          ],
          [
            -60.1963046,
            -33.401495
          ],
          [
            -60.1964334,
            -33.4015666
          ],
          [
            -60.1966855,
            -33.4016853
          ],
          [
            -60.1968759,
            -33.4017491
          ],
          [
            -60.1970744,
            -33.401795
          ],
          [
            -60.1972836,
            -33.4018286
          ],
          [
            -60.1975492,
            -33.4018465
          ],
          [
            -60.1977436,
            -33.4018488
          ]
        ]
      }
    }
  ]
}
