{
  "type": "FeatureCollection",
  "bbox": [
    13.3535855,
    55.5299023,
    13.3597171,
    55.5322968
  ],
  "metadata": {
    "schemaVersion": 1,
    "trackId": "se-sturup-raceway-42957249",
    "layoutId": "sturup-raceway",
    "license": "ODbL-1.0",
    "attribution": "© OpenStreetMap contributors",
    "closed": true,
    "geometryStatus": "draft",
    "timingStatus": "missing",
    "timingMode": "shared",
    "lengthM": 1993.3,
    "reviewedAt": null,
    "notes": [
      "Draft configuration: Full road circuit retains the northern perimeter, western inner hairpin and southern return, excluding the rectangular southern detour. These branches match the historical catalogue configuration picture. The operator records a 2,087 m configuration from 2005; this coarser independent mapped draft measures 1,993.3 m against the catalogue 2,102 m. That distance difference is retained for historical alignment review, not corrected by stretching coordinates. Branch identity was checked against catalogue layout facts and circuit identification references. Independent source distance 1993.3 m; no coordinates are changed to match a diagram or distance. Travel direction and historical alignment remain provisional."
    ]
  },
  "features": [
    {
      "type": "Feature",
      "id": "trace",
      "properties": {
        "role": "trace",
        "sourceIds": [
          "osm-selection-42957249"
        ]
      },
      "geometry": {
        "type": "LineString",
        "coordinates": [
          [
            13.3544087,
            55.5314392
          ],
          [
            13.3543916,
            55.5313469
          ],
          [
            13.3544183,
            55.5312689
          ],
          [
            13.3545175,
            55.5312021
          ],
          [
            13.3546865,
            55.5311596
          ],
          [
            13.3558506,
            55.5309911
          ],
          [
            13.3560001,
            55.5309542
          ],
          [
            13.3561039,
            55.5308986
          ],
          [
            13.3561269,
            55.5308625
          ],
          [
            13.3561134,
            55.5307786
          ],
          [
            13.3560678,
            55.5307133
          ],
          [
            13.355982,
            55.5306739
          ],
          [
            13.3558593,
            55.530662
          ],
          [
            13.3557245,
            55.5306951
          ],
          [
            13.3550861,
            55.5309016
          ],
          [
            13.3548528,
            55.5309243
          ],
          [
            13.3546116,
            55.5308918
          ],
          [
            13.3544623,
            55.5308439
          ],
          [
            13.3543627,
            55.5307791
          ],
          [
            13.354308,
            55.5306946
          ],
          [
            13.3542881,
            55.5306129
          ],
          [
            13.354313,
            55.5305228
          ],
          [
            13.3543528,
            55.5304467
          ],
          [
            13.3544723,
            55.5303819
          ],
          [
            13.3546067,
            55.5303509
          ],
          [
            13.3548207,
            55.5303368
          ],
          [
            13.3551425,
            55.530346
          ],
          [
            13.3570361,
            55.530431
          ],
          [
            13.3585355,
            55.5305084
          ],
          [
            13.3587474,
            55.5304917
          ],
          [
            13.3588427,
            55.5304713
          ],
          [
            13.3589357,
            55.5304282
          ],
          [
            13.3590343,
            55.5303127
          ],
          [
            13.3590413,
            55.5301772
          ],
          [
            13.3590061,
            55.5300258
          ],
          [
            13.3588935,
            55.5299422
          ],
          [
            13.3587456,
            55.5299063
          ],
          [
            13.3585837,
            55.5299023
          ],
          [
            13.3584218,
            55.5299302
          ],
          [
            13.3582951,
            55.5299979
          ],
          [
            13.3581754,
            55.5300856
          ],
          [
            13.3580557,
            55.5301732
          ],
          [
            13.3579642,
            55.5302131
          ],
          [
            13.3578094,
            55.530233
          ],
          [
            13.35757,
            55.530237
          ],
          [
            13.3573025,
            55.5302211
          ],
          [
            13.3571082,
            55.5301946
          ],
          [
            13.3562905,
            55.5300849
          ],
          [
            13.3559042,
            55.5300317
          ],
          [
            13.3556306,
            55.5300226
          ],
          [
            13.3554804,
            55.5300287
          ],
          [
            13.3539657,
            55.5302968
          ],
          [
            13.353677,
            55.5304003
          ],
          [
            13.3535855,
            55.5305039
          ],
          [
            13.3535855,
            55.5306514
          ],
          [
            13.3536087,
            55.5307368
          ],
          [
            13.3538952,
            55.5312325
          ],
          [
            13.3541688,
            55.5316332
          ],
          [
            13.3543951,
            55.5318466
          ],
          [
            13.3546133,
            55.5320219
          ],
          [
            13.3549371,
            55.5322171
          ],
          [
            13.3551272,
            55.5322729
          ],
          [
            13.3553947,
            55.5322968
          ],
          [
            13.3556253,
            55.5322845
          ],
          [
            13.3572251,
            55.5321374
          ],
          [
            13.3580417,
            55.5320896
          ],
          [
            13.3590075,
            55.5320583
          ],
          [
            13.3592525,
            55.5320219
          ],
          [
            13.3594566,
            55.5319382
          ],
          [
            13.3595634,
            55.5318665
          ],
          [
            13.3596326,
            55.5317948
          ],
          [
            13.3596936,
            55.5317016
          ],
          [
            13.3597171,
            55.5316235
          ],
          [
            13.3597059,
            55.5315509
          ],
          [
            13.3596678,
            55.5314601
          ],
          [
            13.3596257,
            55.531389
          ],
          [
            13.3595622,
            55.5313087
          ],
          [
            13.3594973,
            55.5312534
          ],
          [
            13.3594003,
            55.5312012
          ],
          [
            13.35932,
            55.5311047
          ],
          [
            13.359209,
            55.5310538
          ],
          [
            13.3590979,
            55.5310302
          ],
          [
            13.3589757,
            55.531011
          ],
          [
            13.3588052,
            55.531001
          ],
          [
            13.3586496,
            55.5310174
          ],
          [
            13.3582855,
            55.531114
          ],
          [
            13.3560047,
            55.5317693
          ],
          [
            13.3559101,
            55.5317879
          ],
          [
            13.3558217,
            55.5317856
          ],
          [
            13.3557086,
            55.5318205
          ],
          [
            13.3555152,
            55.531838
          ],
          [
            13.3553425,
            55.5318275
          ],
          [
            13.3551224,
            55.5317821
          ],
          [
            13.3547892,
            55.5316564
          ],
          [
            13.3544087,
            55.5314392
          ]
        ]
      }
    }
  ]
}
