{
  "type": "FeatureCollection",
  "bbox": [
    -75.5179814,
    41.0499996,
    -75.5000928,
    41.0606403
  ],
  "metadata": {
    "schemaVersion": 1,
    "trackId": "us-pocono-raceway-109767460",
    "layoutId": "pocono-outer",
    "license": "ODbL-1.0",
    "attribution": "© OpenStreetMap contributors",
    "closed": true,
    "geometryStatus": "draft",
    "timingStatus": "missing",
    "timingMode": "shared",
    "lengthM": 4058.1,
    "reviewedAt": null,
    "notes": [
      "Draft route hypothesis: the source cycle is the unique closest nominal-distance match within conservative timing and distance checks. Approximate OSM trace length 4058.1 m. Difference from the supplied layout distance 8.1 m. Course configuration still requires visual review."
    ]
  },
  "features": [
    {
      "type": "Feature",
      "id": "trace",
      "properties": {
        "role": "trace",
        "sourceIds": [
          "osm-network-109767460"
        ]
      },
      "geometry": {
        "type": "LineString",
        "coordinates": [
          [
            -75.5131946,
            41.0593479
          ],
          [
            -75.5166308,
            41.0579409
          ],
          [
            -75.5169296,
            41.0577811
          ],
          [
            -75.5171878,
            41.0576097
          ],
          [
            -75.5174663,
            41.0573556
          ],
          [
            -75.517615,
            41.0571721
          ],
          [
            -75.5177636,
            41.0569463
          ],
          [
            -75.5178611,
            41.0567415
          ],
          [
            -75.5179164,
            41.0565472
          ],
          [
            -75.517963,
            41.0563369
          ],
          [
            -75.5179814,
            41.0561372
          ],
          [
            -75.5179779,
            41.0558712
          ],
          [
            -75.517891,
            41.055508
          ],
          [
            -75.5177677,
            41.0551887
          ],
          [
            -75.5175774,
            41.0549056
          ],
          [
            -75.5173037,
            41.054609
          ],
          [
            -75.517037,
            41.0544162
          ],
          [
            -75.516697,
            41.0542033
          ],
          [
            -75.516527,
            41.0541258
          ],
          [
            -75.5162589,
            41.054022
          ],
          [
            -75.515828,
            41.0538773
          ],
          [
            -75.5149555,
            41.0536099
          ],
          [
            -75.5148946,
            41.0535912
          ],
          [
            -75.5147297,
            41.0535407
          ],
          [
            -75.5069665,
            41.051184
          ],
          [
            -75.5067419,
            41.0511158
          ],
          [
            -75.5064956,
            41.051041
          ],
          [
            -75.5039335,
            41.0502451
          ],
          [
            -75.5035231,
            41.0501257
          ],
          [
            -75.5031509,
            41.0500363
          ],
          [
            -75.5027124,
            41.0499996
          ],
          [
            -75.5023544,
            41.0500093
          ],
          [
            -75.5019485,
            41.0500634
          ],
          [
            -75.501522,
            41.0502016
          ],
          [
            -75.5012397,
            41.0503123
          ],
          [
            -75.5010319,
            41.0504236
          ],
          [
            -75.5008662,
            41.0505348
          ],
          [
            -75.500643,
            41.0507333
          ],
          [
            -75.5004926,
            41.0508908
          ],
          [
            -75.5003143,
            41.0511435
          ],
          [
            -75.5001815,
            41.0514429
          ],
          [
            -75.5001161,
            41.0516949
          ],
          [
            -75.5000928,
            41.0519469
          ],
          [
            -75.5001256,
            41.0522099
          ],
          [
            -75.5001793,
            41.0524021
          ],
          [
            -75.500233,
            41.0525203
          ],
          [
            -75.5003815,
            41.0527728
          ],
          [
            -75.500647,
            41.0531076
          ],
          [
            -75.5014631,
            41.0539333
          ],
          [
            -75.5015027,
            41.0539733
          ],
          [
            -75.5021221,
            41.0545991
          ],
          [
            -75.5021628,
            41.0546405
          ],
          [
            -75.5032295,
            41.0557249
          ],
          [
            -75.503288,
            41.0557847
          ],
          [
            -75.5064857,
            41.0590518
          ],
          [
            -75.5072811,
            41.0598712
          ],
          [
            -75.507541,
            41.0600761
          ],
          [
            -75.5077393,
            41.0602033
          ],
          [
            -75.5079903,
            41.0603316
          ],
          [
            -75.5082185,
            41.0604252
          ],
          [
            -75.5084638,
            41.0605054
          ],
          [
            -75.5088176,
            41.0605899
          ],
          [
            -75.5090522,
            41.0606216
          ],
          [
            -75.5093784,
            41.0606403
          ],
          [
            -75.5097319,
            41.0606233
          ],
          [
            -75.5100747,
            41.0605703
          ],
          [
            -75.5104582,
            41.0604607
          ],
          [
            -75.5126631,
            41.059564
          ],
          [
            -75.5131946,
            41.0593479
          ]
        ]
      }
    }
  ]
}
