{
  "type": "FeatureCollection",
  "bbox": [
    4.0712867,
    44.1533163,
    4.0741012,
    44.156932
  ],
  "metadata": {
    "schemaVersion": 1,
    "trackId": "fr-pole-mecanique-ales-cevennes-196899321",
    "layoutId": "ales-south-loop",
    "license": "ODbL-1.0",
    "attribution": "© OpenStreetMap contributors",
    "closed": true,
    "geometryStatus": "draft",
    "timingStatus": "missing",
    "timingMode": "shared",
    "lengthM": 1361.4,
    "reviewedAt": null,
    "notes": [
      "Southern infield hairpin and western main straight close through the mid-course northern return shown in the operator plan. Exact source coordinates are unchanged; historical alignment and direction remain provisional."
    ]
  },
  "features": [
    {
      "type": "Feature",
      "id": "trace",
      "properties": {
        "role": "trace",
        "sourceIds": [
          "osm-components-196899321"
        ]
      },
      "geometry": {
        "type": "LineString",
        "coordinates": [
          [
            4.072575,
            44.1533947
          ],
          [
            4.0726282,
            44.1534303
          ],
          [
            4.0726712,
            44.1534669
          ],
          [
            4.0727089,
            44.1535136
          ],
          [
            4.0727354,
            44.1535583
          ],
          [
            4.0727558,
            44.1535972
          ],
          [
            4.0727685,
            44.1536312
          ],
          [
            4.0728705,
            44.1540281
          ],
          [
            4.0728814,
            44.1540878
          ],
          [
            4.0728821,
            44.1541125
          ],
          [
            4.0728728,
            44.1541549
          ],
          [
            4.0728608,
            44.1541774
          ],
          [
            4.0728454,
            44.1541999
          ],
          [
            4.0728315,
            44.1542158
          ],
          [
            4.0728062,
            44.1542387
          ],
          [
            4.0727811,
            44.15426
          ],
          [
            4.0727508,
            44.1542813
          ],
          [
            4.0726295,
            44.1543506
          ],
          [
            4.0724933,
            44.1544199
          ],
          [
            4.0723595,
            44.1544768
          ],
          [
            4.0722895,
            44.1545224
          ],
          [
            4.0722465,
            44.1545674
          ],
          [
            4.0722217,
            44.1546128
          ],
          [
            4.072206,
            44.1546634
          ],
          [
            4.0721384,
            44.1552764
          ],
          [
            4.0721429,
            44.1553407
          ],
          [
            4.07216,
            44.1554004
          ],
          [
            4.0721812,
            44.1554523
          ],
          [
            4.0722357,
            44.1555216
          ],
          [
            4.072268,
            44.1555498
          ],
          [
            4.0723196,
            44.1555775
          ],
          [
            4.0723718,
            44.155599
          ],
          [
            4.0724462,
            44.1556142
          ],
          [
            4.0725251,
            44.1556202
          ],
          [
            4.0726218,
            44.1556166
          ],
          [
            4.0727019,
            44.1556045
          ],
          [
            4.0727687,
            44.155586
          ],
          [
            4.0728655,
            44.1555375
          ],
          [
            4.0729553,
            44.1554779
          ],
          [
            4.0730207,
            44.1554167
          ],
          [
            4.0730911,
            44.1553307
          ],
          [
            4.0731496,
            44.1552266
          ],
          [
            4.0731842,
            44.1551396
          ],
          [
            4.0732041,
            44.1550365
          ],
          [
            4.0732115,
            44.1549477
          ],
          [
            4.073208,
            44.1548421
          ],
          [
            4.0732118,
            44.1548141
          ],
          [
            4.0732182,
            44.1547911
          ],
          [
            4.0732302,
            44.1547656
          ],
          [
            4.0732462,
            44.1547433
          ],
          [
            4.0732611,
            44.1547256
          ],
          [
            4.0732811,
            44.1547101
          ],
          [
            4.0733088,
            44.1546968
          ],
          [
            4.0733427,
            44.1546865
          ],
          [
            4.0733975,
            44.154677
          ],
          [
            4.0734344,
            44.1546759
          ],
          [
            4.0734701,
            44.1546771
          ],
          [
            4.0735167,
            44.1546858
          ],
          [
            4.0735502,
            44.1546981
          ],
          [
            4.0735821,
            44.1547134
          ],
          [
            4.073631,
            44.1547424
          ],
          [
            4.0737209,
            44.1548015
          ],
          [
            4.0737468,
            44.154833
          ],
          [
            4.0737621,
            44.1548579
          ],
          [
            4.0737769,
            44.1548864
          ],
          [
            4.0737899,
            44.1549188
          ],
          [
            4.0741012,
            44.1561183
          ],
          [
            4.0741006,
            44.1561983
          ],
          [
            4.0740971,
            44.156235
          ],
          [
            4.0740922,
            44.1562617
          ],
          [
            4.0740863,
            44.1562851
          ],
          [
            4.074076,
            44.1563096
          ],
          [
            4.0740597,
            44.1563352
          ],
          [
            4.0740411,
            44.1563588
          ],
          [
            4.0740195,
            44.1563843
          ],
          [
            4.0739905,
            44.1564139
          ],
          [
            4.0739521,
            44.1564431
          ],
          [
            4.0739192,
            44.1564643
          ],
          [
            4.0738629,
            44.1564913
          ],
          [
            4.0738045,
            44.1565127
          ],
          [
            4.0737311,
            44.156533
          ],
          [
            4.0736796,
            44.156542
          ],
          [
            4.0736377,
            44.1565469
          ],
          [
            4.0735815,
            44.1565482
          ],
          [
            4.0735164,
            44.1565447
          ],
          [
            4.0734468,
            44.1565343
          ],
          [
            4.0733836,
            44.1565207
          ],
          [
            4.0727884,
            44.1563273
          ],
          [
            4.0727444,
            44.1563172
          ],
          [
            4.0726882,
            44.1563096
          ],
          [
            4.0726347,
            44.1563074
          ],
          [
            4.0725735,
            44.1563104
          ],
          [
            4.072515,
            44.1563197
          ],
          [
            4.0724536,
            44.1563374
          ],
          [
            4.0724047,
            44.1563549
          ],
          [
            4.0723612,
            44.1563727
          ],
          [
            4.0723177,
            44.1563949
          ],
          [
            4.0722672,
            44.1564271
          ],
          [
            4.0722296,
            44.1564604
          ],
          [
            4.0721966,
            44.1564974
          ],
          [
            4.0721825,
            44.1565179
          ],
          [
            4.07217,
            44.1565459
          ],
          [
            4.0721578,
            44.1565859
          ],
          [
            4.0721518,
            44.1566275
          ],
          [
            4.0721518,
            44.1566622
          ],
          [
            4.0721433,
            44.1567041
          ],
          [
            4.0721393,
            44.1567201
          ],
          [
            4.0721328,
            44.1567355
          ],
          [
            4.0721238,
            44.1567527
          ],
          [
            4.0721111,
            44.1567703
          ],
          [
            4.0720957,
            44.1567879
          ],
          [
            4.0720626,
            44.1568161
          ],
          [
            4.0720269,
            44.1568415
          ],
          [
            4.0719835,
            44.1568691
          ],
          [
            4.0719363,
            44.1568909
          ],
          [
            4.0718679,
            44.156911
          ],
          [
            4.0718155,
            44.1569242
          ],
          [
            4.0717509,
            44.156932
          ],
          [
            4.0716794,
            44.1569316
          ],
          [
            4.0716188,
            44.1569253
          ],
          [
            4.0715768,
            44.1569161
          ],
          [
            4.0715386,
            44.1569056
          ],
          [
            4.0714945,
            44.1568898
          ],
          [
            4.0714545,
            44.1568715
          ],
          [
            4.0714214,
            44.1568516
          ],
          [
            4.0713961,
            44.1568313
          ],
          [
            4.0713763,
            44.1568104
          ],
          [
            4.0713575,
            44.1567869
          ],
          [
            4.0713432,
            44.1567668
          ],
          [
            4.0713323,
            44.1567492
          ],
          [
            4.071317,
            44.1567155
          ],
          [
            4.0712867,
            44.1566145
          ],
          [
            4.0714602,
            44.1550768
          ],
          [
            4.0716003,
            44.1537396
          ],
          [
            4.0716046,
            44.1537072
          ],
          [
            4.0716108,
            44.1536728
          ],
          [
            4.0716187,
            44.1536418
          ],
          [
            4.0716326,
            44.1535957
          ],
          [
            4.0716589,
            44.1535499
          ],
          [
            4.0716939,
            44.1535095
          ],
          [
            4.0717354,
            44.153469
          ],
          [
            4.0718002,
            44.1534223
          ],
          [
            4.0718524,
            44.1533925
          ],
          [
            4.0719311,
            44.1533627
          ],
          [
            4.0720015,
            44.1533448
          ],
          [
            4.0720765,
            44.1533315
          ],
          [
            4.0721544,
            44.1533215
          ],
          [
            4.0722534,
            44.1533163
          ],
          [
            4.0723288,
            44.1533205
          ],
          [
            4.0724076,
            44.1533342
          ],
          [
            4.0724601,
            44.1533489
          ],
          [
            4.0725059,
            44.153365
          ],
          [
            4.072575,
            44.1533947
          ]
        ]
      }
    }
  ]
}
