{
  "type": "FeatureCollection",
  "bbox": [
    4.0663733,
    44.1523003,
    4.0705199,
    44.1590753
  ],
  "metadata": {
    "schemaVersion": 1,
    "trackId": "fr-pole-mecanique-ales-cevennes-196899321",
    "layoutId": "ales1-rally-stage",
    "license": "ODbL-1.0",
    "attribution": "© OpenStreetMap contributors",
    "closed": true,
    "geometryStatus": "draft",
    "timingStatus": "missing",
    "timingMode": "shared",
    "lengthM": 1823.9,
    "reviewedAt": null,
    "notes": [
      "Draft configuration: Historical outer rally loop retains both long-side winding branches and outer terminal turns. The operator 2015 modular rally plan identifies these outer branches; the supplied configuration selects the outer loop without infield shortcuts. Current source/aerial conditions differ at the southern alignment, which is retained only as a historical draft rather than replaced with the shorter contemporary paved turnaround. The 1823.9 m independent source route remains unscaled; terminal-turn details and historical surface condition remain provisional. Branch identity was checked against catalogue layout facts and circuit identification references. Independent source distance 1823.9 m; no coordinates are changed to match a diagram or distance. Travel direction and historical alignment remain provisional."
    ]
  },
  "features": [
    {
      "type": "Feature",
      "id": "trace",
      "properties": {
        "role": "trace",
        "sourceIds": [
          "osm-selection-196899319"
        ]
      },
      "geometry": {
        "type": "LineString",
        "coordinates": [
          [
            4.0672281,
            44.1523218
          ],
          [
            4.0673762,
            44.1523049
          ],
          [
            4.0674232,
            44.1523003
          ],
          [
            4.0675076,
            44.1523006
          ],
          [
            4.0676447,
            44.1523152
          ],
          [
            4.0677756,
            44.1523469
          ],
          [
            4.0678715,
            44.1523864
          ],
          [
            4.0679372,
            44.152421
          ],
          [
            4.0680028,
            44.152463
          ],
          [
            4.068114,
            44.1525416
          ],
          [
            4.0681639,
            44.1525893
          ],
          [
            4.0682097,
            44.1526539
          ],
          [
            4.0682307,
            44.1527017
          ],
          [
            4.0682392,
            44.1527494
          ],
          [
            4.0682399,
            44.1528045
          ],
          [
            4.0682319,
            44.1528449
          ],
          [
            4.0681745,
            44.1530252
          ],
          [
            4.0681759,
            44.153058
          ],
          [
            4.068177,
            44.1530851
          ],
          [
            4.0681841,
            44.1531082
          ],
          [
            4.0682369,
            44.1532011
          ],
          [
            4.0683139,
            44.1532974
          ],
          [
            4.0683345,
            44.1533233
          ],
          [
            4.0683572,
            44.1535366
          ],
          [
            4.0683584,
            44.1536575
          ],
          [
            4.0683609,
            44.1537845
          ],
          [
            4.0683646,
            44.1539444
          ],
          [
            4.0683621,
            44.1541541
          ],
          [
            4.0683598,
            44.1542267
          ],
          [
            4.0683694,
            44.1543781
          ],
          [
            4.0683778,
            44.1544302
          ],
          [
            4.0683935,
            44.15449
          ],
          [
            4.0684395,
            44.1546296
          ],
          [
            4.0684483,
            44.1546673
          ],
          [
            4.0684538,
            44.1547225
          ],
          [
            4.0684525,
            44.1547789
          ],
          [
            4.0684458,
            44.1548391
          ],
          [
            4.068411,
            44.1549768
          ],
          [
            4.068402,
            44.155028
          ],
          [
            4.0684042,
            44.1550978
          ],
          [
            4.0684111,
            44.1551838
          ],
          [
            4.0684671,
            44.1552428
          ],
          [
            4.0685045,
            44.1552753
          ],
          [
            4.0685237,
            44.1552888
          ],
          [
            4.0685825,
            44.1553232
          ],
          [
            4.0686383,
            44.1553634
          ],
          [
            4.0686667,
            44.1553916
          ],
          [
            4.0686955,
            44.1554369
          ],
          [
            4.0687078,
            44.1554768
          ],
          [
            4.0687113,
            44.1555313
          ],
          [
            4.0686978,
            44.1556421
          ],
          [
            4.068683,
            44.1557705
          ],
          [
            4.0686847,
            44.155805
          ],
          [
            4.0686963,
            44.1558378
          ],
          [
            4.0687146,
            44.1558716
          ],
          [
            4.0687538,
            44.1559204
          ],
          [
            4.0688867,
            44.1560501
          ],
          [
            4.0689913,
            44.1561584
          ],
          [
            4.0690465,
            44.1562288
          ],
          [
            4.0690772,
            44.156283
          ],
          [
            4.069098,
            44.1563291
          ],
          [
            4.0691175,
            44.1563863
          ],
          [
            4.0691368,
            44.1564606
          ],
          [
            4.0691561,
            44.1565582
          ],
          [
            4.0691906,
            44.1565982
          ],
          [
            4.0692369,
            44.1566405
          ],
          [
            4.0693108,
            44.1566985
          ],
          [
            4.0693672,
            44.1567447
          ],
          [
            4.0694271,
            44.156799
          ],
          [
            4.0695162,
            44.1568904
          ],
          [
            4.0696272,
            44.1570207
          ],
          [
            4.0696792,
            44.1570898
          ],
          [
            4.0697137,
            44.1571557
          ],
          [
            4.069785,
            44.1573418
          ],
          [
            4.0698535,
            44.1576062
          ],
          [
            4.0698547,
            44.1576102
          ],
          [
            4.0698602,
            44.1576295
          ],
          [
            4.069896,
            44.1577126
          ],
          [
            4.0699187,
            44.1577585
          ],
          [
            4.0699787,
            44.1578595
          ],
          [
            4.0701504,
            44.1581236
          ],
          [
            4.0702172,
            44.1582428
          ],
          [
            4.0702694,
            44.1583327
          ],
          [
            4.0703272,
            44.1584149
          ],
          [
            4.0703735,
            44.1584885
          ],
          [
            4.0704318,
            44.158581
          ],
          [
            4.0704651,
            44.1586565
          ],
          [
            4.0704943,
            44.1587357
          ],
          [
            4.0705018,
            44.1587632
          ],
          [
            4.0705143,
            44.1588668
          ],
          [
            4.0705199,
            44.1589145
          ],
          [
            4.0705154,
            44.158957
          ],
          [
            4.070505,
            44.1589796
          ],
          [
            4.0704877,
            44.1589978
          ],
          [
            4.0704649,
            44.1590174
          ],
          [
            4.0704345,
            44.1590373
          ],
          [
            4.0703948,
            44.1590562
          ],
          [
            4.0703444,
            44.1590684
          ],
          [
            4.0702749,
            44.1590745
          ],
          [
            4.0702228,
            44.1590753
          ],
          [
            4.0701001,
            44.1590746
          ],
          [
            4.0699988,
            44.1590669
          ],
          [
            4.0699181,
            44.1590571
          ],
          [
            4.0698054,
            44.159041
          ],
          [
            4.069674,
            44.1590146
          ],
          [
            4.0695584,
            44.158987
          ],
          [
            4.0694586,
            44.1589556
          ],
          [
            4.0693553,
            44.1589191
          ],
          [
            4.069314,
            44.1588995
          ],
          [
            4.0692837,
            44.1588786
          ],
          [
            4.0692257,
            44.1588318
          ],
          [
            4.0691381,
            44.1587508
          ],
          [
            4.0690821,
            44.158698
          ],
          [
            4.0689278,
            44.1585685
          ],
          [
            4.0687443,
            44.158412
          ],
          [
            4.0686979,
            44.1583774
          ],
          [
            4.0686504,
            44.158347
          ],
          [
            4.0685591,
            44.158298
          ],
          [
            4.0684742,
            44.1582572
          ],
          [
            4.0683656,
            44.1582063
          ],
          [
            4.0683211,
            44.1581775
          ],
          [
            4.0682851,
            44.1581448
          ],
          [
            4.068258,
            44.1581094
          ],
          [
            4.068243,
            44.1580838
          ],
          [
            4.0682234,
            44.1580396
          ],
          [
            4.0682075,
            44.1579949
          ],
          [
            4.0681928,
            44.1579099
          ],
          [
            4.0681886,
            44.1578706
          ],
          [
            4.0681889,
            44.157828
          ],
          [
            4.0681991,
            44.1577765
          ],
          [
            4.0682114,
            44.1577379
          ],
          [
            4.0682366,
            44.1576828
          ],
          [
            4.0682498,
            44.1576581
          ],
          [
            4.0682842,
            44.15762
          ],
          [
            4.0682979,
            44.1576071
          ],
          [
            4.0683182,
            44.1575888
          ],
          [
            4.068389,
            44.1575349
          ],
          [
            4.0683404,
            44.1575631
          ],
          [
            4.068327,
            44.1575685
          ],
          [
            4.0683174,
            44.1575716
          ],
          [
            4.0683006,
            44.1575745
          ],
          [
            4.0682857,
            44.1575744
          ],
          [
            4.0682713,
            44.157572
          ],
          [
            4.0682595,
            44.1575669
          ],
          [
            4.0682508,
            44.1575603
          ],
          [
            4.0682388,
            44.1575474
          ],
          [
            4.0682292,
            44.1575228
          ],
          [
            4.0682187,
            44.1574753
          ],
          [
            4.0682164,
            44.1573928
          ],
          [
            4.068222,
            44.1573548
          ],
          [
            4.0682321,
            44.1573168
          ],
          [
            4.0682449,
            44.1572811
          ],
          [
            4.0682768,
            44.1572135
          ],
          [
            4.0683071,
            44.1571798
          ],
          [
            4.0683237,
            44.1571631
          ],
          [
            4.06834,
            44.1571499
          ],
          [
            4.0683559,
            44.1571382
          ],
          [
            4.068417,
            44.1571036
          ],
          [
            4.0683895,
            44.1571154
          ],
          [
            4.0683596,
            44.1571209
          ],
          [
            4.0683317,
            44.1571217
          ],
          [
            4.0682994,
            44.157114
          ],
          [
            4.0682791,
            44.1571031
          ],
          [
            4.0682603,
            44.1570873
          ],
          [
            4.0682472,
            44.157066
          ],
          [
            4.0682417,
            44.1570438
          ],
          [
            4.0682439,
            44.1569785
          ],
          [
            4.0682569,
            44.1568891
          ],
          [
            4.0682789,
            44.1567861
          ],
          [
            4.0682859,
            44.1567453
          ],
          [
            4.068281,
            44.1567117
          ],
          [
            4.068269,
            44.1566724
          ],
          [
            4.0682464,
            44.1566297
          ],
          [
            4.0682292,
            44.1566067
          ],
          [
            4.0682058,
            44.1565818
          ],
          [
            4.068108,
            44.1565006
          ],
          [
            4.0679713,
            44.1563764
          ],
          [
            4.0679514,
            44.1563534
          ],
          [
            4.0679247,
            44.1563147
          ],
          [
            4.0679079,
            44.156284
          ],
          [
            4.0678992,
            44.1562571
          ],
          [
            4.0678916,
            44.1562241
          ],
          [
            4.0678883,
            44.1561369
          ],
          [
            4.0678881,
            44.1560498
          ],
          [
            4.0678813,
            44.1560271
          ],
          [
            4.0678574,
            44.1559703
          ],
          [
            4.0678391,
            44.1559414
          ],
          [
            4.0677641,
            44.1558625
          ],
          [
            4.06766,
            44.1557453
          ],
          [
            4.0676254,
            44.155699
          ],
          [
            4.067592,
            44.1556342
          ],
          [
            4.0675801,
            44.155591
          ],
          [
            4.0675746,
            44.1555489
          ],
          [
            4.0675765,
            44.1555252
          ],
          [
            4.0675941,
            44.1554223
          ],
          [
            4.0675922,
            44.1553964
          ],
          [
            4.0675726,
            44.1553251
          ],
          [
            4.0675117,
            44.1551112
          ],
          [
            4.0673973,
            44.1548182
          ],
          [
            4.0672402,
            44.154473
          ],
          [
            4.0670984,
            44.1541488
          ],
          [
            4.0670643,
            44.1540853
          ],
          [
            4.0670303,
            44.1540381
          ],
          [
            4.0669849,
            44.1539926
          ],
          [
            4.066922,
            44.1539408
          ],
          [
            4.0667437,
            44.1537963
          ],
          [
            4.0665852,
            44.1536494
          ],
          [
            4.0664936,
            44.1535499
          ],
          [
            4.0664646,
            44.1535128
          ],
          [
            4.0664299,
            44.1534515
          ],
          [
            4.0664095,
            44.1534044
          ],
          [
            4.066396,
            44.1533645
          ],
          [
            4.0663832,
            44.1533115
          ],
          [
            4.0663759,
            44.1532584
          ],
          [
            4.0663733,
            44.1531482
          ],
          [
            4.0663832,
            44.1530595
          ],
          [
            4.0663986,
            44.1529924
          ],
          [
            4.0664113,
            44.1529523
          ],
          [
            4.0664504,
            44.1528657
          ],
          [
            4.066474,
            44.1528241
          ],
          [
            4.0665292,
            44.152742
          ],
          [
            4.0665786,
            44.1526785
          ],
          [
            4.0666228,
            44.1526316
          ],
          [
            4.0666718,
            44.1525892
          ],
          [
            4.0667297,
            44.152544
          ],
          [
            4.0668089,
            44.1524923
          ],
          [
            4.0668841,
            44.1524479
          ],
          [
            4.0669822,
            44.1524017
          ],
          [
            4.0670427,
            44.1523749
          ],
          [
            4.0670986,
            44.1523544
          ],
          [
            4.0671632,
            44.1523352
          ],
          [
            4.0672281,
            44.1523218
          ]
        ]
      }
    }
  ]
}
