{
  "type": "FeatureCollection",
  "bbox": [
    4.0712688,
    44.1533163,
    4.07438,
    44.1605909
  ],
  "metadata": {
    "schemaVersion": 2,
    "geometryKind": "network",
    "trackId": "fr-pole-mecanique-ales-cevennes-196899321",
    "layoutId": "ales",
    "license": "ODbL-1.0",
    "attribution": "© OpenStreetMap contributors",
    "closed": false,
    "geometryStatus": "draft",
    "timingStatus": "missing",
    "timingMode": "shared",
    "lengthM": 2889.9,
    "reviewedAt": null,
    "notes": []
  },
  "features": [
    {
      "type": "Feature",
      "id": "trace",
      "properties": {
        "role": "trace",
        "sourceIds": [
          "osm-network-ales"
        ]
      },
      "geometry": {
        "type": "MultiLineString",
        "coordinates": [
          [
            [
              4.072575,
              44.1533947
            ],
            [
              4.0726282,
              44.1534303
            ],
            [
              4.0726712,
              44.1534669
            ],
            [
              4.0727089,
              44.1535136
            ],
            [
              4.0727354,
              44.1535583
            ],
            [
              4.0727558,
              44.1535972
            ],
            [
              4.0727685,
              44.1536312
            ],
            [
              4.0728705,
              44.1540281
            ],
            [
              4.0728814,
              44.1540878
            ],
            [
              4.0728821,
              44.1541125
            ],
            [
              4.0728728,
              44.1541549
            ],
            [
              4.0728608,
              44.1541774
            ],
            [
              4.0728454,
              44.1541999
            ],
            [
              4.0728315,
              44.1542158
            ],
            [
              4.0728062,
              44.1542387
            ],
            [
              4.0727811,
              44.15426
            ],
            [
              4.0727508,
              44.1542813
            ],
            [
              4.0726295,
              44.1543506
            ],
            [
              4.0724933,
              44.1544199
            ],
            [
              4.0723595,
              44.1544768
            ],
            [
              4.0722895,
              44.1545224
            ],
            [
              4.0722465,
              44.1545674
            ],
            [
              4.0722217,
              44.1546128
            ],
            [
              4.072206,
              44.1546634
            ],
            [
              4.0721384,
              44.1552764
            ],
            [
              4.0721429,
              44.1553407
            ],
            [
              4.07216,
              44.1554004
            ],
            [
              4.0721812,
              44.1554523
            ],
            [
              4.0722357,
              44.1555216
            ],
            [
              4.072268,
              44.1555498
            ],
            [
              4.0723196,
              44.1555775
            ],
            [
              4.0723718,
              44.155599
            ],
            [
              4.0724462,
              44.1556142
            ],
            [
              4.0725251,
              44.1556202
            ],
            [
              4.0726218,
              44.1556166
            ],
            [
              4.0727019,
              44.1556045
            ],
            [
              4.0727687,
              44.155586
            ],
            [
              4.0728655,
              44.1555375
            ],
            [
              4.0729553,
              44.1554779
            ],
            [
              4.0730207,
              44.1554167
            ],
            [
              4.0730911,
              44.1553307
            ],
            [
              4.0731496,
              44.1552266
            ],
            [
              4.0731842,
              44.1551396
            ],
            [
              4.0732041,
              44.1550365
            ],
            [
              4.0732115,
              44.1549477
            ],
            [
              4.073208,
              44.1548421
            ],
            [
              4.0732118,
              44.1548141
            ],
            [
              4.0732182,
              44.1547911
            ],
            [
              4.0732302,
              44.1547656
            ],
            [
              4.0732462,
              44.1547433
            ],
            [
              4.0732611,
              44.1547256
            ],
            [
              4.0732811,
              44.1547101
            ],
            [
              4.0733088,
              44.1546968
            ],
            [
              4.0733427,
              44.1546865
            ],
            [
              4.0733975,
              44.154677
            ],
            [
              4.0734344,
              44.1546759
            ],
            [
              4.0734701,
              44.1546771
            ],
            [
              4.0735167,
              44.1546858
            ],
            [
              4.0735502,
              44.1546981
            ],
            [
              4.0735821,
              44.1547134
            ],
            [
              4.073631,
              44.1547424
            ],
            [
              4.0737209,
              44.1548015
            ],
            [
              4.0737468,
              44.154833
            ],
            [
              4.0737621,
              44.1548579
            ],
            [
              4.0737769,
              44.1548864
            ],
            [
              4.0737899,
              44.1549188
            ],
            [
              4.0741012,
              44.1561183
            ],
            [
              4.0741006,
              44.1561983
            ],
            [
              4.0740971,
              44.156235
            ],
            [
              4.0740922,
              44.1562617
            ],
            [
              4.0740863,
              44.1562851
            ],
            [
              4.074076,
              44.1563096
            ],
            [
              4.0740597,
              44.1563352
            ],
            [
              4.0740411,
              44.1563588
            ],
            [
              4.0740195,
              44.1563843
            ],
            [
              4.0739905,
              44.1564139
            ],
            [
              4.0739521,
              44.1564431
            ],
            [
              4.0739192,
              44.1564643
            ],
            [
              4.0738629,
              44.1564913
            ],
            [
              4.0738045,
              44.1565127
            ],
            [
              4.0737311,
              44.156533
            ],
            [
              4.0736796,
              44.156542
            ],
            [
              4.0736377,
              44.1565469
            ],
            [
              4.0735815,
              44.1565482
            ],
            [
              4.0735164,
              44.1565447
            ],
            [
              4.0734468,
              44.1565343
            ],
            [
              4.0733836,
              44.1565207
            ],
            [
              4.0727884,
              44.1563273
            ],
            [
              4.0727444,
              44.1563172
            ],
            [
              4.0726882,
              44.1563096
            ],
            [
              4.0726347,
              44.1563074
            ],
            [
              4.0725735,
              44.1563104
            ],
            [
              4.072515,
              44.1563197
            ],
            [
              4.0724536,
              44.1563374
            ],
            [
              4.0724047,
              44.1563549
            ],
            [
              4.0723612,
              44.1563727
            ],
            [
              4.0723177,
              44.1563949
            ],
            [
              4.0722672,
              44.1564271
            ],
            [
              4.0722296,
              44.1564604
            ],
            [
              4.0721966,
              44.1564974
            ],
            [
              4.0721825,
              44.1565179
            ],
            [
              4.07217,
              44.1565459
            ],
            [
              4.0721578,
              44.1565859
            ],
            [
              4.0721518,
              44.1566275
            ],
            [
              4.0721518,
              44.1566622
            ],
            [
              4.0721603,
              44.1567053
            ],
            [
              4.0721687,
              44.1567292
            ],
            [
              4.0721833,
              44.1567613
            ],
            [
              4.0721981,
              44.1567878
            ],
            [
              4.0722087,
              44.1568051
            ],
            [
              4.0722245,
              44.1568281
            ],
            [
              4.0722478,
              44.1568521
            ],
            [
              4.0722759,
              44.1568745
            ],
            [
              4.0723029,
              44.1568922
            ],
            [
              4.0723276,
              44.1569058
            ],
            [
              4.0723548,
              44.1569194
            ],
            [
              4.0723942,
              44.1569352
            ],
            [
              4.0724415,
              44.1569491
            ],
            [
              4.0725382,
              44.1569712
            ],
            [
              4.0726248,
              44.1569864
            ],
            [
              4.0730229,
              44.1570336
            ],
            [
              4.0737864,
              44.1571489
            ],
            [
              4.0738793,
              44.1571711
            ],
            [
              4.0739814,
              44.157206
            ],
            [
              4.0740387,
              44.1572332
            ],
            [
              4.0740902,
              44.1572657
            ],
            [
              4.0741276,
              44.157291
            ],
            [
              4.0741591,
              44.1573246
            ],
            [
              4.0741909,
              44.1573662
            ],
            [
              4.0742198,
              44.1574161
            ],
            [
              4.0742412,
              44.1574762
            ],
            [
              4.0742511,
              44.1575147
            ],
            [
              4.0742574,
              44.1575697
            ],
            [
              4.0742549,
              44.1576247
            ],
            [
              4.0742483,
              44.1577013
            ],
            [
              4.073157,
              44.1596859
            ],
            [
              4.0730967,
              44.1598172
            ],
            [
              4.0730626,
              44.159907
            ],
            [
              4.0730444,
              44.1599977
            ],
            [
              4.0730392,
              44.1600374
            ],
            [
              4.0730077,
              44.160207
            ],
            [
              4.0729885,
              44.1602723
            ],
            [
              4.0729552,
              44.1603452
            ],
            [
              4.0729145,
              44.1603986
            ],
            [
              4.0728501,
              44.160452
            ],
            [
              4.0727842,
              44.1604903
            ],
            [
              4.072703,
              44.1605286
            ],
            [
              4.072603,
              44.1605575
            ],
            [
              4.072498,
              44.1605791
            ],
            [
              4.0724361,
              44.1605864
            ],
            [
              4.0723733,
              44.1605909
            ],
            [
              4.0723079,
              44.1605887
            ],
            [
              4.0722332,
              44.1605798
            ],
            [
              4.0721489,
              44.160557
            ],
            [
              4.0720697,
              44.1605306
            ],
            [
              4.0719933,
              44.1604977
            ],
            [
              4.0719357,
              44.1604624
            ],
            [
              4.0718782,
              44.1604143
            ],
            [
              4.071832,
              44.1603672
            ],
            [
              4.0718011,
              44.1603238
            ],
            [
              4.0717539,
              44.1602258
            ],
            [
              4.0717241,
              44.1601379
            ],
            [
              4.0717225,
              44.1600884
            ],
            [
              4.0717311,
              44.1600462
            ],
            [
              4.0718253,
              44.1597899
            ],
            [
              4.0720856,
              44.1590589
            ],
            [
              4.0721068,
              44.1590049
            ],
            [
              4.0721202,
              44.1589709
            ],
            [
              4.0721384,
              44.1589387
            ],
            [
              4.0721688,
              44.1588982
            ],
            [
              4.0722175,
              44.1588517
            ],
            [
              4.072327,
              44.1587648
            ],
            [
              4.0724221,
              44.1587017
            ],
            [
              4.0733193,
              44.1580833
            ],
            [
              4.0733894,
              44.1580271
            ],
            [
              4.0734513,
              44.1579696
            ],
            [
              4.0734777,
              44.157932
            ],
            [
              4.0734923,
              44.1578944
            ],
            [
              4.0735023,
              44.1578551
            ],
            [
              4.0735029,
              44.1578158
            ],
            [
              4.0734939,
              44.1577691
            ],
            [
              4.0734742,
              44.1577301
            ],
            [
              4.0734484,
              44.1576925
            ],
            [
              4.0734162,
              44.1576627
            ],
            [
              4.0733857,
              44.1576408
            ],
            [
              4.073347,
              44.1576171
            ],
            [
              4.073306,
              44.1576004
            ],
            [
              4.0732559,
              44.1575884
            ],
            [
              4.0732053,
              44.1575808
            ],
            [
              4.0731354,
              44.1575779
            ],
            [
              4.0730226,
              44.1575819
            ],
            [
              4.0727626,
              44.1576015
            ],
            [
              4.072542,
              44.1576237
            ],
            [
              4.0723475,
              44.1576121
            ],
            [
              4.072284,
              44.1576052
            ],
            [
              4.0722225,
              44.1575981
            ],
            [
              4.0721665,
              44.1575878
            ],
            [
              4.0721035,
              44.157575
            ],
            [
              4.0720107,
              44.15755
            ],
            [
              4.0719264,
              44.1575244
            ],
            [
              4.0718621,
              44.1575002
            ],
            [
              4.0717624,
              44.1574549
            ],
            [
              4.0716896,
              44.1574158
            ],
            [
              4.0716174,
              44.1573705
            ],
            [
              4.0715639,
              44.1573318
            ],
            [
              4.0714808,
              44.1572626
            ],
            [
              4.0714088,
              44.1571865
            ],
            [
              4.0713581,
              44.1571213
            ],
            [
              4.0713232,
              44.1570699
            ],
            [
              4.0713043,
              44.1570318
            ],
            [
              4.0712688,
              44.1569521
            ],
            [
              4.0712867,
              44.1566145
            ],
            [
              4.0714602,
              44.1550768
            ],
            [
              4.0716003,
              44.1537396
            ],
            [
              4.0716046,
              44.1537072
            ],
            [
              4.0716108,
              44.1536728
            ],
            [
              4.0716187,
              44.1536418
            ],
            [
              4.0716326,
              44.1535957
            ],
            [
              4.0716589,
              44.1535499
            ],
            [
              4.0716939,
              44.1535095
            ],
            [
              4.0717354,
              44.153469
            ],
            [
              4.0718002,
              44.1534223
            ],
            [
              4.0718524,
              44.1533925
            ],
            [
              4.0719311,
              44.1533627
            ],
            [
              4.0720015,
              44.1533448
            ],
            [
              4.0720765,
              44.1533315
            ],
            [
              4.0721544,
              44.1533215
            ],
            [
              4.0722534,
              44.1533163
            ],
            [
              4.0723288,
              44.1533205
            ],
            [
              4.0724076,
              44.1533342
            ],
            [
              4.0724601,
              44.1533489
            ],
            [
              4.0725059,
              44.153365
            ],
            [
              4.072575,
              44.1533947
            ]
          ],
          [
            [
              4.0730229,
              44.1570336
            ],
            [
              4.0737864,
              44.1571489
            ],
            [
              4.0738793,
              44.1571711
            ],
            [
              4.0739814,
              44.157206
            ],
            [
              4.0740387,
              44.1572332
            ],
            [
              4.0740902,
              44.1572657
            ],
            [
              4.0741276,
              44.157291
            ],
            [
              4.0741591,
              44.1573246
            ],
            [
              4.0741909,
              44.1573662
            ],
            [
              4.0742198,
              44.1574161
            ],
            [
              4.0742412,
              44.1574762
            ],
            [
              4.0742511,
              44.1575147
            ],
            [
              4.0742574,
              44.1575697
            ],
            [
              4.0742549,
              44.1576247
            ],
            [
              4.0742483,
              44.1577013
            ],
            [
              4.073157,
              44.1596859
            ],
            [
              4.0730967,
              44.1598172
            ],
            [
              4.0730626,
              44.159907
            ],
            [
              4.0730444,
              44.1599977
            ],
            [
              4.0730392,
              44.1600374
            ],
            [
              4.0730077,
              44.160207
            ],
            [
              4.0729885,
              44.1602723
            ],
            [
              4.0729552,
              44.1603452
            ],
            [
              4.0729145,
              44.1603986
            ],
            [
              4.0728501,
              44.160452
            ],
            [
              4.0727842,
              44.1604903
            ],
            [
              4.072703,
              44.1605286
            ],
            [
              4.072603,
              44.1605575
            ],
            [
              4.072498,
              44.1605791
            ],
            [
              4.0724361,
              44.1605864
            ],
            [
              4.0723733,
              44.1605909
            ],
            [
              4.0723079,
              44.1605887
            ],
            [
              4.0722332,
              44.1605798
            ],
            [
              4.0721489,
              44.160557
            ],
            [
              4.0720697,
              44.1605306
            ],
            [
              4.0719933,
              44.1604977
            ],
            [
              4.0719357,
              44.1604624
            ],
            [
              4.0718782,
              44.1604143
            ],
            [
              4.071832,
              44.1603672
            ],
            [
              4.0718011,
              44.1603238
            ],
            [
              4.0717539,
              44.1602258
            ],
            [
              4.0717241,
              44.1601379
            ],
            [
              4.0717225,
              44.1600884
            ],
            [
              4.0717311,
              44.1600462
            ],
            [
              4.0718253,
              44.1597899
            ],
            [
              4.0720856,
              44.1590589
            ],
            [
              4.0721068,
              44.1590049
            ],
            [
              4.0721202,
              44.1589709
            ],
            [
              4.0721384,
              44.1589387
            ],
            [
              4.0721688,
              44.1588982
            ],
            [
              4.0722175,
              44.1588517
            ],
            [
              4.072327,
              44.1587648
            ],
            [
              4.0724221,
              44.1587017
            ],
            [
              4.0733193,
              44.1580833
            ],
            [
              4.0733894,
              44.1580271
            ],
            [
              4.0734513,
              44.1579696
            ],
            [
              4.0734777,
              44.157932
            ],
            [
              4.0734923,
              44.1578944
            ],
            [
              4.0735023,
              44.1578551
            ],
            [
              4.0735029,
              44.1578158
            ],
            [
              4.0734939,
              44.1577691
            ],
            [
              4.0734742,
              44.1577301
            ],
            [
              4.0734484,
              44.1576925
            ],
            [
              4.0734162,
              44.1576627
            ],
            [
              4.0733857,
              44.1576408
            ],
            [
              4.073347,
              44.1576171
            ],
            [
              4.073306,
              44.1576004
            ],
            [
              4.0732559,
              44.1575884
            ],
            [
              4.0732053,
              44.1575808
            ],
            [
              4.0731354,
              44.1575779
            ],
            [
              4.0730226,
              44.1575819
            ],
            [
              4.072912,
              44.1575681
            ],
            [
              4.0728581,
              44.1575588
            ],
            [
              4.0728046,
              44.1575429
            ],
            [
              4.0727537,
              44.1575168
            ],
            [
              4.0727053,
              44.1574782
            ],
            [
              4.0726743,
              44.1574455
            ],
            [
              4.0726455,
              44.1573987
            ],
            [
              4.0726283,
              44.1573574
            ],
            [
              4.0726175,
              44.157306
            ],
            [
              4.0726176,
              44.157268
            ],
            [
              4.0726335,
              44.1572215
            ],
            [
              4.0726681,
              44.1571717
            ],
            [
              4.0727048,
              44.1571339
            ],
            [
              4.0727472,
              44.1570989
            ],
            [
              4.0728055,
              44.1570696
            ],
            [
              4.0728704,
              44.1570513
            ],
            [
              4.0729335,
              44.1570406
            ],
            [
              4.0730229,
              44.1570336
            ]
          ],
          [
            [
              4.072575,
              44.1533947
            ],
            [
              4.0726282,
              44.1534303
            ],
            [
              4.0726712,
              44.1534669
            ],
            [
              4.0727089,
              44.1535136
            ],
            [
              4.0727354,
              44.1535583
            ],
            [
              4.0727558,
              44.1535972
            ],
            [
              4.0727685,
              44.1536312
            ],
            [
              4.0728705,
              44.1540281
            ],
            [
              4.0728814,
              44.1540878
            ],
            [
              4.0728821,
              44.1541125
            ],
            [
              4.0728728,
              44.1541549
            ],
            [
              4.0728608,
              44.1541774
            ],
            [
              4.0728454,
              44.1541999
            ],
            [
              4.0728315,
              44.1542158
            ],
            [
              4.0728062,
              44.1542387
            ],
            [
              4.0727811,
              44.15426
            ],
            [
              4.0727508,
              44.1542813
            ],
            [
              4.0726295,
              44.1543506
            ],
            [
              4.0724933,
              44.1544199
            ],
            [
              4.0723595,
              44.1544768
            ],
            [
              4.0722895,
              44.1545224
            ],
            [
              4.0722465,
              44.1545674
            ],
            [
              4.0722217,
              44.1546128
            ],
            [
              4.072206,
              44.1546634
            ],
            [
              4.0721384,
              44.1552764
            ],
            [
              4.0721429,
              44.1553407
            ],
            [
              4.07216,
              44.1554004
            ],
            [
              4.0721812,
              44.1554523
            ],
            [
              4.0722357,
              44.1555216
            ],
            [
              4.072268,
              44.1555498
            ],
            [
              4.0723196,
              44.1555775
            ],
            [
              4.0723718,
              44.155599
            ],
            [
              4.0724462,
              44.1556142
            ],
            [
              4.0725251,
              44.1556202
            ],
            [
              4.0726218,
              44.1556166
            ],
            [
              4.0727019,
              44.1556045
            ],
            [
              4.0727687,
              44.155586
            ],
            [
              4.0728655,
              44.1555375
            ],
            [
              4.0729553,
              44.1554779
            ],
            [
              4.0730207,
              44.1554167
            ],
            [
              4.0730911,
              44.1553307
            ],
            [
              4.0731496,
              44.1552266
            ],
            [
              4.0731842,
              44.1551396
            ],
            [
              4.0732041,
              44.1550365
            ],
            [
              4.0732115,
              44.1549477
            ],
            [
              4.073208,
              44.1548421
            ],
            [
              4.0732118,
              44.1548141
            ],
            [
              4.0732182,
              44.1547911
            ],
            [
              4.0732302,
              44.1547656
            ],
            [
              4.0732462,
              44.1547433
            ],
            [
              4.0732611,
              44.1547256
            ],
            [
              4.0732811,
              44.1547101
            ],
            [
              4.0733088,
              44.1546968
            ],
            [
              4.0733427,
              44.1546865
            ],
            [
              4.0733975,
              44.154677
            ],
            [
              4.0734344,
              44.1546759
            ],
            [
              4.0734701,
              44.1546771
            ],
            [
              4.0735167,
              44.1546858
            ],
            [
              4.0735502,
              44.1546981
            ],
            [
              4.0735821,
              44.1547134
            ],
            [
              4.073631,
              44.1547424
            ],
            [
              4.0737209,
              44.1548015
            ],
            [
              4.0737468,
              44.154833
            ],
            [
              4.0737621,
              44.1548579
            ],
            [
              4.0737769,
              44.1548864
            ],
            [
              4.0737899,
              44.1549188
            ],
            [
              4.0741012,
              44.1561183
            ],
            [
              4.0741006,
              44.1561983
            ],
            [
              4.0740971,
              44.156235
            ],
            [
              4.0740922,
              44.1562617
            ],
            [
              4.0740863,
              44.1562851
            ],
            [
              4.074076,
              44.1563096
            ],
            [
              4.0740597,
              44.1563352
            ],
            [
              4.0740411,
              44.1563588
            ],
            [
              4.0740195,
              44.1563843
            ],
            [
              4.0739905,
              44.1564139
            ],
            [
              4.0739521,
              44.1564431
            ],
            [
              4.0739192,
              44.1564643
            ],
            [
              4.0738629,
              44.1564913
            ],
            [
              4.0738045,
              44.1565127
            ],
            [
              4.0737311,
              44.156533
            ],
            [
              4.0736796,
              44.156542
            ],
            [
              4.0736377,
              44.1565469
            ],
            [
              4.0735815,
              44.1565482
            ],
            [
              4.0735164,
              44.1565447
            ],
            [
              4.0734468,
              44.1565343
            ],
            [
              4.0733836,
              44.1565207
            ],
            [
              4.0727884,
              44.1563273
            ],
            [
              4.0727444,
              44.1563172
            ],
            [
              4.0726882,
              44.1563096
            ],
            [
              4.0726347,
              44.1563074
            ],
            [
              4.0725735,
              44.1563104
            ],
            [
              4.072515,
              44.1563197
            ],
            [
              4.0724536,
              44.1563374
            ],
            [
              4.0724047,
              44.1563549
            ],
            [
              4.0723612,
              44.1563727
            ],
            [
              4.0723177,
              44.1563949
            ],
            [
              4.0722672,
              44.1564271
            ],
            [
              4.0722296,
              44.1564604
            ],
            [
              4.0721966,
              44.1564974
            ],
            [
              4.0721825,
              44.1565179
            ],
            [
              4.07217,
              44.1565459
            ],
            [
              4.0721578,
              44.1565859
            ],
            [
              4.0721518,
              44.1566275
            ],
            [
              4.0721518,
              44.1566622
            ],
            [
              4.0721433,
              44.1567041
            ],
            [
              4.0721393,
              44.1567201
            ],
            [
              4.0721328,
              44.1567355
            ],
            [
              4.0721238,
              44.1567527
            ],
            [
              4.0721111,
              44.1567703
            ],
            [
              4.0720957,
              44.1567879
            ],
            [
              4.0720626,
              44.1568161
            ],
            [
              4.0720269,
              44.1568415
            ],
            [
              4.0719835,
              44.1568691
            ],
            [
              4.0719363,
              44.1568909
            ],
            [
              4.0718679,
              44.156911
            ],
            [
              4.0718155,
              44.1569242
            ],
            [
              4.0717509,
              44.156932
            ],
            [
              4.0716794,
              44.1569316
            ],
            [
              4.0716188,
              44.1569253
            ],
            [
              4.0715768,
              44.1569161
            ],
            [
              4.0715386,
              44.1569056
            ],
            [
              4.0714945,
              44.1568898
            ],
            [
              4.0714545,
              44.1568715
            ],
            [
              4.0714214,
              44.1568516
            ],
            [
              4.0713961,
              44.1568313
            ],
            [
              4.0713763,
              44.1568104
            ],
            [
              4.0713575,
              44.1567869
            ],
            [
              4.0713432,
              44.1567668
            ],
            [
              4.0713323,
              44.1567492
            ],
            [
              4.071317,
              44.1567155
            ],
            [
              4.0712867,
              44.1566145
            ],
            [
              4.0714602,
              44.1550768
            ],
            [
              4.0716003,
              44.1537396
            ],
            [
              4.0716046,
              44.1537072
            ],
            [
              4.0716108,
              44.1536728
            ],
            [
              4.0716187,
              44.1536418
            ],
            [
              4.0716326,
              44.1535957
            ],
            [
              4.0716589,
              44.1535499
            ],
            [
              4.0716939,
              44.1535095
            ],
            [
              4.0717354,
              44.153469
            ],
            [
              4.0718002,
              44.1534223
            ],
            [
              4.0718524,
              44.1533925
            ],
            [
              4.0719311,
              44.1533627
            ],
            [
              4.0720015,
              44.1533448
            ],
            [
              4.0720765,
              44.1533315
            ],
            [
              4.0721544,
              44.1533215
            ],
            [
              4.0722534,
              44.1533163
            ],
            [
              4.0723288,
              44.1533205
            ],
            [
              4.0724076,
              44.1533342
            ],
            [
              4.0724601,
              44.1533489
            ],
            [
              4.0725059,
              44.153365
            ],
            [
              4.072575,
              44.1533947
            ]
          ],
          [
            [
              4.072575,
              44.1533947
            ],
            [
              4.0726282,
              44.1534303
            ],
            [
              4.0726712,
              44.1534669
            ],
            [
              4.0727089,
              44.1535136
            ],
            [
              4.0727354,
              44.1535583
            ],
            [
              4.0727558,
              44.1535972
            ],
            [
              4.0727685,
              44.1536312
            ],
            [
              4.0728705,
              44.1540281
            ],
            [
              4.0728814,
              44.1540878
            ],
            [
              4.0728821,
              44.1541125
            ],
            [
              4.0728728,
              44.1541549
            ],
            [
              4.0728608,
              44.1541774
            ],
            [
              4.0728454,
              44.1541999
            ],
            [
              4.0728315,
              44.1542158
            ],
            [
              4.0728062,
              44.1542387
            ],
            [
              4.0727811,
              44.15426
            ],
            [
              4.0727508,
              44.1542813
            ],
            [
              4.0726295,
              44.1543506
            ],
            [
              4.0724933,
              44.1544199
            ],
            [
              4.0723595,
              44.1544768
            ],
            [
              4.0722895,
              44.1545224
            ],
            [
              4.0722465,
              44.1545674
            ],
            [
              4.0722217,
              44.1546128
            ],
            [
              4.072206,
              44.1546634
            ],
            [
              4.0721384,
              44.1552764
            ],
            [
              4.0721429,
              44.1553407
            ],
            [
              4.07216,
              44.1554004
            ],
            [
              4.0721812,
              44.1554523
            ],
            [
              4.0722357,
              44.1555216
            ],
            [
              4.072268,
              44.1555498
            ],
            [
              4.0723196,
              44.1555775
            ],
            [
              4.0723718,
              44.155599
            ],
            [
              4.0724462,
              44.1556142
            ],
            [
              4.0725251,
              44.1556202
            ],
            [
              4.0726218,
              44.1556166
            ],
            [
              4.0727019,
              44.1556045
            ],
            [
              4.0727687,
              44.155586
            ],
            [
              4.0728655,
              44.1555375
            ],
            [
              4.0729553,
              44.1554779
            ],
            [
              4.0730207,
              44.1554167
            ],
            [
              4.0730911,
              44.1553307
            ],
            [
              4.0731496,
              44.1552266
            ],
            [
              4.0731842,
              44.1551396
            ],
            [
              4.0732041,
              44.1550365
            ],
            [
              4.0732115,
              44.1549477
            ],
            [
              4.073208,
              44.1548421
            ],
            [
              4.0732118,
              44.1548141
            ],
            [
              4.0732182,
              44.1547911
            ],
            [
              4.0732302,
              44.1547656
            ],
            [
              4.0732462,
              44.1547433
            ],
            [
              4.0732611,
              44.1547256
            ],
            [
              4.0732811,
              44.1547101
            ],
            [
              4.0733088,
              44.1546968
            ],
            [
              4.0733427,
              44.1546865
            ],
            [
              4.0733975,
              44.154677
            ],
            [
              4.0734344,
              44.1546759
            ],
            [
              4.0734701,
              44.1546771
            ],
            [
              4.0735167,
              44.1546858
            ],
            [
              4.0735502,
              44.1546981
            ],
            [
              4.0735821,
              44.1547134
            ],
            [
              4.073631,
              44.1547424
            ],
            [
              4.0737209,
              44.1548015
            ],
            [
              4.0737468,
              44.154833
            ],
            [
              4.0737621,
              44.1548579
            ],
            [
              4.0737769,
              44.1548864
            ],
            [
              4.0737899,
              44.1549188
            ],
            [
              4.0741012,
              44.1561183
            ],
            [
              4.0743602,
              44.1571417
            ],
            [
              4.0743765,
              44.1572364
            ],
            [
              4.07438,
              44.1572952
            ],
            [
              4.074373,
              44.1573557
            ],
            [
              4.0743719,
              44.1573649
            ],
            [
              4.074358,
              44.1574345
            ],
            [
              4.0742483,
              44.1577013
            ],
            [
              4.073157,
              44.1596859
            ],
            [
              4.0730967,
              44.1598172
            ],
            [
              4.0730626,
              44.159907
            ],
            [
              4.0730444,
              44.1599977
            ],
            [
              4.0730392,
              44.1600374
            ],
            [
              4.0730077,
              44.160207
            ],
            [
              4.0729885,
              44.1602723
            ],
            [
              4.0729552,
              44.1603452
            ],
            [
              4.0729145,
              44.1603986
            ],
            [
              4.0728501,
              44.160452
            ],
            [
              4.0727842,
              44.1604903
            ],
            [
              4.072703,
              44.1605286
            ],
            [
              4.072603,
              44.1605575
            ],
            [
              4.072498,
              44.1605791
            ],
            [
              4.0724361,
              44.1605864
            ],
            [
              4.0723733,
              44.1605909
            ],
            [
              4.0723079,
              44.1605887
            ],
            [
              4.0722332,
              44.1605798
            ],
            [
              4.0721489,
              44.160557
            ],
            [
              4.0720697,
              44.1605306
            ],
            [
              4.0719933,
              44.1604977
            ],
            [
              4.0719357,
              44.1604624
            ],
            [
              4.0718782,
              44.1604143
            ],
            [
              4.071832,
              44.1603672
            ],
            [
              4.0718011,
              44.1603238
            ],
            [
              4.0717539,
              44.1602258
            ],
            [
              4.0717241,
              44.1601379
            ],
            [
              4.0717225,
              44.1600884
            ],
            [
              4.0717311,
              44.1600462
            ],
            [
              4.0718253,
              44.1597899
            ],
            [
              4.0720856,
              44.1590589
            ],
            [
              4.0721068,
              44.1590049
            ],
            [
              4.0721202,
              44.1589709
            ],
            [
              4.0721384,
              44.1589387
            ],
            [
              4.0721688,
              44.1588982
            ],
            [
              4.0722175,
              44.1588517
            ],
            [
              4.072327,
              44.1587648
            ],
            [
              4.0724221,
              44.1587017
            ],
            [
              4.0733193,
              44.1580833
            ],
            [
              4.0733894,
              44.1580271
            ],
            [
              4.0734513,
              44.1579696
            ],
            [
              4.0734777,
              44.157932
            ],
            [
              4.0734923,
              44.1578944
            ],
            [
              4.0735023,
              44.1578551
            ],
            [
              4.0735029,
              44.1578158
            ],
            [
              4.0734939,
              44.1577691
            ],
            [
              4.0734742,
              44.1577301
            ],
            [
              4.0734484,
              44.1576925
            ],
            [
              4.0734162,
              44.1576627
            ],
            [
              4.0733857,
              44.1576408
            ],
            [
              4.073347,
              44.1576171
            ],
            [
              4.073306,
              44.1576004
            ],
            [
              4.0732559,
              44.1575884
            ],
            [
              4.0732053,
              44.1575808
            ],
            [
              4.0731354,
              44.1575779
            ],
            [
              4.0730226,
              44.1575819
            ],
            [
              4.0727626,
              44.1576015
            ],
            [
              4.072542,
              44.1576237
            ],
            [
              4.0723475,
              44.1576121
            ],
            [
              4.072284,
              44.1576052
            ],
            [
              4.0722225,
              44.1575981
            ],
            [
              4.0721665,
              44.1575878
            ],
            [
              4.0721035,
              44.157575
            ],
            [
              4.0720107,
              44.15755
            ],
            [
              4.0719264,
              44.1575244
            ],
            [
              4.0718621,
              44.1575002
            ],
            [
              4.0717624,
              44.1574549
            ],
            [
              4.0716896,
              44.1574158
            ],
            [
              4.0716174,
              44.1573705
            ],
            [
              4.0715639,
              44.1573318
            ],
            [
              4.0714808,
              44.1572626
            ],
            [
              4.0714088,
              44.1571865
            ],
            [
              4.0713581,
              44.1571213
            ],
            [
              4.0713232,
              44.1570699
            ],
            [
              4.0713043,
              44.1570318
            ],
            [
              4.0712688,
              44.1569521
            ],
            [
              4.0712867,
              44.1566145
            ],
            [
              4.0714602,
              44.1550768
            ],
            [
              4.0716003,
              44.1537396
            ],
            [
              4.0716046,
              44.1537072
            ],
            [
              4.0716108,
              44.1536728
            ],
            [
              4.0716187,
              44.1536418
            ],
            [
              4.0716326,
              44.1535957
            ],
            [
              4.0716589,
              44.1535499
            ],
            [
              4.0716939,
              44.1535095
            ],
            [
              4.0717354,
              44.153469
            ],
            [
              4.0718002,
              44.1534223
            ],
            [
              4.0718524,
              44.1533925
            ],
            [
              4.0719311,
              44.1533627
            ],
            [
              4.0720015,
              44.1533448
            ],
            [
              4.0720765,
              44.1533315
            ],
            [
              4.0721544,
              44.1533215
            ],
            [
              4.0722534,
              44.1533163
            ],
            [
              4.0723288,
              44.1533205
            ],
            [
              4.0724076,
              44.1533342
            ],
            [
              4.0724601,
              44.1533489
            ],
            [
              4.0725059,
              44.153365
            ],
            [
              4.072575,
              44.1533947
            ]
          ]
        ]
      }
    }
  ]
}
