{
  "type": "FeatureCollection",
  "bbox": [
    -53.3899311,
    -24.9856107,
    -53.3801228,
    -24.9793964
  ],
  "metadata": {
    "schemaVersion": 1,
    "trackId": "br-autodromo-internacional-de-cascavel-d67f0e09",
    "layoutId": "autodromo-internacional-de-cascavel",
    "license": "ODbL-1.0",
    "attribution": "© OpenStreetMap contributors",
    "closed": true,
    "geometryStatus": "draft",
    "timingStatus": "missing",
    "timingMode": "shared",
    "lengthM": 3030.6,
    "reviewedAt": null,
    "notes": [
      "Draft route hypothesis: the source cycle is the unique closest nominal-distance match within conservative timing and distance checks. Approximate OSM trace length 3030.6 m. Difference from the supplied layout distance 4.4 m. Course configuration still requires visual review."
    ]
  },
  "features": [
    {
      "type": "Feature",
      "id": "trace",
      "properties": {
        "role": "trace",
        "sourceIds": [
          "osm-network-146619775"
        ]
      },
      "geometry": {
        "type": "LineString",
        "coordinates": [
          [
            -53.3805302,
            -24.9813557
          ],
          [
            -53.3812665,
            -24.9811096
          ],
          [
            -53.3839393,
            -24.9802165
          ],
          [
            -53.3863007,
            -24.9794402
          ],
          [
            -53.3864844,
            -24.9794025
          ],
          [
            -53.3866051,
            -24.9793964
          ],
          [
            -53.3867177,
            -24.9793976
          ],
          [
            -53.3868398,
            -24.979428
          ],
          [
            -53.3869471,
            -24.9794608
          ],
          [
            -53.3870101,
            -24.9794912
          ],
          [
            -53.3870839,
            -24.9795447
          ],
          [
            -53.3871844,
            -24.9796322
          ],
          [
            -53.3872662,
            -24.979738
          ],
          [
            -53.3890767,
            -24.9827054
          ],
          [
            -53.3895545,
            -24.9835004
          ],
          [
            -53.3898131,
            -24.9839331
          ],
          [
            -53.3898614,
            -24.9840377
          ],
          [
            -53.3898962,
            -24.9841374
          ],
          [
            -53.3899204,
            -24.9842492
          ],
          [
            -53.3899284,
            -24.9843489
          ],
          [
            -53.3899311,
            -24.9844534
          ],
          [
            -53.389915,
            -24.9845482
          ],
          [
            -53.3898936,
            -24.9846503
          ],
          [
            -53.3898614,
            -24.9847597
          ],
          [
            -53.3898185,
            -24.9848546
          ],
          [
            -53.3897621,
            -24.9849567
          ],
          [
            -53.3896951,
            -24.9850564
          ],
          [
            -53.3896119,
            -24.9851512
          ],
          [
            -53.3895207,
            -24.9852436
          ],
          [
            -53.3894108,
            -24.9853384
          ],
          [
            -53.3892847,
            -24.9854283
          ],
          [
            -53.3891323,
            -24.985509
          ],
          [
            -53.3889602,
            -24.9855742
          ],
          [
            -53.388826,
            -24.9856009
          ],
          [
            -53.3886866,
            -24.9856107
          ],
          [
            -53.3885449,
            -24.9855966
          ],
          [
            -53.3884103,
            -24.9855645
          ],
          [
            -53.3882494,
            -24.985511
          ],
          [
            -53.3881018,
            -24.9854502
          ],
          [
            -53.3879602,
            -24.9853802
          ],
          [
            -53.3878148,
            -24.9852825
          ],
          [
            -53.3876732,
            -24.985176
          ],
          [
            -53.387552,
            -24.9850636
          ],
          [
            -53.3874769,
            -24.9849688
          ],
          [
            -53.3873889,
            -24.9848526
          ],
          [
            -53.3866171,
            -24.9835436
          ],
          [
            -53.3860988,
            -24.9826645
          ],
          [
            -53.386029,
            -24.9825113
          ],
          [
            -53.3859856,
            -24.9823601
          ],
          [
            -53.38597,
            -24.9822196
          ],
          [
            -53.3859802,
            -24.9820659
          ],
          [
            -53.386029,
            -24.981906
          ],
          [
            -53.386125,
            -24.981711
          ],
          [
            -53.3863482,
            -24.9812568
          ],
          [
            -53.3864013,
            -24.9811202
          ],
          [
            -53.3864019,
            -24.9809699
          ],
          [
            -53.3863536,
            -24.9808386
          ],
          [
            -53.3862758,
            -24.9807171
          ],
          [
            -53.3861599,
            -24.9806193
          ],
          [
            -53.3860419,
            -24.9805561
          ],
          [
            -53.3858997,
            -24.9805172
          ],
          [
            -53.3857415,
            -24.9805245
          ],
          [
            -53.3840624,
            -24.9807895
          ],
          [
            -53.3839096,
            -24.9808406
          ],
          [
            -53.3837969,
            -24.9808916
          ],
          [
            -53.3836741,
            -24.9809626
          ],
          [
            -53.3835555,
            -24.9810497
          ],
          [
            -53.3815438,
            -24.9827175
          ],
          [
            -53.3814285,
            -24.9827832
          ],
          [
            -53.3813105,
            -24.9828221
          ],
          [
            -53.3811657,
            -24.9828488
          ],
          [
            -53.3810369,
            -24.9828439
          ],
          [
            -53.3809162,
            -24.9828075
          ],
          [
            -53.3808014,
            -24.982752
          ],
          [
            -53.3806968,
            -24.9826767
          ],
          [
            -53.3806131,
            -24.9825887
          ],
          [
            -53.3804151,
            -24.9822862
          ],
          [
            -53.3801467,
            -24.9818763
          ],
          [
            -53.3801228,
            -24.9817795
          ],
          [
            -53.380125,
            -24.9816623
          ],
          [
            -53.3801813,
            -24.9815602
          ],
          [
            -53.3802617,
            -24.981463
          ],
          [
            -53.3803771,
            -24.9814022
          ],
          [
            -53.3805302,
            -24.9813557
          ]
        ]
      }
    }
  ]
}
