{
  "type": "FeatureCollection",
  "bbox": [
    150.8651376,
    -33.8073805,
    150.8773202,
    -33.8033164
  ],
  "metadata": {
    "schemaVersion": 1,
    "trackId": "au-sydney-motorsport-park-5204646",
    "layoutId": "sydney-motorsports-park-north",
    "license": "ODbL-1.0",
    "attribution": "© OpenStreetMap contributors",
    "closed": true,
    "geometryStatus": "draft",
    "timingStatus": "missing",
    "timingMode": "shared",
    "lengthM": 2841.6,
    "reviewedAt": null,
    "notes": [
      "Draft route hypothesis: the source cycle is the unique closest nominal-distance match within conservative timing and distance checks. Approximate OSM trace length 2841.6 m. Difference from the supplied layout distance 14.6 m. Course configuration still requires visual review."
    ]
  },
  "features": [
    {
      "type": "Feature",
      "id": "trace",
      "properties": {
        "role": "trace",
        "sourceIds": [
          "osm-network-5204646"
        ]
      },
      "geometry": {
        "type": "LineString",
        "coordinates": [
          [
            150.868497,
            -33.8033687
          ],
          [
            150.8680303,
            -33.8033164
          ],
          [
            150.8678265,
            -33.8033297
          ],
          [
            150.8674563,
            -33.8033765
          ],
          [
            150.8671305,
            -33.8034869
          ],
          [
            150.8668609,
            -33.8035983
          ],
          [
            150.8666463,
            -33.8037343
          ],
          [
            150.86648,
            -33.8038702
          ],
          [
            150.8663338,
            -33.8040129
          ],
          [
            150.8661783,
            -33.8041956
          ],
          [
            150.8660576,
            -33.8043773
          ],
          [
            150.8659342,
            -33.8046648
          ],
          [
            150.8658537,
            -33.80493
          ],
          [
            150.8656003,
            -33.8056387
          ],
          [
            150.8653106,
            -33.8064879
          ],
          [
            150.8651537,
            -33.8069303
          ],
          [
            150.8651376,
            -33.8070595
          ],
          [
            150.8651722,
            -33.8071685
          ],
          [
            150.8652639,
            -33.8072481
          ],
          [
            150.8653528,
            -33.8073015
          ],
          [
            150.8654259,
            -33.8073386
          ],
          [
            150.86556,
            -33.8073805
          ],
          [
            150.8657612,
            -33.8073593
          ],
          [
            150.8658953,
            -33.8072947
          ],
          [
            150.866008,
            -33.8071721
          ],
          [
            150.8660509,
            -33.8070417
          ],
          [
            150.8660303,
            -33.8069184
          ],
          [
            150.8659737,
            -33.8067101
          ],
          [
            150.8659556,
            -33.8064801
          ],
          [
            150.8659784,
            -33.8063007
          ],
          [
            150.8660348,
            -33.806138
          ],
          [
            150.866134,
            -33.805982
          ],
          [
            150.8662869,
            -33.8058371
          ],
          [
            150.8664787,
            -33.8057089
          ],
          [
            150.8666383,
            -33.8056499
          ],
          [
            150.8668019,
            -33.8056031
          ],
          [
            150.8669682,
            -33.8055886
          ],
          [
            150.8672579,
            -33.8055942
          ],
          [
            150.8695468,
            -33.8057056
          ],
          [
            150.8697964,
            -33.8057131
          ],
          [
            150.8699583,
            -33.8056776
          ],
          [
            150.8700649,
            -33.805596
          ],
          [
            150.8701538,
            -33.8054797
          ],
          [
            150.8702493,
            -33.8053432
          ],
          [
            150.8703576,
            -33.8052363
          ],
          [
            150.8705181,
            -33.8051535
          ],
          [
            150.8707121,
            -33.8050941
          ],
          [
            150.871078,
            -33.8050636
          ],
          [
            150.8714113,
            -33.8050609
          ],
          [
            150.8730729,
            -33.8050337
          ],
          [
            150.8739891,
            -33.8050086
          ],
          [
            150.8747534,
            -33.8050165
          ],
          [
            150.8750232,
            -33.8050696
          ],
          [
            150.8752726,
            -33.8051698
          ],
          [
            150.8754679,
            -33.8052872
          ],
          [
            150.8757173,
            -33.8055152
          ],
          [
            150.8758587,
            -33.8057017
          ],
          [
            150.8759376,
            -33.8057984
          ],
          [
            150.8760461,
            -33.8058716
          ],
          [
            150.8762057,
            -33.8059006
          ],
          [
            150.8763479,
            -33.8058817
          ],
          [
            150.8769675,
            -33.8057479
          ],
          [
            150.8770895,
            -33.8057089
          ],
          [
            150.8771981,
            -33.8056265
          ],
          [
            150.8772598,
            -33.8055396
          ],
          [
            150.8773148,
            -33.8054081
          ],
          [
            150.8773202,
            -33.8052643
          ],
          [
            150.877296,
            -33.8051495
          ],
          [
            150.8772182,
            -33.8050203
          ],
          [
            150.8770962,
            -33.8049055
          ],
          [
            150.8769661,
            -33.8048264
          ],
          [
            150.876836,
            -33.8047762
          ],
          [
            150.8766282,
            -33.8047261
          ],
          [
            150.87478,
            -33.8044351
          ],
          [
            150.8740465,
            -33.8043026
          ],
          [
            150.8709271,
            -33.8037755
          ],
          [
            150.8695615,
            -33.8035376
          ],
          [
            150.868497,
            -33.8033687
          ]
        ]
      }
    }
  ]
}
