{
  "type": "FeatureCollection",
  "bbox": [
    -2.6216501,
    53.1702076,
    -2.6104842,
    53.1830099
  ],
  "metadata": {
    "schemaVersion": 1,
    "trackId": "gb-oulton-park-circuit-21831735",
    "layoutId": "main",
    "license": "ODbL-1.0",
    "attribution": "© OpenStreetMap contributors",
    "closed": true,
    "geometryStatus": "draft",
    "timingStatus": "missing",
    "timingMode": "shared",
    "lengthM": 4316.8,
    "reviewedAt": null,
    "notes": [
      "Connected OSM course candidate. The selected loop is the longest simple source-node cycle after explicit exclusions; its association with a named circuit configuration requires review.",
      "Source way order and shared node IDs are retained. No nearby endpoints are joined and no Racelogic boundaries are read."
    ]
  },
  "features": [
    {
      "type": "Feature",
      "id": "trace",
      "properties": {
        "role": "trace",
        "sourceIds": [
          "osm-snapshot"
        ]
      },
      "geometry": {
        "type": "LineString",
        "coordinates": [
          [
            -2.612807,
            53.180018
          ],
          [
            -2.6124325,
            53.1790171
          ],
          [
            -2.6121237,
            53.1784442
          ],
          [
            -2.6119646,
            53.1781489
          ],
          [
            -2.6119045,
            53.1779402
          ],
          [
            -2.6119166,
            53.1777483
          ],
          [
            -2.6119772,
            53.1776096
          ],
          [
            -2.6120989,
            53.1774732
          ],
          [
            -2.6123815,
            53.1773481
          ],
          [
            -2.6128007,
            53.177211
          ],
          [
            -2.6132363,
            53.1770464
          ],
          [
            -2.6134167,
            53.1769784
          ],
          [
            -2.6140881,
            53.1767255
          ],
          [
            -2.6154406,
            53.1762638
          ],
          [
            -2.6159168,
            53.1761013
          ],
          [
            -2.616376,
            53.1760122
          ],
          [
            -2.6174801,
            53.1758836
          ],
          [
            -2.6177842,
            53.1758284
          ],
          [
            -2.618051,
            53.1757596
          ],
          [
            -2.6183659,
            53.1756128
          ],
          [
            -2.618571,
            53.1754436
          ],
          [
            -2.6186789,
            53.1752812
          ],
          [
            -2.6186962,
            53.1751645
          ],
          [
            -2.6186871,
            53.1750228
          ],
          [
            -2.618608,
            53.1748386
          ],
          [
            -2.6184561,
            53.1746392
          ],
          [
            -2.6169044,
            53.1731059
          ],
          [
            -2.6165243,
            53.1727209
          ],
          [
            -2.6157752,
            53.1718824
          ],
          [
            -2.6153038,
            53.1713985
          ],
          [
            -2.6149883,
            53.1710963
          ],
          [
            -2.6147453,
            53.1709378
          ],
          [
            -2.614509,
            53.1708318
          ],
          [
            -2.614146,
            53.1707382
          ],
          [
            -2.6136291,
            53.1706743
          ],
          [
            -2.6131736,
            53.1706509
          ],
          [
            -2.612798,
            53.170658
          ],
          [
            -2.6124201,
            53.1706908
          ],
          [
            -2.6112355,
            53.1708902
          ],
          [
            -2.610996,
            53.1709088
          ],
          [
            -2.6107613,
            53.1708724
          ],
          [
            -2.6106069,
            53.1707963
          ],
          [
            -2.6105275,
            53.1707378
          ],
          [
            -2.6104842,
            53.1706491
          ],
          [
            -2.610486,
            53.1705716
          ],
          [
            -2.6105206,
            53.1705009
          ],
          [
            -2.6105624,
            53.170438
          ],
          [
            -2.6106576,
            53.1703667
          ],
          [
            -2.6107743,
            53.1703202
          ],
          [
            -2.6109152,
            53.1702786
          ],
          [
            -2.611091,
            53.170256
          ],
          [
            -2.6112362,
            53.170245
          ],
          [
            -2.6120521,
            53.1702115
          ],
          [
            -2.6127183,
            53.1702076
          ],
          [
            -2.6133814,
            53.170232
          ],
          [
            -2.6139065,
            53.1703056
          ],
          [
            -2.6142571,
            53.1703992
          ],
          [
            -2.614757,
            53.170596
          ],
          [
            -2.6154337,
            53.170938
          ],
          [
            -2.6156004,
            53.1709702
          ],
          [
            -2.6159347,
            53.1709852
          ],
          [
            -2.6160327,
            53.171015
          ],
          [
            -2.6160982,
            53.1710827
          ],
          [
            -2.6162124,
            53.1714459
          ],
          [
            -2.6163089,
            53.171585
          ],
          [
            -2.6203278,
            53.1747236
          ],
          [
            -2.6203863,
            53.1747672
          ],
          [
            -2.6204061,
            53.1748325
          ],
          [
            -2.6203859,
            53.1748984
          ],
          [
            -2.6202524,
            53.1751091
          ],
          [
            -2.6202371,
            53.175198
          ],
          [
            -2.6202851,
            53.1752895
          ],
          [
            -2.6203792,
            53.1753527
          ],
          [
            -2.6213773,
            53.1757396
          ],
          [
            -2.621509,
            53.175799
          ],
          [
            -2.6216196,
            53.1758792
          ],
          [
            -2.6216501,
            53.1759764
          ],
          [
            -2.6216362,
            53.1761285
          ],
          [
            -2.6215801,
            53.1762757
          ],
          [
            -2.6213346,
            53.1767172
          ],
          [
            -2.6211343,
            53.1770775
          ],
          [
            -2.6210083,
            53.1773202
          ],
          [
            -2.6208228,
            53.1775382
          ],
          [
            -2.6206163,
            53.1778157
          ],
          [
            -2.6204637,
            53.1780421
          ],
          [
            -2.6203908,
            53.1782389
          ],
          [
            -2.6203379,
            53.1785075
          ],
          [
            -2.6203065,
            53.1787687
          ],
          [
            -2.6202255,
            53.1794438
          ],
          [
            -2.6201955,
            53.1798505
          ],
          [
            -2.6202025,
            53.1800423
          ],
          [
            -2.6202626,
            53.1802186
          ],
          [
            -2.6204503,
            53.1805433
          ],
          [
            -2.6205847,
            53.1808375
          ],
          [
            -2.6207266,
            53.1812827
          ],
          [
            -2.6207108,
            53.1814239
          ],
          [
            -2.6206487,
            53.1815377
          ],
          [
            -2.6202137,
            53.1819473
          ],
          [
            -2.6200078,
            53.1820511
          ],
          [
            -2.6197752,
            53.1821144
          ],
          [
            -2.6194311,
            53.1821668
          ],
          [
            -2.6183984,
            53.1822664
          ],
          [
            -2.6179147,
            53.1823274
          ],
          [
            -2.6165426,
            53.1825545
          ],
          [
            -2.615493,
            53.1827283
          ],
          [
            -2.6138804,
            53.1829417
          ],
          [
            -2.6134443,
            53.1829994
          ],
          [
            -2.6131615,
            53.1830099
          ],
          [
            -2.6129231,
            53.1829384
          ],
          [
            -2.6128003,
            53.1828289
          ],
          [
            -2.612737,
            53.1826871
          ],
          [
            -2.6127314,
            53.1824693
          ],
          [
            -2.6128168,
            53.1819594
          ],
          [
            -2.6128588,
            53.1817857
          ],
          [
            -2.6130318,
            53.1813678
          ],
          [
            -2.6130716,
            53.1811364
          ],
          [
            -2.6130503,
            53.180875
          ],
          [
            -2.612807,
            53.180018
          ]
        ]
      }
    }
  ]
}
