{
  "type": "FeatureCollection",
  "bbox": [
    15.3247647,
    48.212384,
    15.3300008,
    48.2141743
  ],
  "metadata": {
    "schemaVersion": 1,
    "trackId": "at-wachauring-melk-1578791a",
    "layoutId": "wachauring-melk",
    "license": "ODbL-1.0",
    "attribution": "© OpenStreetMap contributors",
    "closed": true,
    "geometryStatus": "draft",
    "timingStatus": "missing",
    "timingMode": "shared",
    "lengthM": 1169.9,
    "reviewedAt": null,
    "notes": [
      "Draft configuration: Northern S bend and southern inner hairpin with rounded western return; excludes the small western service detour. Branch identity was checked against catalogue layout facts and circuit identification references. Independent source distance 1169.9 m; no coordinates are changed to match a diagram or distance. Travel direction and historical alignment remain provisional."
    ]
  },
  "features": [
    {
      "type": "Feature",
      "id": "trace",
      "properties": {
        "role": "trace",
        "sourceIds": [
          "osm-selection-28514203"
        ]
      },
      "geometry": {
        "type": "LineString",
        "coordinates": [
          [
            15.327969,
            48.214105
          ],
          [
            15.3280366,
            48.2141437
          ],
          [
            15.3281511,
            48.2141647
          ],
          [
            15.3282953,
            48.2141736
          ],
          [
            15.3284396,
            48.2141743
          ],
          [
            15.3285876,
            48.2141666
          ],
          [
            15.3287483,
            48.214146
          ],
          [
            15.3288992,
            48.2141214
          ],
          [
            15.3290401,
            48.2140871
          ],
          [
            15.3291709,
            48.2140465
          ],
          [
            15.3292982,
            48.2140034
          ],
          [
            15.3294142,
            48.2139504
          ],
          [
            15.3295233,
            48.213888
          ],
          [
            15.3296231,
            48.2138142
          ],
          [
            15.3296959,
            48.2137433
          ],
          [
            15.3297623,
            48.213661
          ],
          [
            15.3299753,
            48.213307
          ],
          [
            15.33,
            48.2132361
          ],
          [
            15.3300008,
            48.21317
          ],
          [
            15.3299537,
            48.2131153
          ],
          [
            15.3298642,
            48.2130752
          ],
          [
            15.3297403,
            48.21305
          ],
          [
            15.3296139,
            48.2130339
          ],
          [
            15.3294531,
            48.213035
          ],
          [
            15.3293301,
            48.21305
          ],
          [
            15.329232,
            48.2130795
          ],
          [
            15.3291217,
            48.2131187
          ],
          [
            15.3289956,
            48.2131374
          ],
          [
            15.3288695,
            48.2131374
          ],
          [
            15.3287435,
            48.2131249
          ],
          [
            15.3286641,
            48.2130938
          ],
          [
            15.3286205,
            48.2130265
          ],
          [
            15.3286033,
            48.2129613
          ],
          [
            15.3285571,
            48.2129046
          ],
          [
            15.3284832,
            48.2128666
          ],
          [
            15.3283964,
            48.2128425
          ],
          [
            15.3257359,
            48.2124006
          ],
          [
            15.3256372,
            48.2123889
          ],
          [
            15.325548,
            48.212384
          ],
          [
            15.3254606,
            48.2123962
          ],
          [
            15.3253811,
            48.212416
          ],
          [
            15.3253021,
            48.2124441
          ],
          [
            15.3251695,
            48.2125183
          ],
          [
            15.3250596,
            48.2126154
          ],
          [
            15.3249677,
            48.2127262
          ],
          [
            15.3248987,
            48.2128224
          ],
          [
            15.3248446,
            48.2129222
          ],
          [
            15.3248014,
            48.2130282
          ],
          [
            15.3247726,
            48.2131508
          ],
          [
            15.3247647,
            48.2132731
          ],
          [
            15.3247723,
            48.2134014
          ],
          [
            15.324799,
            48.2134922
          ],
          [
            15.3248474,
            48.2135684
          ],
          [
            15.3249341,
            48.2136349
          ],
          [
            15.325074,
            48.213697
          ],
          [
            15.3252059,
            48.2137453
          ],
          [
            15.3253468,
            48.2137847
          ],
          [
            15.3254362,
            48.2135946
          ],
          [
            15.3254983,
            48.2136023
          ],
          [
            15.3256235,
            48.2135977
          ],
          [
            15.3257555,
            48.2135628
          ],
          [
            15.325842,
            48.2135052
          ],
          [
            15.3258967,
            48.2134354
          ],
          [
            15.3259047,
            48.2134103
          ],
          [
            15.3259263,
            48.2133429
          ],
          [
            15.3259217,
            48.2132641
          ],
          [
            15.3258785,
            48.2131821
          ],
          [
            15.3257988,
            48.213123
          ],
          [
            15.3256531,
            48.213076
          ],
          [
            15.3260003,
            48.2131085
          ],
          [
            15.3264084,
            48.2131534
          ],
          [
            15.3264868,
            48.2131628
          ],
          [
            15.3270658,
            48.2132319
          ],
          [
            15.3273989,
            48.2132716
          ],
          [
            15.3275332,
            48.2132853
          ],
          [
            15.3276652,
            48.213308
          ],
          [
            15.3277244,
            48.2133429
          ],
          [
            15.327754,
            48.213399
          ],
          [
            15.3277565,
            48.2134601
          ],
          [
            15.327791,
            48.2134971
          ],
          [
            15.3278871,
            48.2135218
          ],
          [
            15.3280291,
            48.2135047
          ],
          [
            15.3281433,
            48.213524
          ],
          [
            15.3282353,
            48.2135771
          ],
          [
            15.3282724,
            48.2136313
          ],
          [
            15.3282699,
            48.2136866
          ],
          [
            15.3282328,
            48.2137598
          ],
          [
            15.3279953,
            48.2139585
          ],
          [
            15.327962,
            48.2140021
          ],
          [
            15.3279404,
            48.2140579
          ],
          [
            15.327969,
            48.214105
          ]
        ]
      }
    }
  ]
}
