{
  "type": "FeatureCollection",
  "bbox": [
    -46.8522062,
    -22.2931117,
    -46.8447942,
    -22.2858057
  ],
  "metadata": {
    "schemaVersion": 1,
    "trackId": "br-autodromo-velo-citta-478876097",
    "layoutId": "main",
    "license": "ODbL-1.0",
    "attribution": "© OpenStreetMap contributors",
    "closed": true,
    "geometryStatus": "draft",
    "timingStatus": "missing",
    "timingMode": "shared",
    "lengthM": 3490.9,
    "reviewedAt": null,
    "notes": [
      "Connected OSM course candidate. The selected loop is the longest simple source-node cycle after explicit exclusions; its association with a named circuit configuration requires review.",
      "Source way order and shared node IDs are retained. No nearby endpoints are joined and no Racelogic boundaries are read.",
      "Some source ways lack one-way direction tags. Travel direction is provisional."
    ]
  },
  "features": [
    {
      "type": "Feature",
      "id": "trace",
      "properties": {
        "role": "trace",
        "sourceIds": [
          "osm-snapshot"
        ]
      },
      "geometry": {
        "type": "LineString",
        "coordinates": [
          [
            -46.8467824,
            -22.2897007
          ],
          [
            -46.8468405,
            -22.2897714
          ],
          [
            -46.8469677,
            -22.289897
          ],
          [
            -46.8480352,
            -22.2908868
          ],
          [
            -46.8481063,
            -22.2909539
          ],
          [
            -46.8481631,
            -22.2910277
          ],
          [
            -46.8481992,
            -22.2911012
          ],
          [
            -46.8482221,
            -22.2911689
          ],
          [
            -46.8482426,
            -22.2912544
          ],
          [
            -46.8482474,
            -22.2913167
          ],
          [
            -46.8482474,
            -22.2913923
          ],
          [
            -46.8482295,
            -22.2914796
          ],
          [
            -46.8481916,
            -22.2915885
          ],
          [
            -46.8475044,
            -22.2929633
          ],
          [
            -46.8474557,
            -22.2930287
          ],
          [
            -46.8473997,
            -22.2930756
          ],
          [
            -46.8473432,
            -22.2930986
          ],
          [
            -46.8472849,
            -22.2931116
          ],
          [
            -46.847211,
            -22.2931117
          ],
          [
            -46.8471498,
            -22.2931034
          ],
          [
            -46.8470879,
            -22.293078
          ],
          [
            -46.847035,
            -22.2930408
          ],
          [
            -46.8469989,
            -22.2930029
          ],
          [
            -46.84697,
            -22.2929583
          ],
          [
            -46.8469553,
            -22.2929161
          ],
          [
            -46.8469452,
            -22.2928435
          ],
          [
            -46.846951,
            -22.2927736
          ],
          [
            -46.8469677,
            -22.2927071
          ],
          [
            -46.8470297,
            -22.2924807
          ],
          [
            -46.8470509,
            -22.2923785
          ],
          [
            -46.8470681,
            -22.2922696
          ],
          [
            -46.8470743,
            -22.2921532
          ],
          [
            -46.8470774,
            -22.292064
          ],
          [
            -46.8470733,
            -22.2919792
          ],
          [
            -46.8470616,
            -22.2918622
          ],
          [
            -46.8470379,
            -22.2917452
          ],
          [
            -46.8470127,
            -22.2916378
          ],
          [
            -46.8469713,
            -22.2915243
          ],
          [
            -46.8469228,
            -22.2913932
          ],
          [
            -46.8468524,
            -22.2912634
          ],
          [
            -46.846782,
            -22.2911446
          ],
          [
            -46.8466805,
            -22.2910055
          ],
          [
            -46.8457356,
            -22.2897533
          ],
          [
            -46.8449172,
            -22.2886411
          ],
          [
            -46.8448839,
            -22.2885948
          ],
          [
            -46.8448654,
            -22.2885547
          ],
          [
            -46.8448493,
            -22.2885053
          ],
          [
            -46.8448401,
            -22.2884623
          ],
          [
            -46.8448447,
            -22.2884133
          ],
          [
            -46.844859,
            -22.2883769
          ],
          [
            -46.8448753,
            -22.2883387
          ],
          [
            -46.8449041,
            -22.2883081
          ],
          [
            -46.8449453,
            -22.2882775
          ],
          [
            -46.8449976,
            -22.2882496
          ],
          [
            -46.8450479,
            -22.2882268
          ],
          [
            -46.8450871,
            -22.2881976
          ],
          [
            -46.8451122,
            -22.2881706
          ],
          [
            -46.8451373,
            -22.2881359
          ],
          [
            -46.8451524,
            -22.2881026
          ],
          [
            -46.8451585,
            -22.2880631
          ],
          [
            -46.8451551,
            -22.2880249
          ],
          [
            -46.8451444,
            -22.2879883
          ],
          [
            -46.845128,
            -22.2879535
          ],
          [
            -46.8451048,
            -22.2879237
          ],
          [
            -46.8450651,
            -22.2878889
          ],
          [
            -46.8450191,
            -22.28786
          ],
          [
            -46.8449755,
            -22.2878295
          ],
          [
            -46.8449247,
            -22.2877909
          ],
          [
            -46.844888,
            -22.2877509
          ],
          [
            -46.8448461,
            -22.2877003
          ],
          [
            -46.8448216,
            -22.2876585
          ],
          [
            -46.8448015,
            -22.2876015
          ],
          [
            -46.8447957,
            -22.2875474
          ],
          [
            -46.8447942,
            -22.2874881
          ],
          [
            -46.8448005,
            -22.2874243
          ],
          [
            -46.8448144,
            -22.2873693
          ],
          [
            -46.8448403,
            -22.2873131
          ],
          [
            -46.8448643,
            -22.2872747
          ],
          [
            -46.8449104,
            -22.2872276
          ],
          [
            -46.8449638,
            -22.2871896
          ],
          [
            -46.8450236,
            -22.287161
          ],
          [
            -46.8450897,
            -22.2871423
          ],
          [
            -46.8451559,
            -22.2871324
          ],
          [
            -46.8452355,
            -22.287131
          ],
          [
            -46.8453277,
            -22.2871383
          ],
          [
            -46.8454074,
            -22.287156
          ],
          [
            -46.8455028,
            -22.2871736
          ],
          [
            -46.8455765,
            -22.2871788
          ],
          [
            -46.8456565,
            -22.2871785
          ],
          [
            -46.8457586,
            -22.2871723
          ],
          [
            -46.8458569,
            -22.2871599
          ],
          [
            -46.845945,
            -22.2871425
          ],
          [
            -46.8460727,
            -22.2871105
          ],
          [
            -46.8461498,
            -22.2870814
          ],
          [
            -46.846254,
            -22.2870288
          ],
          [
            -46.8463376,
            -22.2869908
          ],
          [
            -46.8464212,
            -22.2869563
          ],
          [
            -46.8465157,
            -22.2869247
          ],
          [
            -46.8465988,
            -22.2869042
          ],
          [
            -46.8466915,
            -22.286894
          ],
          [
            -46.8467769,
            -22.2868935
          ],
          [
            -46.8468482,
            -22.2868989
          ],
          [
            -46.8469217,
            -22.2869145
          ],
          [
            -46.8469983,
            -22.286933
          ],
          [
            -46.8470817,
            -22.2869666
          ],
          [
            -46.8471478,
            -22.2870075
          ],
          [
            -46.8471926,
            -22.28705
          ],
          [
            -46.8472229,
            -22.2870946
          ],
          [
            -46.8472453,
            -22.2871392
          ],
          [
            -46.8472601,
            -22.2871928
          ],
          [
            -46.8472654,
            -22.2872406
          ],
          [
            -46.8472643,
            -22.2872946
          ],
          [
            -46.8472536,
            -22.2873545
          ],
          [
            -46.8472303,
            -22.2873997
          ],
          [
            -46.8472022,
            -22.2874346
          ],
          [
            -46.8471507,
            -22.2874703
          ],
          [
            -46.8470973,
            -22.287491
          ],
          [
            -46.8470282,
            -22.2875088
          ],
          [
            -46.8467568,
            -22.2875592
          ],
          [
            -46.8465043,
            -22.2876125
          ],
          [
            -46.8462993,
            -22.2876186
          ],
          [
            -46.8461616,
            -22.2876078
          ],
          [
            -46.8460187,
            -22.2876024
          ],
          [
            -46.8459458,
            -22.2876067
          ],
          [
            -46.8458977,
            -22.2876142
          ],
          [
            -46.8458463,
            -22.2876299
          ],
          [
            -46.8457949,
            -22.2876553
          ],
          [
            -46.8457487,
            -22.2876815
          ],
          [
            -46.8457025,
            -22.2877224
          ],
          [
            -46.84566,
            -22.2877753
          ],
          [
            -46.8456293,
            -22.2878303
          ],
          [
            -46.8456053,
            -22.2878941
          ],
          [
            -46.8455919,
            -22.2879691
          ],
          [
            -46.8455913,
            -22.2880464
          ],
          [
            -46.8456029,
            -22.288116
          ],
          [
            -46.8456219,
            -22.288172
          ],
          [
            -46.8456497,
            -22.2882395
          ],
          [
            -46.8456876,
            -22.2882948
          ],
          [
            -46.8457464,
            -22.2883661
          ],
          [
            -46.8458104,
            -22.2884166
          ],
          [
            -46.8458713,
            -22.288453
          ],
          [
            -46.8459304,
            -22.2884763
          ],
          [
            -46.8460074,
            -22.2885001
          ],
          [
            -46.8461877,
            -22.2885341
          ],
          [
            -46.8462553,
            -22.2885457
          ],
          [
            -46.8463213,
            -22.2885471
          ],
          [
            -46.8463806,
            -22.2885391
          ],
          [
            -46.8464842,
            -22.2885136
          ],
          [
            -46.84661,
            -22.288456
          ],
          [
            -46.8473271,
            -22.2880756
          ],
          [
            -46.8493223,
            -22.2870346
          ],
          [
            -46.8512715,
            -22.2860176
          ],
          [
            -46.8516088,
            -22.2858467
          ],
          [
            -46.8516776,
            -22.2858223
          ],
          [
            -46.8517592,
            -22.285808
          ],
          [
            -46.8518498,
            -22.2858057
          ],
          [
            -46.8519215,
            -22.2858171
          ],
          [
            -46.8519897,
            -22.2858437
          ],
          [
            -46.8520372,
            -22.285875
          ],
          [
            -46.8520774,
            -22.285913
          ],
          [
            -46.8521203,
            -22.2859771
          ],
          [
            -46.8521505,
            -22.2860396
          ],
          [
            -46.8521696,
            -22.2861021
          ],
          [
            -46.8521851,
            -22.2861714
          ],
          [
            -46.8522,
            -22.2862855
          ],
          [
            -46.8522062,
            -22.2864341
          ],
          [
            -46.8521977,
            -22.2865408
          ],
          [
            -46.8521855,
            -22.2866407
          ],
          [
            -46.8521444,
            -22.2867953
          ],
          [
            -46.8519145,
            -22.287625
          ],
          [
            -46.8518807,
            -22.2876981
          ],
          [
            -46.8518293,
            -22.2877707
          ],
          [
            -46.8517668,
            -22.2878295
          ],
          [
            -46.8516832,
            -22.2878888
          ],
          [
            -46.851605,
            -22.2879279
          ],
          [
            -46.8515067,
            -22.2879591
          ],
          [
            -46.8514192,
            -22.2879752
          ],
          [
            -46.8513117,
            -22.2879802
          ],
          [
            -46.8511715,
            -22.2879718
          ],
          [
            -46.8503957,
            -22.2878791
          ],
          [
            -46.8501069,
            -22.2878445
          ],
          [
            -46.8494412,
            -22.2877649
          ],
          [
            -46.8493683,
            -22.2877612
          ],
          [
            -46.8493311,
            -22.2877649
          ],
          [
            -46.8492952,
            -22.2877747
          ],
          [
            -46.8492693,
            -22.2877862
          ],
          [
            -46.8492466,
            -22.2878021
          ],
          [
            -46.8492276,
            -22.2878229
          ],
          [
            -46.8492157,
            -22.2878435
          ],
          [
            -46.8492093,
            -22.2878714
          ],
          [
            -46.849209,
            -22.2879045
          ],
          [
            -46.8492134,
            -22.2879361
          ],
          [
            -46.8493109,
            -22.2883058
          ],
          [
            -46.8494169,
            -22.2887076
          ],
          [
            -46.8494267,
            -22.2887693
          ],
          [
            -46.8494268,
            -22.2888259
          ],
          [
            -46.8494199,
            -22.2888687
          ],
          [
            -46.8494075,
            -22.2889013
          ],
          [
            -46.8493905,
            -22.2889302
          ],
          [
            -46.8493612,
            -22.2889592
          ],
          [
            -46.8493239,
            -22.2889866
          ],
          [
            -46.8492771,
            -22.2890051
          ],
          [
            -46.8492199,
            -22.2890147
          ],
          [
            -46.849168,
            -22.2890139
          ],
          [
            -46.8491242,
            -22.2890067
          ],
          [
            -46.8490666,
            -22.2889845
          ],
          [
            -46.8490113,
            -22.2889501
          ],
          [
            -46.8489576,
            -22.2889113
          ],
          [
            -46.8488928,
            -22.2888662
          ],
          [
            -46.8488306,
            -22.2888309
          ],
          [
            -46.8487295,
            -22.2887821
          ],
          [
            -46.8486422,
            -22.2887524
          ],
          [
            -46.8485314,
            -22.2887231
          ],
          [
            -46.8484275,
            -22.2887052
          ],
          [
            -46.8483462,
            -22.2886975
          ],
          [
            -46.848258,
            -22.2886962
          ],
          [
            -46.848171,
            -22.2887007
          ],
          [
            -46.8480854,
            -22.2887091
          ],
          [
            -46.8479672,
            -22.2887344
          ],
          [
            -46.847904,
            -22.2887521
          ],
          [
            -46.8478298,
            -22.2887762
          ],
          [
            -46.8476939,
            -22.2888295
          ],
          [
            -46.8473086,
            -22.2890253
          ],
          [
            -46.8470258,
            -22.2891835
          ],
          [
            -46.8469378,
            -22.2892367
          ],
          [
            -46.8466109,
            -22.2894043
          ],
          [
            -46.8466566,
            -22.2895174
          ],
          [
            -46.8467103,
            -22.2896103
          ],
          [
            -46.8467824,
            -22.2897007
          ]
        ]
      }
    }
  ]
}
