{
  "type": "FeatureCollection",
  "bbox": [
    -70.636402,
    -34.0404936,
    -70.6249545,
    -34.0340725
  ],
  "metadata": {
    "schemaVersion": 1,
    "trackId": "cl-autodromo-de-codegua-9d2429bd",
    "layoutId": "autodromo-de-codegua",
    "license": "ODbL-1.0",
    "attribution": "© OpenStreetMap contributors",
    "closed": true,
    "geometryStatus": "draft",
    "timingStatus": "missing",
    "timingMode": "shared",
    "lengthM": 4393.6,
    "reviewedAt": null,
    "notes": [
      "Draft configuration: Full course with rounded northwestern corner, two northern linked bends and both southern parallel returns. Branch identity was checked against catalogue layout facts and circuit identification references. Independent source distance 4393.6 m; no coordinates are changed to match a diagram or distance. Travel direction and historical alignment remain provisional."
    ]
  },
  "features": [
    {
      "type": "Feature",
      "id": "trace",
      "properties": {
        "role": "trace",
        "sourceIds": [
          "osm-selection-360785716"
        ]
      },
      "geometry": {
        "type": "LineString",
        "coordinates": [
          [
            -70.6282644,
            -34.0376879
          ],
          [
            -70.6301562,
            -34.0373076
          ],
          [
            -70.6341693,
            -34.0365486
          ],
          [
            -70.634408,
            -34.0365064
          ],
          [
            -70.6347615,
            -34.0364365
          ],
          [
            -70.6357679,
            -34.0362375
          ],
          [
            -70.6359395,
            -34.0361285
          ],
          [
            -70.6360415,
            -34.0360596
          ],
          [
            -70.636138,
            -34.0359552
          ],
          [
            -70.6362292,
            -34.035844
          ],
          [
            -70.6363217,
            -34.0356897
          ],
          [
            -70.636366,
            -34.0355618
          ],
          [
            -70.6363821,
            -34.0354017
          ],
          [
            -70.636402,
            -34.0352022
          ],
          [
            -70.6363816,
            -34.0349787
          ],
          [
            -70.6363369,
            -34.0348102
          ],
          [
            -70.6362637,
            -34.0346586
          ],
          [
            -70.6361783,
            -34.0345508
          ],
          [
            -70.6360897,
            -34.0344526
          ],
          [
            -70.6359664,
            -34.0343526
          ],
          [
            -70.6358457,
            -34.0342659
          ],
          [
            -70.6357008,
            -34.0341903
          ],
          [
            -70.6355533,
            -34.0341414
          ],
          [
            -70.6354272,
            -34.0341147
          ],
          [
            -70.6352878,
            -34.0340881
          ],
          [
            -70.6351295,
            -34.0340725
          ],
          [
            -70.6349495,
            -34.0341096
          ],
          [
            -70.6330635,
            -34.034549
          ],
          [
            -70.6329355,
            -34.034606
          ],
          [
            -70.6328818,
            -34.0346649
          ],
          [
            -70.6328503,
            -34.0347236
          ],
          [
            -70.6328447,
            -34.0347795
          ],
          [
            -70.632855,
            -34.0348394
          ],
          [
            -70.6329168,
            -34.0350331
          ],
          [
            -70.6329075,
            -34.0351203
          ],
          [
            -70.6328525,
            -34.0351862
          ],
          [
            -70.6327958,
            -34.0352221
          ],
          [
            -70.6327349,
            -34.0352424
          ],
          [
            -70.6304826,
            -34.0359297
          ],
          [
            -70.6304182,
            -34.0359498
          ],
          [
            -70.6303726,
            -34.035952
          ],
          [
            -70.6302975,
            -34.0359498
          ],
          [
            -70.6299729,
            -34.0358897
          ],
          [
            -70.6299059,
            -34.0358764
          ],
          [
            -70.6298388,
            -34.0358764
          ],
          [
            -70.6297637,
            -34.0358942
          ],
          [
            -70.6296725,
            -34.0359297
          ],
          [
            -70.6296001,
            -34.0359698
          ],
          [
            -70.6286479,
            -34.0367388
          ],
          [
            -70.6285581,
            -34.0368065
          ],
          [
            -70.6284374,
            -34.0368843
          ],
          [
            -70.6283167,
            -34.0369421
          ],
          [
            -70.6282067,
            -34.0369887
          ],
          [
            -70.6280994,
            -34.0370198
          ],
          [
            -70.6279787,
            -34.0370376
          ],
          [
            -70.6278607,
            -34.037051
          ],
          [
            -70.6277615,
            -34.0370532
          ],
          [
            -70.6276488,
            -34.0370465
          ],
          [
            -70.6275255,
            -34.0370243
          ],
          [
            -70.6273847,
            -34.0369989
          ],
          [
            -70.6272894,
            -34.0369554
          ],
          [
            -70.6272036,
            -34.0369198
          ],
          [
            -70.6271043,
            -34.0368731
          ],
          [
            -70.6270131,
            -34.0368354
          ],
          [
            -70.6269273,
            -34.0368042
          ],
          [
            -70.6268388,
            -34.036782
          ],
          [
            -70.6267583,
            -34.0367553
          ],
          [
            -70.6266779,
            -34.0367487
          ],
          [
            -70.6265974,
            -34.036742
          ],
          [
            -70.6264526,
            -34.0367376
          ],
          [
            -70.626305,
            -34.036762
          ],
          [
            -70.6252523,
            -34.0369522
          ],
          [
            -70.625153,
            -34.0370076
          ],
          [
            -70.6250819,
            -34.0370655
          ],
          [
            -70.6250336,
            -34.03711
          ],
          [
            -70.6249974,
            -34.0371523
          ],
          [
            -70.6249773,
            -34.0371956
          ],
          [
            -70.6249653,
            -34.0372378
          ],
          [
            -70.6249599,
            -34.0372789
          ],
          [
            -70.6249545,
            -34.037339
          ],
          [
            -70.6249626,
            -34.0374034
          ],
          [
            -70.6249868,
            -34.0374701
          ],
          [
            -70.6250297,
            -34.0375456
          ],
          [
            -70.6250837,
            -34.0376175
          ],
          [
            -70.625183,
            -34.0376953
          ],
          [
            -70.6253936,
            -34.0378098
          ],
          [
            -70.6256389,
            -34.0379054
          ],
          [
            -70.6262317,
            -34.0380843
          ],
          [
            -70.6270571,
            -34.038333
          ],
          [
            -70.628625,
            -34.0387826
          ],
          [
            -70.6297799,
            -34.0391032
          ],
          [
            -70.6332779,
            -34.040058
          ],
          [
            -70.6348336,
            -34.0404803
          ],
          [
            -70.635016,
            -34.0404936
          ],
          [
            -70.6351474,
            -34.0404759
          ],
          [
            -70.6352533,
            -34.0404369
          ],
          [
            -70.635323,
            -34.0404002
          ],
          [
            -70.6353861,
            -34.0403547
          ],
          [
            -70.6354464,
            -34.0402992
          ],
          [
            -70.6354908,
            -34.0402347
          ],
          [
            -70.6355457,
            -34.0401402
          ],
          [
            -70.6355658,
            -34.0400669
          ],
          [
            -70.6355712,
            -34.0399725
          ],
          [
            -70.6355644,
            -34.0398913
          ],
          [
            -70.6355323,
            -34.0398002
          ],
          [
            -70.6354639,
            -34.0396901
          ],
          [
            -70.63537,
            -34.0395957
          ],
          [
            -70.6352573,
            -34.0395301
          ],
          [
            -70.6350428,
            -34.0394779
          ],
          [
            -70.6331787,
            -34.0392768
          ],
          [
            -70.6330286,
            -34.0392579
          ],
          [
            -70.6329105,
            -34.0392356
          ],
          [
            -70.6327818,
            -34.0391867
          ],
          [
            -70.6326651,
            -34.0391335
          ],
          [
            -70.6325766,
            -34.0390612
          ],
          [
            -70.6325176,
            -34.0389611
          ],
          [
            -70.6324934,
            -34.0389012
          ],
          [
            -70.6324773,
            -34.0388445
          ],
          [
            -70.63248,
            -34.0387644
          ],
          [
            -70.6324921,
            -34.03871
          ],
          [
            -70.6325162,
            -34.0386512
          ],
          [
            -70.6325498,
            -34.0385945
          ],
          [
            -70.6326007,
            -34.03853
          ],
          [
            -70.632661,
            -34.0384778
          ],
          [
            -70.6327442,
            -34.0384333
          ],
          [
            -70.6327871,
            -34.0384088
          ],
          [
            -70.6328569,
            -34.0383777
          ],
          [
            -70.6329266,
            -34.0383555
          ],
          [
            -70.6337634,
            -34.038151
          ],
          [
            -70.6338413,
            -34.0381143
          ],
          [
            -70.6338949,
            -34.038081
          ],
          [
            -70.6339325,
            -34.038031
          ],
          [
            -70.6339499,
            -34.037981
          ],
          [
            -70.6339526,
            -34.0379288
          ],
          [
            -70.6339432,
            -34.0378721
          ],
          [
            -70.6339244,
            -34.0378321
          ],
          [
            -70.6338909,
            -34.0377998
          ],
          [
            -70.633852,
            -34.0377732
          ],
          [
            -70.6338131,
            -34.037752
          ],
          [
            -70.6337648,
            -34.0377387
          ],
          [
            -70.6337085,
            -34.0377243
          ],
          [
            -70.6336642,
            -34.0377198
          ],
          [
            -70.6306479,
            -34.0382934
          ],
          [
            -70.6298984,
            -34.03844
          ],
          [
            -70.6297964,
            -34.0384506
          ],
          [
            -70.6297146,
            -34.0384505
          ],
          [
            -70.6296543,
            -34.0384394
          ],
          [
            -70.6295953,
            -34.0384161
          ],
          [
            -70.6295194,
            -34.038364
          ],
          [
            -70.6293458,
            -34.038185
          ],
          [
            -70.6293029,
            -34.0381393
          ],
          [
            -70.6292689,
            -34.0381023
          ],
          [
            -70.6292211,
            -34.0380738
          ],
          [
            -70.6291723,
            -34.0380434
          ],
          [
            -70.6290883,
            -34.0380182
          ],
          [
            -70.6290012,
            -34.0380083
          ],
          [
            -70.62891,
            -34.0380105
          ],
          [
            -70.6288228,
            -34.0380216
          ],
          [
            -70.6283601,
            -34.0381094
          ],
          [
            -70.628285,
            -34.0381104
          ],
          [
            -70.6282259,
            -34.0381005
          ],
          [
            -70.6281858,
            -34.0380804
          ],
          [
            -70.6281563,
            -34.0380449
          ],
          [
            -70.6281214,
            -34.0379982
          ],
          [
            -70.6280785,
            -34.0378737
          ],
          [
            -70.6280758,
            -34.0378293
          ],
          [
            -70.6280919,
            -34.0377782
          ],
          [
            -70.6281241,
            -34.0377382
          ],
          [
            -70.6281777,
            -34.0377115
          ],
          [
            -70.6282644,
            -34.0376879
          ]
        ]
      }
    }
  ]
}
