{
  "type": "FeatureCollection",
  "bbox": [
    5.2962774,
    45.4666715,
    5.2992049,
    45.4725004
  ],
  "metadata": {
    "schemaVersion": 1,
    "trackId": "fr-circuit-du-laquais-99564907",
    "layoutId": "laquais-petite-piste",
    "license": "ODbL-1.0",
    "attribution": "© OpenStreetMap contributors",
    "closed": true,
    "geometryStatus": "draft",
    "timingStatus": "missing",
    "timingMode": "shared",
    "lengthM": 2426.5,
    "reviewedAt": null,
    "notes": [
      "Draft route hypothesis: the source cycle is the unique closest nominal-distance match within conservative timing and distance checks. Approximate OSM trace length 2426.5 m. Difference from the supplied layout distance 4.5 m. Course configuration still requires visual review."
    ]
  },
  "features": [
    {
      "type": "Feature",
      "id": "trace",
      "properties": {
        "role": "trace",
        "sourceIds": [
          "osm-network-99564907"
        ]
      },
      "geometry": {
        "type": "LineString",
        "coordinates": [
          [
            5.2979585,
            45.4709099
          ],
          [
            5.2972513,
            45.4702366
          ],
          [
            5.2971366,
            45.4700925
          ],
          [
            5.2971293,
            45.4699445
          ],
          [
            5.2973913,
            45.4689052
          ],
          [
            5.297539,
            45.4683553
          ],
          [
            5.2975122,
            45.4682883
          ],
          [
            5.2974187,
            45.4682206
          ],
          [
            5.2972634,
            45.4682076
          ],
          [
            5.2971256,
            45.4682647
          ],
          [
            5.2969654,
            45.4684507
          ],
          [
            5.2968492,
            45.4685397
          ],
          [
            5.2967232,
            45.4685862
          ],
          [
            5.2966966,
            45.4678593
          ],
          [
            5.2967662,
            45.4677499
          ],
          [
            5.2972072,
            45.467501
          ],
          [
            5.2973029,
            45.467437
          ],
          [
            5.2974872,
            45.4674258
          ],
          [
            5.2976739,
            45.467443
          ],
          [
            5.2979443,
            45.4680621
          ],
          [
            5.2979839,
            45.4682171
          ],
          [
            5.2979709,
            45.4684399
          ],
          [
            5.2976942,
            45.4698728
          ],
          [
            5.2977017,
            45.4700039
          ],
          [
            5.297804,
            45.4701817
          ],
          [
            5.2979285,
            45.4703294
          ],
          [
            5.2980699,
            45.4704076
          ],
          [
            5.2982685,
            45.4704438
          ],
          [
            5.2984388,
            45.4703983
          ],
          [
            5.2985662,
            45.4703183
          ],
          [
            5.298592,
            45.470191
          ],
          [
            5.2985029,
            45.4695845
          ],
          [
            5.2983112,
            45.46828
          ],
          [
            5.2983704,
            45.4681343
          ],
          [
            5.2984802,
            45.4680198
          ],
          [
            5.2986144,
            45.4679428
          ],
          [
            5.2988918,
            45.4678425
          ],
          [
            5.2990732,
            45.4677447
          ],
          [
            5.2991734,
            45.4676443
          ],
          [
            5.2992049,
            45.4674959
          ],
          [
            5.2991746,
            45.4673714
          ],
          [
            5.2991315,
            45.467255
          ],
          [
            5.2985382,
            45.4668187
          ],
          [
            5.2983198,
            45.466699
          ],
          [
            5.2982032,
            45.4666715
          ],
          [
            5.298077,
            45.4666747
          ],
          [
            5.2974276,
            45.4668935
          ],
          [
            5.2970696,
            45.467
          ],
          [
            5.2966962,
            45.4671207
          ],
          [
            5.2964648,
            45.4672453
          ],
          [
            5.2963392,
            45.4674262
          ],
          [
            5.2962774,
            45.4676782
          ],
          [
            5.2964504,
            45.4702788
          ],
          [
            5.2965614,
            45.4708446
          ],
          [
            5.2966188,
            45.4710379
          ],
          [
            5.2966607,
            45.4711791
          ],
          [
            5.2968023,
            45.4714952
          ],
          [
            5.297008,
            45.471804
          ],
          [
            5.2973508,
            45.4721169
          ],
          [
            5.2974804,
            45.4722036
          ],
          [
            5.2978081,
            45.4724226
          ],
          [
            5.2980588,
            45.4725004
          ],
          [
            5.2982651,
            45.4724727
          ],
          [
            5.2985227,
            45.4722869
          ],
          [
            5.2985836,
            45.4721644
          ],
          [
            5.2985686,
            45.4720009
          ],
          [
            5.2979585,
            45.4709099
          ]
        ]
      }
    }
  ]
}
