{
  "type": "FeatureCollection",
  "bbox": [
    27.2696172,
    38.4316697,
    27.2756768,
    38.4354549
  ],
  "metadata": {
    "schemaVersion": 1,
    "trackId": "tr-pinarbasi-a1cd89d9",
    "layoutId": "pinarbasi",
    "license": "ODbL-1.0",
    "attribution": "© OpenStreetMap contributors",
    "closed": true,
    "geometryStatus": "draft",
    "timingStatus": "missing",
    "timingMode": "shared",
    "lengthM": 1966.4,
    "reviewedAt": null,
    "notes": [
      "Draft configuration: Historical circuit retains the western rounded return and inner central hairpin, excluding the later western extension. Branch identity was checked against catalogue layout facts and circuit identification references. Independent source distance 1966.4 m; no coordinates are changed to match a diagram or distance. Travel direction and historical alignment remain provisional."
    ]
  },
  "features": [
    {
      "type": "Feature",
      "id": "trace",
      "properties": {
        "role": "trace",
        "sourceIds": [
          "osm-selection-pinarbasi-2020-38626201"
        ]
      },
      "geometry": {
        "type": "LineString",
        "coordinates": [
          [
            27.2703982,
            38.4327185
          ],
          [
            27.2705098,
            38.4325101
          ],
          [
            27.2705441,
            38.4322546
          ],
          [
            27.2705785,
            38.4319453
          ],
          [
            27.27063,
            38.4318041
          ],
          [
            27.2708359,
            38.4316764
          ],
          [
            27.2711278,
            38.4316697
          ],
          [
            27.2715398,
            38.4317436
          ],
          [
            27.2724238,
            38.4320058
          ],
          [
            27.2734795,
            38.432416
          ],
          [
            27.2736941,
            38.4325504
          ],
          [
            27.2737714,
            38.4327454
          ],
          [
            27.2737714,
            38.4329807
          ],
          [
            27.2737542,
            38.4332161
          ],
          [
            27.273634,
            38.433364
          ],
          [
            27.2734452,
            38.433411
          ],
          [
            27.2732049,
            38.4333976
          ],
          [
            27.271823,
            38.4330614
          ],
          [
            27.2715741,
            38.4330614
          ],
          [
            27.2713853,
            38.433169
          ],
          [
            27.2712908,
            38.4333505
          ],
          [
            27.2713166,
            38.4335253
          ],
          [
            27.2714711,
            38.4336531
          ],
          [
            27.2754622,
            38.4346885
          ],
          [
            27.275651,
            38.4348431
          ],
          [
            27.2756768,
            38.4350381
          ],
          [
            27.2755995,
            38.4352196
          ],
          [
            27.2754536,
            38.4353742
          ],
          [
            27.2752562,
            38.4354549
          ],
          [
            27.2749129,
            38.4354549
          ],
          [
            27.2734194,
            38.4352465
          ],
          [
            27.2711621,
            38.4350986
          ],
          [
            27.2707501,
            38.4350851
          ],
          [
            27.270321,
            38.4350112
          ],
          [
            27.2701506,
            38.4349496
          ],
          [
            27.2698746,
            38.4348498
          ],
          [
            27.2696601,
            38.4346414
          ],
          [
            27.2696172,
            38.4344733
          ],
          [
            27.2696601,
            38.4342783
          ],
          [
            27.2699176,
            38.4337001
          ],
          [
            27.2702609,
            38.4330076
          ],
          [
            27.2703982,
            38.4327185
          ]
        ]
      }
    }
  ]
}
