{
  "type": "FeatureCollection",
  "bbox": [
    -98.353387,
    40.5760202,
    -98.3464933,
    40.5816046
  ],
  "metadata": {
    "schemaVersion": 1,
    "trackId": "us-hastings-motorsport-park-d145e11b",
    "layoutId": "hastings-motorsport-park",
    "license": "ODbL-1.0",
    "attribution": "© OpenStreetMap contributors",
    "closed": true,
    "geometryStatus": "draft",
    "timingStatus": "missing",
    "timingMode": "shared",
    "lengthM": 3245.1,
    "reviewedAt": null,
    "notes": [
      "Draft route hypothesis: the source cycle is the unique closest nominal-distance match within conservative timing and distance checks. Approximate OSM trace length 3245.1 m. Difference from the supplied layout distance 3.1 m. Course configuration still requires visual review."
    ]
  },
  "features": [
    {
      "type": "Feature",
      "id": "trace",
      "properties": {
        "role": "trace",
        "sourceIds": [
          "osm-network-364260204"
        ]
      },
      "geometry": {
        "type": "LineString",
        "coordinates": [
          [
            -98.3468915,
            40.5771735
          ],
          [
            -98.3470737,
            40.5768019
          ],
          [
            -98.3472086,
            40.5766302
          ],
          [
            -98.3473841,
            40.5765149
          ],
          [
            -98.3475596,
            40.5764636
          ],
          [
            -98.3480117,
            40.5763919
          ],
          [
            -98.3521486,
            40.5760202
          ],
          [
            -98.3523443,
            40.5760331
          ],
          [
            -98.3525232,
            40.5761176
          ],
          [
            -98.3526581,
            40.5762868
          ],
          [
            -98.3530597,
            40.5772607
          ],
          [
            -98.3530664,
            40.5774221
          ],
          [
            -98.3529989,
            40.5775093
          ],
          [
            -98.3523106,
            40.577927
          ],
          [
            -98.3521149,
            40.577945
          ],
          [
            -98.3519597,
            40.5779398
          ],
          [
            -98.3517133,
            40.5778809
          ],
          [
            -98.3515109,
            40.5777425
          ],
          [
            -98.3508563,
            40.5772376
          ],
          [
            -98.3505593,
            40.5771043
          ],
          [
            -98.3501814,
            40.5770249
          ],
          [
            -98.349763,
            40.5770223
          ],
          [
            -98.3483762,
            40.577194
          ],
          [
            -98.3480961,
            40.5773017
          ],
          [
            -98.3479206,
            40.5774093
          ],
          [
            -98.3478059,
            40.5775426
          ],
          [
            -98.3476709,
            40.5778143
          ],
          [
            -98.3472998,
            40.5791777
          ],
          [
            -98.3473301,
            40.579352
          ],
          [
            -98.347455,
            40.5794801
          ],
          [
            -98.3476372,
            40.5795493
          ],
          [
            -98.3479982,
            40.5795647
          ],
          [
            -98.3482277,
            40.5795544
          ],
          [
            -98.3484166,
            40.5794955
          ],
          [
            -98.3485685,
            40.5793904
          ],
          [
            -98.3493345,
            40.5785908
          ],
          [
            -98.3495605,
            40.578414
          ],
          [
            -98.3497596,
            40.5783627
          ],
          [
            -98.3499553,
            40.5783832
          ],
          [
            -98.3501173,
            40.5784319
          ],
          [
            -98.3502624,
            40.5785472
          ],
          [
            -98.3503467,
            40.5786344
          ],
          [
            -98.3503737,
            40.5787523
          ],
          [
            -98.3503906,
            40.579047
          ],
          [
            -98.3504716,
            40.5791674
          ],
          [
            -98.3505762,
            40.5792725
          ],
          [
            -98.3507382,
            40.5793391
          ],
          [
            -98.3510722,
            40.5793878
          ],
          [
            -98.3530799,
            40.5795365
          ],
          [
            -98.3531913,
            40.5795903
          ],
          [
            -98.353333,
            40.5797159
          ],
          [
            -98.353387,
            40.5798953
          ],
          [
            -98.3532824,
            40.580049
          ],
          [
            -98.3530293,
            40.5801054
          ],
          [
            -98.3485145,
            40.5801977
          ],
          [
            -98.3482817,
            40.5802566
          ],
          [
            -98.3481366,
            40.5803617
          ],
          [
            -98.3480354,
            40.5805103
          ],
          [
            -98.3480252,
            40.5806897
          ],
          [
            -98.3479906,
            40.5812189
          ],
          [
            -98.3479272,
            40.5813447
          ],
          [
            -98.3478363,
            40.5814508
          ],
          [
            -98.3476574,
            40.5815534
          ],
          [
            -98.347428,
            40.5816046
          ],
          [
            -98.3471547,
            40.5815867
          ],
          [
            -98.3470534,
            40.5815374
          ],
          [
            -98.3469359,
            40.5814769
          ],
          [
            -98.3468525,
            40.5814097
          ],
          [
            -98.3467868,
            40.5813364
          ],
          [
            -98.3467063,
            40.5812377
          ],
          [
            -98.3465169,
            40.5803412
          ],
          [
            -98.3464933,
            40.580108
          ],
          [
            -98.3464933,
            40.5783883
          ],
          [
            -98.3465034,
            40.5780577
          ],
          [
            -98.3465743,
            40.5778758
          ],
          [
            -98.3468915,
            40.5771735
          ]
        ]
      }
    }
  ]
}
