{
  "type": "FeatureCollection",
  "bbox": [
    -1.3849092,
    52.8284228,
    -1.3646786,
    52.832914
  ],
  "metadata": {
    "schemaVersion": 1,
    "trackId": "gb-donington-park-27131003",
    "layoutId": "donington-national",
    "license": "ODbL-1.0",
    "attribution": "© OpenStreetMap contributors",
    "closed": true,
    "geometryStatus": "draft",
    "timingStatus": "missing",
    "timingMode": "shared",
    "lengthM": 3177.9,
    "reviewedAt": null,
    "notes": [
      "Draft route hypothesis: the source cycle is the unique closest nominal-distance match within conservative timing and distance checks. Approximate OSM trace length 3177.9 m. Difference from the supplied layout distance 5.1 m. Course configuration still requires visual review."
    ]
  },
  "features": [
    {
      "type": "Feature",
      "id": "trace",
      "properties": {
        "role": "trace",
        "sourceIds": [
          "osm-network-27131003"
        ]
      },
      "geometry": {
        "type": "LineString",
        "coordinates": [
          [
            -1.3666721,
            52.8314992
          ],
          [
            -1.3658755,
            52.8306246
          ],
          [
            -1.3655644,
            52.8303044
          ],
          [
            -1.3649781,
            52.8297011
          ],
          [
            -1.3648053,
            52.8295233
          ],
          [
            -1.3647355,
            52.8294441
          ],
          [
            -1.3647061,
            52.8293862
          ],
          [
            -1.3646885,
            52.8293434
          ],
          [
            -1.3646794,
            52.8292993
          ],
          [
            -1.3646786,
            52.8292493
          ],
          [
            -1.3646988,
            52.8291846
          ],
          [
            -1.3647431,
            52.8291115
          ],
          [
            -1.3648982,
            52.8289395
          ],
          [
            -1.3649973,
            52.8288412
          ],
          [
            -1.3650892,
            52.8287723
          ],
          [
            -1.3651826,
            52.8287173
          ],
          [
            -1.3653177,
            52.8286599
          ],
          [
            -1.3654897,
            52.8285902
          ],
          [
            -1.3657088,
            52.8285135
          ],
          [
            -1.3658995,
            52.828471
          ],
          [
            -1.3661164,
            52.8284444
          ],
          [
            -1.3663052,
            52.8284288
          ],
          [
            -1.3665514,
            52.8284228
          ],
          [
            -1.366728,
            52.8284285
          ],
          [
            -1.3707575,
            52.8286494
          ],
          [
            -1.3736466,
            52.8288107
          ],
          [
            -1.3747014,
            52.8288634
          ],
          [
            -1.3747634,
            52.8288736
          ],
          [
            -1.3748104,
            52.8288838
          ],
          [
            -1.3748606,
            52.8288954
          ],
          [
            -1.3748987,
            52.8289106
          ],
          [
            -1.3749361,
            52.8289279
          ],
          [
            -1.374963,
            52.8289492
          ],
          [
            -1.3749825,
            52.8289758
          ],
          [
            -1.3749938,
            52.8290114
          ],
          [
            -1.375002,
            52.8290442
          ],
          [
            -1.3750116,
            52.8290875
          ],
          [
            -1.375027,
            52.8291283
          ],
          [
            -1.3750453,
            52.8291627
          ],
          [
            -1.3750675,
            52.8291946
          ],
          [
            -1.3750951,
            52.829226
          ],
          [
            -1.375124,
            52.8292526
          ],
          [
            -1.3751588,
            52.8292746
          ],
          [
            -1.3752094,
            52.8292978
          ],
          [
            -1.3752663,
            52.8293176
          ],
          [
            -1.3753367,
            52.8293356
          ],
          [
            -1.3754362,
            52.829351
          ],
          [
            -1.3757691,
            52.8293939
          ],
          [
            -1.3766618,
            52.8295153
          ],
          [
            -1.3769056,
            52.8295427
          ],
          [
            -1.3795431,
            52.8298391
          ],
          [
            -1.383843,
            52.8303222
          ],
          [
            -1.3841712,
            52.8303787
          ],
          [
            -1.3842525,
            52.8303937
          ],
          [
            -1.3843146,
            52.8304056
          ],
          [
            -1.3843934,
            52.8304218
          ],
          [
            -1.3845403,
            52.8304678
          ],
          [
            -1.3846168,
            52.8305004
          ],
          [
            -1.3846928,
            52.8305376
          ],
          [
            -1.3847751,
            52.8305967
          ],
          [
            -1.3848256,
            52.8306586
          ],
          [
            -1.3848739,
            52.830722
          ],
          [
            -1.3848995,
            52.8307894
          ],
          [
            -1.3849092,
            52.8308468
          ],
          [
            -1.3848994,
            52.830888
          ],
          [
            -1.3848836,
            52.830936
          ],
          [
            -1.3848523,
            52.8309877
          ],
          [
            -1.3848181,
            52.8310312
          ],
          [
            -1.3847786,
            52.83107
          ],
          [
            -1.384154,
            52.8315589
          ],
          [
            -1.3837807,
            52.831851
          ],
          [
            -1.3837095,
            52.8318994
          ],
          [
            -1.3836333,
            52.8319516
          ],
          [
            -1.3835677,
            52.8319945
          ],
          [
            -1.3834867,
            52.8320481
          ],
          [
            -1.3834399,
            52.8320766
          ],
          [
            -1.3833671,
            52.8321173
          ],
          [
            -1.3832857,
            52.8321525
          ],
          [
            -1.3832269,
            52.8321748
          ],
          [
            -1.3829653,
            52.8322676
          ],
          [
            -1.3827974,
            52.8323233
          ],
          [
            -1.3826465,
            52.8323677
          ],
          [
            -1.3825133,
            52.8324006
          ],
          [
            -1.3823838,
            52.8324309
          ],
          [
            -1.3822548,
            52.8324525
          ],
          [
            -1.3820687,
            52.8324777
          ],
          [
            -1.3818634,
            52.8325061
          ],
          [
            -1.3816902,
            52.8325231
          ],
          [
            -1.3815599,
            52.8325306
          ],
          [
            -1.3812509,
            52.832536
          ],
          [
            -1.3810142,
            52.8325383
          ],
          [
            -1.3808415,
            52.8325366
          ],
          [
            -1.3806878,
            52.8325292
          ],
          [
            -1.3805482,
            52.832516
          ],
          [
            -1.3803885,
            52.8324986
          ],
          [
            -1.3800745,
            52.8324498
          ],
          [
            -1.3796265,
            52.8323693
          ],
          [
            -1.3792568,
            52.832306
          ],
          [
            -1.3790222,
            52.8322807
          ],
          [
            -1.3787921,
            52.8322927
          ],
          [
            -1.3786152,
            52.8323112
          ],
          [
            -1.3785167,
            52.8323207
          ],
          [
            -1.378393,
            52.8323382
          ],
          [
            -1.3781931,
            52.8323762
          ],
          [
            -1.377888,
            52.8324504
          ],
          [
            -1.3775116,
            52.8325592
          ],
          [
            -1.377332,
            52.8326178
          ],
          [
            -1.3771165,
            52.8326806
          ],
          [
            -1.3769497,
            52.8327237
          ],
          [
            -1.3764318,
            52.8328167
          ],
          [
            -1.3760607,
            52.8328762
          ],
          [
            -1.3758483,
            52.8329113
          ],
          [
            -1.3757521,
            52.832914
          ],
          [
            -1.3756704,
            52.8329111
          ],
          [
            -1.3756058,
            52.8329063
          ],
          [
            -1.3755023,
            52.8328865
          ],
          [
            -1.3754291,
            52.8328691
          ],
          [
            -1.3753635,
            52.8328435
          ],
          [
            -1.3752701,
            52.8327944
          ],
          [
            -1.374975,
            52.8326187
          ],
          [
            -1.3739145,
            52.8319872
          ],
          [
            -1.3733525,
            52.8316328
          ],
          [
            -1.3732666,
            52.831588
          ],
          [
            -1.3732113,
            52.8315618
          ],
          [
            -1.3731407,
            52.8315428
          ],
          [
            -1.3730268,
            52.8315161
          ],
          [
            -1.3729141,
            52.8314914
          ],
          [
            -1.3727652,
            52.8314608
          ],
          [
            -1.3726264,
            52.8314352
          ],
          [
            -1.3725162,
            52.8314173
          ],
          [
            -1.3723695,
            52.8313913
          ],
          [
            -1.3722376,
            52.8313711
          ],
          [
            -1.3721046,
            52.8313535
          ],
          [
            -1.3719571,
            52.8313379
          ],
          [
            -1.3718206,
            52.8313255
          ],
          [
            -1.3716324,
            52.8313108
          ],
          [
            -1.3714593,
            52.8313012
          ],
          [
            -1.3712942,
            52.8312952
          ],
          [
            -1.3711125,
            52.8312883
          ],
          [
            -1.3702651,
            52.8312524
          ],
          [
            -1.3700848,
            52.8312511
          ],
          [
            -1.3699786,
            52.8312508
          ],
          [
            -1.3698561,
            52.8312559
          ],
          [
            -1.3697346,
            52.8312614
          ],
          [
            -1.3696002,
            52.8312736
          ],
          [
            -1.3694848,
            52.8312891
          ],
          [
            -1.3693761,
            52.83131
          ],
          [
            -1.3692553,
            52.8313378
          ],
          [
            -1.3691524,
            52.8313694
          ],
          [
            -1.3690614,
            52.8314015
          ],
          [
            -1.3688163,
            52.83149
          ],
          [
            -1.368409,
            52.8316371
          ],
          [
            -1.3682944,
            52.8316723
          ],
          [
            -1.3682043,
            52.8316977
          ],
          [
            -1.368034,
            52.8317357
          ],
          [
            -1.3678724,
            52.8317676
          ],
          [
            -1.3677234,
            52.8317925
          ],
          [
            -1.3675837,
            52.8318086
          ],
          [
            -1.3674506,
            52.8318159
          ],
          [
            -1.367361,
            52.8318127
          ],
          [
            -1.3672735,
            52.8318043
          ],
          [
            -1.3671805,
            52.8317939
          ],
          [
            -1.3670899,
            52.8317754
          ],
          [
            -1.3670134,
            52.8317536
          ],
          [
            -1.366956,
            52.8317268
          ],
          [
            -1.3669,
            52.8316968
          ],
          [
            -1.3668446,
            52.8316585
          ],
          [
            -1.3667966,
            52.8316166
          ],
          [
            -1.3666721,
            52.8314992
          ]
        ]
      }
    }
  ]
}
