{
  "type": "FeatureCollection",
  "bbox": [
    10.8106474,
    44.6310579,
    10.8177978,
    44.6356697
  ],
  "metadata": {
    "schemaVersion": 1,
    "trackId": "it-modena-929ca255",
    "layoutId": "modena",
    "license": "ODbL-1.0",
    "attribution": "© OpenStreetMap contributors",
    "closed": true,
    "geometryStatus": "draft",
    "timingStatus": "missing",
    "timingMode": "shared",
    "lengthM": 2095.2,
    "reviewedAt": null,
    "notes": [
      "Draft configuration: Northern sweeping bend, western hairpin, southern bulb chicane and eastern turnaround. Branch identity was checked against catalogue layout facts and circuit identification references. Independent source distance 2095.2 m; no coordinates are changed to match a diagram or distance. Travel direction and historical alignment remain provisional."
    ]
  },
  "features": [
    {
      "type": "Feature",
      "id": "trace",
      "properties": {
        "role": "trace",
        "sourceIds": [
          "osm-selection-149097692"
        ]
      },
      "geometry": {
        "type": "LineString",
        "coordinates": [
          [
            10.8149176,
            44.631395
          ],
          [
            10.8157613,
            44.6311152
          ],
          [
            10.8158993,
            44.6310726
          ],
          [
            10.8160326,
            44.6310579
          ],
          [
            10.8161637,
            44.6310726
          ],
          [
            10.8162855,
            44.6311332
          ],
          [
            10.8163522,
            44.6312019
          ],
          [
            10.8163702,
            44.6312911
          ],
          [
            10.8163408,
            44.6313747
          ],
          [
            10.816194,
            44.631521
          ],
          [
            10.8160668,
            44.6316295
          ],
          [
            10.8160148,
            44.631687
          ],
          [
            10.815986,
            44.6317691
          ],
          [
            10.8160264,
            44.6318389
          ],
          [
            10.8161245,
            44.6319046
          ],
          [
            10.8163235,
            44.631958
          ],
          [
            10.8166957,
            44.6320032
          ],
          [
            10.8170938,
            44.6320422
          ],
          [
            10.8174689,
            44.6320689
          ],
          [
            10.8176535,
            44.6321038
          ],
          [
            10.8177372,
            44.6321777
          ],
          [
            10.8177978,
            44.6322803
          ],
          [
            10.817792,
            44.6323604
          ],
          [
            10.8177574,
            44.6324241
          ],
          [
            10.8176621,
            44.6324822
          ],
          [
            10.8169715,
            44.632848
          ],
          [
            10.8164424,
            44.6331903
          ],
          [
            10.8157584,
            44.6336293
          ],
          [
            10.8152193,
            44.6339404
          ],
          [
            10.8138272,
            44.6346905
          ],
          [
            10.813677,
            44.6347955
          ],
          [
            10.8135285,
            44.6349298
          ],
          [
            10.8133105,
            44.6350924
          ],
          [
            10.813044,
            44.6352841
          ],
          [
            10.8127597,
            44.6354311
          ],
          [
            10.8122125,
            44.6356468
          ],
          [
            10.8121133,
            44.6356697
          ],
          [
            10.8120114,
            44.6356678
          ],
          [
            10.8119497,
            44.6356449
          ],
          [
            10.8118531,
            44.6355437
          ],
          [
            10.8117485,
            44.6354063
          ],
          [
            10.8115768,
            44.6351773
          ],
          [
            10.8113775,
            44.6348683
          ],
          [
            10.811201,
            44.6346467
          ],
          [
            10.8110765,
            44.6344029
          ],
          [
            10.8110765,
            44.6342256
          ],
          [
            10.8110972,
            44.6341148
          ],
          [
            10.8111906,
            44.6339892
          ],
          [
            10.8112529,
            44.6339228
          ],
          [
            10.8113775,
            44.6338563
          ],
          [
            10.8115332,
            44.6338046
          ],
          [
            10.8116786,
            44.6338046
          ],
          [
            10.8117824,
            44.6338267
          ],
          [
            10.8119295,
            44.6338819
          ],
          [
            10.8120674,
            44.6339152
          ],
          [
            10.8122288,
            44.633908
          ],
          [
            10.8123845,
            44.6338563
          ],
          [
            10.8124572,
            44.6338119
          ],
          [
            10.8125298,
            44.6337528
          ],
          [
            10.8125818,
            44.633669
          ],
          [
            10.8125921,
            44.6335903
          ],
          [
            10.8125747,
            44.6334793
          ],
          [
            10.812521,
            44.633402
          ],
          [
            10.8124397,
            44.6333356
          ],
          [
            10.8123118,
            44.63328
          ],
          [
            10.8121508,
            44.6332642
          ],
          [
            10.8119627,
            44.6332828
          ],
          [
            10.8118135,
            44.6332948
          ],
          [
            10.8116213,
            44.6332947
          ],
          [
            10.8114552,
            44.6332652
          ],
          [
            10.811341,
            44.6332356
          ],
          [
            10.8107997,
            44.6329769
          ],
          [
            10.8107044,
            44.6328994
          ],
          [
            10.8106596,
            44.6328268
          ],
          [
            10.8106474,
            44.6327481
          ],
          [
            10.8106662,
            44.6326594
          ],
          [
            10.8107372,
            44.6325976
          ],
          [
            10.810833,
            44.6325421
          ],
          [
            10.8130281,
            44.6319207
          ],
          [
            10.813357,
            44.6318879
          ],
          [
            10.8135887,
            44.6318764
          ],
          [
            10.8137548,
            44.6318986
          ],
          [
            10.8138536,
            44.6319231
          ],
          [
            10.8139417,
            44.6319577
          ],
          [
            10.8140078,
            44.6320242
          ],
          [
            10.8140148,
            44.6320883
          ],
          [
            10.8139783,
            44.6321497
          ],
          [
            10.8139171,
            44.6321943
          ],
          [
            10.8138586,
            44.6322532
          ],
          [
            10.8138379,
            44.6323271
          ],
          [
            10.8138554,
            44.6323801
          ],
          [
            10.8139468,
            44.632448
          ],
          [
            10.8141093,
            44.632486
          ],
          [
            10.8143015,
            44.6324977
          ],
          [
            10.8145176,
            44.6324944
          ],
          [
            10.8147567,
            44.6324551
          ],
          [
            10.8149498,
            44.6323864
          ],
          [
            10.8150509,
            44.6323144
          ],
          [
            10.8151107,
            44.6321966
          ],
          [
            10.8151076,
            44.6320643
          ],
          [
            10.8150489,
            44.6319598
          ],
          [
            10.8149498,
            44.6319005
          ],
          [
            10.8148164,
            44.6318596
          ],
          [
            10.8147222,
            44.6318318
          ],
          [
            10.8146739,
            44.6317745
          ],
          [
            10.814644,
            44.6316796
          ],
          [
            10.8146693,
            44.6315913
          ],
          [
            10.8147259,
            44.631521
          ],
          [
            10.8147889,
            44.6314555
          ],
          [
            10.8149176,
            44.631395
          ]
        ]
      }
    }
  ]
}
