{
  "type": "FeatureCollection",
  "bbox": [
    2.3001399,
    45.9299842,
    2.3058554,
    45.9386416
  ],
  "metadata": {
    "schemaVersion": 1,
    "trackId": "fr-circuit-du-mas-du-clos-198415032",
    "layoutId": "main",
    "license": "ODbL-1.0",
    "attribution": "© OpenStreetMap contributors",
    "closed": true,
    "geometryStatus": "draft",
    "timingStatus": "missing",
    "timingMode": "shared",
    "lengthM": 2277.6,
    "reviewedAt": null,
    "notes": [
      "Closed named OSM raceway retained as a course candidate. Named-layout association requires review.",
      "Source way order and shared node IDs are retained. No nearby endpoints are joined and no reference boundaries are read.",
      "Some source ways lack one-way direction tags. Travel direction is provisional."
    ]
  },
  "features": [
    {
      "type": "Feature",
      "id": "trace",
      "properties": {
        "role": "trace",
        "sourceIds": [
          "osm-snapshot"
        ]
      },
      "geometry": {
        "type": "LineString",
        "coordinates": [
          [
            2.3027725,
            45.9363081
          ],
          [
            2.3028752,
            45.9361176
          ],
          [
            2.3030313,
            45.93588
          ],
          [
            2.3031572,
            45.9357073
          ],
          [
            2.3033357,
            45.9354819
          ],
          [
            2.303541,
            45.9352706
          ],
          [
            2.3037743,
            45.935056
          ],
          [
            2.3040095,
            45.9348631
          ],
          [
            2.3044045,
            45.9345798
          ],
          [
            2.3047734,
            45.9343082
          ],
          [
            2.3049952,
            45.9341526
          ],
          [
            2.3052389,
            45.9339805
          ],
          [
            2.3053811,
            45.9338753
          ],
          [
            2.305494,
            45.933775
          ],
          [
            2.3055738,
            45.9336888
          ],
          [
            2.3056399,
            45.9335998
          ],
          [
            2.3057017,
            45.9335043
          ],
          [
            2.3057555,
            45.9334051
          ],
          [
            2.3058033,
            45.9332809
          ],
          [
            2.3058323,
            45.9331634
          ],
          [
            2.3058465,
            45.9330218
          ],
          [
            2.3058554,
            45.9328633
          ],
          [
            2.3058351,
            45.9327006
          ],
          [
            2.3057884,
            45.9325379
          ],
          [
            2.3057091,
            45.932377
          ],
          [
            2.3056347,
            45.9322589
          ],
          [
            2.3054529,
            45.9320292
          ],
          [
            2.3052893,
            45.9318097
          ],
          [
            2.3052433,
            45.9317343
          ],
          [
            2.3051971,
            45.9316257
          ],
          [
            2.3051708,
            45.9315239
          ],
          [
            2.3051585,
            45.9313949
          ],
          [
            2.3051653,
            45.9312515
          ],
          [
            2.3051852,
            45.9311311
          ],
          [
            2.3052085,
            45.9310176
          ],
          [
            2.3053357,
            45.93057
          ],
          [
            2.3053539,
            45.9304963
          ],
          [
            2.3053554,
            45.9304249
          ],
          [
            2.305339,
            45.9303579
          ],
          [
            2.3053054,
            45.9302773
          ],
          [
            2.3052638,
            45.9302162
          ],
          [
            2.3052122,
            45.930162
          ],
          [
            2.3051421,
            45.9301103
          ],
          [
            2.3050687,
            45.9300725
          ],
          [
            2.3049983,
            45.9300386
          ],
          [
            2.304903,
            45.9300097
          ],
          [
            2.3048049,
            45.9299936
          ],
          [
            2.3046969,
            45.9299845
          ],
          [
            2.3045981,
            45.9299842
          ],
          [
            2.3044964,
            45.9299937
          ],
          [
            2.3043896,
            45.9300161
          ],
          [
            2.3042927,
            45.9300504
          ],
          [
            2.3042248,
            45.9300876
          ],
          [
            2.3041568,
            45.9301287
          ],
          [
            2.3040953,
            45.9301793
          ],
          [
            2.3040467,
            45.9302373
          ],
          [
            2.3040075,
            45.9302974
          ],
          [
            2.3039813,
            45.930366
          ],
          [
            2.3039627,
            45.9304355
          ],
          [
            2.3039643,
            45.9304798
          ],
          [
            2.3039694,
            45.9305357
          ],
          [
            2.3039805,
            45.9305926
          ],
          [
            2.3040453,
            45.930771
          ],
          [
            2.3043886,
            45.9315453
          ],
          [
            2.3046469,
            45.9321455
          ],
          [
            2.304676,
            45.9322479
          ],
          [
            2.3046958,
            45.9323321
          ],
          [
            2.3047179,
            45.9324799
          ],
          [
            2.3047233,
            45.9326173
          ],
          [
            2.3047093,
            45.9327168
          ],
          [
            2.3046901,
            45.932768
          ],
          [
            2.3046578,
            45.9328469
          ],
          [
            2.3045837,
            45.9329781
          ],
          [
            2.30452,
            45.9330655
          ],
          [
            2.3036308,
            45.9340172
          ],
          [
            2.3034916,
            45.934184
          ],
          [
            2.3021302,
            45.9356562
          ],
          [
            2.3012847,
            45.9365461
          ],
          [
            2.3003344,
            45.9375802
          ],
          [
            2.3002592,
            45.93768
          ],
          [
            2.3002175,
            45.9377553
          ],
          [
            2.3001766,
            45.9378367
          ],
          [
            2.3001569,
            45.9378891
          ],
          [
            2.3001405,
            45.9379575
          ],
          [
            2.3001399,
            45.9380361
          ],
          [
            2.3001507,
            45.9381247
          ],
          [
            2.3001686,
            45.9381954
          ],
          [
            2.300193,
            45.9382505
          ],
          [
            2.3002292,
            45.9383094
          ],
          [
            2.3002759,
            45.9383683
          ],
          [
            2.300337,
            45.9384231
          ],
          [
            2.3004193,
            45.9384852
          ],
          [
            2.3004991,
            45.938534
          ],
          [
            2.3006152,
            45.9385803
          ],
          [
            2.3007344,
            45.9386102
          ],
          [
            2.3008394,
            45.9386311
          ],
          [
            2.3009577,
            45.9386416
          ],
          [
            2.3010859,
            45.9386406
          ],
          [
            2.3012045,
            45.9386299
          ],
          [
            2.3013474,
            45.9386065
          ],
          [
            2.3014525,
            45.9385684
          ],
          [
            2.3015433,
            45.9385242
          ],
          [
            2.3016119,
            45.93848
          ],
          [
            2.3016697,
            45.9384345
          ],
          [
            2.3017355,
            45.9383734
          ],
          [
            2.3017881,
            45.9383167
          ],
          [
            2.3018684,
            45.9382046
          ],
          [
            2.3019164,
            45.9381194
          ],
          [
            2.3022801,
            45.937333
          ],
          [
            2.3025734,
            45.9367274
          ],
          [
            2.3027725,
            45.9363081
          ]
        ]
      }
    }
  ]
}
