{
  "type": "FeatureCollection",
  "bbox": [
    -0.0455801,
    43.7661469,
    -0.0350739,
    43.77397
  ],
  "metadata": {
    "schemaVersion": 1,
    "trackId": "fr-circuit-paul-armagnac-95798633",
    "layoutId": "main",
    "license": "ODbL-1.0",
    "attribution": "© OpenStreetMap contributors",
    "closed": true,
    "geometryStatus": "draft",
    "timingStatus": "missing",
    "timingMode": "shared",
    "lengthM": 3514,
    "reviewedAt": null,
    "notes": [
      "Closed named OSM raceway retained as a course candidate. Named-layout association requires review.",
      "Source way order and shared node IDs are retained. No nearby endpoints are joined and no reference boundaries are read."
    ]
  },
  "features": [
    {
      "type": "Feature",
      "id": "trace",
      "properties": {
        "role": "trace",
        "sourceIds": [
          "osm-snapshot"
        ]
      },
      "geometry": {
        "type": "LineString",
        "coordinates": [
          [
            -0.035841,
            43.7678863
          ],
          [
            -0.0357807,
            43.767836
          ],
          [
            -0.0357445,
            43.767773
          ],
          [
            -0.0357378,
            43.7676916
          ],
          [
            -0.0357565,
            43.7676277
          ],
          [
            -0.0358088,
            43.7675677
          ],
          [
            -0.0359081,
            43.7675038
          ],
          [
            -0.0360207,
            43.7674863
          ],
          [
            -0.0361535,
            43.7674892
          ],
          [
            -0.0367166,
            43.7675785
          ],
          [
            -0.0369238,
            43.767629
          ],
          [
            -0.037061,
            43.7676857
          ],
          [
            -0.037159,
            43.7677524
          ],
          [
            -0.0372514,
            43.7678515
          ],
          [
            -0.037411,
            43.7681406
          ],
          [
            -0.037593,
            43.7685005
          ],
          [
            -0.0377651,
            43.7687711
          ],
          [
            -0.0378435,
            43.768856
          ],
          [
            -0.0379275,
            43.7688944
          ],
          [
            -0.0380199,
            43.7689086
          ],
          [
            -0.0381319,
            43.7689045
          ],
          [
            -0.0382271,
            43.7688803
          ],
          [
            -0.0383167,
            43.7688418
          ],
          [
            -0.0387795,
            43.7682496
          ],
          [
            -0.0388411,
            43.7681101
          ],
          [
            -0.0388411,
            43.7679827
          ],
          [
            -0.0387683,
            43.7678068
          ],
          [
            -0.0386451,
            43.7676896
          ],
          [
            -0.0384843,
            43.7676055
          ],
          [
            -0.0367597,
            43.7671125
          ],
          [
            -0.0364995,
            43.767065
          ],
          [
            -0.0353381,
            43.7669101
          ],
          [
            -0.0352483,
            43.7668791
          ],
          [
            -0.0351731,
            43.7668336
          ],
          [
            -0.0351208,
            43.7667784
          ],
          [
            -0.0350873,
            43.7667193
          ],
          [
            -0.0350739,
            43.7666341
          ],
          [
            -0.0351088,
            43.7665537
          ],
          [
            -0.0352067,
            43.76642
          ],
          [
            -0.0353475,
            43.7662641
          ],
          [
            -0.0354494,
            43.7661982
          ],
          [
            -0.0355849,
            43.7661566
          ],
          [
            -0.0357217,
            43.7661469
          ],
          [
            -0.0358839,
            43.7661721
          ],
          [
            -0.0360851,
            43.7662234
          ],
          [
            -0.0376742,
            43.7667798
          ],
          [
            -0.03888,
            43.7672219
          ],
          [
            -0.0390748,
            43.7672974
          ],
          [
            -0.0392227,
            43.7673847
          ],
          [
            -0.0393273,
            43.7674747
          ],
          [
            -0.0394075,
            43.7675884
          ],
          [
            -0.0394432,
            43.7677062
          ],
          [
            -0.0394499,
            43.7678146
          ],
          [
            -0.0394245,
            43.7679221
          ],
          [
            -0.0393654,
            43.7680471
          ],
          [
            -0.0390624,
            43.7684626
          ],
          [
            -0.0390288,
            43.7685933
          ],
          [
            -0.0390235,
            43.7686882
          ],
          [
            -0.0390315,
            43.7687957
          ],
          [
            -0.0390597,
            43.7689061
          ],
          [
            -0.0390905,
            43.7689865
          ],
          [
            -0.0392675,
            43.7691918
          ],
          [
            -0.0402626,
            43.770322
          ],
          [
            -0.0405424,
            43.7706528
          ],
          [
            -0.0407025,
            43.770842
          ],
          [
            -0.0409332,
            43.7710725
          ],
          [
            -0.0411236,
            43.7712468
          ],
          [
            -0.0415551,
            43.7715827
          ],
          [
            -0.042113,
            43.7720133
          ],
          [
            -0.042458,
            43.7722331
          ],
          [
            -0.0425898,
            43.7722932
          ],
          [
            -0.0427409,
            43.7723226
          ],
          [
            -0.0428785,
            43.7723324
          ],
          [
            -0.0430568,
            43.7723198
          ],
          [
            -0.0432933,
            43.7722722
          ],
          [
            -0.0440724,
            43.7720245
          ],
          [
            -0.0442894,
            43.7719686
          ],
          [
            -0.0444774,
            43.7719588
          ],
          [
            -0.0447429,
            43.7720203
          ],
          [
            -0.0448336,
            43.7720802
          ],
          [
            -0.0449176,
            43.7721465
          ],
          [
            -0.0452127,
            43.7724912
          ],
          [
            -0.0455345,
            43.7728854
          ],
          [
            -0.0455734,
            43.7729754
          ],
          [
            -0.0455801,
            43.773081
          ],
          [
            -0.0455318,
            43.7731982
          ],
          [
            -0.0454527,
            43.7733124
          ],
          [
            -0.0453521,
            43.7734122
          ],
          [
            -0.0452462,
            43.7734993
          ],
          [
            -0.0450531,
            43.7736078
          ],
          [
            -0.0448224,
            43.7737114
          ],
          [
            -0.0444603,
            43.7738509
          ],
          [
            -0.0442109,
            43.7739274
          ],
          [
            -0.0440365,
            43.7739632
          ],
          [
            -0.0438769,
            43.77397
          ],
          [
            -0.0437428,
            43.7739506
          ],
          [
            -0.0436006,
            43.773908
          ],
          [
            -0.0435129,
            43.7738573
          ],
          [
            -0.0434344,
            43.7737957
          ],
          [
            -0.0433713,
            43.7737066
          ],
          [
            -0.0433458,
            43.7736243
          ],
          [
            -0.0433566,
            43.7735458
          ],
          [
            -0.0433928,
            43.7734732
          ],
          [
            -0.0434585,
            43.7734151
          ],
          [
            -0.0435416,
            43.7733744
          ],
          [
            -0.0436409,
            43.7733434
          ],
          [
            -0.0444657,
            43.7733279
          ],
          [
            -0.0446058,
            43.7732882
          ],
          [
            -0.0446923,
            43.7732267
          ],
          [
            -0.0447406,
            43.7731575
          ],
          [
            -0.0447728,
            43.7730636
          ],
          [
            -0.0447527,
            43.7729793
          ],
          [
            -0.044695,
            43.7728907
          ],
          [
            -0.0445689,
            43.7728229
          ],
          [
            -0.0444429,
            43.7728069
          ],
          [
            -0.0443054,
            43.772804
          ],
          [
            -0.0435772,
            43.7728161
          ],
          [
            -0.0432218,
            43.7728031
          ],
          [
            -0.0429368,
            43.7727693
          ],
          [
            -0.0426477,
            43.772705
          ],
          [
            -0.0424517,
            43.7726292
          ],
          [
            -0.0422874,
            43.772542
          ],
          [
            -0.0408154,
            43.7714948
          ],
          [
            -0.0396498,
            43.7706377
          ],
          [
            -0.0377397,
            43.769254
          ],
          [
            -0.0369294,
            43.7686724
          ],
          [
            -0.035841,
            43.7678863
          ]
        ]
      }
    }
  ]
}
