{
  "type": "FeatureCollection",
  "bbox": [
    -70.4856845,
    44.1529369,
    -70.4833916,
    44.1546753
  ],
  "metadata": {
    "schemaVersion": 1,
    "trackId": "us-oxford-plains-speedway-rl",
    "layoutId": "main",
    "license": "ODbL-1.0",
    "attribution": "© OpenStreetMap contributors",
    "closed": true,
    "geometryStatus": "draft",
    "timingStatus": "missing",
    "timingMode": "shared",
    "lengthM": 583.9,
    "reviewedAt": null,
    "notes": [
      "Draft course identified by matching the expected Racelogic name to uniquely connected OSM raceway ways. Private timing GPS supports the association. Geometry, travel convention and operating status need review."
    ]
  },
  "features": [
    {
      "type": "Feature",
      "id": "trace",
      "properties": {
        "role": "trace",
        "sourceIds": [
          "osm-snapshot"
        ]
      },
      "geometry": {
        "type": "LineString",
        "coordinates": [
          [
            -70.4853999,
            44.1545149
          ],
          [
            -70.48553,
            44.1543982
          ],
          [
            -70.4856195,
            44.1542757
          ],
          [
            -70.4856845,
            44.1540978
          ],
          [
            -70.4856682,
            44.1539315
          ],
          [
            -70.4856195,
            44.1537711
          ],
          [
            -70.4854772,
            44.1535698
          ],
          [
            -70.4852698,
            44.1533511
          ],
          [
            -70.4850584,
            44.1531819
          ],
          [
            -70.4847982,
            44.1530331
          ],
          [
            -70.484595,
            44.152966
          ],
          [
            -70.4844201,
            44.1529398
          ],
          [
            -70.4841965,
            44.1529369
          ],
          [
            -70.4840258,
            44.1529602
          ],
          [
            -70.4838713,
            44.1530127
          ],
          [
            -70.4837371,
            44.1530798
          ],
          [
            -70.4836111,
            44.1531673
          ],
          [
            -70.4834973,
            44.1532665
          ],
          [
            -70.4834241,
            44.1534007
          ],
          [
            -70.4833916,
            44.1535552
          ],
          [
            -70.4833956,
            44.1536778
          ],
          [
            -70.4834404,
            44.1538236
          ],
          [
            -70.4835013,
            44.1539549
          ],
          [
            -70.483555,
            44.1540402
          ],
          [
            -70.4835949,
            44.1541036
          ],
          [
            -70.483729,
            44.154267
          ],
          [
            -70.4838794,
            44.1543836
          ],
          [
            -70.4840339,
            44.1544682
          ],
          [
            -70.4841224,
            44.15451
          ],
          [
            -70.4842006,
            44.154547
          ],
          [
            -70.484412,
            44.1546257
          ],
          [
            -70.484599,
            44.1546607
          ],
          [
            -70.4848186,
            44.1546753
          ],
          [
            -70.4850096,
            44.1546491
          ],
          [
            -70.4851885,
            44.1546024
          ],
          [
            -70.4853999,
            44.1545149
          ]
        ]
      }
    }
  ]
}
