{
  "type": "FeatureCollection",
  "bbox": [
    -64.3539528,
    -36.7353307,
    -64.3455014,
    -36.7194292
  ],
  "metadata": {
    "schemaVersion": 1,
    "trackId": "ar-autodromo-provincia-de-la-pampa-261477881",
    "layoutId": "full-course-chicanes",
    "license": "ODbL-1.0",
    "attribution": "© OpenStreetMap contributors",
    "closed": true,
    "geometryStatus": "draft",
    "timingStatus": "missing",
    "timingMode": "shared",
    "lengthM": 4188.6,
    "reviewedAt": null,
    "notes": [
      "The operator identifies its full circuit, zonal alternatives and two chicanes, with 5222 m total asphalt. Its published aerial views identify the northern loop and northern short-course return. This exact independent public-node route retains the full northern loop and both small straight chicanes. The separately mapped Sector Boxes pit route is excluded. Configuration identity, timing choice and direction remain draft. Exact source coordinates are unchanged; historical alignment and direction remain provisional."
    ]
  },
  "features": [
    {
      "type": "Feature",
      "id": "trace",
      "properties": {
        "role": "trace",
        "sourceIds": [
          "osm-components-261477881"
        ]
      },
      "geometry": {
        "type": "LineString",
        "coordinates": [
          [
            -64.3480082,
            -36.7199572
          ],
          [
            -64.3486929,
            -36.7208932
          ],
          [
            -64.3487528,
            -36.7209859
          ],
          [
            -64.3488045,
            -36.7210873
          ],
          [
            -64.3488414,
            -36.7211908
          ],
          [
            -64.348862,
            -36.7212943
          ],
          [
            -64.3488658,
            -36.7214
          ],
          [
            -64.3488533,
            -36.7215123
          ],
          [
            -64.3488219,
            -36.7216191
          ],
          [
            -64.3487715,
            -36.7217193
          ],
          [
            -64.3485536,
            -36.7220624
          ],
          [
            -64.3485073,
            -36.7221507
          ],
          [
            -64.3484677,
            -36.722241
          ],
          [
            -64.3484366,
            -36.7223372
          ],
          [
            -64.3484161,
            -36.7224334
          ],
          [
            -64.3484,
            -36.7225316
          ],
          [
            -64.3483924,
            -36.7226298
          ],
          [
            -64.3483937,
            -36.722728
          ],
          [
            -64.348403,
            -36.7228261
          ],
          [
            -64.348422,
            -36.7229282
          ],
          [
            -64.3484545,
            -36.7230237
          ],
          [
            -64.3485006,
            -36.7231191
          ],
          [
            -64.3485575,
            -36.7232145
          ],
          [
            -64.3486206,
            -36.7233022
          ],
          [
            -64.3486917,
            -36.72339
          ],
          [
            -64.3487654,
            -36.7234726
          ],
          [
            -64.3488473,
            -36.7235552
          ],
          [
            -64.3523877,
            -36.7267072
          ],
          [
            -64.352448,
            -36.7267594
          ],
          [
            -64.3525158,
            -36.7268116
          ],
          [
            -64.3525837,
            -36.726854
          ],
          [
            -64.3526617,
            -36.7268925
          ],
          [
            -64.3527418,
            -36.7269223
          ],
          [
            -64.3528226,
            -36.7269475
          ],
          [
            -64.353477,
            -36.7271122
          ],
          [
            -64.3535591,
            -36.7271403
          ],
          [
            -64.3536347,
            -36.7271789
          ],
          [
            -64.3537023,
            -36.7272232
          ],
          [
            -64.3537708,
            -36.7272808
          ],
          [
            -64.3538242,
            -36.7273358
          ],
          [
            -64.3538732,
            -36.7273977
          ],
          [
            -64.3539098,
            -36.7274598
          ],
          [
            -64.3539335,
            -36.7275202
          ],
          [
            -64.3539507,
            -36.7275854
          ],
          [
            -64.3539528,
            -36.7276663
          ],
          [
            -64.3539484,
            -36.7277438
          ],
          [
            -64.3539353,
            -36.7278298
          ],
          [
            -64.3539122,
            -36.7279103
          ],
          [
            -64.3538826,
            -36.7279886
          ],
          [
            -64.3538505,
            -36.7280606
          ],
          [
            -64.3532363,
            -36.7292782
          ],
          [
            -64.3532065,
            -36.7293674
          ],
          [
            -64.3531886,
            -36.7294649
          ],
          [
            -64.3531858,
            -36.7295635
          ],
          [
            -64.3531949,
            -36.7296675
          ],
          [
            -64.3532194,
            -36.7297682
          ],
          [
            -64.3532626,
            -36.7298635
          ],
          [
            -64.3533187,
            -36.729956
          ],
          [
            -64.35338,
            -36.7300389
          ],
          [
            -64.3536196,
            -36.7303206
          ],
          [
            -64.3536677,
            -36.7303896
          ],
          [
            -64.3537116,
            -36.7304586
          ],
          [
            -64.3537484,
            -36.7305276
          ],
          [
            -64.3537766,
            -36.7305967
          ],
          [
            -64.3537999,
            -36.7306684
          ],
          [
            -64.3538146,
            -36.7307402
          ],
          [
            -64.3538235,
            -36.7308119
          ],
          [
            -64.3538282,
            -36.7308836
          ],
          [
            -64.3536902,
            -36.7345449
          ],
          [
            -64.3536819,
            -36.7346219
          ],
          [
            -64.3536672,
            -36.7346964
          ],
          [
            -64.3536417,
            -36.7347761
          ],
          [
            -64.3536055,
            -36.7348531
          ],
          [
            -64.3535565,
            -36.7349285
          ],
          [
            -64.353501,
            -36.7349987
          ],
          [
            -64.3534273,
            -36.735068
          ],
          [
            -64.3533493,
            -36.735127
          ],
          [
            -64.3532632,
            -36.7351813
          ],
          [
            -64.3531707,
            -36.7352287
          ],
          [
            -64.353075,
            -36.7352675
          ],
          [
            -64.3529792,
            -36.735296
          ],
          [
            -64.3528771,
            -36.7353167
          ],
          [
            -64.3527706,
            -36.7353289
          ],
          [
            -64.3526642,
            -36.7353307
          ],
          [
            -64.3525641,
            -36.7353265
          ],
          [
            -64.3524617,
            -36.7353155
          ],
          [
            -64.3523635,
            -36.735296
          ],
          [
            -64.3522675,
            -36.7352665
          ],
          [
            -64.3521779,
            -36.7352302
          ],
          [
            -64.3521034,
            -36.7351904
          ],
          [
            -64.3520352,
            -36.7351471
          ],
          [
            -64.3519596,
            -36.7350919
          ],
          [
            -64.3518926,
            -36.7350332
          ],
          [
            -64.3518239,
            -36.7349556
          ],
          [
            -64.351766,
            -36.7348676
          ],
          [
            -64.3517231,
            -36.734784
          ],
          [
            -64.351692,
            -36.7346952
          ],
          [
            -64.351677,
            -36.734609
          ],
          [
            -64.3516727,
            -36.7345227
          ],
          [
            -64.3516813,
            -36.7344339
          ],
          [
            -64.3516995,
            -36.7343503
          ],
          [
            -64.3518013,
            -36.7340612
          ],
          [
            -64.3518274,
            -36.7339715
          ],
          [
            -64.3518476,
            -36.7338849
          ],
          [
            -64.351861,
            -36.7337938
          ],
          [
            -64.3518646,
            -36.7336994
          ],
          [
            -64.3518596,
            -36.7336105
          ],
          [
            -64.3518492,
            -36.7335183
          ],
          [
            -64.3518325,
            -36.7334297
          ],
          [
            -64.3518098,
            -36.7333456
          ],
          [
            -64.3517768,
            -36.7332606
          ],
          [
            -64.351734,
            -36.7331758
          ],
          [
            -64.3516929,
            -36.7330991
          ],
          [
            -64.3516485,
            -36.7330218
          ],
          [
            -64.3514581,
            -36.7326947
          ],
          [
            -64.3503152,
            -36.7307323
          ],
          [
            -64.3481437,
            -36.7270033
          ],
          [
            -64.3480326,
            -36.7268124
          ],
          [
            -64.3479995,
            -36.7267416
          ],
          [
            -64.3479691,
            -36.7266707
          ],
          [
            -64.3479432,
            -36.7265957
          ],
          [
            -64.3479227,
            -36.7265208
          ],
          [
            -64.3479077,
            -36.7264393
          ],
          [
            -64.3479035,
            -36.7263708
          ],
          [
            -64.3479032,
            -36.7262937
          ],
          [
            -64.3479082,
            -36.7262209
          ],
          [
            -64.3479613,
            -36.7257576
          ],
          [
            -64.3479647,
            -36.7256788
          ],
          [
            -64.3479555,
            -36.7255943
          ],
          [
            -64.3479383,
            -36.7255196
          ],
          [
            -64.3479133,
            -36.7254478
          ],
          [
            -64.3478778,
            -36.725374
          ],
          [
            -64.3478369,
            -36.7253055
          ],
          [
            -64.3477909,
            -36.7252379
          ],
          [
            -64.3477367,
            -36.7251759
          ],
          [
            -64.3476772,
            -36.7251183
          ],
          [
            -64.3476188,
            -36.7250684
          ],
          [
            -64.3475422,
            -36.7250164
          ],
          [
            -64.3474576,
            -36.7249688
          ],
          [
            -64.3470472,
            -36.7247743
          ],
          [
            -64.3469777,
            -36.7247358
          ],
          [
            -64.3469125,
            -36.7246922
          ],
          [
            -64.3468511,
            -36.7246451
          ],
          [
            -64.346794,
            -36.7245928
          ],
          [
            -64.3467411,
            -36.7245381
          ],
          [
            -64.3466947,
            -36.7244834
          ],
          [
            -64.3466475,
            -36.7244238
          ],
          [
            -64.3466089,
            -36.7243676
          ],
          [
            -64.3462561,
            -36.7237616
          ],
          [
            -64.3459848,
            -36.7232957
          ],
          [
            -64.3459055,
            -36.7231584
          ],
          [
            -64.3458394,
            -36.723027
          ],
          [
            -64.3457836,
            -36.7228857
          ],
          [
            -64.3457332,
            -36.7227411
          ],
          [
            -64.3456884,
            -36.7225821
          ],
          [
            -64.3456589,
            -36.7224354
          ],
          [
            -64.3456384,
            -36.7222911
          ],
          [
            -64.3456257,
            -36.7221461
          ],
          [
            -64.3455054,
            -36.7206597
          ],
          [
            -64.3455014,
            -36.7205698
          ],
          [
            -64.3455041,
            -36.72048
          ],
          [
            -64.3455123,
            -36.7203966
          ],
          [
            -64.3455286,
            -36.7203046
          ],
          [
            -64.3455571,
            -36.7202125
          ],
          [
            -64.3455923,
            -36.7201312
          ],
          [
            -64.3456365,
            -36.7200418
          ],
          [
            -64.345686,
            -36.7199632
          ],
          [
            -64.345752,
            -36.7198823
          ],
          [
            -64.3458206,
            -36.7198123
          ],
          [
            -64.3459026,
            -36.7197382
          ],
          [
            -64.3459926,
            -36.719675
          ],
          [
            -64.3460879,
            -36.7196182
          ],
          [
            -64.3461885,
            -36.7195678
          ],
          [
            -64.3462913,
            -36.7195246
          ],
          [
            -64.3464049,
            -36.7194879
          ],
          [
            -64.3465204,
            -36.7194604
          ],
          [
            -64.3466467,
            -36.7194394
          ],
          [
            -64.3467727,
            -36.71943
          ],
          [
            -64.3468987,
            -36.7194292
          ],
          [
            -64.3470139,
            -36.7194342
          ],
          [
            -64.3471318,
            -36.7194501
          ],
          [
            -64.3472445,
            -36.7194764
          ],
          [
            -64.3473546,
            -36.7195092
          ],
          [
            -64.3474639,
            -36.7195461
          ],
          [
            -64.3475651,
            -36.7195894
          ],
          [
            -64.3476605,
            -36.7196385
          ],
          [
            -64.3477504,
            -36.7196963
          ],
          [
            -64.3478235,
            -36.7197549
          ],
          [
            -64.3478885,
            -36.7198134
          ],
          [
            -64.3479524,
            -36.7198853
          ],
          [
            -64.3480082,
            -36.7199572
          ]
        ]
      }
    }
  ]
}
