{
  "type": "FeatureCollection",
  "bbox": [
    -64.3539644,
    -36.7353307,
    -64.3461498,
    -36.7225241
  ],
  "metadata": {
    "schemaVersion": 1,
    "trackId": "ar-autodromo-provincia-de-la-pampa-261477881",
    "layoutId": "northern-short-course",
    "license": "ODbL-1.0",
    "attribution": "© OpenStreetMap contributors",
    "closed": true,
    "geometryStatus": "draft",
    "timingStatus": "missing",
    "timingMode": "shared",
    "lengthM": 3399.3,
    "reviewedAt": null,
    "notes": [
      "This exact independent public-node course uses the northern short-course return and bypasses the two straight chicanes. The operator identifies zonal alternatives and its aerial photograph independently confirms the paved northern shortcut. Descriptive naming does not assert an official layout name. The pit route is excluded. Exact source coordinates are unchanged; historical alignment and direction remain provisional."
    ]
  },
  "features": [
    {
      "type": "Feature",
      "id": "trace",
      "properties": {
        "role": "trace",
        "sourceIds": [
          "osm-components-261477881"
        ]
      },
      "geometry": {
        "type": "LineString",
        "coordinates": [
          [
            -64.3488473,
            -36.7235552
          ],
          [
            -64.3523877,
            -36.7267072
          ],
          [
            -64.352448,
            -36.7267594
          ],
          [
            -64.3525158,
            -36.7268116
          ],
          [
            -64.3525837,
            -36.726854
          ],
          [
            -64.3526617,
            -36.7268925
          ],
          [
            -64.3527418,
            -36.7269223
          ],
          [
            -64.3528226,
            -36.7269475
          ],
          [
            -64.353477,
            -36.7271122
          ],
          [
            -64.3535591,
            -36.7271403
          ],
          [
            -64.3536347,
            -36.7271789
          ],
          [
            -64.3537023,
            -36.7272232
          ],
          [
            -64.3537708,
            -36.7272808
          ],
          [
            -64.3538242,
            -36.7273358
          ],
          [
            -64.3538732,
            -36.7273977
          ],
          [
            -64.3539098,
            -36.7274598
          ],
          [
            -64.3539335,
            -36.7275202
          ],
          [
            -64.3539507,
            -36.7275854
          ],
          [
            -64.3539594,
            -36.7276444
          ],
          [
            -64.3539638,
            -36.7277068
          ],
          [
            -64.3539644,
            -36.7277714
          ],
          [
            -64.3538282,
            -36.7308836
          ],
          [
            -64.3536902,
            -36.7345449
          ],
          [
            -64.3536819,
            -36.7346219
          ],
          [
            -64.3536672,
            -36.7346964
          ],
          [
            -64.3536417,
            -36.7347761
          ],
          [
            -64.3536055,
            -36.7348531
          ],
          [
            -64.3535565,
            -36.7349285
          ],
          [
            -64.353501,
            -36.7349987
          ],
          [
            -64.3534273,
            -36.735068
          ],
          [
            -64.3533493,
            -36.735127
          ],
          [
            -64.3532632,
            -36.7351813
          ],
          [
            -64.3531707,
            -36.7352287
          ],
          [
            -64.353075,
            -36.7352675
          ],
          [
            -64.3529792,
            -36.735296
          ],
          [
            -64.3528771,
            -36.7353167
          ],
          [
            -64.3527706,
            -36.7353289
          ],
          [
            -64.3526642,
            -36.7353307
          ],
          [
            -64.3525641,
            -36.7353265
          ],
          [
            -64.3524617,
            -36.7353155
          ],
          [
            -64.3523635,
            -36.735296
          ],
          [
            -64.3522675,
            -36.7352665
          ],
          [
            -64.3521779,
            -36.7352302
          ],
          [
            -64.3521034,
            -36.7351904
          ],
          [
            -64.3520352,
            -36.7351471
          ],
          [
            -64.3519596,
            -36.7350919
          ],
          [
            -64.3518926,
            -36.7350332
          ],
          [
            -64.3518239,
            -36.7349556
          ],
          [
            -64.351766,
            -36.7348676
          ],
          [
            -64.3517231,
            -36.734784
          ],
          [
            -64.351692,
            -36.7346952
          ],
          [
            -64.351677,
            -36.734609
          ],
          [
            -64.3516727,
            -36.7345227
          ],
          [
            -64.3516813,
            -36.7344339
          ],
          [
            -64.3516995,
            -36.7343503
          ],
          [
            -64.3518013,
            -36.7340612
          ],
          [
            -64.3518274,
            -36.7339715
          ],
          [
            -64.3518476,
            -36.7338849
          ],
          [
            -64.351861,
            -36.7337938
          ],
          [
            -64.3518646,
            -36.7336994
          ],
          [
            -64.3518596,
            -36.7336105
          ],
          [
            -64.3518492,
            -36.7335183
          ],
          [
            -64.3518325,
            -36.7334297
          ],
          [
            -64.3518098,
            -36.7333456
          ],
          [
            -64.3517768,
            -36.7332606
          ],
          [
            -64.351734,
            -36.7331758
          ],
          [
            -64.3516929,
            -36.7330991
          ],
          [
            -64.3516485,
            -36.7330218
          ],
          [
            -64.3514581,
            -36.7326947
          ],
          [
            -64.3503152,
            -36.7307323
          ],
          [
            -64.3481437,
            -36.7270033
          ],
          [
            -64.3480326,
            -36.7268124
          ],
          [
            -64.3466089,
            -36.7243676
          ],
          [
            -64.3462561,
            -36.7237616
          ],
          [
            -64.3462209,
            -36.7236887
          ],
          [
            -64.3461912,
            -36.7236168
          ],
          [
            -64.3461712,
            -36.7235482
          ],
          [
            -64.3461566,
            -36.7234612
          ],
          [
            -64.3461498,
            -36.723361
          ],
          [
            -64.3461575,
            -36.7232652
          ],
          [
            -64.346176,
            -36.7231705
          ],
          [
            -64.3462112,
            -36.723075
          ],
          [
            -64.3462545,
            -36.7229958
          ],
          [
            -64.3463095,
            -36.7229172
          ],
          [
            -64.346378,
            -36.7228451
          ],
          [
            -64.3464577,
            -36.7227732
          ],
          [
            -64.3465445,
            -36.7227153
          ],
          [
            -64.3466408,
            -36.7226606
          ],
          [
            -64.3467462,
            -36.7226124
          ],
          [
            -64.3468556,
            -36.7225741
          ],
          [
            -64.3469848,
            -36.7225433
          ],
          [
            -64.3471201,
            -36.7225272
          ],
          [
            -64.3472541,
            -36.7225241
          ],
          [
            -64.3473787,
            -36.7225321
          ],
          [
            -64.3474951,
            -36.7225514
          ],
          [
            -64.3476141,
            -36.7225815
          ],
          [
            -64.3477253,
            -36.7226239
          ],
          [
            -64.3478314,
            -36.7226786
          ],
          [
            -64.3479158,
            -36.7227333
          ],
          [
            -64.3479909,
            -36.7227927
          ],
          [
            -64.3488473,
            -36.7235552
          ]
        ]
      }
    }
  ]
}
