{
  "type": "FeatureCollection",
  "bbox": [
    0.6236983,
    46.1937062,
    0.6399655,
    46.1979425
  ],
  "metadata": {
    "schemaVersion": 1,
    "trackId": "fr-circuit-de-vitesse-du-vigeant-37918062",
    "layoutId": "main",
    "license": "ODbL-1.0",
    "attribution": "© OpenStreetMap contributors",
    "closed": true,
    "geometryStatus": "draft",
    "timingStatus": "missing",
    "timingMode": "shared",
    "lengthM": 3800.7,
    "reviewedAt": null,
    "notes": [
      "Connected OSM course candidate. The selected loop is the longest simple source-node cycle after explicit exclusions; its association with a named circuit configuration requires review.",
      "Source way order and shared node IDs are retained. No nearby endpoints are joined and no reference boundaries are read."
    ]
  },
  "features": [
    {
      "type": "Feature",
      "id": "trace",
      "properties": {
        "role": "trace",
        "sourceIds": [
          "osm-snapshot"
        ]
      },
      "geometry": {
        "type": "LineString",
        "coordinates": [
          [
            0.6394344,
            46.1965795
          ],
          [
            0.6396912,
            46.1965006
          ],
          [
            0.6398403,
            46.1964026
          ],
          [
            0.6399373,
            46.1962339
          ],
          [
            0.6399655,
            46.1960625
          ],
          [
            0.6399326,
            46.1958944
          ],
          [
            0.6398542,
            46.1958112
          ],
          [
            0.6397262,
            46.1957741
          ],
          [
            0.638927,
            46.195867
          ],
          [
            0.6378387,
            46.1960095
          ],
          [
            0.6377176,
            46.1960122
          ],
          [
            0.6375581,
            46.1959869
          ],
          [
            0.6374222,
            46.1959357
          ],
          [
            0.6373479,
            46.1958801
          ],
          [
            0.6372625,
            46.1957699
          ],
          [
            0.6372151,
            46.1956396
          ],
          [
            0.6372284,
            46.1955066
          ],
          [
            0.6376389,
            46.1945163
          ],
          [
            0.6376629,
            46.1944067
          ],
          [
            0.6376198,
            46.1942885
          ],
          [
            0.6374635,
            46.194156
          ],
          [
            0.6369916,
            46.1937897
          ],
          [
            0.6369013,
            46.1937281
          ],
          [
            0.6368308,
            46.1937062
          ],
          [
            0.6367442,
            46.1937066
          ],
          [
            0.636575,
            46.1937304
          ],
          [
            0.6354246,
            46.1940153
          ],
          [
            0.6338327,
            46.1943983
          ],
          [
            0.6329988,
            46.1945711
          ],
          [
            0.6328837,
            46.1946008
          ],
          [
            0.6325959,
            46.1946749
          ],
          [
            0.6323692,
            46.1947317
          ],
          [
            0.6320074,
            46.1948334
          ],
          [
            0.6295238,
            46.1954355
          ],
          [
            0.6293446,
            46.1954247
          ],
          [
            0.6291766,
            46.1953663
          ],
          [
            0.6290482,
            46.1952728
          ],
          [
            0.6287223,
            46.1949991
          ],
          [
            0.628597,
            46.1949101
          ],
          [
            0.6284543,
            46.194861
          ],
          [
            0.6242828,
            46.1948155
          ],
          [
            0.6241292,
            46.1948322
          ],
          [
            0.6239876,
            46.1948828
          ],
          [
            0.6238945,
            46.1949474
          ],
          [
            0.6237872,
            46.1950377
          ],
          [
            0.6237324,
            46.1951364
          ],
          [
            0.6236983,
            46.1952627
          ],
          [
            0.6237451,
            46.1953695
          ],
          [
            0.6238271,
            46.1954253
          ],
          [
            0.6239375,
            46.1954671
          ],
          [
            0.6243341,
            46.1955859
          ],
          [
            0.6250145,
            46.1957792
          ],
          [
            0.625172,
            46.1958036
          ],
          [
            0.6253376,
            46.1958057
          ],
          [
            0.6260123,
            46.195728
          ],
          [
            0.6262525,
            46.1957409
          ],
          [
            0.6264906,
            46.1957873
          ],
          [
            0.6267527,
            46.1958821
          ],
          [
            0.6269236,
            46.1959577
          ],
          [
            0.6279887,
            46.1965137
          ],
          [
            0.628327,
            46.1966945
          ],
          [
            0.6284906,
            46.1967779
          ],
          [
            0.6288239,
            46.1969204
          ],
          [
            0.6290559,
            46.1970153
          ],
          [
            0.6293367,
            46.1971147
          ],
          [
            0.6296458,
            46.1972057
          ],
          [
            0.6299896,
            46.197287
          ],
          [
            0.6308144,
            46.1974619
          ],
          [
            0.630976,
            46.1974737
          ],
          [
            0.6310939,
            46.1974437
          ],
          [
            0.6311883,
            46.1973555
          ],
          [
            0.6311843,
            46.1972333
          ],
          [
            0.63109,
            46.197119
          ],
          [
            0.630427,
            46.1964734
          ],
          [
            0.6303283,
            46.1963476
          ],
          [
            0.6303221,
            46.1962827
          ],
          [
            0.630338,
            46.1961949
          ],
          [
            0.6303874,
            46.1961273
          ],
          [
            0.6304772,
            46.1960723
          ],
          [
            0.6306845,
            46.1960492
          ],
          [
            0.6308797,
            46.1960402
          ],
          [
            0.6317408,
            46.1959936
          ],
          [
            0.6319639,
            46.1959851
          ],
          [
            0.6327036,
            46.1959621
          ],
          [
            0.6329276,
            46.1959308
          ],
          [
            0.6330677,
            46.1958874
          ],
          [
            0.6339199,
            46.1954884
          ],
          [
            0.6340789,
            46.1954701
          ],
          [
            0.6342019,
            46.1955002
          ],
          [
            0.6343061,
            46.1955355
          ],
          [
            0.6353169,
            46.1962525
          ],
          [
            0.6353548,
            46.1963337
          ],
          [
            0.6353455,
            46.1963715
          ],
          [
            0.6352884,
            46.1964255
          ],
          [
            0.6351641,
            46.1964616
          ],
          [
            0.6334783,
            46.1966252
          ],
          [
            0.6331719,
            46.1966992
          ],
          [
            0.6331106,
            46.1967382
          ],
          [
            0.6330327,
            46.196794
          ],
          [
            0.6327903,
            46.1972011
          ],
          [
            0.6325955,
            46.1976098
          ],
          [
            0.6326026,
            46.1977589
          ],
          [
            0.6327128,
            46.1978576
          ],
          [
            0.6328137,
            46.1979007
          ],
          [
            0.6329307,
            46.1979354
          ],
          [
            0.6330736,
            46.1979425
          ],
          [
            0.6331556,
            46.1979378
          ],
          [
            0.6332992,
            46.1979158
          ],
          [
            0.6334858,
            46.1977746
          ],
          [
            0.6339153,
            46.1977257
          ],
          [
            0.6363557,
            46.1973055
          ],
          [
            0.6366185,
            46.1972355
          ],
          [
            0.6368012,
            46.1971738
          ],
          [
            0.6370867,
            46.1971008
          ],
          [
            0.6384508,
            46.1967555
          ],
          [
            0.6394344,
            46.1965795
          ]
        ]
      }
    }
  ]
}
