{
  "type": "FeatureCollection",
  "bbox": [
    150.7299553,
    -34.009027,
    150.738011,
    -34.0034487
  ],
  "metadata": {
    "schemaVersion": 1,
    "trackId": "au-oran-park-raceway-692abacd",
    "layoutId": "oran-park-raceway",
    "license": "ODbL-1.0",
    "attribution": "© State of New South Wales (Spatial Services, a business unit of the Department of Customer Service NSW). For current information go to spatial.nsw.gov.au. Modified independent course digitization by OpenRacetrackDB.",
    "closed": true,
    "geometryStatus": "draft",
    "timingStatus": "missing",
    "timingMode": "shared",
    "lengthM": 2628.1,
    "reviewedAt": null,
    "notes": [
      "The former circuit owner and championship organizer identify the 2.6 km Grand Prix course and its over-under northern loop, before closure for housing in 2010. The full western technical return, southern main straight, eastern sweep and two-level northern crossing are independently digitized from the original-grid NSW Historical Imagery 2005 tiles. The northern standalone oval, internal short connectors, pits, southern dirt course and neighboring fields are excluded. Dataset-specific metadata declares Creative Commons reuse and identifies Spatial Services aerial capture; the linked copyright policy specifies CC BY 4.0 attribution. The exact 49 tile requests, hashes, Web Mercator origin and extent are pinned. Historical rectification targets +/-20 m for 95 percent of the 100k map sheet; detailed pavement pixels do not imply equivalent GPS accuracy. The figure-eight crossing is traversed twice as distinct sections of one course, with no turn or invented junction at the crossing. Corner placement, racing direction and historical-year correspondence remain draft; no vertices are fitted to private diagrams, timing locations or nominal distance. The supplied timing marker is roughly 40 m from the unchanged draft trace. Closed-course timing-proximity validation accounts for the provider-documented 20 m rectification uncertainty; neither geometry nor marker is shifted and timing remains unverified. Independently digitized aerial centerline: 2628.1 m. Direction, historical configuration and fine corner alignment remain draft; no course coordinates come from the comparison catalogue."
    ]
  },
  "features": [
    {
      "type": "Feature",
      "id": "trace",
      "properties": {
        "role": "trace",
        "sourceIds": [
          "nsw-historical-oran-2005"
        ]
      },
      "geometry": {
        "type": "LineString",
        "coordinates": [
          [
            150.7305321,
            -34.0089473
          ],
          [
            150.7302821,
            -34.0089154
          ],
          [
            150.7300899,
            -34.0088198
          ],
          [
            150.7299937,
            -34.0086604
          ],
          [
            150.7299553,
            -34.008501
          ],
          [
            150.7299937,
            -34.008246
          ],
          [
            150.7300514,
            -34.0080787
          ],
          [
            150.7301091,
            -34.0079113
          ],
          [
            150.7301764,
            -34.0077281
          ],
          [
            150.7302437,
            -34.0075448
          ],
          [
            150.7303206,
            -34.0073854
          ],
          [
            150.7303975,
            -34.007226
          ],
          [
            150.730609,
            -34.0070029
          ],
          [
            150.7308589,
            -34.0068435
          ],
          [
            150.7310512,
            -34.0066841
          ],
          [
            150.7311858,
            -34.006461
          ],
          [
            150.731253,
            -34.0062777
          ],
          [
            150.7313203,
            -34.0060944
          ],
          [
            150.7314261,
            -34.0058235
          ],
          [
            150.7315318,
            -34.0055525
          ],
          [
            150.7316183,
            -34.0054091
          ],
          [
            150.7317049,
            -34.0052656
          ],
          [
            150.7318971,
            -34.0050266
          ],
          [
            150.7321086,
            -34.0048831
          ],
          [
            150.7323393,
            -34.0048034
          ],
          [
            150.7326277,
            -34.0048034
          ],
          [
            150.7329738,
            -34.0048672
          ],
          [
            150.7333391,
            -34.0049628
          ],
          [
            150.7336659,
            -34.0050744
          ],
          [
            150.7339351,
            -34.005186
          ],
          [
            150.7341081,
            -34.0053294
          ],
          [
            150.7343004,
            -34.0053932
          ],
          [
            150.7345888,
            -34.0054091
          ],
          [
            150.7348387,
            -34.0053772
          ],
          [
            150.735031,
            -34.0053294
          ],
          [
            150.7352232,
            -34.0052816
          ],
          [
            150.7354347,
            -34.0052099
          ],
          [
            150.7356462,
            -34.0051381
          ],
          [
            150.7358769,
            -34.0050584
          ],
          [
            150.7361076,
            -34.0049788
          ],
          [
            150.7363095,
            -34.0048831
          ],
          [
            150.7365114,
            -34.0047875
          ],
          [
            150.7366075,
            -34.0046759
          ],
          [
            150.7366075,
            -34.0045325
          ],
          [
            150.7365114,
            -34.0042775
          ],
          [
            150.7363768,
            -34.0040543
          ],
          [
            150.7361845,
            -34.0038471
          ],
          [
            150.7359538,
            -34.0036878
          ],
          [
            150.7357231,
            -34.0035602
          ],
          [
            150.7355116,
            -34.0034487
          ],
          [
            150.7353578,
            -34.0034487
          ],
          [
            150.7352809,
            -34.0035124
          ],
          [
            150.7352425,
            -34.0036559
          ],
          [
            150.7352425,
            -34.0038471
          ],
          [
            150.7351463,
            -34.0041181
          ],
          [
            150.7349925,
            -34.0043412
          ],
          [
            150.7347618,
            -34.0045962
          ],
          [
            150.7345503,
            -34.0048034
          ],
          [
            150.7344157,
            -34.004915
          ],
          [
            150.7344157,
            -34.0050106
          ],
          [
            150.7345311,
            -34.0050903
          ],
          [
            150.7347426,
            -34.0051222
          ],
          [
            150.7350502,
            -34.0050744
          ],
          [
            150.7352905,
            -34.0050186
          ],
          [
            150.7355308,
            -34.0049628
          ],
          [
            150.7357712,
            -34.0048991
          ],
          [
            150.7360115,
            -34.0048353
          ],
          [
            150.7362518,
            -34.0047556
          ],
          [
            150.7364922,
            -34.0046759
          ],
          [
            150.7367133,
            -34.0046042
          ],
          [
            150.7369344,
            -34.0045325
          ],
          [
            150.7371266,
            -34.0044847
          ],
          [
            150.7373189,
            -34.0044369
          ],
          [
            150.7375496,
            -34.0044528
          ],
          [
            150.7377611,
            -34.0045165
          ],
          [
            150.7379149,
            -34.0046441
          ],
          [
            150.738011,
            -34.0047875
          ],
          [
            150.7379918,
            -34.0049469
          ],
          [
            150.7378957,
            -34.0052019
          ],
          [
            150.7378091,
            -34.0053533
          ],
          [
            150.7377226,
            -34.0055047
          ],
          [
            150.7376169,
            -34.0056641
          ],
          [
            150.7375111,
            -34.0058235
          ],
          [
            150.7373669,
            -34.0059908
          ],
          [
            150.7372227,
            -34.0061582
          ],
          [
            150.7370593,
            -34.0062538
          ],
          [
            150.7368959,
            -34.0063494
          ],
          [
            150.7365979,
            -34.0064929
          ],
          [
            150.7362999,
            -34.0066363
          ],
          [
            150.7360756,
            -34.0067479
          ],
          [
            150.7358513,
            -34.0068594
          ],
          [
            150.735627,
            -34.006971
          ],
          [
            150.7354027,
            -34.0070826
          ],
          [
            150.7351784,
            -34.0071941
          ],
          [
            150.7349541,
            -34.0073057
          ],
          [
            150.7347298,
            -34.0074173
          ],
          [
            150.7345055,
            -34.0075288
          ],
          [
            150.7342812,
            -34.0076404
          ],
          [
            150.7340568,
            -34.007752
          ],
          [
            150.7338325,
            -34.0078635
          ],
          [
            150.7336082,
            -34.0079751
          ],
          [
            150.7333839,
            -34.0080867
          ],
          [
            150.7331596,
            -34.0081982
          ],
          [
            150.7329353,
            -34.0083098
          ],
          [
            150.7325989,
            -34.0084612
          ],
          [
            150.7322624,
            -34.0086126
          ],
          [
            150.731926,
            -34.008764
          ],
          [
            150.7315895,
            -34.0089154
          ],
          [
            150.7313011,
            -34.0089712
          ],
          [
            150.7310127,
            -34.009027
          ],
          [
            150.7307628,
            -34.009027
          ],
          [
            150.7305321,
            -34.0089473
          ]
        ]
      }
    }
  ]
}
