{
  "type": "FeatureCollection",
  "bbox": [
    -0.3624021,
    51.3754788,
    -0.3595562,
    51.376607
  ],
  "metadata": {
    "schemaVersion": 1,
    "trackId": "gb-daytona-sandown-park-76f92956",
    "layoutId": "daytona-sandown-park",
    "license": "ODbL-1.0",
    "attribution": "© OpenStreetMap contributors",
    "closed": true,
    "geometryStatus": "draft",
    "timingStatus": "missing",
    "timingMode": "shared",
    "lengthM": 787.9,
    "reviewedAt": null,
    "notes": [
      "Draft configuration: Full kart configuration retains the direct pointed southwestern return and both infield hairpins. Branch identity was checked against catalogue layout facts and circuit identification references. Independent source distance 787.9 m; no coordinates are changed to match a diagram or distance. Travel direction and historical alignment remain provisional."
    ]
  },
  "features": [
    {
      "type": "Feature",
      "id": "trace",
      "properties": {
        "role": "trace",
        "sourceIds": [
          "osm-selection-59996378"
        ]
      },
      "geometry": {
        "type": "LineString",
        "coordinates": [
          [
            -0.3617369,
            51.3762236
          ],
          [
            -0.3612471,
            51.3763346
          ],
          [
            -0.3608908,
            51.3764153
          ],
          [
            -0.3607399,
            51.3764495
          ],
          [
            -0.360082,
            51.3765986
          ],
          [
            -0.3599559,
            51.376607
          ],
          [
            -0.3598272,
            51.3765952
          ],
          [
            -0.3596984,
            51.3765567
          ],
          [
            -0.3596153,
            51.3764998
          ],
          [
            -0.359575,
            51.3764395
          ],
          [
            -0.3595562,
            51.3763542
          ],
          [
            -0.3595723,
            51.3762654
          ],
          [
            -0.3596179,
            51.3761985
          ],
          [
            -0.3597279,
            51.3761298
          ],
          [
            -0.3598888,
            51.3760779
          ],
          [
            -0.3600981,
            51.3759975
          ],
          [
            -0.3602161,
            51.3759808
          ],
          [
            -0.3603099,
            51.3760026
          ],
          [
            -0.3603582,
            51.3760578
          ],
          [
            -0.3603582,
            51.3761315
          ],
          [
            -0.3603314,
            51.3761934
          ],
          [
            -0.3602536,
            51.3762319
          ],
          [
            -0.3601571,
            51.3762453
          ],
          [
            -0.3600149,
            51.3762537
          ],
          [
            -0.3599023,
            51.3762771
          ],
          [
            -0.3598513,
            51.3763274
          ],
          [
            -0.359854,
            51.3763843
          ],
          [
            -0.3599076,
            51.3764261
          ],
          [
            -0.3600095,
            51.3764295
          ],
          [
            -0.3601437,
            51.3764061
          ],
          [
            -0.3607308,
            51.3762682
          ],
          [
            -0.3609993,
            51.3762051
          ],
          [
            -0.3611227,
            51.3761566
          ],
          [
            -0.3612246,
            51.3760846
          ],
          [
            -0.3612997,
            51.376016
          ],
          [
            -0.3613426,
            51.375954
          ],
          [
            -0.3613488,
            51.3759293
          ],
          [
            -0.361356,
            51.3759004
          ],
          [
            -0.3613211,
            51.3758569
          ],
          [
            -0.3612514,
            51.3758368
          ],
          [
            -0.3611897,
            51.3758385
          ],
          [
            -0.3611253,
            51.3758603
          ],
          [
            -0.3610583,
            51.3759272
          ],
          [
            -0.3609725,
            51.3760126
          ],
          [
            -0.3609027,
            51.3760478
          ],
          [
            -0.3608196,
            51.3760612
          ],
          [
            -0.3607337,
            51.3760612
          ],
          [
            -0.360664,
            51.3760394
          ],
          [
            -0.3605969,
            51.3759908
          ],
          [
            -0.3605701,
            51.3759373
          ],
          [
            -0.3605862,
            51.375877
          ],
          [
            -0.3606425,
            51.3758234
          ],
          [
            -0.3607954,
            51.3757648
          ],
          [
            -0.3616125,
            51.3755036
          ],
          [
            -0.3617317,
            51.3754788
          ],
          [
            -0.3618205,
            51.3754926
          ],
          [
            -0.361876,
            51.3755376
          ],
          [
            -0.3618844,
            51.3755754
          ],
          [
            -0.3618274,
            51.3756344
          ],
          [
            -0.3617252,
            51.3757066
          ],
          [
            -0.3616969,
            51.3757298
          ],
          [
            -0.3616746,
            51.3757677
          ],
          [
            -0.3616584,
            51.3758108
          ],
          [
            -0.3616618,
            51.3758402
          ],
          [
            -0.3617208,
            51.3758937
          ],
          [
            -0.3618254,
            51.3759205
          ],
          [
            -0.3619515,
            51.3759272
          ],
          [
            -0.3620051,
            51.3759276
          ],
          [
            -0.3622143,
            51.3759289
          ],
          [
            -0.3623162,
            51.3759356
          ],
          [
            -0.3623833,
            51.375959
          ],
          [
            -0.3624021,
            51.3759975
          ],
          [
            -0.362394,
            51.3760478
          ],
          [
            -0.3623538,
            51.3760779
          ],
          [
            -0.3617369,
            51.3762236
          ]
        ]
      }
    }
  ]
}
