{
  "type": "FeatureCollection",
  "bbox": [
    -65.2799835,
    -43.3067123,
    -65.2649063,
    -43.2955454
  ],
  "metadata": {
    "schemaVersion": 1,
    "trackId": "ar-autodromo-asociacion-volantes-mar-y-valle-118131873",
    "layoutId": "main",
    "license": "ODbL-1.0",
    "attribution": "© OpenStreetMap contributors",
    "closed": true,
    "geometryStatus": "draft",
    "timingStatus": "missing",
    "timingMode": "shared",
    "lengthM": 3935.8,
    "reviewedAt": null,
    "notes": [
      "Closed named OSM raceway retained as a course candidate. Named-layout association requires review.",
      "Source way order and shared node IDs are retained. No nearby endpoints are joined and no Racelogic boundaries are read."
    ]
  },
  "features": [
    {
      "type": "Feature",
      "id": "trace",
      "properties": {
        "role": "trace",
        "sourceIds": [
          "osm-snapshot"
        ]
      },
      "geometry": {
        "type": "LineString",
        "coordinates": [
          [
            -65.2728014,
            -43.3012193
          ],
          [
            -65.2719139,
            -43.3004772
          ],
          [
            -65.2717105,
            -43.3002957
          ],
          [
            -65.2713946,
            -43.3000138
          ],
          [
            -65.269288,
            -43.2979938
          ],
          [
            -65.2689203,
            -43.2976363
          ],
          [
            -65.2685505,
            -43.2972477
          ],
          [
            -65.2684473,
            -43.2971037
          ],
          [
            -65.268344,
            -43.2969258
          ],
          [
            -65.2682037,
            -43.2966438
          ],
          [
            -65.2680635,
            -43.29629
          ],
          [
            -65.2679398,
            -43.2959639
          ],
          [
            -65.2678718,
            -43.2958574
          ],
          [
            -65.2677791,
            -43.2957644
          ],
          [
            -65.2675696,
            -43.2956349
          ],
          [
            -65.267425,
            -43.2955789
          ],
          [
            -65.2672495,
            -43.2955454
          ],
          [
            -65.2670155,
            -43.295546
          ],
          [
            -65.2667631,
            -43.2956163
          ],
          [
            -65.2665707,
            -43.295703
          ],
          [
            -65.2651718,
            -43.2965357
          ],
          [
            -65.2649974,
            -43.2966772
          ],
          [
            -65.264945,
            -43.2967535
          ],
          [
            -65.2649172,
            -43.2968297
          ],
          [
            -65.2649063,
            -43.2969625
          ],
          [
            -65.2649693,
            -43.2971043
          ],
          [
            -65.2650589,
            -43.2972047
          ],
          [
            -65.2651732,
            -43.2972917
          ],
          [
            -65.2655487,
            -43.2974948
          ],
          [
            -65.2659027,
            -43.297729
          ],
          [
            -65.2660583,
            -43.2978438
          ],
          [
            -65.2662139,
            -43.2979789
          ],
          [
            -65.2669457,
            -43.2987659
          ],
          [
            -65.2670592,
            -43.2988836
          ],
          [
            -65.2671913,
            -43.2990038
          ],
          [
            -65.2674369,
            -43.299197
          ],
          [
            -65.2679049,
            -43.2995488
          ],
          [
            -65.2692988,
            -43.3006279
          ],
          [
            -65.2699576,
            -43.3011149
          ],
          [
            -65.2702803,
            -43.301349
          ],
          [
            -65.2705161,
            -43.301516
          ],
          [
            -65.2708272,
            -43.301719
          ],
          [
            -65.2712843,
            -43.3019634
          ],
          [
            -65.2716276,
            -43.3021742
          ],
          [
            -65.2719538,
            -43.3024373
          ],
          [
            -65.2721162,
            -43.3026111
          ],
          [
            -65.2722542,
            -43.3027731
          ],
          [
            -65.2723661,
            -43.3029402
          ],
          [
            -65.2724537,
            -43.3030955
          ],
          [
            -65.2725975,
            -43.3034836
          ],
          [
            -65.2727386,
            -43.3039504
          ],
          [
            -65.2730538,
            -43.3051525
          ],
          [
            -65.2731149,
            -43.3053072
          ],
          [
            -65.2731842,
            -43.3054324
          ],
          [
            -65.2733746,
            -43.3056186
          ],
          [
            -65.2736182,
            -43.3057564
          ],
          [
            -65.2739014,
            -43.3058239
          ],
          [
            -65.2741062,
            -43.3058326
          ],
          [
            -65.2743273,
            -43.3058177
          ],
          [
            -65.2746036,
            -43.3057505
          ],
          [
            -65.2747814,
            -43.3056789
          ],
          [
            -65.2749099,
            -43.3055893
          ],
          [
            -65.27514,
            -43.3053446
          ],
          [
            -65.2754752,
            -43.3049011
          ],
          [
            -65.2757892,
            -43.304506
          ],
          [
            -65.2758964,
            -43.3044112
          ],
          [
            -65.2760394,
            -43.3043281
          ],
          [
            -65.2762439,
            -43.3042451
          ],
          [
            -65.2764618,
            -43.3042238
          ],
          [
            -65.2767622,
            -43.3042796
          ],
          [
            -65.2769033,
            -43.3043392
          ],
          [
            -65.2770444,
            -43.3044346
          ],
          [
            -65.2771378,
            -43.3045357
          ],
          [
            -65.2772066,
            -43.3046727
          ],
          [
            -65.2774151,
            -43.3052431
          ],
          [
            -65.2777152,
            -43.3060991
          ],
          [
            -65.277887,
            -43.3063557
          ],
          [
            -65.2781014,
            -43.3065207
          ],
          [
            -65.2782467,
            -43.3065942
          ],
          [
            -65.2784082,
            -43.3066558
          ],
          [
            -65.2787945,
            -43.3067104
          ],
          [
            -65.2790018,
            -43.3067123
          ],
          [
            -65.2792172,
            -43.3066847
          ],
          [
            -65.2795605,
            -43.3065519
          ],
          [
            -65.279818,
            -43.3063567
          ],
          [
            -65.2799532,
            -43.3061249
          ],
          [
            -65.2799835,
            -43.305911
          ],
          [
            -65.2799563,
            -43.3057975
          ],
          [
            -65.2798824,
            -43.3056228
          ],
          [
            -65.2791312,
            -43.304294
          ],
          [
            -65.2789445,
            -43.3040298
          ],
          [
            -65.2787891,
            -43.3038895
          ],
          [
            -65.2786128,
            -43.303766
          ],
          [
            -65.2784365,
            -43.3036694
          ],
          [
            -65.2736275,
            -43.3016956
          ],
          [
            -65.2732734,
            -43.3015316
          ],
          [
            -65.2730159,
            -43.3013755
          ],
          [
            -65.2728014,
            -43.3012193
          ]
        ]
      }
    }
  ]
}
