{
  "type": "FeatureCollection",
  "bbox": [
    -1.0375551,
    37.6424872,
    -1.0310644,
    37.6487826
  ],
  "metadata": {
    "schemaVersion": 1,
    "trackId": "es-circuito-de-cartagena-23170458",
    "layoutId": "main",
    "license": "ODbL-1.0",
    "attribution": "© OpenStreetMap contributors",
    "closed": true,
    "geometryStatus": "draft",
    "timingStatus": "missing",
    "timingMode": "shared",
    "lengthM": 3496.6,
    "reviewedAt": null,
    "notes": [
      "Connected OSM course candidate. The selected loop is the longest simple source-node cycle after explicit exclusions; its association with a named circuit configuration requires review.",
      "Source way order and shared node IDs are retained. No nearby endpoints are joined and no reference boundaries are read.",
      "Some source ways lack one-way direction tags. Travel direction is provisional."
    ]
  },
  "features": [
    {
      "type": "Feature",
      "id": "trace",
      "properties": {
        "role": "trace",
        "sourceIds": [
          "osm-snapshot"
        ]
      },
      "geometry": {
        "type": "LineString",
        "coordinates": [
          [
            -1.033593,
            37.6426233
          ],
          [
            -1.0335532,
            37.6425768
          ],
          [
            -1.0334993,
            37.6425244
          ],
          [
            -1.0334427,
            37.6424957
          ],
          [
            -1.0333684,
            37.6424872
          ],
          [
            -1.0332999,
            37.6424903
          ],
          [
            -1.0332342,
            37.6424998
          ],
          [
            -1.0331698,
            37.6425151
          ],
          [
            -1.0331069,
            37.6425439
          ],
          [
            -1.0330502,
            37.6425748
          ],
          [
            -1.0330001,
            37.642604
          ],
          [
            -1.0329642,
            37.6426445
          ],
          [
            -1.0329375,
            37.6426883
          ],
          [
            -1.0329148,
            37.6427316
          ],
          [
            -1.0329186,
            37.642786
          ],
          [
            -1.0329258,
            37.6428534
          ],
          [
            -1.0329508,
            37.6429209
          ],
          [
            -1.0329807,
            37.6429669
          ],
          [
            -1.0332152,
            37.6433071
          ],
          [
            -1.0333188,
            37.6434282
          ],
          [
            -1.0333899,
            37.6435115
          ],
          [
            -1.0334773,
            37.643596
          ],
          [
            -1.0335338,
            37.6436557
          ],
          [
            -1.033671,
            37.6437844
          ],
          [
            -1.0347068,
            37.644708
          ],
          [
            -1.0347603,
            37.6447661
          ],
          [
            -1.034792,
            37.6448081
          ],
          [
            -1.034813,
            37.6448476
          ],
          [
            -1.0348263,
            37.6448963
          ],
          [
            -1.0348315,
            37.644941
          ],
          [
            -1.0348298,
            37.6449911
          ],
          [
            -1.0348212,
            37.6450337
          ],
          [
            -1.0348002,
            37.6450761
          ],
          [
            -1.0347701,
            37.6451177
          ],
          [
            -1.0347264,
            37.6451529
          ],
          [
            -1.034663,
            37.6451815
          ],
          [
            -1.0346064,
            37.645197
          ],
          [
            -1.0345486,
            37.6452043
          ],
          [
            -1.0344884,
            37.6452053
          ],
          [
            -1.0344358,
            37.6451994
          ],
          [
            -1.0342272,
            37.6451171
          ],
          [
            -1.0338422,
            37.6449332
          ],
          [
            -1.0336964,
            37.6448453
          ],
          [
            -1.0336012,
            37.6447743
          ],
          [
            -1.0335315,
            37.6447046
          ],
          [
            -1.0334212,
            37.6445857
          ],
          [
            -1.0321534,
            37.6428397
          ],
          [
            -1.0320919,
            37.6427589
          ],
          [
            -1.0320375,
            37.6427156
          ],
          [
            -1.0319775,
            37.6426729
          ],
          [
            -1.0319093,
            37.642633
          ],
          [
            -1.0318112,
            37.6426016
          ],
          [
            -1.0317097,
            37.6425844
          ],
          [
            -1.0316349,
            37.6425742
          ],
          [
            -1.0315702,
            37.6425741
          ],
          [
            -1.0314734,
            37.6425782
          ],
          [
            -1.0313594,
            37.6425912
          ],
          [
            -1.0312704,
            37.6426136
          ],
          [
            -1.0312014,
            37.642645
          ],
          [
            -1.0311528,
            37.6426827
          ],
          [
            -1.0311035,
            37.6427418
          ],
          [
            -1.0310723,
            37.6428081
          ],
          [
            -1.0310644,
            37.6428823
          ],
          [
            -1.0310695,
            37.642953
          ],
          [
            -1.0310798,
            37.643007
          ],
          [
            -1.0311096,
            37.643054
          ],
          [
            -1.0311526,
            37.643097
          ],
          [
            -1.0312029,
            37.6431414
          ],
          [
            -1.0323742,
            37.6440454
          ],
          [
            -1.0324218,
            37.6440918
          ],
          [
            -1.0324556,
            37.6441297
          ],
          [
            -1.0325093,
            37.6442072
          ],
          [
            -1.0325342,
            37.6442863
          ],
          [
            -1.0325487,
            37.6443749
          ],
          [
            -1.0325459,
            37.6444688
          ],
          [
            -1.0325133,
            37.6445845
          ],
          [
            -1.0324056,
            37.6447848
          ],
          [
            -1.0322802,
            37.645034
          ],
          [
            -1.0322129,
            37.6451959
          ],
          [
            -1.0321818,
            37.6453062
          ],
          [
            -1.0321646,
            37.6454279
          ],
          [
            -1.0321566,
            37.6455474
          ],
          [
            -1.0321619,
            37.6456489
          ],
          [
            -1.0321703,
            37.6457483
          ],
          [
            -1.032198,
            37.6458378
          ],
          [
            -1.0322345,
            37.645924
          ],
          [
            -1.0322724,
            37.6459932
          ],
          [
            -1.0323162,
            37.6460331
          ],
          [
            -1.0324028,
            37.6460987
          ],
          [
            -1.0324759,
            37.6461414
          ],
          [
            -1.0325577,
            37.6461699
          ],
          [
            -1.0326455,
            37.6461941
          ],
          [
            -1.0327264,
            37.6462079
          ],
          [
            -1.0328057,
            37.6462083
          ],
          [
            -1.0328778,
            37.6462002
          ],
          [
            -1.0330103,
            37.6461803
          ],
          [
            -1.0333767,
            37.6461297
          ],
          [
            -1.0335435,
            37.6461122
          ],
          [
            -1.033705,
            37.646105
          ],
          [
            -1.0338525,
            37.6461141
          ],
          [
            -1.0340027,
            37.6461359
          ],
          [
            -1.0341815,
            37.6461889
          ],
          [
            -1.0344104,
            37.6462759
          ],
          [
            -1.0351476,
            37.6466375
          ],
          [
            -1.0352435,
            37.6466929
          ],
          [
            -1.0353099,
            37.6467515
          ],
          [
            -1.0353589,
            37.6468262
          ],
          [
            -1.0353896,
            37.6469118
          ],
          [
            -1.0353953,
            37.6469885
          ],
          [
            -1.0353877,
            37.6470575
          ],
          [
            -1.0353578,
            37.6471192
          ],
          [
            -1.0353141,
            37.6471799
          ],
          [
            -1.0352492,
            37.6472339
          ],
          [
            -1.0351451,
            37.647293
          ],
          [
            -1.0346921,
            37.6474865
          ],
          [
            -1.0344076,
            37.6475832
          ],
          [
            -1.0340695,
            37.6476626
          ],
          [
            -1.033729,
            37.647709
          ],
          [
            -1.0333921,
            37.6477241
          ],
          [
            -1.0331565,
            37.6477155
          ],
          [
            -1.0329641,
            37.6476903
          ],
          [
            -1.0325805,
            37.6476157
          ],
          [
            -1.032248,
            37.6475217
          ],
          [
            -1.0318684,
            37.6473907
          ],
          [
            -1.0317529,
            37.6473631
          ],
          [
            -1.0316319,
            37.6473502
          ],
          [
            -1.0315466,
            37.6473592
          ],
          [
            -1.0314727,
            37.6473735
          ],
          [
            -1.0314172,
            37.6473929
          ],
          [
            -1.0313492,
            37.6474216
          ],
          [
            -1.0312898,
            37.6474552
          ],
          [
            -1.0312279,
            37.6474914
          ],
          [
            -1.031179,
            37.6475334
          ],
          [
            -1.0311403,
            37.6475817
          ],
          [
            -1.0311035,
            37.6476416
          ],
          [
            -1.0310783,
            37.6476968
          ],
          [
            -1.0310691,
            37.6477609
          ],
          [
            -1.0310683,
            37.6478276
          ],
          [
            -1.0310777,
            37.6478928
          ],
          [
            -1.0311001,
            37.647956
          ],
          [
            -1.0311368,
            37.6480156
          ],
          [
            -1.0311844,
            37.6480777
          ],
          [
            -1.0312497,
            37.6481367
          ],
          [
            -1.0315052,
            37.6483037
          ],
          [
            -1.0316985,
            37.6484185
          ],
          [
            -1.0318464,
            37.6484954
          ],
          [
            -1.0320375,
            37.6485804
          ],
          [
            -1.0322322,
            37.6486517
          ],
          [
            -1.0324107,
            37.6486973
          ],
          [
            -1.0325522,
            37.6487304
          ],
          [
            -1.0326934,
            37.6487552
          ],
          [
            -1.0328062,
            37.6487678
          ],
          [
            -1.0328981,
            37.6487759
          ],
          [
            -1.0330123,
            37.6487826
          ],
          [
            -1.0331544,
            37.6487826
          ],
          [
            -1.0333174,
            37.6487767
          ],
          [
            -1.0335122,
            37.6487536
          ],
          [
            -1.0337186,
            37.6487157
          ],
          [
            -1.0338503,
            37.6486866
          ],
          [
            -1.0339813,
            37.6486469
          ],
          [
            -1.0343398,
            37.6485059
          ],
          [
            -1.0346589,
            37.6483486
          ],
          [
            -1.0347176,
            37.6483127
          ],
          [
            -1.0347637,
            37.6482775
          ],
          [
            -1.0347924,
            37.6482416
          ],
          [
            -1.0348181,
            37.6482053
          ],
          [
            -1.0348358,
            37.6481615
          ],
          [
            -1.0348429,
            37.6481105
          ],
          [
            -1.0348459,
            37.6480625
          ],
          [
            -1.034848,
            37.6480172
          ],
          [
            -1.0348568,
            37.6479647
          ],
          [
            -1.0348782,
            37.6479137
          ],
          [
            -1.0349103,
            37.6478745
          ],
          [
            -1.0359339,
            37.6472016
          ],
          [
            -1.0359844,
            37.6471773
          ],
          [
            -1.0360407,
            37.647153
          ],
          [
            -1.0360974,
            37.647134
          ],
          [
            -1.036152,
            37.6471237
          ],
          [
            -1.0362162,
            37.6471277
          ],
          [
            -1.0362775,
            37.647144
          ],
          [
            -1.0363275,
            37.6471744
          ],
          [
            -1.0363664,
            37.6472134
          ],
          [
            -1.036397,
            37.64726
          ],
          [
            -1.036419,
            37.6473058
          ],
          [
            -1.0364295,
            37.6473556
          ],
          [
            -1.0364688,
            37.6476763
          ],
          [
            -1.0364953,
            37.6477354
          ],
          [
            -1.0365369,
            37.6477885
          ],
          [
            -1.0365781,
            37.6478274
          ],
          [
            -1.036625,
            37.6478631
          ],
          [
            -1.0366731,
            37.6478861
          ],
          [
            -1.0367217,
            37.6479108
          ],
          [
            -1.0367782,
            37.6479267
          ],
          [
            -1.0368314,
            37.6479382
          ],
          [
            -1.0368829,
            37.6479421
          ],
          [
            -1.03694,
            37.6479376
          ],
          [
            -1.0369884,
            37.6479299
          ],
          [
            -1.0370343,
            37.6479223
          ],
          [
            -1.0370778,
            37.6479119
          ],
          [
            -1.0371239,
            37.6478944
          ],
          [
            -1.0371769,
            37.647864
          ],
          [
            -1.0372478,
            37.6478051
          ],
          [
            -1.03733,
            37.6477316
          ],
          [
            -1.0374057,
            37.6476599
          ],
          [
            -1.0374653,
            37.6476005
          ],
          [
            -1.0375083,
            37.6475449
          ],
          [
            -1.0375366,
            37.6474904
          ],
          [
            -1.0375474,
            37.6474288
          ],
          [
            -1.0375551,
            37.6473717
          ],
          [
            -1.0375533,
            37.647309
          ],
          [
            -1.0375434,
            37.6472551
          ],
          [
            -1.0375246,
            37.6472038
          ],
          [
            -1.0374981,
            37.6471513
          ],
          [
            -1.0371477,
            37.646745
          ],
          [
            -1.0341091,
            37.6432217
          ],
          [
            -1.033593,
            37.6426233
          ]
        ]
      }
    }
  ]
}
