{
  "type": "FeatureCollection",
  "bbox": [
    120.4654134,
    30.0313434,
    120.4698072,
    30.0355103
  ],
  "metadata": {
    "schemaVersion": 1,
    "trackId": "cn-osm-953311514",
    "layoutId": "zhejiang-east",
    "license": "ODbL-1.0",
    "attribution": "© OpenStreetMap contributors",
    "closed": true,
    "geometryStatus": "draft",
    "timingStatus": "missing",
    "timingMode": "shared",
    "lengthM": 1549.4,
    "reviewedAt": null,
    "notes": [
      "Draft route hypothesis: the source cycle is the unique closest nominal-distance match within conservative timing and distance checks. Approximate OSM trace length 1549.4 m. Difference from the supplied layout distance 3.6 m. Course configuration still requires visual review."
    ]
  },
  "features": [
    {
      "type": "Feature",
      "id": "trace",
      "properties": {
        "role": "trace",
        "sourceIds": [
          "osm-network-953311514"
        ]
      },
      "geometry": {
        "type": "LineString",
        "coordinates": [
          [
            120.4681603,
            30.0328557
          ],
          [
            120.4697737,
            30.0348021
          ],
          [
            120.4698072,
            30.0349496
          ],
          [
            120.4697187,
            30.0350796
          ],
          [
            120.46959,
            30.0351365
          ],
          [
            120.4694411,
            30.035126
          ],
          [
            120.4692802,
            30.0350552
          ],
          [
            120.4691622,
            30.0350332
          ],
          [
            120.4690441,
            30.0350692
          ],
          [
            120.4686767,
            30.0354604
          ],
          [
            120.4684702,
            30.0355103
          ],
          [
            120.4682898,
            30.0354651
          ],
          [
            120.4681402,
            30.0353739
          ],
          [
            120.4680363,
            30.0352497
          ],
          [
            120.4679927,
            30.0350773
          ],
          [
            120.4680124,
            30.0349095
          ],
          [
            120.468074,
            30.0346802
          ],
          [
            120.4682096,
            30.0342267
          ],
          [
            120.4681456,
            30.0340567
          ],
          [
            120.4680209,
            30.0339035
          ],
          [
            120.4678559,
            30.0338129
          ],
          [
            120.467632,
            30.0337734
          ],
          [
            120.4669842,
            30.0336661
          ],
          [
            120.4668776,
            30.0335941
          ],
          [
            120.4668125,
            30.0334878
          ],
          [
            120.4668005,
            30.0333729
          ],
          [
            120.4668675,
            30.0332382
          ],
          [
            120.4671753,
            30.0327303
          ],
          [
            120.4671572,
            30.0325805
          ],
          [
            120.467062,
            30.0324615
          ],
          [
            120.4668756,
            30.0324046
          ],
          [
            120.4666811,
            30.0324069
          ],
          [
            120.4663861,
            30.03248
          ],
          [
            120.4656257,
            30.0330269
          ],
          [
            120.4654956,
            30.0329654
          ],
          [
            120.4654218,
            30.0328011
          ],
          [
            120.4654134,
            30.0326319
          ],
          [
            120.4654339,
            30.0324441
          ],
          [
            120.4663941,
            30.0314537
          ],
          [
            120.4666235,
            30.0313515
          ],
          [
            120.466826,
            30.0313434
          ],
          [
            120.4669963,
            30.0314467
          ],
          [
            120.4681603,
            30.0328557
          ]
        ]
      }
    }
  ]
}
