{
  "type": "FeatureCollection",
  "bbox": [
    120.4615863,
    30.0331279,
    120.4652126,
    30.0383797
  ],
  "metadata": {
    "schemaVersion": 1,
    "trackId": "cn-osm-953311514",
    "layoutId": "zhejiang-west",
    "license": "ODbL-1.0",
    "attribution": "© OpenStreetMap contributors",
    "closed": true,
    "geometryStatus": "draft",
    "timingStatus": "missing",
    "timingMode": "shared",
    "lengthM": 1605,
    "reviewedAt": null,
    "notes": [
      "Draft route hypothesis: the source cycle is the unique closest nominal-distance match within conservative timing and distance checks. Approximate OSM trace length 1605 m. Difference from the supplied layout distance 7.0 m. Course configuration still requires visual review."
    ]
  },
  "features": [
    {
      "type": "Feature",
      "id": "trace",
      "properties": {
        "role": "trace",
        "sourceIds": [
          "osm-network-953311514"
        ]
      },
      "geometry": {
        "type": "LineString",
        "coordinates": [
          [
            120.4649504,
            30.033583
          ],
          [
            120.4649067,
            30.033702
          ],
          [
            120.4649035,
            30.0338367
          ],
          [
            120.4649471,
            30.0339639
          ],
          [
            120.4650973,
            30.0341264
          ],
          [
            120.4652126,
            30.0343203
          ],
          [
            120.4652086,
            30.0344805
          ],
          [
            120.4651161,
            30.0346454
          ],
          [
            120.4649538,
            30.034751
          ],
          [
            120.4647727,
            30.034776
          ],
          [
            120.4646078,
            30.0347417
          ],
          [
            120.4644281,
            30.034628
          ],
          [
            120.4642001,
            30.0345328
          ],
          [
            120.4640459,
            30.0345548
          ],
          [
            120.46396,
            30.0346384
          ],
          [
            120.4639104,
            30.0348068
          ],
          [
            120.4638653,
            30.0351069
          ],
          [
            120.4639198,
            30.0354767
          ],
          [
            120.4640472,
            30.0357826
          ],
          [
            120.4642564,
            30.0360978
          ],
          [
            120.4643416,
            30.0362337
          ],
          [
            120.4643476,
            30.03642
          ],
          [
            120.4642403,
            30.0365761
          ],
          [
            120.4640056,
            30.0367445
          ],
          [
            120.4639386,
            30.0368803
          ],
          [
            120.4639292,
            30.0370278
          ],
          [
            120.4640163,
            30.0372617
          ],
          [
            120.4640177,
            30.0373592
          ],
          [
            120.4639547,
            30.0374631
          ],
          [
            120.4636838,
            30.0376536
          ],
          [
            120.4619061,
            30.0383618
          ],
          [
            120.4617432,
            30.0383797
          ],
          [
            120.4616413,
            30.03832
          ],
          [
            120.4615863,
            30.0382213
          ],
          [
            120.4616037,
            30.0381075
          ],
          [
            120.4616909,
            30.0380059
          ],
          [
            120.462855,
            30.0372228
          ],
          [
            120.4630548,
            30.0369906
          ],
          [
            120.463154,
            30.036741
          ],
          [
            120.4633766,
            30.034866
          ],
          [
            120.4635148,
            30.0345479
          ],
          [
            120.4636596,
            30.0343226
          ],
          [
            120.4647861,
            30.0331279
          ],
          [
            120.464935,
            30.0331465
          ],
          [
            120.4649893,
            30.0331773
          ],
          [
            120.4650155,
            30.0332405
          ],
          [
            120.4649504,
            30.033583
          ]
        ]
      }
    }
  ]
}
