{
  "type": "FeatureCollection",
  "bbox": [
    16.439199,
    49.2016949,
    16.4645944,
    49.2092877
  ],
  "metadata": {
    "schemaVersion": 1,
    "trackId": "cz-brno-8554280d",
    "layoutId": "brno",
    "license": "ODbL-1.0",
    "attribution": "© OpenStreetMap contributors",
    "closed": true,
    "geometryStatus": "draft",
    "timingStatus": "missing",
    "timingMode": "shared",
    "lengthM": 5401.3,
    "reviewedAt": null,
    "notes": [
      "Draft configuration: Full Grand Prix course with both southeastern return bends and northern inner hairpin. Branch identity was checked against catalogue layout facts and circuit identification references. Independent source distance 5401.3 m; no coordinates are changed to match a diagram or distance. Travel direction and historical alignment remain provisional."
    ]
  },
  "features": [
    {
      "type": "Feature",
      "id": "trace",
      "properties": {
        "role": "trace",
        "sourceIds": [
          "osm-selection-8585804"
        ]
      },
      "geometry": {
        "type": "LineString",
        "coordinates": [
          [
            16.4395883,
            49.2045866
          ],
          [
            16.439727,
            49.2044939
          ],
          [
            16.4398631,
            49.2044363
          ],
          [
            16.4401043,
            49.2043721
          ],
          [
            16.4406336,
            49.2042158
          ],
          [
            16.4459988,
            49.2026965
          ],
          [
            16.4479664,
            49.2021392
          ],
          [
            16.4482774,
            49.2020606
          ],
          [
            16.448446,
            49.2020327
          ],
          [
            16.4485984,
            49.2020164
          ],
          [
            16.4488019,
            49.2020123
          ],
          [
            16.449001,
            49.2020211
          ],
          [
            16.4491076,
            49.2020345
          ],
          [
            16.4492577,
            49.2020548
          ],
          [
            16.4494445,
            49.2020957
          ],
          [
            16.4495563,
            49.2021262
          ],
          [
            16.4496469,
            49.2021605
          ],
          [
            16.44976,
            49.2022098
          ],
          [
            16.4498561,
            49.2022741
          ],
          [
            16.4499159,
            49.2023176
          ],
          [
            16.4499716,
            49.2023869
          ],
          [
            16.4500156,
            49.2024633
          ],
          [
            16.4500856,
            49.2026414
          ],
          [
            16.4502785,
            49.2031138
          ],
          [
            16.4503461,
            49.2032466
          ],
          [
            16.4503845,
            49.2033115
          ],
          [
            16.4504375,
            49.2033739
          ],
          [
            16.4504932,
            49.2034174
          ],
          [
            16.4505628,
            49.203463
          ],
          [
            16.4506426,
            49.2034964
          ],
          [
            16.4507205,
            49.2035222
          ],
          [
            16.450841,
            49.203539
          ],
          [
            16.4509593,
            49.2035469
          ],
          [
            16.451095,
            49.203547
          ],
          [
            16.4511969,
            49.2035359
          ],
          [
            16.4512722,
            49.2035228
          ],
          [
            16.4518566,
            49.2033864
          ],
          [
            16.456857,
            49.2022192
          ],
          [
            16.4581785,
            49.2019107
          ],
          [
            16.4582774,
            49.2018949
          ],
          [
            16.4583927,
            49.2018912
          ],
          [
            16.4584937,
            49.2018977
          ],
          [
            16.4586288,
            49.2019149
          ],
          [
            16.4587683,
            49.2019494
          ],
          [
            16.4588641,
            49.2019901
          ],
          [
            16.4589577,
            49.2020487
          ],
          [
            16.4590197,
            49.202115
          ],
          [
            16.459111,
            49.2023135
          ],
          [
            16.4592266,
            49.2025788
          ],
          [
            16.4592587,
            49.2026365
          ],
          [
            16.4593175,
            49.2027207
          ],
          [
            16.4594001,
            49.2027842
          ],
          [
            16.4594858,
            49.2028307
          ],
          [
            16.4595582,
            49.2028624
          ],
          [
            16.4596842,
            49.2028965
          ],
          [
            16.4597808,
            49.2029185
          ],
          [
            16.4598947,
            49.2029238
          ],
          [
            16.4599966,
            49.202923
          ],
          [
            16.4601122,
            49.2029068
          ],
          [
            16.4602351,
            49.2028787
          ],
          [
            16.4609031,
            49.2026246
          ],
          [
            16.4630381,
            49.2018294
          ],
          [
            16.4632546,
            49.2017487
          ],
          [
            16.4633917,
            49.2017159
          ],
          [
            16.4635064,
            49.2016976
          ],
          [
            16.4636792,
            49.2016949
          ],
          [
            16.4638567,
            49.2017153
          ],
          [
            16.4640476,
            49.2017656
          ],
          [
            16.464195,
            49.2018179
          ],
          [
            16.4643103,
            49.2018806
          ],
          [
            16.4643872,
            49.2019356
          ],
          [
            16.4644581,
            49.2019941
          ],
          [
            16.4645133,
            49.202065
          ],
          [
            16.4645519,
            49.2021159
          ],
          [
            16.4645818,
            49.2022016
          ],
          [
            16.4645937,
            49.2022858
          ],
          [
            16.4645944,
            49.2023472
          ],
          [
            16.4645892,
            49.2024305
          ],
          [
            16.4645638,
            49.2025093
          ],
          [
            16.4645316,
            49.2025604
          ],
          [
            16.4644818,
            49.202639
          ],
          [
            16.4643846,
            49.202745
          ],
          [
            16.4642694,
            49.202864
          ],
          [
            16.4642207,
            49.2029095
          ],
          [
            16.4609789,
            49.2059392
          ],
          [
            16.4603176,
            49.2065572
          ],
          [
            16.4602449,
            49.2066121
          ],
          [
            16.4601408,
            49.2066605
          ],
          [
            16.4600608,
            49.2066944
          ],
          [
            16.4599364,
            49.2067251
          ],
          [
            16.459788,
            49.2067505
          ],
          [
            16.4596882,
            49.2067532
          ],
          [
            16.4595638,
            49.2067496
          ],
          [
            16.4594326,
            49.2067334
          ],
          [
            16.4592869,
            49.2066926
          ],
          [
            16.4591877,
            49.2066503
          ],
          [
            16.4590737,
            49.2065859
          ],
          [
            16.4589864,
            49.2065147
          ],
          [
            16.4589394,
            49.2064547
          ],
          [
            16.4588773,
            49.2063573
          ],
          [
            16.4587761,
            49.2061029
          ],
          [
            16.4587051,
            49.2059393
          ],
          [
            16.4586363,
            49.2058533
          ],
          [
            16.4585631,
            49.2057926
          ],
          [
            16.4585172,
            49.2057601
          ],
          [
            16.4584355,
            49.2057194
          ],
          [
            16.4583347,
            49.2056764
          ],
          [
            16.4582403,
            49.2056525
          ],
          [
            16.4581628,
            49.2056425
          ],
          [
            16.4580518,
            49.2056358
          ],
          [
            16.4579704,
            49.2056416
          ],
          [
            16.4579109,
            49.205647
          ],
          [
            16.4577924,
            49.2056749
          ],
          [
            16.4577429,
            49.2056921
          ],
          [
            16.4554951,
            49.2064747
          ],
          [
            16.4553479,
            49.2065352
          ],
          [
            16.4552795,
            49.2065728
          ],
          [
            16.4551956,
            49.2066235
          ],
          [
            16.4551195,
            49.2067087
          ],
          [
            16.4550571,
            49.2068023
          ],
          [
            16.4550208,
            49.2069029
          ],
          [
            16.4550195,
            49.2070212
          ],
          [
            16.4550462,
            49.2071207
          ],
          [
            16.4550931,
            49.2072101
          ],
          [
            16.4551821,
            49.2073043
          ],
          [
            16.4552661,
            49.2073663
          ],
          [
            16.4553501,
            49.2074151
          ],
          [
            16.4554695,
            49.2074609
          ],
          [
            16.4555754,
            49.2074917
          ],
          [
            16.4556734,
            49.2075071
          ],
          [
            16.4558047,
            49.2075161
          ],
          [
            16.4560286,
            49.2075117
          ],
          [
            16.4568686,
            49.2074952
          ],
          [
            16.4570382,
            49.2075038
          ],
          [
            16.4571419,
            49.2075205
          ],
          [
            16.457211,
            49.207536
          ],
          [
            16.4572979,
            49.2075727
          ],
          [
            16.4573749,
            49.2076099
          ],
          [
            16.4574645,
            49.2076651
          ],
          [
            16.4575186,
            49.2077072
          ],
          [
            16.4575453,
            49.207746
          ],
          [
            16.4576089,
            49.2078386
          ],
          [
            16.4576161,
            49.2078744
          ],
          [
            16.4577917,
            49.2086191
          ],
          [
            16.4577991,
            49.2087276
          ],
          [
            16.4578031,
            49.2088008
          ],
          [
            16.4577898,
            49.2088705
          ],
          [
            16.4577565,
            49.2089306
          ],
          [
            16.4577068,
            49.2090068
          ],
          [
            16.4576232,
            49.2090952
          ],
          [
            16.4575475,
            49.2091515
          ],
          [
            16.4574032,
            49.2092267
          ],
          [
            16.4572887,
            49.2092606
          ],
          [
            16.4571659,
            49.2092807
          ],
          [
            16.4570547,
            49.209287
          ],
          [
            16.4569219,
            49.2092877
          ],
          [
            16.4567496,
            49.2092692
          ],
          [
            16.4562739,
            49.2091976
          ],
          [
            16.456112,
            49.2091732
          ],
          [
            16.4538438,
            49.2088316
          ],
          [
            16.4530007,
            49.2086975
          ],
          [
            16.4517876,
            49.2085179
          ],
          [
            16.4516314,
            49.2084948
          ],
          [
            16.4508009,
            49.2083719
          ],
          [
            16.4506359,
            49.2083477
          ],
          [
            16.450459,
            49.2083033
          ],
          [
            16.4503438,
            49.2082528
          ],
          [
            16.4502582,
            49.2081977
          ],
          [
            16.4501724,
            49.208121
          ],
          [
            16.4501169,
            49.2080442
          ],
          [
            16.4500714,
            49.2079457
          ],
          [
            16.4500544,
            49.2078623
          ],
          [
            16.4500503,
            49.207809
          ],
          [
            16.4500652,
            49.2077023
          ],
          [
            16.4501081,
            49.2076263
          ],
          [
            16.450193,
            49.2074957
          ],
          [
            16.4502347,
            49.2074322
          ],
          [
            16.4503492,
            49.2072579
          ],
          [
            16.4506797,
            49.2068145
          ],
          [
            16.4507296,
            49.2067307
          ],
          [
            16.4507581,
            49.2066534
          ],
          [
            16.4507647,
            49.2065874
          ],
          [
            16.4507595,
            49.2064999
          ],
          [
            16.4507444,
            49.2064104
          ],
          [
            16.4506861,
            49.20631
          ],
          [
            16.4506124,
            49.206231
          ],
          [
            16.4505394,
            49.2061777
          ],
          [
            16.4504891,
            49.2061422
          ],
          [
            16.4504037,
            49.2060953
          ],
          [
            16.4502731,
            49.2060526
          ],
          [
            16.4501699,
            49.2060295
          ],
          [
            16.4500444,
            49.2060142
          ],
          [
            16.4494959,
            49.2059993
          ],
          [
            16.4434163,
            49.2058032
          ],
          [
            16.4430012,
            49.2057916
          ],
          [
            16.4425941,
            49.2058041
          ],
          [
            16.4423113,
            49.2058306
          ],
          [
            16.4420177,
            49.2058706
          ],
          [
            16.4418028,
            49.2059133
          ],
          [
            16.4415137,
            49.2059887
          ],
          [
            16.4413262,
            49.2060437
          ],
          [
            16.4410928,
            49.2061078
          ],
          [
            16.4409023,
            49.2061422
          ],
          [
            16.4407411,
            49.2061646
          ],
          [
            16.4405328,
            49.2061715
          ],
          [
            16.4404106,
            49.2061635
          ],
          [
            16.4402283,
            49.206144
          ],
          [
            16.4400275,
            49.2061005
          ],
          [
            16.4398889,
            49.206057
          ],
          [
            16.4397425,
            49.2059934
          ],
          [
            16.4396227,
            49.2059239
          ],
          [
            16.4395316,
            49.2058626
          ],
          [
            16.4394318,
            49.2057749
          ],
          [
            16.4393442,
            49.2056745
          ],
          [
            16.4392912,
            49.2056061
          ],
          [
            16.4392477,
            49.2055032
          ],
          [
            16.4392165,
            49.2053985
          ],
          [
            16.439199,
            49.2052786
          ],
          [
            16.4392042,
            49.2051597
          ],
          [
            16.4392219,
            49.2050665
          ],
          [
            16.4392504,
            49.2049777
          ],
          [
            16.4392982,
            49.2048894
          ],
          [
            16.4393781,
            49.2047816
          ],
          [
            16.4395883,
            49.2045866
          ]
        ]
      }
    }
  ]
}
