{
  "type": "FeatureCollection",
  "bbox": [
    138.5013189,
    -34.4179824,
    138.5081537,
    -34.411912
  ],
  "metadata": {
    "schemaVersion": 1,
    "trackId": "au-mallala-motor-sport-park-182649697",
    "layoutId": "mallala",
    "license": "ODbL-1.0",
    "attribution": "© OpenStreetMap contributors",
    "closed": true,
    "geometryStatus": "draft",
    "timingStatus": "missing",
    "timingMode": "shared",
    "lengthM": 2554.8,
    "reviewedAt": null,
    "notes": [
      "Draft route hypothesis: the source cycle is the unique closest nominal-distance match within conservative timing and distance checks. Approximate OSM trace length 2554.8 m. Difference from the supplied layout distance 18.2 m. Course configuration still requires visual review."
    ]
  },
  "features": [
    {
      "type": "Feature",
      "id": "trace",
      "properties": {
        "role": "trace",
        "sourceIds": [
          "osm-network-182649697"
        ]
      },
      "geometry": {
        "type": "LineString",
        "coordinates": [
          [
            138.5059471,
            -34.4152619
          ],
          [
            138.5048234,
            -34.4152594
          ],
          [
            138.5039218,
            -34.4152575
          ],
          [
            138.5037426,
            -34.4151635
          ],
          [
            138.5035602,
            -34.4150086
          ],
          [
            138.5030124,
            -34.4144368
          ],
          [
            138.5028287,
            -34.414317
          ],
          [
            138.5026018,
            -34.4143063
          ],
          [
            138.5024305,
            -34.4143479
          ],
          [
            138.5022887,
            -34.4144323
          ],
          [
            138.5021904,
            -34.4145335
          ],
          [
            138.5021357,
            -34.4146561
          ],
          [
            138.5021309,
            -34.4147562
          ],
          [
            138.502152,
            -34.4148445
          ],
          [
            138.5022298,
            -34.4149865
          ],
          [
            138.5026019,
            -34.4155141
          ],
          [
            138.5034234,
            -34.4166788
          ],
          [
            138.5037457,
            -34.4171358
          ],
          [
            138.5039839,
            -34.4174735
          ],
          [
            138.5040322,
            -34.4176196
          ],
          [
            138.5040269,
            -34.41777
          ],
          [
            138.5039839,
            -34.4178851
          ],
          [
            138.5038498,
            -34.4179647
          ],
          [
            138.5036835,
            -34.4179824
          ],
          [
            138.5035076,
            -34.4179535
          ],
          [
            138.503072,
            -34.4176904
          ],
          [
            138.5027394,
            -34.4173673
          ],
          [
            138.502556,
            -34.4170965
          ],
          [
            138.5016139,
            -34.4157054
          ],
          [
            138.5014316,
            -34.4153159
          ],
          [
            138.5013189,
            -34.4148203
          ],
          [
            138.5013511,
            -34.4143777
          ],
          [
            138.5014573,
            -34.4139819
          ],
          [
            138.5016343,
            -34.4136632
          ],
          [
            138.5028352,
            -34.4119905
          ],
          [
            138.50293,
            -34.4119231
          ],
          [
            138.5030057,
            -34.411912
          ],
          [
            138.503072,
            -34.411924
          ],
          [
            138.5031302,
            -34.4119644
          ],
          [
            138.5031635,
            -34.4120229
          ],
          [
            138.5031543,
            -34.4124725
          ],
          [
            138.5032007,
            -34.4127516
          ],
          [
            138.5033402,
            -34.4130083
          ],
          [
            138.5035655,
            -34.4132295
          ],
          [
            138.5038616,
            -34.4134218
          ],
          [
            138.5042468,
            -34.4135924
          ],
          [
            138.5046223,
            -34.4136986
          ],
          [
            138.5048206,
            -34.4137383
          ],
          [
            138.5050255,
            -34.4137794
          ],
          [
            138.5067279,
            -34.4137899
          ],
          [
            138.5079975,
            -34.4137958
          ],
          [
            138.5080863,
            -34.4138198
          ],
          [
            138.5081531,
            -34.4139097
          ],
          [
            138.5081537,
            -34.4140535
          ],
          [
            138.5081038,
            -34.4141666
          ],
          [
            138.5079918,
            -34.4142812
          ],
          [
            138.5076389,
            -34.4144343
          ],
          [
            138.5075155,
            -34.4145317
          ],
          [
            138.5074473,
            -34.4146645
          ],
          [
            138.5074206,
            -34.4148048
          ],
          [
            138.5074003,
            -34.4150356
          ],
          [
            138.507358,
            -34.4151515
          ],
          [
            138.507253,
            -34.4152308
          ],
          [
            138.5070913,
            -34.4152648
          ],
          [
            138.5067723,
            -34.4152605
          ],
          [
            138.5059471,
            -34.4152619
          ]
        ]
      }
    }
  ]
}
