{
  "type": "FeatureCollection",
  "bbox": [
    19.5312553,
    51.8756845,
    19.5344228,
    51.8782447
  ],
  "metadata": {
    "schemaVersion": 1,
    "trackId": "pl-tor-lodz-107c708e",
    "layoutId": "tor-lodz",
    "license": "ODbL-1.0",
    "attribution": "© OpenStreetMap contributors",
    "closed": true,
    "geometryStatus": "draft",
    "timingStatus": "missing",
    "timingMode": "shared",
    "lengthM": 1292.8,
    "reviewedAt": null,
    "notes": [
      "Draft route hypothesis: the source cycle is the unique closest nominal-distance match within conservative timing and distance checks. Approximate OSM trace length 1292.8 m. Difference from the supplied layout distance 3.2 m. Course configuration still requires visual review."
    ]
  },
  "features": [
    {
      "type": "Feature",
      "id": "trace",
      "properties": {
        "role": "trace",
        "sourceIds": [
          "osm-network-445463674"
        ]
      },
      "geometry": {
        "type": "LineString",
        "coordinates": [
          [
            19.532369,
            51.8760682
          ],
          [
            19.532575,
            51.8757736
          ],
          [
            19.5327532,
            51.8756929
          ],
          [
            19.5328888,
            51.8756845
          ],
          [
            19.5330436,
            51.8757164
          ],
          [
            19.5331468,
            51.8757728
          ],
          [
            19.5332153,
            51.8759072
          ],
          [
            19.5332823,
            51.8759874
          ],
          [
            19.5333971,
            51.8760153
          ],
          [
            19.5337548,
            51.8760177
          ],
          [
            19.5341247,
            51.8760206
          ],
          [
            19.5342677,
            51.87604
          ],
          [
            19.5343855,
            51.8761104
          ],
          [
            19.5344228,
            51.8761724
          ],
          [
            19.5344154,
            51.8762636
          ],
          [
            19.5341968,
            51.8764161
          ],
          [
            19.5339977,
            51.8765589
          ],
          [
            19.5338887,
            51.8766345
          ],
          [
            19.5335293,
            51.8768838
          ],
          [
            19.533417,
            51.8769973
          ],
          [
            19.5333937,
            51.877098
          ],
          [
            19.5332188,
            51.8777256
          ],
          [
            19.5331227,
            51.8780705
          ],
          [
            19.5330465,
            51.8781803
          ],
          [
            19.532911,
            51.8782326
          ],
          [
            19.5327534,
            51.8782447
          ],
          [
            19.5325638,
            51.8782222
          ],
          [
            19.5323501,
            51.8781233
          ],
          [
            19.5321475,
            51.8780098
          ],
          [
            19.5320218,
            51.8779659
          ],
          [
            19.5318439,
            51.8779607
          ],
          [
            19.5315306,
            51.8779659
          ],
          [
            19.5313867,
            51.8779294
          ],
          [
            19.5312956,
            51.8778728
          ],
          [
            19.5312553,
            51.8777481
          ],
          [
            19.5312829,
            51.8776484
          ],
          [
            19.5316584,
            51.877256
          ],
          [
            19.5319226,
            51.8767572
          ],
          [
            19.5320835,
            51.8767123
          ],
          [
            19.532267,
            51.8766807
          ],
          [
            19.5324109,
            51.8766972
          ],
          [
            19.5324819,
            51.8767722
          ],
          [
            19.5324523,
            51.8770192
          ],
          [
            19.5324076,
            51.8772482
          ],
          [
            19.5323857,
            51.8773215
          ],
          [
            19.5323114,
            51.8773806
          ],
          [
            19.5320532,
            51.8774642
          ],
          [
            19.5317673,
            51.8775474
          ],
          [
            19.531686,
            51.8776134
          ],
          [
            19.5316696,
            51.8776828
          ],
          [
            19.5317253,
            51.8777412
          ],
          [
            19.5318693,
            51.8777887
          ],
          [
            19.5320734,
            51.8777566
          ],
          [
            19.5322006,
            51.8777818
          ],
          [
            19.5323107,
            51.8778422
          ],
          [
            19.5324398,
            51.8778492
          ],
          [
            19.5325722,
            51.8777987
          ],
          [
            19.5326061,
            51.8777254
          ],
          [
            19.5328771,
            51.8767582
          ],
          [
            19.532923,
            51.8766914
          ],
          [
            19.5329904,
            51.8766455
          ],
          [
            19.5331867,
            51.8765863
          ],
          [
            19.5334684,
            51.8765152
          ],
          [
            19.5336118,
            51.8764803
          ],
          [
            19.5337417,
            51.8764242
          ],
          [
            19.5337867,
            51.8763399
          ],
          [
            19.5337457,
            51.8762714
          ],
          [
            19.5336364,
            51.876223
          ],
          [
            19.5334878,
            51.8762283
          ],
          [
            19.5329807,
            51.8763201
          ],
          [
            19.5326036,
            51.8763699
          ],
          [
            19.5324619,
            51.8763373
          ],
          [
            19.5323838,
            51.8762695
          ],
          [
            19.5323436,
            51.8761675
          ],
          [
            19.532369,
            51.8760682
          ]
        ]
      }
    }
  ]
}
