{
  "type": "FeatureCollection",
  "bbox": [
    43.5960958,
    56.1176319,
    43.6080951,
    56.121628
  ],
  "metadata": {
    "schemaVersion": 1,
    "trackId": "ru-osm-74887032",
    "layoutId": "main",
    "license": "ODbL-1.0",
    "attribution": "© OpenStreetMap contributors",
    "closed": true,
    "geometryStatus": "draft",
    "timingStatus": "missing",
    "timingMode": "shared",
    "lengthM": 3217.1,
    "reviewedAt": null,
    "notes": [
      "Connected OSM course candidate. The selected loop is the longest simple source-node cycle after explicit exclusions; its association with a named circuit configuration requires review.",
      "Source way order and shared node IDs are retained. No nearby endpoints are joined and no reference boundaries are read.",
      "Some source ways lack one-way direction tags. Travel direction is provisional."
    ]
  },
  "features": [
    {
      "type": "Feature",
      "id": "trace",
      "properties": {
        "role": "trace",
        "sourceIds": [
          "osm-snapshot"
        ]
      },
      "geometry": {
        "type": "LineString",
        "coordinates": [
          [
            43.6062729,
            56.119786
          ],
          [
            43.6065025,
            56.1197851
          ],
          [
            43.6066249,
            56.1198191
          ],
          [
            43.6067192,
            56.1198864
          ],
          [
            43.6067465,
            56.1200385
          ],
          [
            43.6067949,
            56.1201618
          ],
          [
            43.6068884,
            56.1202489
          ],
          [
            43.607038,
            56.1203204
          ],
          [
            43.6071842,
            56.1203462
          ],
          [
            43.6073207,
            56.1203508
          ],
          [
            43.6074688,
            56.1203344
          ],
          [
            43.6076373,
            56.1202986
          ],
          [
            43.6077686,
            56.1202522
          ],
          [
            43.6078895,
            56.1202004
          ],
          [
            43.6079769,
            56.1201434
          ],
          [
            43.6080395,
            56.1200732
          ],
          [
            43.6080824,
            56.1199863
          ],
          [
            43.6080951,
            56.1198901
          ],
          [
            43.6080561,
            56.1197757
          ],
          [
            43.6079915,
            56.1197058
          ],
          [
            43.6078288,
            56.1196135
          ],
          [
            43.6074442,
            56.1194342
          ],
          [
            43.6072336,
            56.1193658
          ],
          [
            43.6070671,
            56.1193287
          ],
          [
            43.6068192,
            56.1192972
          ],
          [
            43.6066052,
            56.1192903
          ],
          [
            43.6064164,
            56.1192979
          ],
          [
            43.6061874,
            56.1193278
          ],
          [
            43.6059327,
            56.1193927
          ],
          [
            43.6037523,
            56.1200445
          ],
          [
            43.6035747,
            56.1200455
          ],
          [
            43.6034142,
            56.1199967
          ],
          [
            43.6033391,
            56.1199278
          ],
          [
            43.603324,
            56.11985
          ],
          [
            43.6033697,
            56.1197722
          ],
          [
            43.6041835,
            56.1191533
          ],
          [
            43.6042929,
            56.1191029
          ],
          [
            43.6044004,
            56.1190797
          ],
          [
            43.6045505,
            56.1190762
          ],
          [
            43.604699,
            56.1190954
          ],
          [
            43.6048965,
            56.1191154
          ],
          [
            43.60512,
            56.1191025
          ],
          [
            43.6053137,
            56.1190476
          ],
          [
            43.6055025,
            56.1189293
          ],
          [
            43.6055884,
            56.1188364
          ],
          [
            43.6056237,
            56.1187146
          ],
          [
            43.6055865,
            56.1186003
          ],
          [
            43.6055587,
            56.118542
          ],
          [
            43.6054637,
            56.1184492
          ],
          [
            43.6052805,
            56.1183767
          ],
          [
            43.6051387,
            56.1183557
          ],
          [
            43.6049745,
            56.1183543
          ],
          [
            43.6047964,
            56.1183728
          ],
          [
            43.6045738,
            56.118414
          ],
          [
            43.6044204,
            56.1184708
          ],
          [
            43.6042371,
            56.1185714
          ],
          [
            43.6041038,
            56.1186683
          ],
          [
            43.602332,
            56.1200343
          ],
          [
            43.6017754,
            56.1204552
          ],
          [
            43.6017084,
            56.1204958
          ],
          [
            43.6016227,
            56.1205207
          ],
          [
            43.6014074,
            56.1205407
          ],
          [
            43.6003121,
            56.1205582
          ],
          [
            43.6000959,
            56.1205216
          ],
          [
            43.5999294,
            56.1204647
          ],
          [
            43.5998125,
            56.120384
          ],
          [
            43.5997476,
            56.120291
          ],
          [
            43.5997284,
            56.1201922
          ],
          [
            43.5997456,
            56.1200822
          ],
          [
            43.5998125,
            56.1199959
          ],
          [
            43.5999814,
            56.1198941
          ],
          [
            43.6015223,
            56.1194223
          ],
          [
            43.6016856,
            56.1193575
          ],
          [
            43.6018137,
            56.1192783
          ],
          [
            43.6034262,
            56.1180455
          ],
          [
            43.6034617,
            56.1179797
          ],
          [
            43.603462,
            56.1179003
          ],
          [
            43.6034125,
            56.1178184
          ],
          [
            43.6032516,
            56.117674
          ],
          [
            43.6031475,
            56.1176319
          ],
          [
            43.6030224,
            56.1176346
          ],
          [
            43.6029203,
            56.1176819
          ],
          [
            43.6008273,
            56.1189149
          ],
          [
            43.6005997,
            56.1190102
          ],
          [
            43.600343,
            56.1190647
          ],
          [
            43.6001143,
            56.1190794
          ],
          [
            43.5998867,
            56.1190742
          ],
          [
            43.5996416,
            56.1190399
          ],
          [
            43.5994276,
            56.1189736
          ],
          [
            43.5968022,
            56.1178457
          ],
          [
            43.5966198,
            56.117815
          ],
          [
            43.5964676,
            56.1178188
          ],
          [
            43.5963199,
            56.1178531
          ],
          [
            43.5962123,
            56.1179076
          ],
          [
            43.5961407,
            56.1179742
          ],
          [
            43.5960958,
            56.118042
          ],
          [
            43.5961102,
            56.1181359
          ],
          [
            43.5967835,
            56.1196213
          ],
          [
            43.5968058,
            56.1196796
          ],
          [
            43.5968584,
            56.1197344
          ],
          [
            43.5969348,
            56.119777
          ],
          [
            43.5977048,
            56.1200736
          ],
          [
            43.5978313,
            56.1201421
          ],
          [
            43.5979317,
            56.1202131
          ],
          [
            43.5980217,
            56.1203042
          ],
          [
            43.598083,
            56.1204119
          ],
          [
            43.5980957,
            56.1205256
          ],
          [
            43.5980828,
            56.1206223
          ],
          [
            43.598017,
            56.1207558
          ],
          [
            43.5979536,
            56.1209002
          ],
          [
            43.5979279,
            56.1210169
          ],
          [
            43.5979187,
            56.1211143
          ],
          [
            43.5979631,
            56.1212172
          ],
          [
            43.5980509,
            56.1213312
          ],
          [
            43.5981703,
            56.1214241
          ],
          [
            43.5983113,
            56.121499
          ],
          [
            43.5984736,
            56.1215645
          ],
          [
            43.5986791,
            56.1216073
          ],
          [
            43.598897,
            56.121628
          ],
          [
            43.5990841,
            56.1216221
          ],
          [
            43.5992946,
            56.1215966
          ],
          [
            43.6000433,
            56.1214756
          ],
          [
            43.6006333,
            56.1214283
          ],
          [
            43.6011788,
            56.1212715
          ],
          [
            43.6017356,
            56.1211115
          ],
          [
            43.6030491,
            56.120726
          ],
          [
            43.6038174,
            56.1204904
          ],
          [
            43.6062729,
            56.119786
          ]
        ]
      }
    }
  ]
}
