{
  "type": "FeatureCollection",
  "bbox": [
    -0.3693128,
    43.2917522,
    -0.3571136,
    43.2971028
  ],
  "metadata": {
    "schemaVersion": 1,
    "trackId": "fr-pau-ville-7f7fc4ac",
    "layoutId": "pau-ville",
    "license": "ODbL-1.0",
    "attribution": "© OpenStreetMap contributors",
    "closed": true,
    "geometryStatus": "draft",
    "timingStatus": "missing",
    "timingMode": "shared",
    "lengthM": 2789.8,
    "reviewedAt": null,
    "notes": [
      "Draft configuration selected from the independently named circuit relation 9954713. The source route passes timing and course-distance checks. Layout identity and travel direction still require visual review.",
      "Source one-way tags are preserved. Relation routes can follow a race-day direction different from ordinary road use; travel direction is provisional."
    ]
  },
  "features": [
    {
      "type": "Feature",
      "id": "trace",
      "properties": {
        "role": "trace",
        "sourceIds": [
          "osm-circuit-9954713"
        ]
      },
      "geometry": {
        "type": "LineString",
        "coordinates": [
          [
            -0.3648215,
            43.2921545
          ],
          [
            -0.3647381,
            43.2921754
          ],
          [
            -0.3641519,
            43.2923117
          ],
          [
            -0.3640582,
            43.2923335
          ],
          [
            -0.3636701,
            43.2924237
          ],
          [
            -0.3634486,
            43.2924755
          ],
          [
            -0.363051,
            43.2925693
          ],
          [
            -0.3626374,
            43.2926669
          ],
          [
            -0.3625677,
            43.2926827
          ],
          [
            -0.3625394,
            43.2926891
          ],
          [
            -0.3621015,
            43.2927962
          ],
          [
            -0.3620633,
            43.2928055
          ],
          [
            -0.3619802,
            43.2928328
          ],
          [
            -0.3618944,
            43.292865
          ],
          [
            -0.3617173,
            43.2929387
          ],
          [
            -0.3615752,
            43.2930129
          ],
          [
            -0.3614035,
            43.2931164
          ],
          [
            -0.3612043,
            43.293249
          ],
          [
            -0.3610567,
            43.2933585
          ],
          [
            -0.3609953,
            43.2934034
          ],
          [
            -0.3608766,
            43.2934817
          ],
          [
            -0.3607571,
            43.2935537
          ],
          [
            -0.3605801,
            43.293643
          ],
          [
            -0.3604279,
            43.2937113
          ],
          [
            -0.3602636,
            43.2937728
          ],
          [
            -0.3602212,
            43.2937886
          ],
          [
            -0.3600792,
            43.2938324
          ],
          [
            -0.3596909,
            43.2939339
          ],
          [
            -0.3594506,
            43.2939906
          ],
          [
            -0.359322,
            43.294038
          ],
          [
            -0.3592615,
            43.2940783
          ],
          [
            -0.3592052,
            43.2941408
          ],
          [
            -0.3590705,
            43.2942592
          ],
          [
            -0.3590276,
            43.294297
          ],
          [
            -0.3589312,
            43.2943483
          ],
          [
            -0.3588184,
            43.2943805
          ],
          [
            -0.358743,
            43.2944028
          ],
          [
            -0.3586748,
            43.294423
          ],
          [
            -0.3584558,
            43.294482
          ],
          [
            -0.3583745,
            43.2945317
          ],
          [
            -0.3583119,
            43.2945872
          ],
          [
            -0.3580076,
            43.294917
          ],
          [
            -0.3579533,
            43.2949576
          ],
          [
            -0.3578912,
            43.2949935
          ],
          [
            -0.3578318,
            43.2950167
          ],
          [
            -0.3577336,
            43.2950385
          ],
          [
            -0.3575545,
            43.2950563
          ],
          [
            -0.357276,
            43.2950911
          ],
          [
            -0.3572134,
            43.2951088
          ],
          [
            -0.3571607,
            43.2951433
          ],
          [
            -0.3571341,
            43.2951787
          ],
          [
            -0.3571266,
            43.2951994
          ],
          [
            -0.3571161,
            43.2952281
          ],
          [
            -0.3571136,
            43.2952643
          ],
          [
            -0.3571208,
            43.2953017
          ],
          [
            -0.357137,
            43.2953399
          ],
          [
            -0.3571726,
            43.2953776
          ],
          [
            -0.3572186,
            43.2954052
          ],
          [
            -0.3572599,
            43.2954263
          ],
          [
            -0.3573153,
            43.2954311
          ],
          [
            -0.3573764,
            43.2954331
          ],
          [
            -0.3580032,
            43.2953331
          ],
          [
            -0.3584995,
            43.295242
          ],
          [
            -0.3586207,
            43.295234
          ],
          [
            -0.3587204,
            43.2952456
          ],
          [
            -0.3587266,
            43.2952473
          ],
          [
            -0.3588193,
            43.2952726
          ],
          [
            -0.3589075,
            43.2953113
          ],
          [
            -0.3589644,
            43.2953464
          ],
          [
            -0.3589735,
            43.2953544
          ],
          [
            -0.3590266,
            43.295401
          ],
          [
            -0.3590634,
            43.2954503
          ],
          [
            -0.3590753,
            43.2954816
          ],
          [
            -0.3590895,
            43.2955192
          ],
          [
            -0.3591089,
            43.2955974
          ],
          [
            -0.3590904,
            43.295672
          ],
          [
            -0.3590084,
            43.295844
          ],
          [
            -0.358987,
            43.2958889
          ],
          [
            -0.3589732,
            43.2959186
          ],
          [
            -0.358961,
            43.2959457
          ],
          [
            -0.3590421,
            43.2959683
          ],
          [
            -0.3590747,
            43.2959832
          ],
          [
            -0.3591208,
            43.2960113
          ],
          [
            -0.3592056,
            43.2960606
          ],
          [
            -0.3592619,
            43.2961071
          ],
          [
            -0.3592947,
            43.296155
          ],
          [
            -0.3593124,
            43.2961783
          ],
          [
            -0.3593398,
            43.2963285
          ],
          [
            -0.3593523,
            43.2964797
          ],
          [
            -0.359381,
            43.2965658
          ],
          [
            -0.3594832,
            43.2967181
          ],
          [
            -0.3596036,
            43.2968155
          ],
          [
            -0.359805,
            43.2969314
          ],
          [
            -0.360014,
            43.2970125
          ],
          [
            -0.3601871,
            43.2970579
          ],
          [
            -0.3603347,
            43.2970862
          ],
          [
            -0.3605117,
            43.2971028
          ],
          [
            -0.3606994,
            43.2971013
          ],
          [
            -0.3608751,
            43.2970774
          ],
          [
            -0.3610155,
            43.297039
          ],
          [
            -0.361063,
            43.2970224
          ],
          [
            -0.3612449,
            43.2969505
          ],
          [
            -0.3613371,
            43.2968958
          ],
          [
            -0.3614344,
            43.2968153
          ],
          [
            -0.3614743,
            43.2967767
          ],
          [
            -0.3615222,
            43.2967304
          ],
          [
            -0.3616005,
            43.2966262
          ],
          [
            -0.3616524,
            43.2964848
          ],
          [
            -0.3616814,
            43.2961944
          ],
          [
            -0.3616949,
            43.295828
          ],
          [
            -0.3617592,
            43.2956038
          ],
          [
            -0.3618942,
            43.2954009
          ],
          [
            -0.3621341,
            43.2952133
          ],
          [
            -0.3622328,
            43.2951468
          ],
          [
            -0.3624341,
            43.2950647
          ],
          [
            -0.3627723,
            43.2949241
          ],
          [
            -0.3631892,
            43.294811
          ],
          [
            -0.3634995,
            43.2947549
          ],
          [
            -0.3635197,
            43.2947524
          ],
          [
            -0.3636087,
            43.2947413
          ],
          [
            -0.3640369,
            43.2946877
          ],
          [
            -0.3641033,
            43.2946848
          ],
          [
            -0.3643564,
            43.2946695
          ],
          [
            -0.3646202,
            43.2946621
          ],
          [
            -0.365011,
            43.2946782
          ],
          [
            -0.3650864,
            43.2946731
          ],
          [
            -0.3651368,
            43.2946541
          ],
          [
            -0.3652088,
            43.2945979
          ],
          [
            -0.3650469,
            43.2945469
          ],
          [
            -0.3644471,
            43.2943437
          ],
          [
            -0.3643118,
            43.2943167
          ],
          [
            -0.364172,
            43.2942964
          ],
          [
            -0.3641351,
            43.2942932
          ],
          [
            -0.364068,
            43.2942873
          ],
          [
            -0.3640436,
            43.2942852
          ],
          [
            -0.3639015,
            43.2942838
          ],
          [
            -0.3637786,
            43.294277
          ],
          [
            -0.3637183,
            43.294267
          ],
          [
            -0.3636811,
            43.2942559
          ],
          [
            -0.3636625,
            43.2942504
          ],
          [
            -0.3634984,
            43.2941386
          ],
          [
            -0.3634595,
            43.2940541
          ],
          [
            -0.3634738,
            43.2940041
          ],
          [
            -0.3635181,
            43.2939601
          ],
          [
            -0.3636113,
            43.2938908
          ],
          [
            -0.3636834,
            43.2938537
          ],
          [
            -0.3637088,
            43.2938505
          ],
          [
            -0.3651905,
            43.2936613
          ],
          [
            -0.3654321,
            43.2936236
          ],
          [
            -0.365692,
            43.2935831
          ],
          [
            -0.365701,
            43.2935816
          ],
          [
            -0.3664539,
            43.2934365
          ],
          [
            -0.3669157,
            43.2933267
          ],
          [
            -0.3673762,
            43.2932123
          ],
          [
            -0.3689806,
            43.2927799
          ],
          [
            -0.3690961,
            43.2927347
          ],
          [
            -0.36918,
            43.2926722
          ],
          [
            -0.3692449,
            43.2925999
          ],
          [
            -0.369296,
            43.292498
          ],
          [
            -0.3692989,
            43.2924821
          ],
          [
            -0.3693128,
            43.2924052
          ],
          [
            -0.3691611,
            43.2923427
          ],
          [
            -0.3691186,
            43.2923252
          ],
          [
            -0.368868,
            43.2922511
          ],
          [
            -0.3688562,
            43.2922478
          ],
          [
            -0.3688439,
            43.2922449
          ],
          [
            -0.3687075,
            43.2922121
          ],
          [
            -0.368585,
            43.2921826
          ],
          [
            -0.3685312,
            43.2921696
          ],
          [
            -0.3683712,
            43.2921311
          ],
          [
            -0.3682262,
            43.2920914
          ],
          [
            -0.36819,
            43.2920812
          ],
          [
            -0.3680981,
            43.2920553
          ],
          [
            -0.3678719,
            43.291981
          ],
          [
            -0.3673586,
            43.2918153
          ],
          [
            -0.3671688,
            43.2917779
          ],
          [
            -0.3669965,
            43.2917591
          ],
          [
            -0.366862,
            43.2917522
          ],
          [
            -0.3667513,
            43.2917527
          ],
          [
            -0.3665709,
            43.2917633
          ],
          [
            -0.3664173,
            43.2917867
          ],
          [
            -0.3662586,
            43.2918158
          ],
          [
            -0.365429,
            43.2920074
          ],
          [
            -0.365353,
            43.2920244
          ],
          [
            -0.3648782,
            43.2921405
          ],
          [
            -0.3648215,
            43.2921545
          ]
        ]
      }
    }
  ]
}
