{
  "type": "FeatureCollection",
  "bbox": [
    -1.4763974,
    52.0796967,
    -1.4742055,
    52.083962
  ],
  "metadata": {
    "schemaVersion": 1,
    "trackId": "gb-shenington-kart-racing-a8ff3102",
    "layoutId": "shenington-kart-racing-club",
    "license": "ODbL-1.0",
    "attribution": "© OpenStreetMap contributors",
    "closed": true,
    "geometryStatus": "draft",
    "timingStatus": "missing",
    "timingMode": "shared",
    "lengthM": 1209.1,
    "reviewedAt": null,
    "notes": [
      "Draft route hypothesis: the source cycle is the unique closest nominal-distance match within conservative timing and distance checks. Approximate OSM trace length 1209.1 m. Difference from the supplied layout distance 2.9 m. Course configuration still requires visual review."
    ]
  },
  "features": [
    {
      "type": "Feature",
      "id": "trace",
      "properties": {
        "role": "trace",
        "sourceIds": [
          "osm-network-96878929"
        ]
      },
      "geometry": {
        "type": "LineString",
        "coordinates": [
          [
            -1.4753733,
            52.0815737
          ],
          [
            -1.4753247,
            52.0815554
          ],
          [
            -1.4752705,
            52.0815456
          ],
          [
            -1.4752165,
            52.0815436
          ],
          [
            -1.4750251,
            52.0815488
          ],
          [
            -1.4749646,
            52.0815418
          ],
          [
            -1.4749091,
            52.0815228
          ],
          [
            -1.4748657,
            52.081502
          ],
          [
            -1.4748036,
            52.0814569
          ],
          [
            -1.4747393,
            52.0813847
          ],
          [
            -1.4746771,
            52.0812818
          ],
          [
            -1.4742191,
            52.0803661
          ],
          [
            -1.4742055,
            52.0803028
          ],
          [
            -1.4742158,
            52.0802544
          ],
          [
            -1.4742488,
            52.0801938
          ],
          [
            -1.4743114,
            52.0801148
          ],
          [
            -1.4744691,
            52.0799161
          ],
          [
            -1.4745351,
            52.0798477
          ],
          [
            -1.4745995,
            52.0797995
          ],
          [
            -1.4746613,
            52.0797676
          ],
          [
            -1.4747474,
            52.0797377
          ],
          [
            -1.474857,
            52.0797132
          ],
          [
            -1.474983,
            52.0796982
          ],
          [
            -1.4750456,
            52.0796967
          ],
          [
            -1.4750979,
            52.0797059
          ],
          [
            -1.475127,
            52.0797214
          ],
          [
            -1.4751496,
            52.0797401
          ],
          [
            -1.4751665,
            52.0797643
          ],
          [
            -1.4751718,
            52.0797907
          ],
          [
            -1.4751699,
            52.0798127
          ],
          [
            -1.4751589,
            52.0798346
          ],
          [
            -1.4751463,
            52.0798504
          ],
          [
            -1.4751286,
            52.0798677
          ],
          [
            -1.4750993,
            52.0798788
          ],
          [
            -1.4750617,
            52.079889
          ],
          [
            -1.474993,
            52.079893
          ],
          [
            -1.4749134,
            52.0798931
          ],
          [
            -1.4748638,
            52.079901
          ],
          [
            -1.4748156,
            52.0799145
          ],
          [
            -1.4747628,
            52.0799359
          ],
          [
            -1.4747238,
            52.0799642
          ],
          [
            -1.4746947,
            52.0799913
          ],
          [
            -1.4746548,
            52.0800343
          ],
          [
            -1.4746285,
            52.0800844
          ],
          [
            -1.4746106,
            52.0801461
          ],
          [
            -1.4746102,
            52.0802145
          ],
          [
            -1.4746097,
            52.0802834
          ],
          [
            -1.4746074,
            52.0804123
          ],
          [
            -1.4746301,
            52.080481
          ],
          [
            -1.474679,
            52.080577
          ],
          [
            -1.4747383,
            52.0806799
          ],
          [
            -1.4747965,
            52.080773
          ],
          [
            -1.4747992,
            52.0807773
          ],
          [
            -1.4749708,
            52.0810511
          ],
          [
            -1.475017,
            52.081107
          ],
          [
            -1.4750787,
            52.0811629
          ],
          [
            -1.4751508,
            52.0812005
          ],
          [
            -1.475175,
            52.0812118
          ],
          [
            -1.4753039,
            52.0812539
          ],
          [
            -1.475422,
            52.0812733
          ],
          [
            -1.4755163,
            52.0812772
          ],
          [
            -1.4756208,
            52.0812694
          ],
          [
            -1.4757425,
            52.0812405
          ],
          [
            -1.4758395,
            52.0811994
          ],
          [
            -1.4759242,
            52.0811543
          ],
          [
            -1.4760315,
            52.0811098
          ],
          [
            -1.4761452,
            52.0810958
          ],
          [
            -1.4762562,
            52.0811099
          ],
          [
            -1.4763231,
            52.0811414
          ],
          [
            -1.4763653,
            52.0811824
          ],
          [
            -1.4763853,
            52.0812368
          ],
          [
            -1.47638,
            52.0812876
          ],
          [
            -1.4763586,
            52.0813364
          ],
          [
            -1.4762994,
            52.0813924
          ],
          [
            -1.4761562,
            52.0814734
          ],
          [
            -1.4760456,
            52.0815324
          ],
          [
            -1.4759851,
            52.0815646
          ],
          [
            -1.4758543,
            52.0816342
          ],
          [
            -1.4756404,
            52.0817554
          ],
          [
            -1.4755877,
            52.0817934
          ],
          [
            -1.4755471,
            52.0818313
          ],
          [
            -1.4755176,
            52.0818769
          ],
          [
            -1.475499,
            52.0819288
          ],
          [
            -1.4754886,
            52.0819787
          ],
          [
            -1.4754977,
            52.0820523
          ],
          [
            -1.4755179,
            52.0821078
          ],
          [
            -1.4755391,
            52.0821602
          ],
          [
            -1.4760012,
            52.0830508
          ],
          [
            -1.4763859,
            52.0838475
          ],
          [
            -1.4763974,
            52.083882
          ],
          [
            -1.4763931,
            52.0839052
          ],
          [
            -1.4763812,
            52.0839284
          ],
          [
            -1.4763565,
            52.0839451
          ],
          [
            -1.4763227,
            52.083957
          ],
          [
            -1.4762696,
            52.083962
          ],
          [
            -1.4762164,
            52.0839596
          ],
          [
            -1.4761718,
            52.0839472
          ],
          [
            -1.4761333,
            52.083931
          ],
          [
            -1.4760958,
            52.0839035
          ],
          [
            -1.4760782,
            52.0838776
          ],
          [
            -1.4756932,
            52.0831135
          ],
          [
            -1.4754353,
            52.0825866
          ],
          [
            -1.4753134,
            52.0823606
          ],
          [
            -1.475165,
            52.082091
          ],
          [
            -1.4751495,
            52.0820333
          ],
          [
            -1.4751494,
            52.0819998
          ],
          [
            -1.4751563,
            52.0819671
          ],
          [
            -1.4751742,
            52.0819323
          ],
          [
            -1.475201,
            52.0818967
          ],
          [
            -1.4752412,
            52.0818539
          ],
          [
            -1.4752838,
            52.0818161
          ],
          [
            -1.4754024,
            52.081722
          ],
          [
            -1.4754249,
            52.0816936
          ],
          [
            -1.4754359,
            52.08166
          ],
          [
            -1.4754214,
            52.0816195
          ],
          [
            -1.4754046,
            52.0815981
          ],
          [
            -1.4753733,
            52.0815737
          ]
        ]
      }
    }
  ]
}
