{
  "type": "FeatureCollection",
  "bbox": [
    -6.7526422,
    53.2551546,
    -6.7437373,
    53.2604352
  ],
  "metadata": {
    "schemaVersion": 1,
    "trackId": "ie-mondello-park-87185988",
    "layoutId": "main",
    "license": "ODbL-1.0",
    "attribution": "© OpenStreetMap contributors",
    "closed": true,
    "geometryStatus": "draft",
    "timingStatus": "missing",
    "timingMode": "shared",
    "lengthM": 3521.5,
    "reviewedAt": null,
    "notes": [
      "Connected OSM course candidate. The selected loop is the longest simple source-node cycle after explicit exclusions; its association with a named circuit configuration requires review.",
      "Source way order and shared node IDs are retained. No nearby endpoints are joined and no Racelogic boundaries are read."
    ]
  },
  "features": [
    {
      "type": "Feature",
      "id": "trace",
      "properties": {
        "role": "trace",
        "sourceIds": [
          "osm-snapshot"
        ]
      },
      "geometry": {
        "type": "LineString",
        "coordinates": [
          [
            -6.7489046,
            53.2571209
          ],
          [
            -6.748466,
            53.2571685
          ],
          [
            -6.7483588,
            53.2571801
          ],
          [
            -6.7483334,
            53.2571902
          ],
          [
            -6.7482493,
            53.2572237
          ],
          [
            -6.748175,
            53.2573208
          ],
          [
            -6.7481361,
            53.2574572
          ],
          [
            -6.7477844,
            53.2579717
          ],
          [
            -6.7476551,
            53.2581511
          ],
          [
            -6.7472441,
            53.258858
          ],
          [
            -6.747137,
            53.259065
          ],
          [
            -6.7470485,
            53.2592009
          ],
          [
            -6.7469553,
            53.259276
          ],
          [
            -6.7468614,
            53.2593185
          ],
          [
            -6.7467146,
            53.2593277
          ],
          [
            -6.7465898,
            53.259308
          ],
          [
            -6.7464772,
            53.2592487
          ],
          [
            -6.7464048,
            53.2591825
          ],
          [
            -6.7463484,
            53.2590722
          ],
          [
            -6.7463254,
            53.2589835
          ],
          [
            -6.7462894,
            53.2588058
          ],
          [
            -6.7462358,
            53.2586534
          ],
          [
            -6.7461136,
            53.2584423
          ],
          [
            -6.7450997,
            53.2570015
          ],
          [
            -6.7448773,
            53.2567023
          ],
          [
            -6.744779,
            53.2565255
          ],
          [
            -6.7441249,
            53.2557965
          ],
          [
            -6.7439331,
            53.2556192
          ],
          [
            -6.7437856,
            53.255498
          ],
          [
            -6.7437387,
            53.2554218
          ],
          [
            -6.7437373,
            53.2553247
          ],
          [
            -6.7437963,
            53.2552445
          ],
          [
            -6.7439157,
            53.2552044
          ],
          [
            -6.7440471,
            53.2551859
          ],
          [
            -6.744204,
            53.2552036
          ],
          [
            -6.7443542,
            53.2552605
          ],
          [
            -6.7444897,
            53.255356
          ],
          [
            -6.745061,
            53.2558494
          ],
          [
            -6.7452031,
            53.2559281
          ],
          [
            -6.7453802,
            53.2559553
          ],
          [
            -6.7455652,
            53.2559666
          ],
          [
            -6.745772,
            53.2559556
          ],
          [
            -6.7461245,
            53.2558823
          ],
          [
            -6.7467535,
            53.255766
          ],
          [
            -6.7478811,
            53.2555442
          ],
          [
            -6.7488456,
            53.2553552
          ],
          [
            -6.7495671,
            53.2552156
          ],
          [
            -6.7498688,
            53.2551723
          ],
          [
            -6.7501599,
            53.2551546
          ],
          [
            -6.7503637,
            53.2551586
          ],
          [
            -6.7505823,
            53.2551948
          ],
          [
            -6.751159,
            53.2554018
          ],
          [
            -6.751277,
            53.2554828
          ],
          [
            -6.7513964,
            53.2555903
          ],
          [
            -6.7514554,
            53.2557219
          ],
          [
            -6.7514259,
            53.2558206
          ],
          [
            -6.7513427,
            53.2559048
          ],
          [
            -6.751222,
            53.2559481
          ],
          [
            -6.7510276,
            53.2559682
          ],
          [
            -6.750707,
            53.2559714
          ],
          [
            -6.7501974,
            53.2559746
          ],
          [
            -6.7496543,
            53.2559537
          ],
          [
            -6.7487785,
            53.2558615
          ],
          [
            -6.7484122,
            53.255835
          ],
          [
            -6.7479884,
            53.255844
          ],
          [
            -6.7476775,
            53.2558751
          ],
          [
            -6.7470767,
            53.2559963
          ],
          [
            -6.7469063,
            53.2560829
          ],
          [
            -6.7468002,
            53.2561992
          ],
          [
            -6.7467535,
            53.25631
          ],
          [
            -6.7467575,
            53.2564167
          ],
          [
            -6.7468178,
            53.256533
          ],
          [
            -6.747027,
            53.2566806
          ],
          [
            -6.7471907,
            53.2567368
          ],
          [
            -6.7474158,
            53.2567826
          ],
          [
            -6.7477708,
            53.2567508
          ],
          [
            -6.74823,
            53.2566742
          ],
          [
            -6.7490172,
            53.2565659
          ],
          [
            -6.7490322,
            53.2565632
          ],
          [
            -6.7499641,
            53.2564351
          ],
          [
            -6.75042,
            53.2563685
          ],
          [
            -6.7507312,
            53.2563557
          ],
          [
            -6.7510664,
            53.2563493
          ],
          [
            -6.7518175,
            53.2563637
          ],
          [
            -6.7521165,
            53.2563774
          ],
          [
            -6.7522989,
            53.2564215
          ],
          [
            -6.7524424,
            53.2565033
          ],
          [
            -6.7525524,
            53.2566148
          ],
          [
            -6.7526074,
            53.2567424
          ],
          [
            -6.7526409,
            53.2569157
          ],
          [
            -6.7526422,
            53.2570425
          ],
          [
            -6.7526114,
            53.2571861
          ],
          [
            -6.7525028,
            53.257361
          ],
          [
            -6.7523687,
            53.2575006
          ],
          [
            -6.7521968,
            53.2576176
          ],
          [
            -6.7513677,
            53.2580685
          ],
          [
            -6.7503213,
            53.2586366
          ],
          [
            -6.7497664,
            53.2589797
          ],
          [
            -6.7495577,
            53.2591203
          ],
          [
            -6.7494182,
            53.2592591
          ],
          [
            -6.7491956,
            53.259503
          ],
          [
            -6.748623,
            53.2602828
          ],
          [
            -6.748541,
            53.2603693
          ],
          [
            -6.7484365,
            53.2604247
          ],
          [
            -6.7483212,
            53.2604352
          ],
          [
            -6.748171,
            53.2604223
          ],
          [
            -6.7474763,
            53.2602475
          ],
          [
            -6.747365,
            53.2601737
          ],
          [
            -6.7473221,
            53.2601151
          ],
          [
            -6.7473435,
            53.260026
          ],
          [
            -6.7486028,
            53.2582274
          ],
          [
            -6.7487168,
            53.2580782
          ],
          [
            -6.7488174,
            53.2579811
          ],
          [
            -6.7489475,
            53.2579177
          ],
          [
            -6.7491017,
            53.2579001
          ],
          [
            -6.7492855,
            53.2579145
          ],
          [
            -6.7498353,
            53.2580421
          ],
          [
            -6.7500311,
            53.2580726
          ],
          [
            -6.7502135,
            53.2580557
          ],
          [
            -6.7503677,
            53.2580044
          ],
          [
            -6.7510465,
            53.2576254
          ],
          [
            -6.7514004,
            53.257434
          ],
          [
            -6.7515546,
            53.2573425
          ],
          [
            -6.751678,
            53.2572214
          ],
          [
            -6.7517062,
            53.2571411
          ],
          [
            -6.7517075,
            53.2570473
          ],
          [
            -6.7516632,
            53.2569791
          ],
          [
            -6.7515948,
            53.2569013
          ],
          [
            -6.7514312,
            53.2568315
          ],
          [
            -6.7512985,
            53.2568114
          ],
          [
            -6.7511389,
            53.256809
          ],
          [
            -6.7508331,
            53.2568403
          ],
          [
            -6.7495966,
            53.2570304
          ],
          [
            -6.7489046,
            53.2571209
          ]
        ]
      }
    }
  ]
}
