{
  "type": "FeatureCollection",
  "bbox": [
    -6.7526422,
    53.2563493,
    -6.7473221,
    53.2604352
  ],
  "metadata": {
    "schemaVersion": 1,
    "trackId": "ie-mondello-park-87185988",
    "layoutId": "mondello-park-short-loop",
    "license": "ODbL-1.0",
    "attribution": "© OpenStreetMap contributors",
    "closed": true,
    "geometryStatus": "draft",
    "timingStatus": "missing",
    "timingMode": "shared",
    "lengthM": 1542.2,
    "reviewedAt": null,
    "notes": [
      "Draft route hypothesis: the source cycle is the unique closest nominal-distance match within conservative timing and distance checks. Approximate OSM trace length 1542.2 m. Difference from the supplied layout distance 2.8 m. Course configuration still requires visual review."
    ]
  },
  "features": [
    {
      "type": "Feature",
      "id": "trace",
      "properties": {
        "role": "trace",
        "sourceIds": [
          "osm-network-87185988"
        ]
      },
      "geometry": {
        "type": "LineString",
        "coordinates": [
          [
            -6.7503677,
            53.2580044
          ],
          [
            -6.7510465,
            53.2576254
          ],
          [
            -6.7514004,
            53.257434
          ],
          [
            -6.7515546,
            53.2573425
          ],
          [
            -6.751678,
            53.2572214
          ],
          [
            -6.7517062,
            53.2571411
          ],
          [
            -6.7517075,
            53.2570473
          ],
          [
            -6.7516632,
            53.2569791
          ],
          [
            -6.7515948,
            53.2569013
          ],
          [
            -6.7514312,
            53.2568315
          ],
          [
            -6.7512985,
            53.2568114
          ],
          [
            -6.7511389,
            53.256809
          ],
          [
            -6.7508331,
            53.2568403
          ],
          [
            -6.7495966,
            53.2570304
          ],
          [
            -6.7495242,
            53.2569349
          ],
          [
            -6.7495202,
            53.2568708
          ],
          [
            -6.7495532,
            53.2567956
          ],
          [
            -6.7496155,
            53.2567138
          ],
          [
            -6.7497192,
            53.2566193
          ],
          [
            -6.7499641,
            53.2564351
          ],
          [
            -6.75042,
            53.2563685
          ],
          [
            -6.7507312,
            53.2563557
          ],
          [
            -6.7510664,
            53.2563493
          ],
          [
            -6.7518175,
            53.2563637
          ],
          [
            -6.7521165,
            53.2563774
          ],
          [
            -6.7522989,
            53.2564215
          ],
          [
            -6.7524424,
            53.2565033
          ],
          [
            -6.7525524,
            53.2566148
          ],
          [
            -6.7526074,
            53.2567424
          ],
          [
            -6.7526409,
            53.2569157
          ],
          [
            -6.7526422,
            53.2570425
          ],
          [
            -6.7526114,
            53.2571861
          ],
          [
            -6.7525028,
            53.257361
          ],
          [
            -6.7523687,
            53.2575006
          ],
          [
            -6.7521968,
            53.2576176
          ],
          [
            -6.7513677,
            53.2580685
          ],
          [
            -6.7503213,
            53.2586366
          ],
          [
            -6.7497664,
            53.2589797
          ],
          [
            -6.7495577,
            53.2591203
          ],
          [
            -6.7494182,
            53.2592591
          ],
          [
            -6.7491956,
            53.259503
          ],
          [
            -6.748623,
            53.2602828
          ],
          [
            -6.748541,
            53.2603693
          ],
          [
            -6.7484365,
            53.2604247
          ],
          [
            -6.7483212,
            53.2604352
          ],
          [
            -6.748171,
            53.2604223
          ],
          [
            -6.7474763,
            53.2602475
          ],
          [
            -6.747365,
            53.2601737
          ],
          [
            -6.7473221,
            53.2601151
          ],
          [
            -6.7473435,
            53.260026
          ],
          [
            -6.7486028,
            53.2582274
          ],
          [
            -6.7487168,
            53.2580782
          ],
          [
            -6.7488174,
            53.2579811
          ],
          [
            -6.7489475,
            53.2579177
          ],
          [
            -6.7491017,
            53.2579001
          ],
          [
            -6.7492855,
            53.2579145
          ],
          [
            -6.7498353,
            53.2580421
          ],
          [
            -6.7500311,
            53.2580726
          ],
          [
            -6.7502135,
            53.2580557
          ],
          [
            -6.7503677,
            53.2580044
          ]
        ]
      }
    }
  ]
}
