{
  "type": "FeatureCollection",
  "bbox": [
    99.7044859,
    12.9425535,
    99.7062387,
    12.95061
  ],
  "metadata": {
    "schemaVersion": 1,
    "trackId": "th-kaeng-krachan-circuit-469691616",
    "layoutId": "main",
    "license": "ODbL-1.0",
    "attribution": "© OpenStreetMap contributors",
    "closed": true,
    "geometryStatus": "draft",
    "timingStatus": "missing",
    "timingMode": "shared",
    "lengthM": 2895.2,
    "reviewedAt": null,
    "notes": [
      "Connected OSM course candidate. The selected loop is the longest simple source-node cycle after explicit exclusions; its association with a named circuit configuration requires review.",
      "Source way order and shared node IDs are retained. No nearby endpoints are joined and no Racelogic boundaries are read.",
      "Some source ways lack one-way direction tags. Travel direction is provisional."
    ]
  },
  "features": [
    {
      "type": "Feature",
      "id": "trace",
      "properties": {
        "role": "trace",
        "sourceIds": [
          "osm-snapshot"
        ]
      },
      "geometry": {
        "type": "LineString",
        "coordinates": [
          [
            99.7061435,
            12.9445611
          ],
          [
            99.7061153,
            12.9457793
          ],
          [
            99.7060992,
            12.9459387
          ],
          [
            99.7060496,
            12.9460917
          ],
          [
            99.7059021,
            12.9463491
          ],
          [
            99.7056955,
            12.9466171
          ],
          [
            99.7056379,
            12.9467373
          ],
          [
            99.7054769,
            12.9473647
          ],
          [
            99.7053737,
            12.9478574
          ],
          [
            99.7053643,
            12.9480221
          ],
          [
            99.7053804,
            12.9481907
          ],
          [
            99.7054555,
            12.9484953
          ],
          [
            99.7054877,
            12.9486691
          ],
          [
            99.7054702,
            12.9488534
          ],
          [
            99.705375,
            12.9490599
          ],
          [
            99.7052422,
            12.949201
          ],
          [
            99.7050008,
            12.9493513
          ],
          [
            99.7049003,
            12.9494481
          ],
          [
            99.7048372,
            12.9495814
          ],
          [
            99.7048091,
            12.9498023
          ],
          [
            99.7048252,
            12.9499839
          ],
          [
            99.7048855,
            12.9501002
          ],
          [
            99.705021,
            12.9502022
          ],
          [
            99.7052181,
            12.9502858
          ],
          [
            99.7053495,
            12.9503028
          ],
          [
            99.7054327,
            12.9502793
          ],
          [
            99.7055011,
            12.9502113
          ],
          [
            99.7055131,
            12.9501172
          ],
          [
            99.7054904,
            12.9499957
          ],
          [
            99.7053924,
            12.9497657
          ],
          [
            99.7053804,
            12.9496219
          ],
          [
            99.7054152,
            12.9494807
          ],
          [
            99.7055118,
            12.9493448
          ],
          [
            99.7057103,
            12.9491527
          ],
          [
            99.7058001,
            12.9489945
          ],
          [
            99.7058364,
            12.9488076
          ],
          [
            99.7058069,
            12.9484286
          ],
          [
            99.7057264,
            12.9476823
          ],
          [
            99.7057237,
            12.9475059
          ],
          [
            99.7057586,
            12.9472837
          ],
          [
            99.7058927,
            12.9468105
          ],
          [
            99.7059477,
            12.9467047
          ],
          [
            99.706004,
            12.9466641
          ],
          [
            99.706067,
            12.9466602
          ],
          [
            99.7061301,
            12.946685
          ],
          [
            99.7061689,
            12.9467543
          ],
          [
            99.7061904,
            12.9469033
          ],
          [
            99.7061837,
            12.9479999
          ],
          [
            99.7061649,
            12.9483541
          ],
          [
            99.7060791,
            12.9489057
          ],
          [
            99.7058149,
            12.9502231
          ],
          [
            99.7057465,
            12.9504022
          ],
          [
            99.7056566,
            12.9505211
          ],
          [
            99.7055266,
            12.9505878
          ],
          [
            99.7053495,
            12.95061
          ],
          [
            99.7051175,
            12.9505812
          ],
          [
            99.704911,
            12.9504897
          ],
          [
            99.7046924,
            12.9503433
          ],
          [
            99.7045824,
            12.9502309
          ],
          [
            99.7045194,
            12.9500702
          ],
          [
            99.7044859,
            12.9498611
          ],
          [
            99.7044993,
            12.9497199
          ],
          [
            99.7045623,
            12.9495395
          ],
          [
            99.7048788,
            12.9489566
          ],
          [
            99.7049392,
            12.9488089
          ],
          [
            99.70497,
            12.9486443
          ],
          [
            99.7050076,
            12.9481973
          ],
          [
            99.7050639,
            12.9479254
          ],
          [
            99.7052463,
            12.9472405
          ],
          [
            99.705375,
            12.9466903
          ],
          [
            99.7054555,
            12.9464053
          ],
          [
            99.7055292,
            12.946208
          ],
          [
            99.7056526,
            12.9459165
          ],
          [
            99.705717,
            12.9457179
          ],
          [
            99.7058337,
            12.9451467
          ],
          [
            99.7058471,
            12.9449964
          ],
          [
            99.705831,
            12.9448944
          ],
          [
            99.7057814,
            12.9448147
          ],
          [
            99.7056607,
            12.944684
          ],
          [
            99.7056245,
            12.9446082
          ],
          [
            99.7056285,
            12.9444906
          ],
          [
            99.705666,
            12.9443507
          ],
          [
            99.7057854,
            12.9440449
          ],
          [
            99.7058069,
            12.9439495
          ],
          [
            99.7058028,
            12.9438697
          ],
          [
            99.7057773,
            12.9438005
          ],
          [
            99.7056915,
            12.9436554
          ],
          [
            99.7056674,
            12.9435639
          ],
          [
            99.7056607,
            12.9434384
          ],
          [
            99.7056812,
            12.9432149
          ],
          [
            99.705717,
            12.9428267
          ],
          [
            99.7057532,
            12.9427235
          ],
          [
            99.7058256,
            12.9426267
          ],
          [
            99.7059329,
            12.9425745
          ],
          [
            99.706067,
            12.9425535
          ],
          [
            99.7061515,
            12.9425653
          ],
          [
            99.7062145,
            12.9426111
          ],
          [
            99.7062387,
            12.9426829
          ],
          [
            99.706236,
            12.9427757
          ],
          [
            99.7061207,
            12.9431064
          ],
          [
            99.7061086,
            12.9432241
          ],
          [
            99.7061435,
            12.9440932
          ],
          [
            99.7061435,
            12.9445611
          ]
        ]
      }
    }
  ]
}
