{
  "type": "FeatureCollection",
  "bbox": [
    175.0713936,
    -37.3579671,
    175.0784041,
    -37.3502291
  ],
  "metadata": {
    "schemaVersion": 1,
    "trackId": "nz-hampton-downs-international-circuit-352414652",
    "layoutId": "hampton-downs-international",
    "license": "ODbL-1.0",
    "attribution": "© OpenStreetMap contributors",
    "closed": true,
    "geometryStatus": "draft",
    "timingStatus": "missing",
    "timingMode": "shared",
    "lengthM": 3837.9,
    "reviewedAt": null,
    "notes": [
      "Draft route hypothesis: the source cycle is the unique closest nominal-distance match within conservative timing and distance checks. Approximate OSM trace length 3837.9 m. Difference from the supplied layout distance 3.9 m. Course configuration still requires visual review."
    ]
  },
  "features": [
    {
      "type": "Feature",
      "id": "trace",
      "properties": {
        "role": "trace",
        "sourceIds": [
          "osm-network-352414652"
        ]
      },
      "geometry": {
        "type": "LineString",
        "coordinates": [
          [
            175.0776745,
            -37.3561637
          ],
          [
            175.0770147,
            -37.3574045
          ],
          [
            175.076784,
            -37.3577542
          ],
          [
            175.076671,
            -37.3578464
          ],
          [
            175.0765265,
            -37.3578949
          ],
          [
            175.0763332,
            -37.3579497
          ],
          [
            175.0762287,
            -37.3579615
          ],
          [
            175.0761242,
            -37.3579671
          ],
          [
            175.0759928,
            -37.3579479
          ],
          [
            175.0758613,
            -37.3579162
          ],
          [
            175.0757385,
            -37.357868
          ],
          [
            175.0756628,
            -37.3578011
          ],
          [
            175.0754375,
            -37.357558
          ],
          [
            175.0751479,
            -37.3571444
          ],
          [
            175.0740106,
            -37.3556863
          ],
          [
            175.0739301,
            -37.3555456
          ],
          [
            175.0735645,
            -37.355108
          ],
          [
            175.0730903,
            -37.3545149
          ],
          [
            175.0730431,
            -37.3545392
          ],
          [
            175.0729474,
            -37.3545514
          ],
          [
            175.0728179,
            -37.3545367
          ],
          [
            175.0727531,
            -37.3544999
          ],
          [
            175.0726914,
            -37.3544043
          ],
          [
            175.0726482,
            -37.3542547
          ],
          [
            175.0725309,
            -37.3541002
          ],
          [
            175.0724258,
            -37.3539775
          ],
          [
            175.0720435,
            -37.3535313
          ],
          [
            175.0719783,
            -37.3534184
          ],
          [
            175.0719114,
            -37.3532619
          ],
          [
            175.0717893,
            -37.3530835
          ],
          [
            175.0716988,
            -37.3529051
          ],
          [
            175.0716013,
            -37.3527261
          ],
          [
            175.07142,
            -37.352382
          ],
          [
            175.0714018,
            -37.352293
          ],
          [
            175.0713936,
            -37.3521829
          ],
          [
            175.0713996,
            -37.3521174
          ],
          [
            175.0714112,
            -37.3520427
          ],
          [
            175.0714318,
            -37.3519886
          ],
          [
            175.0714526,
            -37.3519589
          ],
          [
            175.0715284,
            -37.351931
          ],
          [
            175.0716307,
            -37.3519008
          ],
          [
            175.0717744,
            -37.3519247
          ],
          [
            175.0719397,
            -37.3519806
          ],
          [
            175.0721388,
            -37.3521269
          ],
          [
            175.0724016,
            -37.352333
          ],
          [
            175.0726557,
            -37.3525307
          ],
          [
            175.0728323,
            -37.3526446
          ],
          [
            175.0729657,
            -37.3526998
          ],
          [
            175.0731431,
            -37.3526923
          ],
          [
            175.0732556,
            -37.3526492
          ],
          [
            175.07335,
            -37.3525731
          ],
          [
            175.0734111,
            -37.3524529
          ],
          [
            175.0733992,
            -37.3521405
          ],
          [
            175.0733634,
            -37.3515148
          ],
          [
            175.0734063,
            -37.3513471
          ],
          [
            175.0735305,
            -37.351215
          ],
          [
            175.0737153,
            -37.3511314
          ],
          [
            175.0739057,
            -37.3511071
          ],
          [
            175.0741146,
            -37.3511255
          ],
          [
            175.0743272,
            -37.3511808
          ],
          [
            175.0745306,
            -37.3512779
          ],
          [
            175.0746918,
            -37.3513845
          ],
          [
            175.0748214,
            -37.3515154
          ],
          [
            175.0749223,
            -37.3516604
          ],
          [
            175.0749776,
            -37.3518167
          ],
          [
            175.0749893,
            -37.3519657
          ],
          [
            175.0749906,
            -37.3521455
          ],
          [
            175.0749534,
            -37.3522898
          ],
          [
            175.0748961,
            -37.3523889
          ],
          [
            175.0739846,
            -37.353801
          ],
          [
            175.0739592,
            -37.3538793
          ],
          [
            175.0739631,
            -37.3539545
          ],
          [
            175.0739878,
            -37.3540356
          ],
          [
            175.0740425,
            -37.3541166
          ],
          [
            175.0741283,
            -37.3541848
          ],
          [
            175.0743064,
            -37.3543298
          ],
          [
            175.0744137,
            -37.3544014
          ],
          [
            175.074521,
            -37.3544492
          ],
          [
            175.0746323,
            -37.3544856
          ],
          [
            175.0747364,
            -37.3545163
          ],
          [
            175.0748863,
            -37.3545426
          ],
          [
            175.0749814,
            -37.3545545
          ],
          [
            175.0750789,
            -37.3545515
          ],
          [
            175.0751748,
            -37.3545408
          ],
          [
            175.0752689,
            -37.3545184
          ],
          [
            175.075317,
            -37.354488
          ],
          [
            175.0753503,
            -37.354446
          ],
          [
            175.0753769,
            -37.3543989
          ],
          [
            175.0753979,
            -37.3543388
          ],
          [
            175.0754189,
            -37.3541908
          ],
          [
            175.0754955,
            -37.3528993
          ],
          [
            175.0755062,
            -37.3527927
          ],
          [
            175.0755372,
            -37.3527493
          ],
          [
            175.0755985,
            -37.352721
          ],
          [
            175.0756774,
            -37.3527098
          ],
          [
            175.0757487,
            -37.3527152
          ],
          [
            175.0758187,
            -37.3527289
          ],
          [
            175.0758774,
            -37.3527441
          ],
          [
            175.0759287,
            -37.3527745
          ],
          [
            175.0759686,
            -37.352814
          ],
          [
            175.0760325,
            -37.3528942
          ],
          [
            175.0760813,
            -37.3529743
          ],
          [
            175.0771005,
            -37.3546843
          ],
          [
            175.0771469,
            -37.3547308
          ],
          [
            175.0771971,
            -37.3547653
          ],
          [
            175.0772561,
            -37.3547884
          ],
          [
            175.0773151,
            -37.3547994
          ],
          [
            175.0773795,
            -37.3548087
          ],
          [
            175.0774438,
            -37.354809
          ],
          [
            175.0774909,
            -37.3547946
          ],
          [
            175.0775153,
            -37.3547742
          ],
          [
            175.0775463,
            -37.3547442
          ],
          [
            175.0775544,
            -37.3547143
          ],
          [
            175.07755,
            -37.3546092
          ],
          [
            175.0766392,
            -37.352518
          ],
          [
            175.0759354,
            -37.3509718
          ],
          [
            175.0758935,
            -37.3507867
          ],
          [
            175.0759153,
            -37.3506823
          ],
          [
            175.0759686,
            -37.3505778
          ],
          [
            175.0760607,
            -37.3504618
          ],
          [
            175.0761607,
            -37.3503833
          ],
          [
            175.076275,
            -37.3503134
          ],
          [
            175.0764128,
            -37.3502716
          ],
          [
            175.0765642,
            -37.3502414
          ],
          [
            175.0767078,
            -37.3502298
          ],
          [
            175.0768584,
            -37.3502291
          ],
          [
            175.0769932,
            -37.3502409
          ],
          [
            175.0770951,
            -37.3502581
          ],
          [
            175.0771971,
            -37.3502878
          ],
          [
            175.0773163,
            -37.3503434
          ],
          [
            175.0774277,
            -37.3504115
          ],
          [
            175.0775187,
            -37.3505096
          ],
          [
            175.077594,
            -37.3506076
          ],
          [
            175.0779695,
            -37.3513795
          ],
          [
            175.0780661,
            -37.3516652
          ],
          [
            175.0781305,
            -37.3520234
          ],
          [
            175.0782314,
            -37.3528004
          ],
          [
            175.0783397,
            -37.353324
          ],
          [
            175.0783987,
            -37.3537632
          ],
          [
            175.0784041,
            -37.3540446
          ],
          [
            175.0783343,
            -37.3543559
          ],
          [
            175.0781305,
            -37.3552088
          ],
          [
            175.0780125,
            -37.3555286
          ],
          [
            175.0778515,
            -37.3558569
          ],
          [
            175.0776745,
            -37.3561637
          ]
        ]
      }
    }
  ]
}
