{
  "type": "FeatureCollection",
  "bbox": [
    175.0713936,
    -37.3543541,
    175.0749906,
    -37.3511071
  ],
  "metadata": {
    "schemaVersion": 1,
    "trackId": "nz-hampton-downs-international-circuit-352414652",
    "layoutId": "hampton-downs-club",
    "license": "ODbL-1.0",
    "attribution": "© OpenStreetMap contributors",
    "closed": true,
    "geometryStatus": "draft",
    "timingStatus": "missing",
    "timingMode": "shared",
    "lengthM": 1192.4,
    "reviewedAt": null,
    "notes": [
      "Draft identification from a uniquely connected OSM course with a matching layout name. Private Racelogic start/finish GPS supports the venue association. Named source geometry and configuration still require visual review."
    ]
  },
  "features": [
    {
      "type": "Feature",
      "id": "trace",
      "properties": {
        "role": "trace",
        "sourceIds": [
          "osm-snapshot"
        ]
      },
      "geometry": {
        "type": "LineString",
        "coordinates": [
          [
            175.0728782,
            -37.3542271
          ],
          [
            175.072327,
            -37.3534751
          ],
          [
            175.0716013,
            -37.3525233
          ],
          [
            175.0714496,
            -37.3522668
          ],
          [
            175.0713936,
            -37.3521829
          ],
          [
            175.0713996,
            -37.3521174
          ],
          [
            175.0714112,
            -37.3520427
          ],
          [
            175.0714318,
            -37.3519886
          ],
          [
            175.0714526,
            -37.3519589
          ],
          [
            175.0715284,
            -37.351931
          ],
          [
            175.0716307,
            -37.3519008
          ],
          [
            175.0717744,
            -37.3519247
          ],
          [
            175.0719397,
            -37.3519806
          ],
          [
            175.0721388,
            -37.3521269
          ],
          [
            175.0724016,
            -37.352333
          ],
          [
            175.0726557,
            -37.3525307
          ],
          [
            175.0728323,
            -37.3526446
          ],
          [
            175.0729657,
            -37.3526998
          ],
          [
            175.0731431,
            -37.3526923
          ],
          [
            175.0732556,
            -37.3526492
          ],
          [
            175.07335,
            -37.3525731
          ],
          [
            175.0734111,
            -37.3524529
          ],
          [
            175.0733992,
            -37.3521405
          ],
          [
            175.0733634,
            -37.3515148
          ],
          [
            175.0734063,
            -37.3513471
          ],
          [
            175.0735305,
            -37.351215
          ],
          [
            175.0737153,
            -37.3511314
          ],
          [
            175.0739057,
            -37.3511071
          ],
          [
            175.0741146,
            -37.3511255
          ],
          [
            175.0743272,
            -37.3511808
          ],
          [
            175.0745306,
            -37.3512779
          ],
          [
            175.0746918,
            -37.3513845
          ],
          [
            175.0748214,
            -37.3515154
          ],
          [
            175.0749223,
            -37.3516604
          ],
          [
            175.0749776,
            -37.3518167
          ],
          [
            175.0749893,
            -37.3519657
          ],
          [
            175.0749906,
            -37.3521455
          ],
          [
            175.0749534,
            -37.3522898
          ],
          [
            175.0748961,
            -37.3523889
          ],
          [
            175.0739846,
            -37.353801
          ],
          [
            175.0736658,
            -37.3541945
          ],
          [
            175.073588,
            -37.3542648
          ],
          [
            175.0734995,
            -37.3543106
          ],
          [
            175.0733991,
            -37.3543382
          ],
          [
            175.0733117,
            -37.354348
          ],
          [
            175.0732365,
            -37.3543541
          ],
          [
            175.0731564,
            -37.3543471
          ],
          [
            175.0730837,
            -37.3543348
          ],
          [
            175.0729521,
            -37.3542923
          ],
          [
            175.0728782,
            -37.3542271
          ]
        ]
      }
    }
  ]
}
