{
  "type": "FeatureCollection",
  "bbox": [
    -72.8778681,
    45.5284764,
    -72.8725883,
    45.5321223
  ],
  "metadata": {
    "schemaVersion": 1,
    "trackId": "ca-sanair-super-speedway-reference",
    "layoutId": "main",
    "license": "ODbL-1.0",
    "attribution": "© OpenStreetMap contributors",
    "closed": true,
    "geometryStatus": "draft",
    "timingStatus": "missing",
    "timingMode": "shared",
    "lengthM": 1301.8,
    "reviewedAt": null,
    "notes": [
      "Unique course from independently named source ways. Draft geometry; course identity and operating status require review. Timing coordinates remain private."
    ]
  },
  "features": [
    {
      "type": "Feature",
      "id": "trace",
      "properties": {
        "role": "trace",
        "sourceIds": [
          "osm-snapshot"
        ]
      },
      "geometry": {
        "type": "LineString",
        "coordinates": [
          [
            -72.8770492,
            45.5303793
          ],
          [
            -72.8773924,
            45.5301515
          ],
          [
            -72.8776058,
            45.5299813
          ],
          [
            -72.877741,
            45.5298339
          ],
          [
            -72.8778376,
            45.5296616
          ],
          [
            -72.8778681,
            45.5295128
          ],
          [
            -72.8778599,
            45.5293697
          ],
          [
            -72.8778,
            45.5292188
          ],
          [
            -72.8777522,
            45.5291262
          ],
          [
            -72.8776658,
            45.5290351
          ],
          [
            -72.8775418,
            45.5289304
          ],
          [
            -72.8774066,
            45.5288499
          ],
          [
            -72.8772506,
            45.5288038
          ],
          [
            -72.8769832,
            45.5287465
          ],
          [
            -72.8762477,
            45.5286557
          ],
          [
            -72.8743922,
            45.5284792
          ],
          [
            -72.8741307,
            45.5284764
          ],
          [
            -72.8738302,
            45.5285205
          ],
          [
            -72.8735781,
            45.5285863
          ],
          [
            -72.8734208,
            45.5286494
          ],
          [
            -72.8732428,
            45.5287352
          ],
          [
            -72.8731088,
            45.5288296
          ],
          [
            -72.8729763,
            45.5289462
          ],
          [
            -72.8728723,
            45.5290611
          ],
          [
            -72.8727938,
            45.5291782
          ],
          [
            -72.8727314,
            45.5292991
          ],
          [
            -72.8726898,
            45.529407
          ],
          [
            -72.872659,
            45.5295856
          ],
          [
            -72.8726175,
            45.529899
          ],
          [
            -72.8725918,
            45.5301209
          ],
          [
            -72.8725883,
            45.5302504
          ],
          [
            -72.8725883,
            45.5303812
          ],
          [
            -72.8725901,
            45.5305244
          ],
          [
            -72.8725998,
            45.5306446
          ],
          [
            -72.8726131,
            45.5308058
          ],
          [
            -72.8726334,
            45.5309539
          ],
          [
            -72.872652,
            45.5311052
          ],
          [
            -72.8726803,
            45.531262
          ],
          [
            -72.8727007,
            45.5313866
          ],
          [
            -72.8727458,
            45.5315192
          ],
          [
            -72.8728361,
            45.5316537
          ],
          [
            -72.872975,
            45.5317969
          ],
          [
            -72.8731183,
            45.5319054
          ],
          [
            -72.8732661,
            45.5319785
          ],
          [
            -72.8734067,
            45.5320368
          ],
          [
            -72.873574,
            45.532082
          ],
          [
            -72.8737545,
            45.5321136
          ],
          [
            -72.8739235,
            45.5321223
          ],
          [
            -72.8740951,
            45.5321179
          ],
          [
            -72.8742677,
            45.5320963
          ],
          [
            -72.874411,
            45.5320659
          ],
          [
            -72.8745738,
            45.5320138
          ],
          [
            -72.8747065,
            45.5319605
          ],
          [
            -72.8748729,
            45.531857
          ],
          [
            -72.8751507,
            45.5316698
          ],
          [
            -72.8754374,
            45.5314715
          ],
          [
            -72.8756479,
            45.531332
          ],
          [
            -72.8758382,
            45.5311975
          ],
          [
            -72.8761514,
            45.5309917
          ],
          [
            -72.8763806,
            45.5308362
          ],
          [
            -72.8767731,
            45.5305627
          ],
          [
            -72.8770492,
            45.5303793
          ]
        ]
      }
    }
  ]
}
