{
  "type": "FeatureCollection",
  "bbox": [
    50.5102538,
    26.026075,
    50.5183478,
    26.0369008
  ],
  "metadata": {
    "schemaVersion": 1,
    "trackId": "bh-bahrain-international-circuit-4818385",
    "layoutId": "bahrain-international-circuit",
    "license": "ODbL-1.0",
    "attribution": "© OpenStreetMap contributors",
    "closed": true,
    "geometryStatus": "draft",
    "timingStatus": "missing",
    "timingMode": "shared",
    "lengthM": 5419.6,
    "reviewedAt": null,
    "notes": [
      "Draft route hypothesis: the source cycle is the unique closest nominal-distance match within conservative timing and distance checks. Approximate OSM trace length 5419.6 m. Difference from the supplied layout distance 7.6 m. Course configuration still requires visual review."
    ]
  },
  "features": [
    {
      "type": "Feature",
      "id": "trace",
      "properties": {
        "role": "trace",
        "sourceIds": [
          "osm-network-4818385"
        ]
      },
      "geometry": {
        "type": "LineString",
        "coordinates": [
          [
            50.5174496,
            26.0295603
          ],
          [
            50.5174252,
            26.0295186
          ],
          [
            50.5173938,
            26.0294807
          ],
          [
            50.5173522,
            26.0294405
          ],
          [
            50.5172724,
            26.0293703
          ],
          [
            50.5171859,
            26.0293068
          ],
          [
            50.5171178,
            26.0292643
          ],
          [
            50.5170466,
            26.0292261
          ],
          [
            50.5168689,
            26.0291364
          ],
          [
            50.5154953,
            26.0284434
          ],
          [
            50.5152204,
            26.0283047
          ],
          [
            50.5142677,
            26.0278241
          ],
          [
            50.5129142,
            26.0271404
          ],
          [
            50.5110854,
            26.0262197
          ],
          [
            50.5108505,
            26.0261012
          ],
          [
            50.5108078,
            26.0260842
          ],
          [
            50.5107621,
            26.0260753
          ],
          [
            50.5107154,
            26.026075
          ],
          [
            50.5106695,
            26.0260831
          ],
          [
            50.5106298,
            26.0260978
          ],
          [
            50.5105939,
            26.0261189
          ],
          [
            50.5105629,
            26.0261457
          ],
          [
            50.5105381,
            26.0261771
          ],
          [
            50.5103504,
            26.0265496
          ],
          [
            50.5103177,
            26.0266262
          ],
          [
            50.5102915,
            26.0267049
          ],
          [
            50.5102721,
            26.0267851
          ],
          [
            50.5102595,
            26.0268664
          ],
          [
            50.5102538,
            26.0269484
          ],
          [
            50.510255,
            26.0270305
          ],
          [
            50.5102632,
            26.0271123
          ],
          [
            50.5102752,
            26.0274003
          ],
          [
            50.5103162,
            26.0284501
          ],
          [
            50.5103183,
            26.0284805
          ],
          [
            50.5106222,
            26.0354215
          ],
          [
            50.510652,
            26.0360635
          ],
          [
            50.5106843,
            26.0367599
          ],
          [
            50.5106853,
            26.0367905
          ],
          [
            50.5106914,
            26.0368207
          ],
          [
            50.5107061,
            26.0368484
          ],
          [
            50.5107284,
            26.0368717
          ],
          [
            50.5107567,
            26.0368889
          ],
          [
            50.5107877,
            26.0368985
          ],
          [
            50.5108204,
            26.0369008
          ],
          [
            50.5108526,
            26.0368956
          ],
          [
            50.5108824,
            26.0368832
          ],
          [
            50.5109077,
            26.0368645
          ],
          [
            50.5109538,
            26.0368286
          ],
          [
            50.5114473,
            26.0364008
          ],
          [
            50.5114771,
            26.0363792
          ],
          [
            50.5115105,
            26.0363623
          ],
          [
            50.5115465,
            26.0363505
          ],
          [
            50.5115841,
            26.0363442
          ],
          [
            50.5116293,
            26.036344
          ],
          [
            50.5116737,
            26.0363518
          ],
          [
            50.5117156,
            26.0363671
          ],
          [
            50.5124116,
            26.036578
          ],
          [
            50.5125017,
            26.0365959
          ],
          [
            50.5125931,
            26.0366072
          ],
          [
            50.5126852,
            26.0366117
          ],
          [
            50.5127891,
            26.0366086
          ],
          [
            50.5128922,
            26.0365969
          ],
          [
            50.5129493,
            26.0365852
          ],
          [
            50.5132856,
            26.0365269
          ],
          [
            50.5148537,
            26.0362581
          ],
          [
            50.5164979,
            26.0359827
          ],
          [
            50.517099,
            26.0358789
          ],
          [
            50.5182026,
            26.0356868
          ],
          [
            50.5182368,
            26.0356789
          ],
          [
            50.5182684,
            26.0356649
          ],
          [
            50.5182962,
            26.0356454
          ],
          [
            50.5183189,
            26.035621
          ],
          [
            50.5183355,
            26.035593
          ],
          [
            50.5183453,
            26.0355626
          ],
          [
            50.5183478,
            26.035531
          ],
          [
            50.5183415,
            26.0354351
          ],
          [
            50.5183308,
            26.035372
          ],
          [
            50.5183125,
            26.0353103
          ],
          [
            50.5182826,
            26.035243
          ],
          [
            50.5182436,
            26.0351795
          ],
          [
            50.5182001,
            26.0351293
          ],
          [
            50.5181274,
            26.0350681
          ],
          [
            50.5179552,
            26.0349772
          ],
          [
            50.5178229,
            26.0348982
          ],
          [
            50.5176926,
            26.0348109
          ],
          [
            50.5175686,
            26.0347164
          ],
          [
            50.5174501,
            26.0346246
          ],
          [
            50.5172823,
            26.0344906
          ],
          [
            50.5171189,
            26.0343523
          ],
          [
            50.5169465,
            26.0341974
          ],
          [
            50.5167796,
            26.0340378
          ],
          [
            50.5167066,
            26.0339666
          ],
          [
            50.5166394,
            26.033891
          ],
          [
            50.5165784,
            26.0338112
          ],
          [
            50.5165139,
            26.0337111
          ],
          [
            50.516459,
            26.0336064
          ],
          [
            50.5163611,
            26.0333943
          ],
          [
            50.5163258,
            26.0333238
          ],
          [
            50.5162984,
            26.0332784
          ],
          [
            50.5162557,
            26.0332265
          ],
          [
            50.5162061,
            26.0331798
          ],
          [
            50.5161506,
            26.0331388
          ],
          [
            50.5160844,
            26.0331016
          ],
          [
            50.5160132,
            26.0330727
          ],
          [
            50.5159384,
            26.0330526
          ],
          [
            50.5158612,
            26.0330416
          ],
          [
            50.5157831,
            26.03304
          ],
          [
            50.5157074,
            26.0330473
          ],
          [
            50.515354,
            26.0331015
          ],
          [
            50.5152817,
            26.0331144
          ],
          [
            50.5151924,
            26.033123
          ],
          [
            50.5150861,
            26.0331217
          ],
          [
            50.5149906,
            26.0331074
          ],
          [
            50.5149241,
            26.033089
          ],
          [
            50.5148601,
            26.0330644
          ],
          [
            50.5147994,
            26.0330338
          ],
          [
            50.5147227,
            26.0329838
          ],
          [
            50.5146508,
            26.0329283
          ],
          [
            50.5145842,
            26.0328677
          ],
          [
            50.5145234,
            26.0328024
          ],
          [
            50.5134514,
            26.031547
          ],
          [
            50.5134219,
            26.0315195
          ],
          [
            50.5133866,
            26.0314981
          ],
          [
            50.5133471,
            26.031484
          ],
          [
            50.5133052,
            26.0314776
          ],
          [
            50.5132627,
            26.0314794
          ],
          [
            50.5132216,
            26.0314891
          ],
          [
            50.5131843,
            26.0315061
          ],
          [
            50.5131517,
            26.0315297
          ],
          [
            50.5131252,
            26.0315589
          ],
          [
            50.5131061,
            26.0315924
          ],
          [
            50.5130952,
            26.0316287
          ],
          [
            50.5130803,
            26.0316911
          ],
          [
            50.513071,
            26.0317544
          ],
          [
            50.5130674,
            26.0318181
          ],
          [
            50.5130703,
            26.0318912
          ],
          [
            50.5130806,
            26.0319637
          ],
          [
            50.5133218,
            26.0333136
          ],
          [
            50.51351,
            26.0343848
          ],
          [
            50.5135184,
            26.0344533
          ],
          [
            50.5135192,
            26.0345222
          ],
          [
            50.5135124,
            26.0345908
          ],
          [
            50.5134979,
            26.0346584
          ],
          [
            50.513479,
            26.0347165
          ],
          [
            50.5134544,
            26.034773
          ],
          [
            50.5134244,
            26.0348272
          ],
          [
            50.5133893,
            26.0348789
          ],
          [
            50.5133065,
            26.0349669
          ],
          [
            50.5132163,
            26.0350488
          ],
          [
            50.5131504,
            26.0351011
          ],
          [
            50.5130815,
            26.0351502
          ],
          [
            50.5130097,
            26.0351958
          ],
          [
            50.5128488,
            26.0353091
          ],
          [
            50.5128287,
            26.0353198
          ],
          [
            50.5128061,
            26.0353252
          ],
          [
            50.5127827,
            26.0353248
          ],
          [
            50.5127603,
            26.0353187
          ],
          [
            50.5127374,
            26.0353048
          ],
          [
            50.5127207,
            26.0352851
          ],
          [
            50.5127119,
            26.0352616
          ],
          [
            50.5126312,
            26.0347381
          ],
          [
            50.5125658,
            26.0342921
          ],
          [
            50.5125352,
            26.0340194
          ],
          [
            50.5125122,
            26.0337462
          ],
          [
            50.512495,
            26.0334113
          ],
          [
            50.5124434,
            26.0320851
          ],
          [
            50.5123814,
            26.0307469
          ],
          [
            50.5123207,
            26.0294075
          ],
          [
            50.512311,
            26.0291694
          ],
          [
            50.5123102,
            26.0291145
          ],
          [
            50.512312,
            26.0290592
          ],
          [
            50.5123231,
            26.0290048
          ],
          [
            50.5123432,
            26.0289525
          ],
          [
            50.512368,
            26.0289092
          ],
          [
            50.5123989,
            26.0288694
          ],
          [
            50.5124355,
            26.0288335
          ],
          [
            50.5124771,
            26.0288024
          ],
          [
            50.512541,
            26.0287723
          ],
          [
            50.5126201,
            26.028755
          ],
          [
            50.5127002,
            26.0287424
          ],
          [
            50.5127811,
            26.0287343
          ],
          [
            50.5128607,
            26.028731
          ],
          [
            50.5129152,
            26.0287318
          ],
          [
            50.5130198,
            26.028738
          ],
          [
            50.5131212,
            26.0287524
          ],
          [
            50.5132211,
            26.0287739
          ],
          [
            50.5133189,
            26.0288024
          ],
          [
            50.5134228,
            26.0288415
          ],
          [
            50.5135226,
            26.0288884
          ],
          [
            50.5136176,
            26.0289428
          ],
          [
            50.5137071,
            26.0290043
          ],
          [
            50.5137932,
            26.0290731
          ],
          [
            50.5138738,
            26.0291472
          ],
          [
            50.5139485,
            26.029226
          ],
          [
            50.5140094,
            26.0292995
          ],
          [
            50.5140651,
            26.0293762
          ],
          [
            50.5141155,
            26.0294559
          ],
          [
            50.5141604,
            26.0295381
          ],
          [
            50.5142109,
            26.029647
          ],
          [
            50.5142529,
            26.0297587
          ],
          [
            50.5144031,
            26.0301286
          ],
          [
            50.5144486,
            26.0302104
          ],
          [
            50.5145016,
            26.0302884
          ],
          [
            50.5145617,
            26.0303621
          ],
          [
            50.5146284,
            26.0304311
          ],
          [
            50.5146957,
            26.0304901
          ],
          [
            50.5147679,
            26.0305443
          ],
          [
            50.5148445,
            26.0305933
          ],
          [
            50.5149252,
            26.0306368
          ],
          [
            50.5150093,
            26.0306745
          ],
          [
            50.5150957,
            26.0307066
          ],
          [
            50.5151845,
            26.0307328
          ],
          [
            50.5152753,
            26.0307531
          ],
          [
            50.5153674,
            26.0307673
          ],
          [
            50.5154646,
            26.0307756
          ],
          [
            50.5155622,
            26.0307772
          ],
          [
            50.5156596,
            26.030772
          ],
          [
            50.5157563,
            26.0307601
          ],
          [
            50.5158675,
            26.0307362
          ],
          [
            50.5159762,
            26.0307046
          ],
          [
            50.5160633,
            26.030673
          ],
          [
            50.5161479,
            26.0306364
          ],
          [
            50.5162931,
            26.0305668
          ],
          [
            50.5168909,
            26.0303046
          ],
          [
            50.5169717,
            26.0302712
          ],
          [
            50.5170489,
            26.0302315
          ],
          [
            50.5171219,
            26.0301858
          ],
          [
            50.5171901,
            26.0301345
          ],
          [
            50.517253,
            26.030078
          ],
          [
            50.5173053,
            26.0300222
          ],
          [
            50.5173525,
            26.0299628
          ],
          [
            50.5173941,
            26.0299001
          ],
          [
            50.51743,
            26.0298346
          ],
          [
            50.5174534,
            26.0297918
          ],
          [
            50.517469,
            26.0297463
          ],
          [
            50.5174765,
            26.0296991
          ],
          [
            50.5174756,
            26.0296514
          ],
          [
            50.5174666,
            26.0296049
          ],
          [
            50.5174496,
            26.0295603
          ]
        ]
      }
    }
  ]
}
