{
  "type": "FeatureCollection",
  "bbox": [
    -0.5483993,
    51.1097643,
    -0.5231921,
    51.1210182
  ],
  "metadata": {
    "schemaVersion": 2,
    "geometryKind": "network",
    "trackId": "gb-dunsfold-ea05c91c",
    "layoutId": "dunsfold",
    "license": "ODbL-1.0",
    "attribution": "© OpenStreetMap contributors",
    "closed": false,
    "geometryStatus": "draft",
    "timingStatus": "missing",
    "timingMode": "shared",
    "lengthM": 6493.1,
    "reviewedAt": null,
    "notes": []
  },
  "features": [
    {
      "type": "Feature",
      "id": "trace",
      "properties": {
        "role": "trace",
        "sourceIds": [
          "osm-network-dunsfold"
        ]
      },
      "geometry": {
        "type": "MultiLineString",
        "coordinates": [
          [
            [
              -0.5431979,
              51.1176532
            ],
            [
              -0.5432891,
              51.1176111
            ],
            [
              -0.5433723,
              51.1175707
            ],
            [
              -0.5434849,
              51.1175109
            ],
            [
              -0.5435815,
              51.1174588
            ],
            [
              -0.5436271,
              51.1174327
            ],
            [
              -0.5436679,
              51.1174106
            ],
            [
              -0.5437112,
              51.1173851
            ],
            [
              -0.5437513,
              51.1173532
            ],
            [
              -0.5437815,
              51.1173236
            ],
            [
              -0.5437989,
              51.1172876
            ],
            [
              -0.5438072,
              51.1172514
            ],
            [
              -0.5438136,
              51.1172058
            ],
            [
              -0.5438131,
              51.1171622
            ],
            [
              -0.5438078,
              51.1171153
            ],
            [
              -0.5438024,
              51.1170728
            ],
            [
              -0.5437954,
              51.11704
            ],
            [
              -0.5437808,
              51.1169939
            ],
            [
              -0.5438609,
              51.1169907
            ],
            [
              -0.5439411,
              51.1169858
            ],
            [
              -0.5440297,
              51.1169783
            ],
            [
              -0.5441063,
              51.1169701
            ],
            [
              -0.5441838,
              51.1169613
            ],
            [
              -0.54427,
              51.1169488
            ],
            [
              -0.5443392,
              51.116935
            ],
            [
              -0.5444004,
              51.1169198
            ],
            [
              -0.5444725,
              51.1169033
            ],
            [
              -0.5445346,
              51.1168854
            ],
            [
              -0.5445955,
              51.1168647
            ],
            [
              -0.544654,
              51.11684
            ],
            [
              -0.5447091,
              51.1168114
            ],
            [
              -0.544775,
              51.1167755
            ],
            [
              -0.547525,
              51.1152038
            ],
            [
              -0.5481158,
              51.1148419
            ],
            [
              -0.5481823,
              51.1147918
            ],
            [
              -0.54825,
              51.1147178
            ],
            [
              -0.5483011,
              51.1146433
            ],
            [
              -0.5483381,
              51.114573
            ],
            [
              -0.5483691,
              51.1145146
            ],
            [
              -0.5483906,
              51.1144503
            ],
            [
              -0.5483993,
              51.1143824
            ],
            [
              -0.5483976,
              51.1143238
            ],
            [
              -0.5483889,
              51.1142726
            ],
            [
              -0.5483686,
              51.1142054
            ],
            [
              -0.5483472,
              51.1141465
            ],
            [
              -0.548306,
              51.1140814
            ],
            [
              -0.5480802,
              51.1137737
            ],
            [
              -0.5479136,
              51.1135701
            ],
            [
              -0.5478885,
              51.113542
            ],
            [
              -0.5478533,
              51.1135111
            ],
            [
              -0.5477785,
              51.1134561
            ],
            [
              -0.5475866,
              51.1133376
            ],
            [
              -0.5472111,
              51.1131894
            ],
            [
              -0.5468624,
              51.1131204
            ],
            [
              -0.5458137,
              51.1131069
            ],
            [
              -0.5419021,
              51.1130765
            ],
            [
              -0.5392682,
              51.113056
            ],
            [
              -0.5371448,
              51.1130395
            ],
            [
              -0.5366513,
              51.1130227
            ],
            [
              -0.5361416,
              51.1129806
            ],
            [
              -0.5356213,
              51.112893
            ],
            [
              -0.5351761,
              51.1128004
            ],
            [
              -0.5349942,
              51.1127524
            ],
            [
              -0.5348332,
              51.1127036
            ],
            [
              -0.5347326,
              51.1126699
            ],
            [
              -0.534645,
              51.1126405
            ],
            [
              -0.5341788,
              51.1124528
            ],
            [
              -0.5340152,
              51.112382
            ],
            [
              -0.5338028,
              51.11227
            ],
            [
              -0.5335322,
              51.1121105
            ],
            [
              -0.5333176,
              51.111969
            ],
            [
              -0.5331728,
              51.1118612
            ],
            [
              -0.5330333,
              51.1117417
            ],
            [
              -0.5328667,
              51.1115981
            ],
            [
              -0.5327543,
              51.1114975
            ],
            [
              -0.5326524,
              51.1113796
            ],
            [
              -0.5325934,
              51.1113089
            ],
            [
              -0.5324647,
              51.1111405
            ],
            [
              -0.5323788,
              51.1109923
            ],
            [
              -0.5322475,
              51.1107485
            ],
            [
              -0.5320866,
              51.1104926
            ],
            [
              -0.53199,
              51.1103915
            ],
            [
              -0.5318828,
              51.1102974
            ],
            [
              -0.5317593,
              51.1102097
            ],
            [
              -0.5316467,
              51.1101524
            ],
            [
              -0.5315656,
              51.1101072
            ],
            [
              -0.5314502,
              51.1100619
            ],
            [
              -0.5313641,
              51.1100297
            ],
            [
              -0.531259,
              51.110005
            ],
            [
              -0.5311041,
              51.1099923
            ],
            [
              -0.5309123,
              51.1099727
            ],
            [
              -0.5307899,
              51.1099412
            ],
            [
              -0.5307635,
              51.1099333
            ],
            [
              -0.5305604,
              51.109881
            ],
            [
              -0.5304156,
              51.1098165
            ],
            [
              -0.5303347,
              51.109792
            ],
            [
              -0.5301902,
              51.1097685
            ],
            [
              -0.5300879,
              51.1097643
            ],
            [
              -0.5300052,
              51.1097651
            ],
            [
              -0.5299301,
              51.1097685
            ],
            [
              -0.5298469,
              51.1097803
            ],
            [
              -0.5297504,
              51.1097971
            ],
            [
              -0.5296672,
              51.109819
            ],
            [
              -0.5295867,
              51.109851
            ],
            [
              -0.5294982,
              51.109888
            ],
            [
              -0.5294231,
              51.1099318
            ],
            [
              -0.5293588,
              51.1099773
            ],
            [
              -0.5292859,
              51.1100422
            ],
            [
              -0.5291925,
              51.1101356
            ],
            [
              -0.5276835,
              51.1122278
            ],
            [
              -0.5274951,
              51.1124805
            ],
            [
              -0.5271871,
              51.1130113
            ],
            [
              -0.5269664,
              51.1134023
            ],
            [
              -0.5266327,
              51.1139919
            ],
            [
              -0.525649,
              51.115733
            ],
            [
              -0.5253136,
              51.1162669
            ],
            [
              -0.5250112,
              51.1167414
            ],
            [
              -0.5239716,
              51.1183601
            ],
            [
              -0.5236502,
              51.118844
            ],
            [
              -0.5232471,
              51.1194755
            ],
            [
              -0.5232273,
              51.1195183
            ],
            [
              -0.5232141,
              51.119557
            ],
            [
              -0.5232009,
              51.1196219
            ],
            [
              -0.5231921,
              51.1196951
            ],
            [
              -0.5231921,
              51.1197794
            ],
            [
              -0.5231965,
              51.119825
            ],
            [
              -0.5232075,
              51.119894
            ],
            [
              -0.5232295,
              51.1199576
            ],
            [
              -0.5232537,
              51.1200142
            ],
            [
              -0.5232955,
              51.1200846
            ],
            [
              -0.5233219,
              51.1201302
            ],
            [
              -0.5233549,
              51.1201661
            ],
            [
              -0.5233901,
              51.1202006
            ],
            [
              -0.5234232,
              51.1202296
            ],
            [
              -0.5234958,
              51.1202904
            ],
            [
              -0.5235663,
              51.1203383
            ],
            [
              -0.523652,
              51.1203912
            ],
            [
              -0.52374,
              51.1204382
            ],
            [
              -0.5238764,
              51.1205017
            ],
            [
              -0.5240943,
              51.120597
            ],
            [
              -0.5242315,
              51.1206515
            ],
            [
              -0.5244595,
              51.1207351
            ],
            [
              -0.5246223,
              51.1207945
            ],
            [
              -0.5248248,
              51.1208608
            ],
            [
              -0.5249772,
              51.1209074
            ],
            [
              -0.5250514,
              51.1209243
            ],
            [
              -0.5251328,
              51.1209437
            ],
            [
              -0.5252538,
              51.1209658
            ],
            [
              -0.5254651,
              51.1209948
            ],
            [
              -0.5255575,
              51.1210044
            ],
            [
              -0.5256983,
              51.1210155
            ],
            [
              -0.5258149,
              51.1210182
            ],
            [
              -0.5259403,
              51.1210169
            ],
            [
              -0.5260305,
              51.1210113
            ],
            [
              -0.5261208,
              51.1210044
            ],
            [
              -0.5261868,
              51.1209975
            ],
            [
              -0.526255,
              51.1209892
            ],
            [
              -0.526343,
              51.1209741
            ],
            [
              -0.5267501,
              51.1208912
            ],
            [
              -0.5285457,
              51.1204906
            ],
            [
              -0.5299117,
              51.1201775
            ],
            [
              -0.5307021,
              51.1199963
            ],
            [
              -0.5315873,
              51.1197934
            ],
            [
              -0.5330225,
              51.1194717
            ],
            [
              -0.5344456,
              51.1191276
            ],
            [
              -0.5358228,
              51.1188074
            ],
            [
              -0.5360549,
              51.1187535
            ],
            [
              -0.5364149,
              51.11867
            ],
            [
              -0.5375807,
              51.1183994
            ],
            [
              -0.5392213,
              51.1180294
            ],
            [
              -0.5395597,
              51.1179713
            ],
            [
              -0.5398169,
              51.11794
            ],
            [
              -0.5401063,
              51.1179166
            ],
            [
              -0.5404457,
              51.1178894
            ],
            [
              -0.5407651,
              51.1178736
            ],
            [
              -0.5412866,
              51.1178781
            ],
            [
              -0.5417038,
              51.1178893
            ],
            [
              -0.5420419,
              51.1178923
            ],
            [
              -0.5421331,
              51.1178906
            ],
            [
              -0.5422014,
              51.1178862
            ],
            [
              -0.5422793,
              51.1178797
            ],
            [
              -0.5423477,
              51.1178713
            ],
            [
              -0.542467,
              51.1178553
            ],
            [
              -0.5425515,
              51.1178401
            ],
            [
              -0.5426332,
              51.1178234
            ],
            [
              -0.5427674,
              51.1177938
            ],
            [
              -0.542868,
              51.1177679
            ],
            [
              -0.5429538,
              51.117745
            ],
            [
              -0.5430249,
              51.1177214
            ],
            [
              -0.5431094,
              51.1176903
            ],
            [
              -0.5431979,
              51.1176532
            ]
          ],
          [
            [
              -0.5461395,
              51.1144434
            ],
            [
              -0.5241807,
              51.1204378
            ]
          ]
        ]
      }
    }
  ]
}
