{
  "type": "FeatureCollection",
  "bbox": [
    -79.4223211,
    43.6304144,
    -79.4092934,
    43.6353574
  ],
  "metadata": {
    "schemaVersion": 1,
    "trackId": "ca-toronto-indy-7d40d4e5",
    "layoutId": "toronto-indy",
    "license": "ODbL-1.0",
    "attribution": "© OpenStreetMap contributors",
    "closed": true,
    "geometryStatus": "draft",
    "timingStatus": "missing",
    "timingMode": "shared",
    "lengthM": 2972.7,
    "reviewedAt": null,
    "notes": [
      "Draft configuration: The series official Toronto event map identifies Princes Boulevard, Canada Boulevard, Lake Shore Boulevard, Ontario Drive, the western Princes return, Manitoba Drive and Nova Scotia Avenue with the inward return to the front straight. This independent connected public-road route retains that full sequence and excludes the eastern access spur and northern parking bypass. Temporary event corner radii and carriageway placement remain draft; public source coordinates are unchanged. Branch identity was checked against catalogue layout facts and circuit identification references. Independent source distance 2972.7 m; no coordinates are changed to match a diagram or distance. Travel direction and historical alignment remain provisional."
    ]
  },
  "features": [
    {
      "type": "Feature",
      "id": "trace",
      "properties": {
        "role": "trace",
        "sourceIds": [
          "osm-selection-toronto-indy-independent-roads-4005323"
        ]
      },
      "geometry": {
        "type": "LineString",
        "coordinates": [
          [
            -79.4153038,
            43.6332041
          ],
          [
            -79.4151456,
            43.6332434
          ],
          [
            -79.4151135,
            43.6332514
          ],
          [
            -79.4150644,
            43.6332645
          ],
          [
            -79.4147018,
            43.6333611
          ],
          [
            -79.4139711,
            43.6335568
          ],
          [
            -79.4120985,
            43.6340596
          ],
          [
            -79.4120644,
            43.6340687
          ],
          [
            -79.4119137,
            43.6341102
          ],
          [
            -79.4117572,
            43.6341551
          ],
          [
            -79.4117275,
            43.6341632
          ],
          [
            -79.4114786,
            43.6342312
          ],
          [
            -79.4108208,
            43.634411
          ],
          [
            -79.4097525,
            43.6347054
          ],
          [
            -79.4096571,
            43.6346281
          ],
          [
            -79.4095866,
            43.6345574
          ],
          [
            -79.4095542,
            43.6345041
          ],
          [
            -79.4095232,
            43.634446
          ],
          [
            -79.4095026,
            43.6343909
          ],
          [
            -79.4094834,
            43.6343272
          ],
          [
            -79.4094034,
            43.6339282
          ],
          [
            -79.4093995,
            43.6339133
          ],
          [
            -79.409369,
            43.6337963
          ],
          [
            -79.4092934,
            43.6336237
          ],
          [
            -79.4093727,
            43.6334933
          ],
          [
            -79.4094661,
            43.6333548
          ],
          [
            -79.4095492,
            43.6332368
          ],
          [
            -79.4096749,
            43.6330823
          ],
          [
            -79.4099554,
            43.6328353
          ],
          [
            -79.4102091,
            43.6326984
          ],
          [
            -79.4103045,
            43.6326481
          ],
          [
            -79.4105924,
            43.6326347
          ],
          [
            -79.4108424,
            43.6325598
          ],
          [
            -79.4110152,
            43.6325081
          ],
          [
            -79.4109366,
            43.6323863
          ],
          [
            -79.411095,
            43.6323455
          ],
          [
            -79.411132,
            43.6323344
          ],
          [
            -79.4114286,
            43.6322446
          ],
          [
            -79.4116635,
            43.6322357
          ],
          [
            -79.4130529,
            43.6317871
          ],
          [
            -79.4139874,
            43.6314999
          ],
          [
            -79.4146954,
            43.6312804
          ],
          [
            -79.4148823,
            43.6312289
          ],
          [
            -79.4151786,
            43.6312393
          ],
          [
            -79.4153425,
            43.6312154
          ],
          [
            -79.415389,
            43.6312086
          ],
          [
            -79.4155923,
            43.631178
          ],
          [
            -79.415805,
            43.6311439
          ],
          [
            -79.4159893,
            43.631113
          ],
          [
            -79.4161847,
            43.6310228
          ],
          [
            -79.4181496,
            43.6307008
          ],
          [
            -79.4190035,
            43.6305716
          ],
          [
            -79.4192861,
            43.6304762
          ],
          [
            -79.4196998,
            43.630432
          ],
          [
            -79.4198299,
            43.6304144
          ],
          [
            -79.4198084,
            43.6305446
          ],
          [
            -79.4198057,
            43.6306128
          ],
          [
            -79.4198045,
            43.6306341
          ],
          [
            -79.4197942,
            43.6307082
          ],
          [
            -79.4197867,
            43.6307615
          ],
          [
            -79.4197359,
            43.6309176
          ],
          [
            -79.4196205,
            43.631015
          ],
          [
            -79.4194787,
            43.6311347
          ],
          [
            -79.4194448,
            43.6312024
          ],
          [
            -79.4194042,
            43.6312922
          ],
          [
            -79.4193837,
            43.6313712
          ],
          [
            -79.4193799,
            43.6314586
          ],
          [
            -79.4193939,
            43.6315561
          ],
          [
            -79.4194082,
            43.6316415
          ],
          [
            -79.4194876,
            43.6318625
          ],
          [
            -79.419525,
            43.6319691
          ],
          [
            -79.4195428,
            43.632019
          ],
          [
            -79.419571,
            43.6320968
          ],
          [
            -79.4195878,
            43.6321371
          ],
          [
            -79.4196031,
            43.6321738
          ],
          [
            -79.419727,
            43.6324713
          ],
          [
            -79.4197816,
            43.6326023
          ],
          [
            -79.4198003,
            43.6326308
          ],
          [
            -79.4198237,
            43.6326492
          ],
          [
            -79.4198486,
            43.6326657
          ],
          [
            -79.419875,
            43.6326728
          ],
          [
            -79.4199149,
            43.6326828
          ],
          [
            -79.4199586,
            43.6326847
          ],
          [
            -79.4200035,
            43.6326823
          ],
          [
            -79.4200445,
            43.6326758
          ],
          [
            -79.4209529,
            43.6324283
          ],
          [
            -79.4212567,
            43.6323491
          ],
          [
            -79.4213963,
            43.63233
          ],
          [
            -79.4215314,
            43.6323183
          ],
          [
            -79.421602,
            43.6323177
          ],
          [
            -79.4216941,
            43.6323335
          ],
          [
            -79.4218392,
            43.6323775
          ],
          [
            -79.4219212,
            43.632426
          ],
          [
            -79.4221409,
            43.6325558
          ],
          [
            -79.4223211,
            43.632644
          ],
          [
            -79.4222697,
            43.6327424
          ],
          [
            -79.4222603,
            43.6327606
          ],
          [
            -79.4221683,
            43.632973
          ],
          [
            -79.4219678,
            43.6333685
          ],
          [
            -79.4218012,
            43.6336868
          ],
          [
            -79.4217777,
            43.6337241
          ],
          [
            -79.4217464,
            43.6337771
          ],
          [
            -79.4216949,
            43.6338641
          ],
          [
            -79.4215899,
            43.6339773
          ],
          [
            -79.4213619,
            43.6341865
          ],
          [
            -79.4211811,
            43.6343462
          ],
          [
            -79.4211417,
            43.634381
          ],
          [
            -79.420959,
            43.6345368
          ],
          [
            -79.4208431,
            43.6346372
          ],
          [
            -79.4206257,
            43.6348111
          ],
          [
            -79.4205215,
            43.6348669
          ],
          [
            -79.420419,
            43.6348922
          ],
          [
            -79.4188842,
            43.6353202
          ],
          [
            -79.4188483,
            43.635326
          ],
          [
            -79.4188053,
            43.6353327
          ],
          [
            -79.4186537,
            43.6353574
          ],
          [
            -79.4186081,
            43.635261
          ],
          [
            -79.4185942,
            43.6352289
          ],
          [
            -79.418222,
            43.6344535
          ],
          [
            -79.4181148,
            43.6343555
          ],
          [
            -79.4179471,
            43.6342993
          ],
          [
            -79.4178049,
            43.6343056
          ],
          [
            -79.4176651,
            43.6343383
          ],
          [
            -79.416931,
            43.634545
          ],
          [
            -79.4168903,
            43.6345575
          ],
          [
            -79.4167646,
            43.6345962
          ],
          [
            -79.4164277,
            43.6346857
          ],
          [
            -79.416341,
            43.6346915
          ],
          [
            -79.4162388,
            43.6346842
          ],
          [
            -79.4161358,
            43.6346481
          ],
          [
            -79.4160851,
            43.6346211
          ],
          [
            -79.4160456,
            43.6345772
          ],
          [
            -79.4159709,
            43.6344892
          ],
          [
            -79.4157364,
            43.6340488
          ],
          [
            -79.4156033,
            43.6337945
          ],
          [
            -79.4153953,
            43.6333798
          ],
          [
            -79.41537,
            43.6333329
          ],
          [
            -79.4153417,
            43.633278
          ],
          [
            -79.4153038,
            43.6332041
          ]
        ]
      }
    }
  ]
}
