{
  "type": "FeatureCollection",
  "bbox": [
    -79.9060483,
    43.1689832,
    -79.9044251,
    43.1706856
  ],
  "metadata": {
    "schemaVersion": 1,
    "trackId": "ca-cameron-speedway-kart-circuit-f7997f0a",
    "layoutId": "historical-southern-course-b",
    "license": "ODbL-1.0",
    "attribution": "© OpenStreetMap contributors",
    "closed": true,
    "geometryStatus": "draft",
    "timingStatus": "missing",
    "timingMode": "shared",
    "lengthM": 590.6,
    "reviewedAt": null,
    "notes": [
      "The operator identifies the karting facility at 2633 Upper James Street. Independently georeferenced Ontario SWOOP2020 government orthophotography confirms the supplied historical southern-course footprint and its real paved alternatives before the later rebuild. Exact pinned public source nodes preserve the historical course; the adjacent northern track, its linking stem and the separate pit approach are excluded. This descriptive component name does not assert an official configuration name, and historical timed choice and direction remain draft. This complementary course retains the northeastern hairpin spur and middle cross-course return. Exact source coordinates are unchanged; historical alignment and direction remain provisional."
    ]
  },
  "features": [
    {
      "type": "Feature",
      "id": "trace",
      "properties": {
        "role": "trace",
        "sourceIds": [
          "osm-components-270512145"
        ]
      },
      "geometry": {
        "type": "LineString",
        "coordinates": [
          [
            -79.9059929,
            43.1692142
          ],
          [
            -79.9060422,
            43.1692738
          ],
          [
            -79.9060483,
            43.1693232
          ],
          [
            -79.9057889,
            43.1699345
          ],
          [
            -79.9057802,
            43.169956
          ],
          [
            -79.9055603,
            43.1704966
          ],
          [
            -79.9054903,
            43.1705902
          ],
          [
            -79.9054179,
            43.1706396
          ],
          [
            -79.9053175,
            43.170672
          ],
          [
            -79.9052171,
            43.1706856
          ],
          [
            -79.905126,
            43.1706839
          ],
          [
            -79.9047711,
            43.1706056
          ],
          [
            -79.9046997,
            43.1705807
          ],
          [
            -79.9046343,
            43.1705262
          ],
          [
            -79.9045951,
            43.1704662
          ],
          [
            -79.9045604,
            43.1704337
          ],
          [
            -79.9045028,
            43.1704239
          ],
          [
            -79.9044347,
            43.1704565
          ],
          [
            -79.9044374,
            43.1704224
          ],
          [
            -79.9044251,
            43.1703579
          ],
          [
            -79.9044374,
            43.170332
          ],
          [
            -79.9044733,
            43.1703105
          ],
          [
            -79.9045588,
            43.1702521
          ],
          [
            -79.9046233,
            43.1702262
          ],
          [
            -79.9046693,
            43.1702236
          ],
          [
            -79.90471,
            43.1702327
          ],
          [
            -79.9047481,
            43.1702519
          ],
          [
            -79.9047783,
            43.1702785
          ],
          [
            -79.9047946,
            43.1701916
          ],
          [
            -79.9047876,
            43.1700724
          ],
          [
            -79.904804,
            43.1700145
          ],
          [
            -79.9048701,
            43.1699233
          ],
          [
            -79.9049306,
            43.1698472
          ],
          [
            -79.905088,
            43.1698243
          ],
          [
            -79.905265,
            43.1698441
          ],
          [
            -79.9054987,
            43.1698683
          ],
          [
            -79.9056453,
            43.1693936
          ],
          [
            -79.9056091,
            43.1693563
          ],
          [
            -79.9055555,
            43.1693372
          ],
          [
            -79.9055045,
            43.1693425
          ],
          [
            -79.9054469,
            43.1693561
          ],
          [
            -79.9055272,
            43.1691404
          ],
          [
            -79.905516,
            43.1690955
          ],
          [
            -79.9054821,
            43.1690539
          ],
          [
            -79.905419,
            43.1690292
          ],
          [
            -79.9053478,
            43.1690187
          ],
          [
            -79.9055051,
            43.1689832
          ],
          [
            -79.9056006,
            43.1689861
          ],
          [
            -79.9057937,
            43.1690528
          ],
          [
            -79.9058893,
            43.1691047
          ],
          [
            -79.9059929,
            43.1692142
          ]
        ]
      }
    }
  ]
}
