{
  "type": "FeatureCollection",
  "bbox": [
    114.174397,
    23.0206846,
    114.1760854,
    23.0230609
  ],
  "metadata": {
    "schemaVersion": 1,
    "trackId": "cn-fugang-3292d1c6",
    "layoutId": "fugang",
    "license": "ODbL-1.0",
    "attribution": "© OpenStreetMap contributors",
    "closed": true,
    "geometryStatus": "draft",
    "timingStatus": "missing",
    "timingMode": "shared",
    "lengthM": 1174.7,
    "reviewedAt": null,
    "notes": [
      "Draft route hypothesis: the source cycle is the unique closest nominal-distance match within conservative timing and distance checks. Approximate OSM trace length 1174.7 m. Difference from the supplied layout distance 12.3 m. Course configuration still requires visual review."
    ]
  },
  "features": [
    {
      "type": "Feature",
      "id": "trace",
      "properties": {
        "role": "trace",
        "sourceIds": [
          "osm-network-889091919"
        ]
      },
      "geometry": {
        "type": "LineString",
        "coordinates": [
          [
            114.1757219,
            23.0225505
          ],
          [
            114.1757835,
            23.0228341
          ],
          [
            114.1757897,
            23.0229588
          ],
          [
            114.1756972,
            23.0230609
          ],
          [
            114.1755617,
            23.0230609
          ],
          [
            114.1750379,
            23.0229362
          ],
          [
            114.1749146,
            23.0228681
          ],
          [
            114.1748407,
            23.022732
          ],
          [
            114.1744278,
            23.0211497
          ],
          [
            114.174397,
            23.0209796
          ],
          [
            114.1744463,
            23.0208605
          ],
          [
            114.1745634,
            23.0207867
          ],
          [
            114.1747544,
            23.0206846
          ],
          [
            114.1749393,
            23.0206846
          ],
          [
            114.1750687,
            23.0207073
          ],
          [
            114.1751303,
            23.0208321
          ],
          [
            114.1751242,
            23.0209399
          ],
          [
            114.1750379,
            23.0210363
          ],
          [
            114.174927,
            23.0210987
          ],
          [
            114.1747914,
            23.0211894
          ],
          [
            114.1747914,
            23.0213369
          ],
          [
            114.1750564,
            23.0225505
          ],
          [
            114.1751426,
            23.0226356
          ],
          [
            114.175272,
            23.0226583
          ],
          [
            114.1753891,
            23.0226072
          ],
          [
            114.1754692,
            23.0224768
          ],
          [
            114.1755,
            23.0223237
          ],
          [
            114.1754446,
            23.0222216
          ],
          [
            114.1753583,
            23.0221195
          ],
          [
            114.1752659,
            23.0212234
          ],
          [
            114.1753398,
            23.0210363
          ],
          [
            114.1753953,
            23.0208605
          ],
          [
            114.1754507,
            23.020764
          ],
          [
            114.1755309,
            23.0206846
          ],
          [
            114.1756233,
            23.020696
          ],
          [
            114.175728,
            23.0207811
          ],
          [
            114.176067,
            23.0216998
          ],
          [
            114.1760854,
            23.0218132
          ],
          [
            114.1758944,
            23.0221252
          ],
          [
            114.1757465,
            23.022352
          ],
          [
            114.1757219,
            23.0224541
          ],
          [
            114.1757219,
            23.0225505
          ]
        ]
      }
    }
  ]
}
