{
  "type": "FeatureCollection",
  "bbox": [
    -115.913931,
    36.1762448,
    -115.9021749,
    36.1820123
  ],
  "metadata": {
    "schemaVersion": 1,
    "trackId": "us-spring-mountain-motorsports-ranch-127683895",
    "layoutId": "charleston-peak-south",
    "license": "ODbL-1.0",
    "attribution": "© OpenStreetMap contributors",
    "closed": true,
    "geometryStatus": "draft",
    "timingStatus": "missing",
    "timingMode": "shared",
    "lengthM": 4238.5,
    "reviewedAt": null,
    "notes": [
      "Draft route hypothesis: the source cycle is the unique closest nominal-distance match within conservative timing and distance checks. Approximate OSM trace length 4238.5 m. Difference from the supplied layout distance 16.5 m. Course configuration still requires visual review."
    ]
  },
  "features": [
    {
      "type": "Feature",
      "id": "trace",
      "properties": {
        "role": "trace",
        "sourceIds": [
          "osm-network-127683895"
        ]
      },
      "geometry": {
        "type": "LineString",
        "coordinates": [
          [
            -115.9132105,
            36.1764473
          ],
          [
            -115.9132801,
            36.1764903
          ],
          [
            -115.913357,
            36.1765545
          ],
          [
            -115.9137604,
            36.1769713
          ],
          [
            -115.9138086,
            36.1770457
          ],
          [
            -115.9138269,
            36.1770952
          ],
          [
            -115.9138244,
            36.1771301
          ],
          [
            -115.9138103,
            36.1771743
          ],
          [
            -115.913792,
            36.1772105
          ],
          [
            -115.9137621,
            36.1772447
          ],
          [
            -115.9137173,
            36.1772789
          ],
          [
            -115.9136558,
            36.1773124
          ],
          [
            -115.9135562,
            36.1773566
          ],
          [
            -115.9134043,
            36.1774129
          ],
          [
            -115.9131603,
            36.1775181
          ],
          [
            -115.9130656,
            36.1775851
          ],
          [
            -115.9130291,
            36.1776239
          ],
          [
            -115.9130083,
            36.1776896
          ],
          [
            -115.913005,
            36.1777995
          ],
          [
            -115.9130332,
            36.1779141
          ],
          [
            -115.9139118,
            36.1807486
          ],
          [
            -115.913931,
            36.1808412
          ],
          [
            -115.913931,
            36.1809817
          ],
          [
            -115.9138969,
            36.1811416
          ],
          [
            -115.9138286,
            36.1813014
          ],
          [
            -115.9137672,
            36.1813978
          ],
          [
            -115.9136682,
            36.1815108
          ],
          [
            -115.9135419,
            36.1816155
          ],
          [
            -115.9133814,
            36.1817092
          ],
          [
            -115.9131868,
            36.1817836
          ],
          [
            -115.9130503,
            36.1818139
          ],
          [
            -115.9125109,
            36.181847
          ],
          [
            -115.9111008,
            36.1819436
          ],
          [
            -115.9100972,
            36.1820123
          ],
          [
            -115.9100255,
            36.1820068
          ],
          [
            -115.9099607,
            36.1819985
          ],
          [
            -115.9098822,
            36.1819765
          ],
          [
            -115.9098309,
            36.1819544
          ],
          [
            -115.9097763,
            36.1819241
          ],
          [
            -115.9096432,
            36.1818277
          ],
          [
            -115.9096022,
            36.1817616
          ],
          [
            -115.9095783,
            36.1817009
          ],
          [
            -115.9095476,
            36.1815962
          ],
          [
            -115.9093155,
            36.1805822
          ],
          [
            -115.9092881,
            36.1804802
          ],
          [
            -115.9092472,
            36.1804113
          ],
          [
            -115.9091243,
            36.1803232
          ],
          [
            -115.9090717,
            36.1803135
          ],
          [
            -115.9081476,
            36.1796495
          ],
          [
            -115.9080597,
            36.1794816
          ],
          [
            -115.908083,
            36.1793578
          ],
          [
            -115.9081086,
            36.1792198
          ],
          [
            -115.9082059,
            36.1791796
          ],
          [
            -115.9083459,
            36.1791107
          ],
          [
            -115.9085166,
            36.1790556
          ],
          [
            -115.90866,
            36.179017
          ],
          [
            -115.9087863,
            36.1790087
          ],
          [
            -115.9089126,
            36.1790087
          ],
          [
            -115.9091755,
            36.1790418
          ],
          [
            -115.9093086,
            36.1790721
          ],
          [
            -115.90951,
            36.1791438
          ],
          [
            -115.9095954,
            36.1791879
          ],
          [
            -115.9098583,
            36.179356
          ],
          [
            -115.9099743,
            36.1794717
          ],
          [
            -115.9100699,
            36.1795957
          ],
          [
            -115.9101962,
            36.1797941
          ],
          [
            -115.9107049,
            36.1805574
          ],
          [
            -115.9108312,
            36.1806786
          ],
          [
            -115.9109371,
            36.1807475
          ],
          [
            -115.9110497,
            36.1808137
          ],
          [
            -115.9112341,
            36.1808825
          ],
          [
            -115.911374,
            36.1809266
          ],
          [
            -115.9115106,
            36.1809487
          ],
          [
            -115.911654,
            36.1809487
          ],
          [
            -115.9117769,
            36.1809404
          ],
          [
            -115.9119032,
            36.1809294
          ],
          [
            -115.9120363,
            36.1809018
          ],
          [
            -115.9121456,
            36.1808688
          ],
          [
            -115.9122719,
            36.1808081
          ],
          [
            -115.9124289,
            36.1807089
          ],
          [
            -115.9125313,
            36.1806125
          ],
          [
            -115.9125962,
            36.1805353
          ],
          [
            -115.9126611,
            36.1804361
          ],
          [
            -115.9127089,
            36.180348
          ],
          [
            -115.912743,
            36.1802322
          ],
          [
            -115.9127669,
            36.1801248
          ],
          [
            -115.912784,
            36.1798768
          ],
          [
            -115.9127806,
            36.1798327
          ],
          [
            -115.9127601,
            36.1797693
          ],
          [
            -115.9116832,
            36.1776
          ],
          [
            -115.9116265,
            36.1774995
          ],
          [
            -115.9115791,
            36.1774325
          ],
          [
            -115.9115109,
            36.1773631
          ],
          [
            -115.9114161,
            36.1772842
          ],
          [
            -115.9113271,
            36.1772315
          ],
          [
            -115.9112204,
            36.1771813
          ],
          [
            -115.911096,
            36.1771406
          ],
          [
            -115.9109893,
            36.1771167
          ],
          [
            -115.9108618,
            36.1771024
          ],
          [
            -115.9107166,
            36.1771
          ],
          [
            -115.9105803,
            36.1771048
          ],
          [
            -115.9104499,
            36.1771215
          ],
          [
            -115.9102958,
            36.1771717
          ],
          [
            -115.9099075,
            36.1773607
          ],
          [
            -115.9097593,
            36.1774373
          ],
          [
            -115.9095104,
            36.1775473
          ],
          [
            -115.9092525,
            36.1776406
          ],
          [
            -115.9089117,
            36.1777507
          ],
          [
            -115.90831,
            36.1779134
          ],
          [
            -115.9078892,
            36.1779995
          ],
          [
            -115.9075424,
            36.1780401
          ],
          [
            -115.9072164,
            36.1780712
          ],
          [
            -115.9068608,
            36.1780689
          ],
          [
            -115.9067808,
            36.1780425
          ],
          [
            -115.9067037,
            36.1779971
          ],
          [
            -115.9066385,
            36.177911
          ],
          [
            -115.9066118,
            36.1778488
          ],
          [
            -115.9065881,
            36.177765
          ],
          [
            -115.9066146,
            36.1776275
          ],
          [
            -115.9064427,
            36.1775217
          ],
          [
            -115.9061289,
            36.1774832
          ],
          [
            -115.9053779,
            36.1774645
          ],
          [
            -115.9043156,
            36.1772455
          ],
          [
            -115.9022348,
            36.1765412
          ],
          [
            -115.9021749,
            36.1763977
          ],
          [
            -115.9022275,
            36.1763068
          ],
          [
            -115.9023393,
            36.1762484
          ],
          [
            -115.9024648,
            36.1762448
          ],
          [
            -115.9060151,
            36.1763952
          ],
          [
            -115.906356,
            36.1764843
          ],
          [
            -115.9065927,
            36.1766269
          ],
          [
            -115.906968,
            36.1768854
          ],
          [
            -115.9070505,
            36.176912
          ],
          [
            -115.9071507,
            36.1769366
          ],
          [
            -115.9073119,
            36.1769663
          ],
          [
            -115.9074159,
            36.1769765
          ],
          [
            -115.907539,
            36.1769755
          ],
          [
            -115.9076392,
            36.1769663
          ],
          [
            -115.9077483,
            36.1769509
          ],
          [
            -115.9078955,
            36.1769069
          ],
          [
            -115.9080706,
            36.1768219
          ],
          [
            -115.9081683,
            36.1767584
          ],
          [
            -115.9083472,
            36.1766652
          ],
          [
            -115.9084334,
            36.1766324
          ],
          [
            -115.9086453,
            36.1765812
          ],
          [
            -115.9089003,
            36.1765833
          ],
          [
            -115.9092467,
            36.1766386
          ],
          [
            -115.9093634,
            36.1766508
          ],
          [
            -115.9094979,
            36.1766601
          ],
          [
            -115.909621,
            36.176656
          ],
          [
            -115.9101082,
            36.1765955
          ],
          [
            -115.9103315,
            36.1765484
          ],
          [
            -115.9108136,
            36.1764634
          ],
          [
            -115.911157,
            36.176439
          ],
          [
            -115.911483,
            36.176427
          ],
          [
            -115.9126062,
            36.1763696
          ],
          [
            -115.9128114,
            36.1763627
          ],
          [
            -115.9129048,
            36.1763687
          ],
          [
            -115.9129878,
            36.1763796
          ],
          [
            -115.9130615,
            36.1763951
          ],
          [
            -115.9131344,
            36.1764149
          ],
          [
            -115.9132105,
            36.1764473
          ]
        ]
      }
    }
  ]
}
