{
  "type": "FeatureCollection",
  "bbox": [
    -115.9049176,
    36.167153,
    -115.9014536,
    36.1739889
  ],
  "metadata": {
    "schemaVersion": 1,
    "trackId": "us-spring-mountain-motorsports-ranch-127683895",
    "layoutId": "spring-mtn-raceway-east-b",
    "license": "ODbL-1.0",
    "attribution": "© OpenStreetMap contributors",
    "closed": true,
    "geometryStatus": "draft",
    "timingStatus": "missing",
    "timingMode": "shared",
    "lengthM": 2469.1,
    "reviewedAt": null,
    "notes": [
      "Draft route hypothesis: the source cycle is the unique closest nominal-distance match within conservative timing and distance checks. Approximate OSM trace length 2469.1 m. Difference from the supplied layout distance 7.1 m. Course configuration still requires visual review."
    ]
  },
  "features": [
    {
      "type": "Feature",
      "id": "trace",
      "properties": {
        "role": "trace",
        "sourceIds": [
          "osm-network-127683895"
        ]
      },
      "geometry": {
        "type": "LineString",
        "coordinates": [
          [
            -115.9048819,
            36.1738476
          ],
          [
            -115.9049176,
            36.1733573
          ],
          [
            -115.9048946,
            36.1685308
          ],
          [
            -115.9049172,
            36.1675431
          ],
          [
            -115.9047608,
            36.1674582
          ],
          [
            -115.9044525,
            36.1674117
          ],
          [
            -115.9032369,
            36.1677333
          ],
          [
            -115.9026007,
            36.1679017
          ],
          [
            -115.9024683,
            36.1678071
          ],
          [
            -115.9023419,
            36.1673669
          ],
          [
            -115.9022372,
            36.1672102
          ],
          [
            -115.9020831,
            36.167153
          ],
          [
            -115.9018058,
            36.1671928
          ],
          [
            -115.9016641,
            36.1672798
          ],
          [
            -115.9016302,
            36.1674738
          ],
          [
            -115.901621,
            36.1684314
          ],
          [
            -115.9017011,
            36.1685608
          ],
          [
            -115.9021448,
            36.1685906
          ],
          [
            -115.9023419,
            36.1686478
          ],
          [
            -115.9024559,
            36.1687672
          ],
          [
            -115.9025823,
            36.1689787
          ],
          [
            -115.9027342,
            36.1691088
          ],
          [
            -115.9039376,
            36.1700934
          ],
          [
            -115.9039417,
            36.1703001
          ],
          [
            -115.9037709,
            36.1704938
          ],
          [
            -115.9033563,
            36.1705889
          ],
          [
            -115.9029334,
            36.1705167
          ],
          [
            -115.9026326,
            36.1703329
          ],
          [
            -115.9024879,
            36.1701458
          ],
          [
            -115.9023561,
            36.1699752
          ],
          [
            -115.9020838,
            36.1697356
          ],
          [
            -115.9018886,
            36.1696798
          ],
          [
            -115.9016772,
            36.1697061
          ],
          [
            -115.9014943,
            36.1699686
          ],
          [
            -115.9014536,
            36.1718426
          ],
          [
            -115.9015959,
            36.1723152
          ],
          [
            -115.9019577,
            36.1733096
          ],
          [
            -115.9023724,
            36.1737658
          ],
          [
            -115.9031164,
            36.1739725
          ],
          [
            -115.9033847,
            36.1739889
          ],
          [
            -115.9048819,
            36.1738476
          ]
        ]
      }
    }
  ]
}
