{
  "type": "FeatureCollection",
  "bbox": [
    -115.9171614,
    36.172443,
    -115.9113754,
    36.1754968
  ],
  "metadata": {
    "schemaVersion": 1,
    "trackId": "us-spring-mountain-motorsports-ranch-127683895",
    "layoutId": "spring-mtn-raceway-west",
    "license": "ODbL-1.0",
    "attribution": "© OpenStreetMap contributors",
    "closed": true,
    "geometryStatus": "draft",
    "timingStatus": "missing",
    "timingMode": "shared",
    "lengthM": 2415.4,
    "reviewedAt": null,
    "notes": [
      "Draft route hypothesis: the source cycle is the unique closest nominal-distance match within conservative timing and distance checks. Approximate OSM trace length 2415.4 m. Difference from the supplied layout distance 14.4 m. Course configuration still requires visual review."
    ]
  },
  "features": [
    {
      "type": "Feature",
      "id": "trace",
      "properties": {
        "role": "trace",
        "sourceIds": [
          "osm-network-127683895"
        ]
      },
      "geometry": {
        "type": "LineString",
        "coordinates": [
          [
            -115.9131811,
            36.172443
          ],
          [
            -115.9134751,
            36.1725622
          ],
          [
            -115.9137127,
            36.172665
          ],
          [
            -115.9139385,
            36.1727852
          ],
          [
            -115.9141848,
            36.17293
          ],
          [
            -115.9144091,
            36.1730857
          ],
          [
            -115.9146296,
            36.1732512
          ],
          [
            -115.914805,
            36.1734114
          ],
          [
            -115.9150033,
            36.1736018
          ],
          [
            -115.915203,
            36.1738399
          ],
          [
            -115.9153528,
            36.1740439
          ],
          [
            -115.9155234,
            36.1743129
          ],
          [
            -115.9155864,
            36.1743936
          ],
          [
            -115.9156706,
            36.1744604
          ],
          [
            -115.9157667,
            36.174512
          ],
          [
            -115.915896,
            36.1745496
          ],
          [
            -115.9160075,
            36.1745617
          ],
          [
            -115.916129,
            36.1745544
          ],
          [
            -115.9162409,
            36.1745283
          ],
          [
            -115.9163408,
            36.174486
          ],
          [
            -115.9164331,
            36.1744164
          ],
          [
            -115.9164937,
            36.1743554
          ],
          [
            -115.9165389,
            36.1742728
          ],
          [
            -115.9165723,
            36.1741783
          ],
          [
            -115.9165769,
            36.174061
          ],
          [
            -115.9165473,
            36.1739494
          ],
          [
            -115.9164912,
            36.1738531
          ],
          [
            -115.9155516,
            36.1728705
          ],
          [
            -115.9155132,
            36.1728091
          ],
          [
            -115.9155098,
            36.1727549
          ],
          [
            -115.9155274,
            36.1726908
          ],
          [
            -115.9155858,
            36.1726491
          ],
          [
            -115.9156604,
            36.1726259
          ],
          [
            -115.9157295,
            36.1726231
          ],
          [
            -115.916051,
            36.17268
          ],
          [
            -115.9162168,
            36.1727346
          ],
          [
            -115.9163379,
            36.1727838
          ],
          [
            -115.91648,
            36.1728567
          ],
          [
            -115.9166193,
            36.1729461
          ],
          [
            -115.9167464,
            36.1730473
          ],
          [
            -115.9168522,
            36.1731474
          ],
          [
            -115.9169402,
            36.1732463
          ],
          [
            -115.9170232,
            36.1733673
          ],
          [
            -115.9170853,
            36.1734796
          ],
          [
            -115.9171293,
            36.1736039
          ],
          [
            -115.9171579,
            36.1737325
          ],
          [
            -115.9171614,
            36.1738772
          ],
          [
            -115.9171191,
            36.1745239
          ],
          [
            -115.9170886,
            36.1746493
          ],
          [
            -115.9170453,
            36.174783
          ],
          [
            -115.9169768,
            36.1749024
          ],
          [
            -115.916887,
            36.1750187
          ],
          [
            -115.91678,
            36.175131
          ],
          [
            -115.91664,
            36.1752358
          ],
          [
            -115.9164815,
            36.1753279
          ],
          [
            -115.9163225,
            36.1754003
          ],
          [
            -115.9161498,
            36.175454
          ],
          [
            -115.915953,
            36.1754885
          ],
          [
            -115.9157478,
            36.1754968
          ],
          [
            -115.9151926,
            36.1754686
          ],
          [
            -115.9143141,
            36.1754173
          ],
          [
            -115.9119568,
            36.1752806
          ],
          [
            -115.9119657,
            36.1749167
          ],
          [
            -115.9119815,
            36.1747724
          ],
          [
            -115.9120481,
            36.1746413
          ],
          [
            -115.9121339,
            36.1745537
          ],
          [
            -115.912269,
            36.1744776
          ],
          [
            -115.9124097,
            36.1744398
          ],
          [
            -115.9125537,
            36.1744336
          ],
          [
            -115.9127032,
            36.1744605
          ],
          [
            -115.9128675,
            36.1745292
          ],
          [
            -115.9132147,
            36.174695
          ],
          [
            -115.9135299,
            36.1748101
          ],
          [
            -115.913782,
            36.1748697
          ],
          [
            -115.9140207,
            36.1748989
          ],
          [
            -115.9142375,
            36.1748965
          ],
          [
            -115.9143924,
            36.1748707
          ],
          [
            -115.9145522,
            36.1748355
          ],
          [
            -115.9146627,
            36.1747832
          ],
          [
            -115.9147519,
            36.1747036
          ],
          [
            -115.9148029,
            36.1746116
          ],
          [
            -115.9148185,
            36.1745277
          ],
          [
            -115.9148111,
            36.1744471
          ],
          [
            -115.9147602,
            36.1743482
          ],
          [
            -115.9146959,
            36.17427
          ],
          [
            -115.9145816,
            36.1742095
          ],
          [
            -115.914472,
            36.174182
          ],
          [
            -115.914338,
            36.1741788
          ],
          [
            -115.9141482,
            36.1741991
          ],
          [
            -115.9140166,
            36.1742004
          ],
          [
            -115.9138837,
            36.1741787
          ],
          [
            -115.9137427,
            36.1741307
          ],
          [
            -115.9136171,
            36.1740636
          ],
          [
            -115.913492,
            36.1739666
          ],
          [
            -115.9132685,
            36.1736688
          ],
          [
            -115.9131481,
            36.1735567
          ],
          [
            -115.913024,
            36.1734932
          ],
          [
            -115.9128836,
            36.1734553
          ],
          [
            -115.912738,
            36.173437
          ],
          [
            -115.9125867,
            36.1734517
          ],
          [
            -115.9124536,
            36.1734883
          ],
          [
            -115.9123095,
            36.1735473
          ],
          [
            -115.9117576,
            36.1738437
          ],
          [
            -115.9116881,
            36.1738691
          ],
          [
            -115.9115915,
            36.1738866
          ],
          [
            -115.9115016,
            36.1738623
          ],
          [
            -115.9114262,
            36.1738181
          ],
          [
            -115.9113808,
            36.1737595
          ],
          [
            -115.9113754,
            36.173688
          ],
          [
            -115.9113914,
            36.1736251
          ],
          [
            -115.911458,
            36.1735494
          ],
          [
            -115.9115282,
            36.1734993
          ],
          [
            -115.9116246,
            36.1734358
          ],
          [
            -115.9123126,
            36.1729825
          ],
          [
            -115.9128473,
            36.1726302
          ],
          [
            -115.9129828,
            36.172541
          ],
          [
            -115.9131811,
            36.172443
          ]
        ]
      }
    }
  ]
}
