{
  "type": "FeatureCollection",
  "bbox": [
    -115.9117891,
    36.1664151,
    -115.9056002,
    36.175235
  ],
  "metadata": {
    "schemaVersion": 1,
    "trackId": "us-spring-mountain-motorsports-ranch-127683895",
    "layoutId": "spring-mtn-raceway-lauda-b",
    "license": "ODbL-1.0",
    "attribution": "© OpenStreetMap contributors",
    "closed": true,
    "geometryStatus": "draft",
    "timingStatus": "missing",
    "timingMode": "shared",
    "lengthM": 4183.6,
    "reviewedAt": null,
    "notes": [
      "Draft configuration: Operator highlighted Lauda B plan identifies the northern serpentine and south-east recessed chicane with the full diagonal southern return. Northern access spurs and alternate East-track connections are excluded. Exact independent source nodes form this draft course. Fine course alignment, travel direction and historical timing correspondence remain provisional. Branch identity was checked against catalogue layout facts and circuit identification references. Independent source distance 4183.6 m; no coordinates are changed to match a diagram or distance. Travel direction and historical alignment remain provisional."
    ]
  },
  "features": [
    {
      "type": "Feature",
      "id": "trace",
      "properties": {
        "role": "trace",
        "sourceIds": [
          "osm-selection-127683895"
        ]
      },
      "geometry": {
        "type": "LineString",
        "coordinates": [
          [
            -115.9084973,
            36.1679872
          ],
          [
            -115.9100559,
            36.169274
          ],
          [
            -115.9108444,
            36.1699162
          ],
          [
            -115.910941,
            36.17001
          ],
          [
            -115.911027,
            36.1701069
          ],
          [
            -115.9110893,
            36.1702262
          ],
          [
            -115.9111362,
            36.1703569
          ],
          [
            -115.9111478,
            36.1704875
          ],
          [
            -115.9111377,
            36.170611
          ],
          [
            -115.9111032,
            36.1707365
          ],
          [
            -115.9110469,
            36.1708638
          ],
          [
            -115.9109698,
            36.1709774
          ],
          [
            -115.9108669,
            36.1710751
          ],
          [
            -115.9107428,
            36.1711638
          ],
          [
            -115.9106051,
            36.1712351
          ],
          [
            -115.9104629,
            36.1712827
          ],
          [
            -115.9103388,
            36.171312
          ],
          [
            -115.9101859,
            36.171325
          ],
          [
            -115.9100211,
            36.171323
          ],
          [
            -115.9098441,
            36.1712962
          ],
          [
            -115.9097132,
            36.1712545
          ],
          [
            -115.9095853,
            36.1711936
          ],
          [
            -115.9094643,
            36.1711105
          ],
          [
            -115.9092077,
            36.170883
          ],
          [
            -115.9090876,
            36.1707905
          ],
          [
            -115.9089514,
            36.1707209
          ],
          [
            -115.9088057,
            36.1706687
          ],
          [
            -115.9086654,
            36.1706366
          ],
          [
            -115.9085292,
            36.1706256
          ],
          [
            -115.9083825,
            36.1706268
          ],
          [
            -115.908202,
            36.1706468
          ],
          [
            -115.9080511,
            36.1706916
          ],
          [
            -115.9078862,
            36.1707685
          ],
          [
            -115.9077204,
            36.1708737
          ],
          [
            -115.9076006,
            36.1709907
          ],
          [
            -115.9075388,
            36.1710871
          ],
          [
            -115.9074964,
            36.171173
          ],
          [
            -115.9074626,
            36.1712876
          ],
          [
            -115.9074482,
            36.1713754
          ],
          [
            -115.9074565,
            36.1715185
          ],
          [
            -115.9074883,
            36.171654
          ],
          [
            -115.9075559,
            36.1718059
          ],
          [
            -115.9076455,
            36.1719234
          ],
          [
            -115.9077773,
            36.1720449
          ],
          [
            -115.9079165,
            36.1721316
          ],
          [
            -115.9081041,
            36.172207
          ],
          [
            -115.9082932,
            36.1722476
          ],
          [
            -115.9085236,
            36.1722642
          ],
          [
            -115.910323,
            36.1722564
          ],
          [
            -115.9114447,
            36.1722482
          ],
          [
            -115.9115594,
            36.1722791
          ],
          [
            -115.9116451,
            36.1723241
          ],
          [
            -115.9117157,
            36.17238
          ],
          [
            -115.9117773,
            36.1724685
          ],
          [
            -115.9117891,
            36.1725444
          ],
          [
            -115.9117847,
            36.1726626
          ],
          [
            -115.9117288,
            36.1727494
          ],
          [
            -115.9116458,
            36.172822
          ],
          [
            -115.9115443,
            36.1728788
          ],
          [
            -115.9108183,
            36.1731506
          ],
          [
            -115.9107311,
            36.173168
          ],
          [
            -115.910654,
            36.1731831
          ],
          [
            -115.9105526,
            36.1731863
          ],
          [
            -115.9103618,
            36.1731606
          ],
          [
            -115.9102832,
            36.1731692
          ],
          [
            -115.9102227,
            36.1731948
          ],
          [
            -115.9100094,
            36.1733475
          ],
          [
            -115.9099264,
            36.1733929
          ],
          [
            -115.9098233,
            36.1734293
          ],
          [
            -115.9096856,
            36.1734452
          ],
          [
            -115.9094639,
            36.1734443
          ],
          [
            -115.9093694,
            36.1734269
          ],
          [
            -115.909274,
            36.1733903
          ],
          [
            -115.9091219,
            36.1732767
          ],
          [
            -115.9090383,
            36.1732357
          ],
          [
            -115.908773,
            36.1730452
          ],
          [
            -115.9083802,
            36.1729852
          ],
          [
            -115.9080794,
            36.1730481
          ],
          [
            -115.9076936,
            36.1729824
          ],
          [
            -115.9073715,
            36.1728024
          ],
          [
            -115.9071309,
            36.1727852
          ],
          [
            -115.9069079,
            36.1728681
          ],
          [
            -115.9067876,
            36.1730366
          ],
          [
            -115.9067734,
            36.1731738
          ],
          [
            -115.9068442,
            36.1733366
          ],
          [
            -115.9070247,
            36.1734738
          ],
          [
            -115.9073007,
            36.1734995
          ],
          [
            -115.907598,
            36.1735166
          ],
          [
            -115.9088837,
            36.1740571
          ],
          [
            -115.9092604,
            36.174211
          ],
          [
            -115.909402,
            36.1742566
          ],
          [
            -115.90956,
            36.1742843
          ],
          [
            -115.9097673,
            36.174299
          ],
          [
            -115.9100919,
            36.1742989
          ],
          [
            -115.910224,
            36.1742907
          ],
          [
            -115.9102878,
            36.1742867
          ],
          [
            -115.9104845,
            36.1742623
          ],
          [
            -115.9106934,
            36.1742224
          ],
          [
            -115.9108219,
            36.1742074
          ],
          [
            -115.9109435,
            36.1742148
          ],
          [
            -115.9110821,
            36.1742611
          ],
          [
            -115.9111829,
            36.1743137
          ],
          [
            -115.9112788,
            36.1744003
          ],
          [
            -115.9113338,
            36.1744803
          ],
          [
            -115.9113754,
            36.1746039
          ],
          [
            -115.9113524,
            36.1747522
          ],
          [
            -115.9112985,
            36.1749155
          ],
          [
            -115.9111233,
            36.175235
          ],
          [
            -115.9109644,
            36.1752234
          ],
          [
            -115.9103977,
            36.1750853
          ],
          [
            -115.9100093,
            36.1750194
          ],
          [
            -115.9097783,
            36.1750181
          ],
          [
            -115.9093379,
            36.1749889
          ],
          [
            -115.9091175,
            36.1749743
          ],
          [
            -115.9089464,
            36.1749518
          ],
          [
            -115.9087905,
            36.1748991
          ],
          [
            -115.9075556,
            36.1743321
          ],
          [
            -115.907295,
            36.1742514
          ],
          [
            -115.9070613,
            36.1742328
          ],
          [
            -115.9068238,
            36.1742505
          ],
          [
            -115.9060318,
            36.1744859
          ],
          [
            -115.905947,
            36.1744955
          ],
          [
            -115.90585,
            36.1744859
          ],
          [
            -115.9057444,
            36.174442
          ],
          [
            -115.9056719,
            36.1743688
          ],
          [
            -115.9056468,
            36.1742835
          ],
          [
            -115.9056401,
            36.1717212
          ],
          [
            -115.9056344,
            36.1710112
          ],
          [
            -115.905621,
            36.1693529
          ],
          [
            -115.9056268,
            36.1691776
          ],
          [
            -115.9056126,
            36.1683311
          ],
          [
            -115.9058604,
            36.1680803
          ],
          [
            -115.9058625,
            36.1676108
          ],
          [
            -115.9056017,
            36.1674166
          ],
          [
            -115.9056002,
            36.1668568
          ],
          [
            -115.9056002,
            36.1667098
          ],
          [
            -115.9056353,
            36.1666078
          ],
          [
            -115.9056964,
            36.1665546
          ],
          [
            -115.9057808,
            36.1665178
          ],
          [
            -115.90623,
            36.166426
          ],
          [
            -115.9063663,
            36.1664151
          ],
          [
            -115.9064946,
            36.166426
          ],
          [
            -115.9066358,
            36.166465
          ],
          [
            -115.9067188,
            36.1665154
          ],
          [
            -115.9068808,
            36.1666423
          ],
          [
            -115.9069737,
            36.1667408
          ],
          [
            -115.9068832,
            36.1674287
          ],
          [
            -115.9069089,
            36.1675276
          ],
          [
            -115.9069657,
            36.1675995
          ],
          [
            -115.907054,
            36.1676592
          ],
          [
            -115.9071805,
            36.1676936
          ],
          [
            -115.9073149,
            36.1677093
          ],
          [
            -115.9074438,
            36.167718
          ],
          [
            -115.9081041,
            36.1676744
          ],
          [
            -115.9084973,
            36.1679872
          ]
        ]
      }
    }
  ]
}
