{
  "type": "FeatureCollection",
  "bbox": [
    15.7144803,
    58.3906393,
    15.727575,
    58.3963241
  ],
  "metadata": {
    "schemaVersion": 1,
    "trackId": "se-sviestad-f8832c27",
    "layoutId": "sviestad",
    "license": "ODbL-1.0",
    "attribution": "© OpenStreetMap contributors",
    "closed": true,
    "geometryStatus": "draft",
    "timingStatus": "missing",
    "timingMode": "shared",
    "lengthM": 2093.2,
    "reviewedAt": null,
    "notes": [
      "Draft configuration: Full circuit with northwestern corner notch, northern inner bend and rounded southeastern turnaround. Branch identity was checked against catalogue layout facts and circuit identification references. Independent source distance 2093.2 m; no coordinates are changed to match a diagram or distance. Travel direction and historical alignment remain provisional."
    ]
  },
  "features": [
    {
      "type": "Feature",
      "id": "trace",
      "properties": {
        "role": "trace",
        "sourceIds": [
          "osm-selection-33691667"
        ]
      },
      "geometry": {
        "type": "LineString",
        "coordinates": [
          [
            15.7262325,
            58.390828
          ],
          [
            15.7254964,
            58.3910674
          ],
          [
            15.7225276,
            58.3920328
          ],
          [
            15.7181463,
            58.3934567
          ],
          [
            15.7180152,
            58.3935105
          ],
          [
            15.7178236,
            58.3935993
          ],
          [
            15.7177148,
            58.3936496
          ],
          [
            15.7176668,
            58.3937282
          ],
          [
            15.7176537,
            58.3938143
          ],
          [
            15.7176493,
            58.3939066
          ],
          [
            15.7176828,
            58.3940309
          ],
          [
            15.7176662,
            58.3941129
          ],
          [
            15.7175605,
            58.3941888
          ],
          [
            15.7174281,
            58.3942483
          ],
          [
            15.7172026,
            58.3943093
          ],
          [
            15.7168926,
            58.394368
          ],
          [
            15.7164749,
            58.394433
          ],
          [
            15.716216,
            58.3944809
          ],
          [
            15.715999,
            58.3945501
          ],
          [
            15.7157869,
            58.3946637
          ],
          [
            15.714623,
            58.3952872
          ],
          [
            15.7145502,
            58.3953428
          ],
          [
            15.7145007,
            58.3954046
          ],
          [
            15.7144803,
            58.3954741
          ],
          [
            15.7144906,
            58.3955548
          ],
          [
            15.7145357,
            58.3956387
          ],
          [
            15.7146422,
            58.3957099
          ],
          [
            15.7148922,
            58.3958057
          ],
          [
            15.7157555,
            58.3960543
          ],
          [
            15.7162972,
            58.3962033
          ],
          [
            15.7166674,
            58.3962905
          ],
          [
            15.7168816,
            58.3963165
          ],
          [
            15.7170874,
            58.3963241
          ],
          [
            15.7173196,
            58.3963186
          ],
          [
            15.7175425,
            58.3963003
          ],
          [
            15.7177716,
            58.3962542
          ],
          [
            15.7180188,
            58.3961752
          ],
          [
            15.7183231,
            58.3960191
          ],
          [
            15.7186406,
            58.3958482
          ],
          [
            15.7198216,
            58.3952413
          ],
          [
            15.7199053,
            58.3951974
          ],
          [
            15.7201909,
            58.3950475
          ],
          [
            15.7212178,
            58.3945085
          ],
          [
            15.7215634,
            58.3943441
          ],
          [
            15.721767,
            58.394276
          ],
          [
            15.721982,
            58.394252
          ],
          [
            15.7222008,
            58.3942571
          ],
          [
            15.722388,
            58.394293
          ],
          [
            15.7225031,
            58.3943376
          ],
          [
            15.7225471,
            58.3943547
          ],
          [
            15.7227177,
            58.3944512
          ],
          [
            15.7229426,
            58.3943426
          ],
          [
            15.7233225,
            58.3940698
          ],
          [
            15.7245802,
            58.3931802
          ],
          [
            15.7250265,
            58.3929105
          ],
          [
            15.7251325,
            58.3927948
          ],
          [
            15.7252662,
            58.3926848
          ],
          [
            15.7254757,
            58.3925598
          ],
          [
            15.7256718,
            58.3924548
          ],
          [
            15.7267916,
            58.3919231
          ],
          [
            15.7270258,
            58.3918086
          ],
          [
            15.7271637,
            58.3917062
          ],
          [
            15.7273016,
            58.391594
          ],
          [
            15.727397,
            58.3914949
          ],
          [
            15.7274721,
            58.3913992
          ],
          [
            15.7275184,
            58.3913231
          ],
          [
            15.7275555,
            58.391232
          ],
          [
            15.727575,
            58.3911344
          ],
          [
            15.7275575,
            58.3910277
          ],
          [
            15.7275174,
            58.3909295
          ],
          [
            15.727467,
            58.3908572
          ],
          [
            15.7273923,
            58.390779
          ],
          [
            15.7273075,
            58.3907148
          ],
          [
            15.7272015,
            58.3906711
          ],
          [
            15.7270714,
            58.3906458
          ],
          [
            15.7269319,
            58.3906393
          ],
          [
            15.7267735,
            58.3906655
          ],
          [
            15.7265687,
            58.3907229
          ],
          [
            15.7262325,
            58.390828
          ]
        ]
      }
    }
  ]
}
