{
  "type": "FeatureCollection",
  "bbox": [
    -82.3386385,
    28.0112309,
    -82.3297597,
    28.0144097
  ],
  "metadata": {
    "schemaVersion": 1,
    "trackId": "us-motor-enclave-reference",
    "layoutId": "main",
    "license": "ODbL-1.0",
    "attribution": "© OpenStreetMap contributors",
    "closed": true,
    "geometryStatus": "draft",
    "timingStatus": "missing",
    "timingMode": "shared",
    "lengthM": 2763.9,
    "reviewedAt": null,
    "notes": [
      "Single reference course at a unique connected OSM source cycle, with private timing proximity. Draft geometry; course identity and operating status require review. Timing coordinates remain private.",
      "Travel direction is provisional."
    ]
  },
  "features": [
    {
      "type": "Feature",
      "id": "trace",
      "properties": {
        "role": "trace",
        "sourceIds": [
          "osm-snapshot"
        ]
      },
      "geometry": {
        "type": "LineString",
        "coordinates": [
          [
            -82.3366371,
            28.0115925
          ],
          [
            -82.3383404,
            28.0115836
          ],
          [
            -82.3384785,
            28.0116244
          ],
          [
            -82.3385585,
            28.0116783
          ],
          [
            -82.3386027,
            28.0117619
          ],
          [
            -82.3386385,
            28.0118994
          ],
          [
            -82.3386385,
            28.012232
          ],
          [
            -82.3385761,
            28.0123183
          ],
          [
            -82.3384841,
            28.0123801
          ],
          [
            -82.3383642,
            28.0123995
          ],
          [
            -82.3382502,
            28.0123801
          ],
          [
            -82.3381602,
            28.0122954
          ],
          [
            -82.3378401,
            28.0119681
          ],
          [
            -82.3376676,
            28.0118415
          ],
          [
            -82.3374983,
            28.0117753
          ],
          [
            -82.3372255,
            28.0117472
          ],
          [
            -82.336589,
            28.0117338
          ],
          [
            -82.3360274,
            28.0117405
          ],
          [
            -82.3358642,
            28.0117981
          ],
          [
            -82.3357738,
            28.0118868
          ],
          [
            -82.3357178,
            28.0119978
          ],
          [
            -82.3357198,
            28.0121482
          ],
          [
            -82.3357583,
            28.0122413
          ],
          [
            -82.3358496,
            28.0123541
          ],
          [
            -82.3359327,
            28.0124042
          ],
          [
            -82.3361051,
            28.01244
          ],
          [
            -82.3362572,
            28.0124221
          ],
          [
            -82.3365982,
            28.0123471
          ],
          [
            -82.3371088,
            28.0123389
          ],
          [
            -82.3374211,
            28.0123284
          ],
          [
            -82.3375798,
            28.012365
          ],
          [
            -82.3377123,
            28.0124499
          ],
          [
            -82.3378912,
            28.0126573
          ],
          [
            -82.3379811,
            28.0128453
          ],
          [
            -82.3380072,
            28.0130667
          ],
          [
            -82.3379676,
            28.0137369
          ],
          [
            -82.337888,
            28.0139151
          ],
          [
            -82.3377502,
            28.0142166
          ],
          [
            -82.3375884,
            28.0143357
          ],
          [
            -82.3373967,
            28.0143939
          ],
          [
            -82.3372289,
            28.0144097
          ],
          [
            -82.3366178,
            28.0144041
          ],
          [
            -82.3361119,
            28.0143215
          ],
          [
            -82.3356789,
            28.0142615
          ],
          [
            -82.3355291,
            28.0141674
          ],
          [
            -82.3353313,
            28.0139889
          ],
          [
            -82.3351975,
            28.0137889
          ],
          [
            -82.335122,
            28.0135104
          ],
          [
            -82.3350009,
            28.012297
          ],
          [
            -82.3349263,
            28.0120832
          ],
          [
            -82.3348049,
            28.0119328
          ],
          [
            -82.3346718,
            28.0118421
          ],
          [
            -82.3344861,
            28.011751
          ],
          [
            -82.3342812,
            28.0117224
          ],
          [
            -82.3338997,
            28.0117259
          ],
          [
            -82.3326482,
            28.0117416
          ],
          [
            -82.3316372,
            28.0117402
          ],
          [
            -82.3313941,
            28.0117608
          ],
          [
            -82.3311561,
            28.0118362
          ],
          [
            -82.3307244,
            28.011995
          ],
          [
            -82.33053,
            28.0120371
          ],
          [
            -82.330303,
            28.0120395
          ],
          [
            -82.3301748,
            28.0119876
          ],
          [
            -82.3300267,
            28.0118683
          ],
          [
            -82.3298647,
            28.0117092
          ],
          [
            -82.3297597,
            28.011558
          ],
          [
            -82.3297703,
            28.0114259
          ],
          [
            -82.3298205,
            28.0113129
          ],
          [
            -82.329951,
            28.0112331
          ],
          [
            -82.3301293,
            28.0112309
          ],
          [
            -82.330682,
            28.0114352
          ],
          [
            -82.3310432,
            28.011522
          ],
          [
            -82.3313777,
            28.01155
          ],
          [
            -82.3319702,
            28.0115613
          ],
          [
            -82.3366371,
            28.0115925
          ]
        ]
      }
    }
  ]
}
