{
  "type": "FeatureCollection",
  "bbox": [
    120.6803163,
    24.3169333,
    120.6908731,
    24.3212247
  ],
  "metadata": {
    "schemaVersion": 1,
    "trackId": "tw-lihpao-g2-66f08127",
    "layoutId": "lihpao-g2",
    "license": "ODbL-1.0",
    "attribution": "© OpenStreetMap contributors",
    "closed": true,
    "geometryStatus": "draft",
    "timingStatus": "missing",
    "timingMode": "shared",
    "lengthM": 3560.8,
    "reviewedAt": null,
    "notes": [
      "Draft route hypothesis: the source cycle is the unique closest nominal-distance match within conservative timing and distance checks. Approximate OSM trace length 3560.8 m. Difference from the supplied layout distance 7.2 m. Course configuration still requires visual review."
    ]
  },
  "features": [
    {
      "type": "Feature",
      "id": "trace",
      "properties": {
        "role": "trace",
        "sourceIds": [
          "osm-network-779852386"
        ]
      },
      "geometry": {
        "type": "LineString",
        "coordinates": [
          [
            120.6844068,
            24.317168
          ],
          [
            120.6843277,
            24.3171255
          ],
          [
            120.6842327,
            24.3170989
          ],
          [
            120.6841654,
            24.3170995
          ],
          [
            120.6840863,
            24.3171252
          ],
          [
            120.6840339,
            24.3171753
          ],
          [
            120.683983,
            24.3172486
          ],
          [
            120.6838086,
            24.3175713
          ],
          [
            120.6837308,
            24.3176373
          ],
          [
            120.6836513,
            24.3176931
          ],
          [
            120.683565,
            24.3177261
          ],
          [
            120.6834117,
            24.317757
          ],
          [
            120.681636,
            24.3181286
          ],
          [
            120.6815339,
            24.3181459
          ],
          [
            120.6814156,
            24.3181386
          ],
          [
            120.6813249,
            24.3181188
          ],
          [
            120.6812344,
            24.3180762
          ],
          [
            120.681159,
            24.3180211
          ],
          [
            120.6811049,
            24.3179648
          ],
          [
            120.6810537,
            24.3178833
          ],
          [
            120.6810276,
            24.3177856
          ],
          [
            120.6809279,
            24.3171557
          ],
          [
            120.680903,
            24.3170894
          ],
          [
            120.6808286,
            24.3170018
          ],
          [
            120.6807392,
            24.3169478
          ],
          [
            120.6806463,
            24.3169333
          ],
          [
            120.6805421,
            24.3169356
          ],
          [
            120.6804601,
            24.3169711
          ],
          [
            120.6803701,
            24.3170408
          ],
          [
            120.680329,
            24.3171056
          ],
          [
            120.6803163,
            24.3172121
          ],
          [
            120.6803244,
            24.3173
          ],
          [
            120.6803486,
            24.3178743
          ],
          [
            120.6803754,
            24.3179794
          ],
          [
            120.6804283,
            24.318095
          ],
          [
            120.6804745,
            24.3181663
          ],
          [
            120.6805387,
            24.318218
          ],
          [
            120.6806785,
            24.3183168
          ],
          [
            120.6812444,
            24.3186834
          ],
          [
            120.681342,
            24.3187225
          ],
          [
            120.6814437,
            24.3187379
          ],
          [
            120.6815495,
            24.3187399
          ],
          [
            120.6816494,
            24.3187127
          ],
          [
            120.6821059,
            24.3184546
          ],
          [
            120.6821886,
            24.3184317
          ],
          [
            120.6822878,
            24.3184438
          ],
          [
            120.6823629,
            24.3184781
          ],
          [
            120.6824326,
            24.318549
          ],
          [
            120.6824665,
            24.3186354
          ],
          [
            120.6826096,
            24.3191234
          ],
          [
            120.6826803,
            24.3192581
          ],
          [
            120.6827974,
            24.3193824
          ],
          [
            120.6829249,
            24.3194749
          ],
          [
            120.6830499,
            24.31954
          ],
          [
            120.6832158,
            24.3195877
          ],
          [
            120.6834097,
            24.3196022
          ],
          [
            120.6835629,
            24.3195886
          ],
          [
            120.6838153,
            24.3195506
          ],
          [
            120.6839963,
            24.3195242
          ],
          [
            120.6840914,
            24.319524
          ],
          [
            120.6841677,
            24.3195452
          ],
          [
            120.6842367,
            24.3196016
          ],
          [
            120.6845343,
            24.3199686
          ],
          [
            120.684579,
            24.3200138
          ],
          [
            120.68464,
            24.3200546
          ],
          [
            120.6846964,
            24.320079
          ],
          [
            120.6882209,
            24.3212034
          ],
          [
            120.6883094,
            24.3212204
          ],
          [
            120.6883811,
            24.3212247
          ],
          [
            120.6884458,
            24.3212018
          ],
          [
            120.6884996,
            24.3211586
          ],
          [
            120.6885213,
            24.3211203
          ],
          [
            120.6885561,
            24.320871
          ],
          [
            120.6885801,
            24.3208264
          ],
          [
            120.6886348,
            24.3207812
          ],
          [
            120.6886923,
            24.3207703
          ],
          [
            120.6887787,
            24.3207634
          ],
          [
            120.6890777,
            24.3207959
          ],
          [
            120.6891677,
            24.3207952
          ],
          [
            120.6892616,
            24.3207637
          ],
          [
            120.6898785,
            24.3203039
          ],
          [
            120.6899187,
            24.3202613
          ],
          [
            120.689983,
            24.3201548
          ],
          [
            120.6900392,
            24.320041
          ],
          [
            120.6900648,
            24.3199272
          ],
          [
            120.6900774,
            24.3198052
          ],
          [
            120.6900608,
            24.3192138
          ],
          [
            120.6900689,
            24.3191209
          ],
          [
            120.6900837,
            24.3190507
          ],
          [
            120.6901264,
            24.3189894
          ],
          [
            120.6901842,
            24.3189354
          ],
          [
            120.6902471,
            24.3189024
          ],
          [
            120.6903291,
            24.3188789
          ],
          [
            120.6906187,
            24.3188496
          ],
          [
            120.6906945,
            24.3188395
          ],
          [
            120.6907548,
            24.3188071
          ],
          [
            120.6908011,
            24.3187714
          ],
          [
            120.6908478,
            24.3187127
          ],
          [
            120.6908731,
            24.3186347
          ],
          [
            120.6908709,
            24.3185563
          ],
          [
            120.6908592,
            24.3184906
          ],
          [
            120.6908206,
            24.3184274
          ],
          [
            120.6907502,
            24.3183607
          ],
          [
            120.6906691,
            24.318311
          ],
          [
            120.6905544,
            24.318263
          ],
          [
            120.6904149,
            24.3182508
          ],
          [
            120.6893614,
            24.3182819
          ],
          [
            120.6892223,
            24.3182798
          ],
          [
            120.6890937,
            24.3182677
          ],
          [
            120.6890067,
            24.3182532
          ],
          [
            120.6876575,
            24.318021
          ],
          [
            120.6875744,
            24.3180149
          ],
          [
            120.6875235,
            24.3180185
          ],
          [
            120.6874712,
            24.3180503
          ],
          [
            120.687435,
            24.3180919
          ],
          [
            120.6873947,
            24.318164
          ],
          [
            120.6873706,
            24.3184658
          ],
          [
            120.6873679,
            24.3185392
          ],
          [
            120.687392,
            24.3186199
          ],
          [
            120.6874618,
            24.3186956
          ],
          [
            120.6875691,
            24.3187697
          ],
          [
            120.6876522,
            24.3187983
          ],
          [
            120.6877962,
            24.3188228
          ],
          [
            120.6883693,
            24.3188612
          ],
          [
            120.688487,
            24.3188524
          ],
          [
            120.6885641,
            24.3188482
          ],
          [
            120.6886688,
            24.3188203
          ],
          [
            120.6890963,
            24.3186764
          ],
          [
            120.6892025,
            24.3186589
          ],
          [
            120.6893206,
            24.3186711
          ],
          [
            120.6894252,
            24.3187127
          ],
          [
            120.6895072,
            24.3187786
          ],
          [
            120.6895583,
            24.3188421
          ],
          [
            120.6895995,
            24.3189425
          ],
          [
            120.6896921,
            24.3192986
          ],
          [
            120.6896961,
            24.3194215
          ],
          [
            120.6896719,
            24.31949
          ],
          [
            120.6896049,
            24.3195608
          ],
          [
            120.6895427,
            24.3195878
          ],
          [
            120.6894198,
            24.3196097
          ],
          [
            120.6891672,
            24.3196353
          ],
          [
            120.6890903,
            24.3196657
          ],
          [
            120.6890323,
            24.3197029
          ],
          [
            120.6890014,
            24.3197515
          ],
          [
            120.6889853,
            24.3198052
          ],
          [
            120.6890016,
            24.3201265
          ],
          [
            120.6889772,
            24.3202159
          ],
          [
            120.6889461,
            24.3202642
          ],
          [
            120.6888882,
            24.3203125
          ],
          [
            120.6888378,
            24.3203406
          ],
          [
            120.6887546,
            24.3203625
          ],
          [
            120.6886753,
            24.3203592
          ],
          [
            120.6886094,
            24.3203389
          ],
          [
            120.68854,
            24.3203039
          ],
          [
            120.6861609,
            24.3185025
          ],
          [
            120.6844068,
            24.317168
          ]
        ]
      }
    }
  ]
}
