{
  "type": "FeatureCollection",
  "bbox": [
    140.620505,
    38.283511,
    140.62847,
    38.290377
  ],
  "metadata": {
    "schemaVersion": 1,
    "trackId": "jp-sendai-highland-fc283d24",
    "layoutId": "sendai-highland",
    "license": "ODbL-1.0",
    "attribution": "© OpenStreetMap contributors",
    "closed": true,
    "geometryStatus": "draft",
    "timingStatus": "missing",
    "timingMode": "shared",
    "lengthM": 4005.3,
    "reviewedAt": null,
    "notes": [
      "Draft configuration: Full historical circuit uses the northern start-straight loop, western main straight and complete three-part southern infield from the pinned 2013 independent map. The series historical results identify the full Hi-land Race Way as 4.02960 km; the supplied entry is 4059 m and the unchanged public route measures 4005.3 m. Parallel pit lanes, drag strip and service roads are excluded. Historical alignment and direction remain draft. Branch identity was checked against catalogue layout facts and circuit identification references. Independent source distance 4005.3 m; no coordinates are changed to match a diagram or distance. Travel direction and historical alignment remain provisional."
    ]
  },
  "features": [
    {
      "type": "Feature",
      "id": "trace",
      "properties": {
        "role": "trace",
        "sourceIds": [
          "osm-selection-sendai-highland-2013-independent-roads-108786001"
        ]
      },
      "geometry": {
        "type": "LineString",
        "coordinates": [
          [
            140.624438,
            38.286058
          ],
          [
            140.624169,
            38.285701
          ],
          [
            140.623292,
            38.284551
          ],
          [
            140.623145,
            38.284376
          ],
          [
            140.623054,
            38.284264
          ],
          [
            140.623007,
            38.284211
          ],
          [
            140.622937,
            38.284151
          ],
          [
            140.622906,
            38.284139
          ],
          [
            140.622827,
            38.284103
          ],
          [
            140.622725,
            38.284081
          ],
          [
            140.622625,
            38.28407
          ],
          [
            140.622542,
            38.284068
          ],
          [
            140.622444,
            38.284068
          ],
          [
            140.622295,
            38.284087
          ],
          [
            140.62221,
            38.284115
          ],
          [
            140.622129,
            38.284164
          ],
          [
            140.622044,
            38.284233
          ],
          [
            140.621975,
            38.28431
          ],
          [
            140.62195,
            38.284366
          ],
          [
            140.62194,
            38.284435
          ],
          [
            140.621935,
            38.284518
          ],
          [
            140.621935,
            38.284695
          ],
          [
            140.621946,
            38.285948
          ],
          [
            140.62196,
            38.287187
          ],
          [
            140.621975,
            38.288412
          ],
          [
            140.621972,
            38.289003
          ],
          [
            140.621972,
            38.289377
          ],
          [
            140.622002,
            38.28948
          ],
          [
            140.622046,
            38.289533
          ],
          [
            140.622165,
            38.289609
          ],
          [
            140.622322,
            38.289671
          ],
          [
            140.622472,
            38.289733
          ],
          [
            140.622542,
            38.289791
          ],
          [
            140.622573,
            38.289853
          ],
          [
            140.622592,
            38.289909
          ],
          [
            140.622593,
            38.289919
          ],
          [
            140.622604,
            38.290022
          ],
          [
            140.622604,
            38.290121
          ],
          [
            140.622592,
            38.290198
          ],
          [
            140.622568,
            38.290271
          ],
          [
            140.622508,
            38.290328
          ],
          [
            140.622425,
            38.290365
          ],
          [
            140.622349,
            38.290377
          ],
          [
            140.622265,
            38.290369
          ],
          [
            140.622172,
            38.290352
          ],
          [
            140.62207,
            38.290331
          ],
          [
            140.621881,
            38.290295
          ],
          [
            140.621587,
            38.290228
          ],
          [
            140.621229,
            38.29016
          ],
          [
            140.620739,
            38.290056
          ],
          [
            140.620616,
            38.289976
          ],
          [
            140.620526,
            38.289888
          ],
          [
            140.620505,
            38.2898
          ],
          [
            140.620541,
            38.289718
          ],
          [
            140.620646,
            38.289615
          ],
          [
            140.620877,
            38.289489
          ],
          [
            140.62104,
            38.289335
          ],
          [
            140.621167,
            38.289199
          ],
          [
            140.621172,
            38.289186
          ],
          [
            140.621246,
            38.289007
          ],
          [
            140.621209,
            38.288855
          ],
          [
            140.621,
            38.288229
          ],
          [
            140.621014,
            38.287117
          ],
          [
            140.621031,
            38.285516
          ],
          [
            140.62102,
            38.284675
          ],
          [
            140.621053,
            38.284577
          ],
          [
            140.621106,
            38.284483
          ],
          [
            140.621348,
            38.284322
          ],
          [
            140.621441,
            38.284205
          ],
          [
            140.621587,
            38.284058
          ],
          [
            140.621652,
            38.283998
          ],
          [
            140.621734,
            38.283946
          ],
          [
            140.621889,
            38.283873
          ],
          [
            140.622096,
            38.283804
          ],
          [
            140.622235,
            38.283778
          ],
          [
            140.622374,
            38.283764
          ],
          [
            140.6226,
            38.283753
          ],
          [
            140.622717,
            38.283751
          ],
          [
            140.622809,
            38.283764
          ],
          [
            140.622939,
            38.283808
          ],
          [
            140.623034,
            38.283849
          ],
          [
            140.623134,
            38.283911
          ],
          [
            140.623257,
            38.283981
          ],
          [
            140.623572,
            38.284147
          ],
          [
            140.623717,
            38.284203
          ],
          [
            140.623811,
            38.28422
          ],
          [
            140.623894,
            38.284228
          ],
          [
            140.623972,
            38.284226
          ],
          [
            140.624072,
            38.284216
          ],
          [
            140.624202,
            38.284189
          ],
          [
            140.624314,
            38.284127
          ],
          [
            140.624407,
            38.284052
          ],
          [
            140.624633,
            38.283868
          ],
          [
            140.62506,
            38.283556
          ],
          [
            140.625146,
            38.283521
          ],
          [
            140.625226,
            38.283511
          ],
          [
            140.625312,
            38.283519
          ],
          [
            140.625417,
            38.283547
          ],
          [
            140.625496,
            38.283586
          ],
          [
            140.62556,
            38.283654
          ],
          [
            140.625663,
            38.283767
          ],
          [
            140.62582,
            38.283952
          ],
          [
            140.625956,
            38.284098
          ],
          [
            140.626521,
            38.284758
          ],
          [
            140.62668,
            38.284933
          ],
          [
            140.62693,
            38.285216
          ],
          [
            140.627104,
            38.285381
          ],
          [
            140.627231,
            38.285478
          ],
          [
            140.627426,
            38.285597
          ],
          [
            140.627667,
            38.285721
          ],
          [
            140.628077,
            38.285931
          ],
          [
            140.62831,
            38.286059
          ],
          [
            140.628386,
            38.286119
          ],
          [
            140.628427,
            38.286163
          ],
          [
            140.628453,
            38.286218
          ],
          [
            140.628463,
            38.286275
          ],
          [
            140.62847,
            38.286412
          ],
          [
            140.628468,
            38.286605
          ],
          [
            140.628458,
            38.286696
          ],
          [
            140.628408,
            38.286795
          ],
          [
            140.628308,
            38.286884
          ],
          [
            140.628296,
            38.286895
          ],
          [
            140.628198,
            38.286942
          ],
          [
            140.628103,
            38.286966
          ],
          [
            140.628018,
            38.286978
          ],
          [
            140.627899,
            38.286977
          ],
          [
            140.627794,
            38.286958
          ],
          [
            140.627632,
            38.286932
          ],
          [
            140.62747,
            38.286905
          ],
          [
            140.627271,
            38.286884
          ],
          [
            140.627118,
            38.286863
          ],
          [
            140.627022,
            38.286833
          ],
          [
            140.626979,
            38.286806
          ],
          [
            140.626932,
            38.286766
          ],
          [
            140.626834,
            38.286668
          ],
          [
            140.626748,
            38.286539
          ],
          [
            140.626584,
            38.286234
          ],
          [
            140.626319,
            38.285631
          ],
          [
            140.626014,
            38.284925
          ],
          [
            140.625857,
            38.284607
          ],
          [
            140.625764,
            38.284433
          ],
          [
            140.625681,
            38.284343
          ],
          [
            140.625595,
            38.284296
          ],
          [
            140.625507,
            38.284254
          ],
          [
            140.625414,
            38.284235
          ],
          [
            140.625302,
            38.28423
          ],
          [
            140.625175,
            38.284241
          ],
          [
            140.62507,
            38.284262
          ],
          [
            140.624954,
            38.284303
          ],
          [
            140.624854,
            38.284359
          ],
          [
            140.624711,
            38.284438
          ],
          [
            140.624474,
            38.284584
          ],
          [
            140.624386,
            38.284661
          ],
          [
            140.624343,
            38.284734
          ],
          [
            140.624341,
            38.284832
          ],
          [
            140.624379,
            38.284918
          ],
          [
            140.624464,
            38.284973
          ],
          [
            140.62461,
            38.285022
          ],
          [
            140.624753,
            38.285063
          ],
          [
            140.624989,
            38.285114
          ],
          [
            140.625197,
            38.285174
          ],
          [
            140.62533,
            38.285227
          ],
          [
            140.625454,
            38.285327
          ],
          [
            140.625526,
            38.285422
          ],
          [
            140.625573,
            38.28551
          ],
          [
            140.625633,
            38.285668
          ],
          [
            140.625671,
            38.285825
          ],
          [
            140.625692,
            38.285966
          ],
          [
            140.625704,
            38.286149
          ],
          [
            140.625709,
            38.286354
          ],
          [
            140.625738,
            38.286585
          ],
          [
            140.625776,
            38.286664
          ],
          [
            140.625823,
            38.286739
          ],
          [
            140.625884,
            38.286828
          ],
          [
            140.626022,
            38.287031
          ],
          [
            140.62615,
            38.287213
          ],
          [
            140.626231,
            38.287359
          ],
          [
            140.626256,
            38.287434
          ],
          [
            140.626268,
            38.28754
          ],
          [
            140.626264,
            38.287585
          ],
          [
            140.626246,
            38.287631
          ],
          [
            140.626225,
            38.287661
          ],
          [
            140.626182,
            38.287691
          ],
          [
            140.626136,
            38.287701
          ],
          [
            140.626095,
            38.287706
          ],
          [
            140.626059,
            38.287703
          ],
          [
            140.626031,
            38.287697
          ],
          [
            140.62599,
            38.28768
          ],
          [
            140.625956,
            38.287662
          ],
          [
            140.625854,
            38.287608
          ],
          [
            140.625764,
            38.287545
          ],
          [
            140.625654,
            38.28745
          ],
          [
            140.625475,
            38.287293
          ],
          [
            140.625275,
            38.287073
          ],
          [
            140.625061,
            38.286832
          ],
          [
            140.624661,
            38.286354
          ],
          [
            140.624438,
            38.286058
          ]
        ]
      }
    }
  ]
}
