{
  "type": "FeatureCollection",
  "bbox": [
    -122.4525912,
    38.153822,
    -122.4505634,
    38.1557139
  ],
  "metadata": {
    "schemaVersion": 1,
    "trackId": "us-sonoma-kart-circuit-f0967033",
    "layoutId": "sonoma-kart-circuit",
    "license": "ODbL-1.0",
    "attribution": "© OpenStreetMap contributors",
    "closed": true,
    "geometryStatus": "draft",
    "timingStatus": "missing",
    "timingMode": "shared",
    "lengthM": 1197.8,
    "reviewedAt": null,
    "notes": [
      "Draft configuration: Full northern hairpin, middle return and southern chicane course at the operator karting center. The catalogue branch identity excludes the middle diagonal shortcut, separate northern extension and paddock/skid-pad access. Exact independent nodes retain the 1197.8 m route against the 1103 m catalogue scalar; distance, historical alignment and direction remain draft. Branch identity was checked against catalogue layout facts and circuit identification references. Independent source distance 1197.8 m; no coordinates are changed to match a diagram or distance. Travel direction and historical alignment remain provisional."
    ]
  },
  "features": [
    {
      "type": "Feature",
      "id": "trace",
      "properties": {
        "role": "trace",
        "sourceIds": [
          "osm-selection-230287123"
        ]
      },
      "geometry": {
        "type": "LineString",
        "coordinates": [
          [
            -122.4519072,
            38.1545096
          ],
          [
            -122.4518616,
            38.1544653
          ],
          [
            -122.4518294,
            38.1544316
          ],
          [
            -122.4517865,
            38.1543915
          ],
          [
            -122.4517356,
            38.1543556
          ],
          [
            -122.4516953,
            38.1543156
          ],
          [
            -122.4516524,
            38.1542818
          ],
          [
            -122.4516041,
            38.154246
          ],
          [
            -122.4513182,
            38.1540683
          ],
          [
            -122.4509658,
            38.1538494
          ],
          [
            -122.4508853,
            38.153822
          ],
          [
            -122.4508129,
            38.1538283
          ],
          [
            -122.4507753,
            38.1538431
          ],
          [
            -122.4507458,
            38.1538874
          ],
          [
            -122.4507136,
            38.154073
          ],
          [
            -122.4506439,
            38.1544674
          ],
          [
            -122.4511616,
            38.1549272
          ],
          [
            -122.4516122,
            38.1551191
          ],
          [
            -122.4516685,
            38.155117
          ],
          [
            -122.4517168,
            38.1551044
          ],
          [
            -122.4517409,
            38.1550601
          ],
          [
            -122.4517463,
            38.1550095
          ],
          [
            -122.4517195,
            38.1549631
          ],
          [
            -122.4516792,
            38.1549293
          ],
          [
            -122.4513037,
            38.1547648
          ],
          [
            -122.451242,
            38.1547374
          ],
          [
            -122.4511991,
            38.1547036
          ],
          [
            -122.4509094,
            38.1542734
          ],
          [
            -122.4509121,
            38.1542312
          ],
          [
            -122.4509255,
            38.15417
          ],
          [
            -122.4509872,
            38.1541384
          ],
          [
            -122.4510436,
            38.15413
          ],
          [
            -122.4511106,
            38.1541553
          ],
          [
            -122.4511482,
            38.1541974
          ],
          [
            -122.4514861,
            38.1546277
          ],
          [
            -122.4515371,
            38.1546741
          ],
          [
            -122.4516122,
            38.1547015
          ],
          [
            -122.4516712,
            38.1547079
          ],
          [
            -122.4517329,
            38.1547036
          ],
          [
            -122.4518026,
            38.1546826
          ],
          [
            -122.4520145,
            38.1549884
          ],
          [
            -122.4520248,
            38.154997
          ],
          [
            -122.4521781,
            38.1552942
          ],
          [
            -122.4521781,
            38.1553343
          ],
          [
            -122.4521594,
            38.1553765
          ],
          [
            -122.4521164,
            38.1554018
          ],
          [
            -122.4520467,
            38.1554123
          ],
          [
            -122.4514352,
            38.1552837
          ],
          [
            -122.4513198,
            38.1552478
          ],
          [
            -122.4511911,
            38.1551845
          ],
          [
            -122.4510972,
            38.1551213
          ],
          [
            -122.4510201,
            38.1550685
          ],
          [
            -122.4506032,
            38.1547835
          ],
          [
            -122.4505634,
            38.1550917
          ],
          [
            -122.4505742,
            38.1551318
          ],
          [
            -122.4506198,
            38.1551655
          ],
          [
            -122.4506707,
            38.1551887
          ],
          [
            -122.4508263,
            38.1552119
          ],
          [
            -122.450888,
            38.1552394
          ],
          [
            -122.4509202,
            38.1552794
          ],
          [
            -122.4509202,
            38.1553279
          ],
          [
            -122.4509175,
            38.1553786
          ],
          [
            -122.4509282,
            38.1554186
          ],
          [
            -122.450955,
            38.1554566
          ],
          [
            -122.450998,
            38.1554819
          ],
          [
            -122.4510865,
            38.1555009
          ],
          [
            -122.4524464,
            38.1557139
          ],
          [
            -122.4525134,
            38.1556928
          ],
          [
            -122.4525617,
            38.1556633
          ],
          [
            -122.4525885,
            38.1556274
          ],
          [
            -122.4525912,
            38.1555684
          ],
          [
            -122.4523069,
            38.1550327
          ],
          [
            -122.4522479,
            38.1549462
          ],
          [
            -122.4522364,
            38.1549131
          ],
          [
            -122.452221,
            38.1548935
          ],
          [
            -122.4521915,
            38.1548513
          ],
          [
            -122.452162,
            38.1548028
          ],
          [
            -122.4521325,
            38.1547585
          ],
          [
            -122.452095,
            38.1547163
          ],
          [
            -122.4520628,
            38.1546762
          ],
          [
            -122.4520252,
            38.154634
          ],
          [
            -122.4519904,
            38.154594
          ],
          [
            -122.4519501,
            38.1545518
          ],
          [
            -122.4519072,
            38.1545096
          ]
        ]
      }
    }
  ]
}
