{
  "type": "FeatureCollection",
  "bbox": [
    -97.2768161,
    33.0355754,
    -97.2751532,
    33.0368729
  ],
  "metadata": {
    "schemaVersion": 1,
    "trackId": "us-lil-texas-motor-speedway-track-161240440",
    "layoutId": "main",
    "license": "ODbL-1.0",
    "attribution": "© OpenStreetMap contributors",
    "closed": true,
    "geometryStatus": "draft",
    "timingStatus": "missing",
    "timingMode": "shared",
    "lengthM": 620,
    "reviewedAt": null,
    "notes": [
      "Connected OSM course candidate. The selected loop is the longest simple source-node cycle after explicit exclusions; its association with a named circuit configuration requires review.",
      "Source way order and shared node IDs are retained. No nearby endpoints are joined and no Racelogic boundaries are read."
    ]
  },
  "features": [
    {
      "type": "Feature",
      "id": "trace",
      "properties": {
        "role": "trace",
        "sourceIds": [
          "osm-snapshot"
        ]
      },
      "geometry": {
        "type": "LineString",
        "coordinates": [
          [
            -97.2761456,
            33.0362612
          ],
          [
            -97.2762716,
            33.0362837
          ],
          [
            -97.2764031,
            33.0362545
          ],
          [
            -97.2764916,
            33.0361983
          ],
          [
            -97.2765506,
            33.0361218
          ],
          [
            -97.276564,
            33.0360319
          ],
          [
            -97.2765399,
            33.0359352
          ],
          [
            -97.2764809,
            33.0358565
          ],
          [
            -97.276387,
            33.0358048
          ],
          [
            -97.2754267,
            33.0355754
          ],
          [
            -97.2753463,
            33.0355957
          ],
          [
            -97.275239,
            33.0356519
          ],
          [
            -97.2751746,
            33.0357373
          ],
          [
            -97.2751532,
            33.0358183
          ],
          [
            -97.2751612,
            33.0359195
          ],
          [
            -97.2752229,
            33.0360117
          ],
          [
            -97.2753141,
            33.0360611
          ],
          [
            -97.2754133,
            33.036095
          ],
          [
            -97.2755206,
            33.0361938
          ],
          [
            -97.2755769,
            33.0362995
          ],
          [
            -97.2756091,
            33.0364231
          ],
          [
            -97.2755823,
            33.0365333
          ],
          [
            -97.2756065,
            33.036639
          ],
          [
            -97.27588,
            33.036702
          ],
          [
            -97.2766445,
            33.0368144
          ],
          [
            -97.2767035,
            33.0368616
          ],
          [
            -97.2767759,
            33.0368729
          ],
          [
            -97.2768161,
            33.0368324
          ],
          [
            -97.2767759,
            33.0367829
          ],
          [
            -97.2758023,
            33.0366435
          ],
          [
            -97.2757432,
            33.03663
          ],
          [
            -97.2756976,
            33.0365715
          ],
          [
            -97.2757084,
            33.0364883
          ],
          [
            -97.2757862,
            33.0363939
          ],
          [
            -97.2759686,
            33.0362995
          ],
          [
            -97.2761456,
            33.0362612
          ]
        ]
      }
    }
  ]
}
