{
  "type": "FeatureCollection",
  "bbox": [
    -119.5500048,
    35.4862942,
    -119.5451394,
    35.4954839
  ],
  "metadata": {
    "schemaVersion": 1,
    "trackId": "us-buttonwillow-500521b7",
    "layoutId": "buttonwillow-west-no-phil-hill",
    "license": "ODbL-1.0",
    "attribution": "© OpenStreetMap contributors",
    "closed": true,
    "geometryStatus": "draft",
    "timingStatus": "missing",
    "timingMode": "shared",
    "lengthM": 2629.9,
    "reviewedAt": null,
    "notes": [
      "Draft route hypothesis: the source cycle is the unique closest nominal-distance match within conservative timing and distance checks. Approximate OSM trace length 2629.9 m. Difference from the supplied layout distance 20.9 m. Course configuration still requires visual review."
    ]
  },
  "features": [
    {
      "type": "Feature",
      "id": "trace",
      "properties": {
        "role": "trace",
        "sourceIds": [
          "osm-network-34350797"
        ]
      },
      "geometry": {
        "type": "LineString",
        "coordinates": [
          [
            -119.5457991,
            35.4886144
          ],
          [
            -119.5454742,
            35.4885653
          ],
          [
            -119.5453025,
            35.4884884
          ],
          [
            -119.5451823,
            35.4883766
          ],
          [
            -119.5451394,
            35.4882648
          ],
          [
            -119.545148,
            35.488139
          ],
          [
            -119.5452081,
            35.4879922
          ],
          [
            -119.5455428,
            35.487517
          ],
          [
            -119.5457133,
            35.4874613
          ],
          [
            -119.5458592,
            35.4873774
          ],
          [
            -119.5461339,
            35.4871189
          ],
          [
            -119.5465201,
            35.4867974
          ],
          [
            -119.5468119,
            35.4866227
          ],
          [
            -119.5471295,
            35.4864829
          ],
          [
            -119.5475239,
            35.4863764
          ],
          [
            -119.5479706,
            35.4863151
          ],
          [
            -119.5482882,
            35.4862942
          ],
          [
            -119.54852,
            35.4863082
          ],
          [
            -119.5487345,
            35.4863431
          ],
          [
            -119.5489405,
            35.486399
          ],
          [
            -119.5491465,
            35.4864759
          ],
          [
            -119.5493353,
            35.4865737
          ],
          [
            -119.5494813,
            35.4866716
          ],
          [
            -119.5496529,
            35.4868114
          ],
          [
            -119.5497645,
            35.4869371
          ],
          [
            -119.5498589,
            35.4870839
          ],
          [
            -119.5499362,
            35.4872586
          ],
          [
            -119.5499791,
            35.4874264
          ],
          [
            -119.5500048,
            35.487622
          ],
          [
            -119.5500048,
            35.4878177
          ],
          [
            -119.5499705,
            35.4881811
          ],
          [
            -119.549919,
            35.4885515
          ],
          [
            -119.5498675,
            35.4893902
          ],
          [
            -119.5498355,
            35.4899769
          ],
          [
            -119.5496529,
            35.4933945
          ],
          [
            -119.5495843,
            35.494841
          ],
          [
            -119.5495156,
            35.4950227
          ],
          [
            -119.5494126,
            35.4951765
          ],
          [
            -119.5492753,
            35.4953092
          ],
          [
            -119.5491208,
            35.4954001
          ],
          [
            -119.5489491,
            35.495463
          ],
          [
            -119.5487259,
            35.4954839
          ],
          [
            -119.5485715,
            35.49547
          ],
          [
            -119.548374,
            35.495414
          ],
          [
            -119.5481852,
            35.4953092
          ],
          [
            -119.5480393,
            35.4951834
          ],
          [
            -119.5479535,
            35.4950437
          ],
          [
            -119.547902,
            35.4949179
          ],
          [
            -119.5478774,
            35.494771
          ],
          [
            -119.547902,
            35.4945825
          ],
          [
            -119.5479363,
            35.494282
          ],
          [
            -119.5479535,
            35.4940444
          ],
          [
            -119.5479964,
            35.4938487
          ],
          [
            -119.5480651,
            35.4936251
          ],
          [
            -119.5482625,
            35.4929612
          ],
          [
            -119.5483912,
            35.4926607
          ],
          [
            -119.5484856,
            35.4924091
          ],
          [
            -119.5485629,
            35.4921506
          ],
          [
            -119.5485972,
            35.4919899
          ],
          [
            -119.5486058,
            35.4917453
          ],
          [
            -119.5485629,
            35.4914308
          ],
          [
            -119.5483987,
            35.4905986
          ],
          [
            -119.5480908,
            35.4890128
          ],
          [
            -119.5480307,
            35.4888311
          ],
          [
            -119.5479535,
            35.4887262
          ],
          [
            -119.5478676,
            35.4886424
          ],
          [
            -119.5477646,
            35.4885865
          ],
          [
            -119.5476445,
            35.4885445
          ],
          [
            -119.5475243,
            35.4885236
          ],
          [
            -119.5472926,
            35.4885166
          ],
          [
            -119.5457991,
            35.4886144
          ]
        ]
      }
    }
  ]
}
