{
  "type": "FeatureCollection",
  "bbox": [
    116.5615568,
    40.0155027,
    116.5629888,
    40.0175499
  ],
  "metadata": {
    "schemaVersion": 1,
    "trackId": "cn-osm-995566205",
    "layoutId": "main",
    "license": "ODbL-1.0",
    "attribution": "© OpenStreetMap contributors",
    "closed": true,
    "geometryStatus": "draft",
    "timingStatus": "missing",
    "timingMode": "shared",
    "lengthM": 921.4,
    "reviewedAt": null,
    "notes": [
      "Connected OSM course candidate. The selected loop is the longest simple source-node cycle after explicit exclusions; its association with a named circuit configuration requires review.",
      "Source way order and shared node IDs are retained. No nearby endpoints are joined and no reference boundaries are read.",
      "Some source ways lack one-way direction tags. Travel direction is provisional."
    ]
  },
  "features": [
    {
      "type": "Feature",
      "id": "trace",
      "properties": {
        "role": "trace",
        "sourceIds": [
          "osm-snapshot"
        ]
      },
      "geometry": {
        "type": "LineString",
        "coordinates": [
          [
            116.5617277,
            40.0166469
          ],
          [
            116.5617481,
            40.0166806
          ],
          [
            116.5618049,
            40.0167201
          ],
          [
            116.5620731,
            40.0168488
          ],
          [
            116.5621088,
            40.016881
          ],
          [
            116.562119,
            40.016926
          ],
          [
            116.5621057,
            40.0170912
          ],
          [
            116.5620928,
            40.0171421
          ],
          [
            116.5620574,
            40.0171849
          ],
          [
            116.5620166,
            40.0172054
          ],
          [
            116.5619791,
            40.0172062
          ],
          [
            116.5619351,
            40.0171939
          ],
          [
            116.5618954,
            40.0171652
          ],
          [
            116.5618793,
            40.0171315
          ],
          [
            116.5618632,
            40.0170789
          ],
          [
            116.5618621,
            40.0170271
          ],
          [
            116.5618709,
            40.0169672
          ],
          [
            116.5618634,
            40.016931
          ],
          [
            116.5618312,
            40.0169105
          ],
          [
            116.5617936,
            40.0169056
          ],
          [
            116.5617572,
            40.0169138
          ],
          [
            116.5617196,
            40.0169335
          ],
          [
            116.5616928,
            40.0169631
          ],
          [
            116.5616649,
            40.0170691
          ],
          [
            116.561666,
            40.0171233
          ],
          [
            116.5616754,
            40.017154
          ],
          [
            116.5615894,
            40.0172485
          ],
          [
            116.5615568,
            40.017299
          ],
          [
            116.5615827,
            40.0173555
          ],
          [
            116.5616346,
            40.0173778
          ],
          [
            116.5616979,
            40.0173762
          ],
          [
            116.5617681,
            40.0173912
          ],
          [
            116.5618133,
            40.0174247
          ],
          [
            116.5618444,
            40.0175046
          ],
          [
            116.5618767,
            40.0175344
          ],
          [
            116.5619718,
            40.0175499
          ],
          [
            116.5620223,
            40.017525
          ],
          [
            116.5620498,
            40.0174755
          ],
          [
            116.5620947,
            40.0174459
          ],
          [
            116.5621402,
            40.0174422
          ],
          [
            116.5621821,
            40.017452
          ],
          [
            116.5622535,
            40.0175164
          ],
          [
            116.5623132,
            40.0175378
          ],
          [
            116.5623798,
            40.0175378
          ],
          [
            116.5624664,
            40.017504
          ],
          [
            116.5624896,
            40.0174686
          ],
          [
            116.5625015,
            40.0174092
          ],
          [
            116.562471,
            40.0173464
          ],
          [
            116.5623562,
            40.0172375
          ],
          [
            116.5622426,
            40.0171219
          ],
          [
            116.5623381,
            40.016356
          ],
          [
            116.5625008,
            40.0162511
          ],
          [
            116.5625793,
            40.0162001
          ],
          [
            116.5626337,
            40.0161948
          ],
          [
            116.5626937,
            40.0162187
          ],
          [
            116.5627454,
            40.0162571
          ],
          [
            116.562808,
            40.0162888
          ],
          [
            116.5628818,
            40.0162881
          ],
          [
            116.5629307,
            40.0162564
          ],
          [
            116.5629586,
            40.0161498
          ],
          [
            116.5629482,
            40.0161044
          ],
          [
            116.5628947,
            40.0160717
          ],
          [
            116.5628071,
            40.0160527
          ],
          [
            116.5627118,
            40.0160141
          ],
          [
            116.5626566,
            40.0159652
          ],
          [
            116.5626401,
            40.0159011
          ],
          [
            116.5626767,
            40.015669
          ],
          [
            116.5627147,
            40.0156375
          ],
          [
            116.5627725,
            40.015631
          ],
          [
            116.5628,
            40.0156658
          ],
          [
            116.5628019,
            40.0158175
          ],
          [
            116.5628314,
            40.0158625
          ],
          [
            116.562882,
            40.0158814
          ],
          [
            116.5629382,
            40.0158673
          ],
          [
            116.5629888,
            40.0158153
          ],
          [
            116.5629845,
            40.0157271
          ],
          [
            116.5629419,
            40.015649
          ],
          [
            116.5628243,
            40.0155376
          ],
          [
            116.5627708,
            40.0155107
          ],
          [
            116.5627158,
            40.0155027
          ],
          [
            116.5626574,
            40.0155095
          ],
          [
            116.5625992,
            40.0155476
          ],
          [
            116.5625763,
            40.0156051
          ],
          [
            116.5625041,
            40.0160161
          ],
          [
            116.5624751,
            40.0160694
          ],
          [
            116.5624095,
            40.0161085
          ],
          [
            116.5623324,
            40.0161313
          ],
          [
            116.5622246,
            40.016141
          ],
          [
            116.5621468,
            40.0161293
          ],
          [
            116.562083,
            40.0161283
          ],
          [
            116.5619975,
            40.0161498
          ],
          [
            116.5619005,
            40.0161889
          ],
          [
            116.5618112,
            40.0162426
          ],
          [
            116.5617678,
            40.0162807
          ],
          [
            116.5617449,
            40.0163247
          ],
          [
            116.5617449,
            40.0163804
          ],
          [
            116.5617665,
            40.0164107
          ],
          [
            116.5618214,
            40.0164322
          ],
          [
            116.561889,
            40.016443
          ],
          [
            116.5619375,
            40.0164254
          ],
          [
            116.5619771,
            40.0163853
          ],
          [
            116.5619962,
            40.0163521
          ],
          [
            116.562037,
            40.0163316
          ],
          [
            116.5620855,
            40.0163316
          ],
          [
            116.56212,
            40.0163443
          ],
          [
            116.5621455,
            40.0163638
          ],
          [
            116.5621621,
            40.016398
          ],
          [
            116.5621385,
            40.0166235
          ],
          [
            116.5621053,
            40.016645
          ],
          [
            116.5620556,
            40.0166489
          ],
          [
            116.5619879,
            40.0166352
          ],
          [
            116.561808,
            40.0165952
          ],
          [
            116.5617647,
            40.0165991
          ],
          [
            116.5617404,
            40.0166196
          ],
          [
            116.5617277,
            40.0166469
          ]
        ]
      }
    }
  ]
}
