{
  "type": "FeatureCollection",
  "bbox": [
    -44.4116641,
    -18.8110049,
    -44.4055483,
    -18.7998603
  ],
  "metadata": {
    "schemaVersion": 1,
    "trackId": "br-circuito-dos-cristais-oval-reference",
    "layoutId": "circuito-dos-cristais-stock-car",
    "license": "ODbL-1.0",
    "attribution": "© OpenStreetMap contributors",
    "closed": true,
    "geometryStatus": "draft",
    "timingStatus": "missing",
    "timingMode": "shared",
    "lengthM": 3304.5,
    "reviewedAt": null,
    "notes": [
      "Draft route hypothesis: the source cycle is the unique closest nominal-distance match within conservative timing and distance checks. Approximate OSM trace length 3304.5 m. Difference from the supplied layout distance 17.5 m. Course configuration still requires visual review."
    ]
  },
  "features": [
    {
      "type": "Feature",
      "id": "trace",
      "properties": {
        "role": "trace",
        "sourceIds": [
          "osm-network-583743501"
        ]
      },
      "geometry": {
        "type": "LineString",
        "coordinates": [
          [
            -44.4104758,
            -18.8034855
          ],
          [
            -44.4105682,
            -18.8040652
          ],
          [
            -44.4106144,
            -18.8041759
          ],
          [
            -44.410696,
            -18.8042532
          ],
          [
            -44.4108238,
            -18.8042804
          ],
          [
            -44.4113997,
            -18.8043135
          ],
          [
            -44.411556,
            -18.8043692
          ],
          [
            -44.4116384,
            -18.8044387
          ],
          [
            -44.4116641,
            -18.8045752
          ],
          [
            -44.4116069,
            -18.8046962
          ],
          [
            -44.4113949,
            -18.8049079
          ],
          [
            -44.4071176,
            -18.8091809
          ],
          [
            -44.4069912,
            -18.8092957
          ],
          [
            -44.4063499,
            -18.8099477
          ],
          [
            -44.4062732,
            -18.8100616
          ],
          [
            -44.4062631,
            -18.8101856
          ],
          [
            -44.4063026,
            -18.8103095
          ],
          [
            -44.4065344,
            -18.8106765
          ],
          [
            -44.4065491,
            -18.8107673
          ],
          [
            -44.4065143,
            -18.8108715
          ],
          [
            -44.4064307,
            -18.8109577
          ],
          [
            -44.4062996,
            -18.811002
          ],
          [
            -44.4060135,
            -18.8110049
          ],
          [
            -44.4057668,
            -18.8109572
          ],
          [
            -44.4056922,
            -18.8108467
          ],
          [
            -44.4055501,
            -18.8104582
          ],
          [
            -44.4055483,
            -18.810425
          ],
          [
            -44.405551,
            -18.8103918
          ],
          [
            -44.4055581,
            -18.8103592
          ],
          [
            -44.4055725,
            -18.8103211
          ],
          [
            -44.405593,
            -18.8102856
          ],
          [
            -44.4059658,
            -18.8098666
          ],
          [
            -44.4059873,
            -18.8098334
          ],
          [
            -44.4060035,
            -18.8097976
          ],
          [
            -44.4060141,
            -18.80976
          ],
          [
            -44.4060186,
            -18.8097262
          ],
          [
            -44.4060186,
            -18.8096922
          ],
          [
            -44.4060141,
            -18.8096584
          ],
          [
            -44.4059631,
            -18.809237
          ],
          [
            -44.4059621,
            -18.8092012
          ],
          [
            -44.4059685,
            -18.8091659
          ],
          [
            -44.4059834,
            -18.8091297
          ],
          [
            -44.406006,
            -18.8090973
          ],
          [
            -44.4060283,
            -18.8090732
          ],
          [
            -44.4061776,
            -18.8089602
          ],
          [
            -44.4062156,
            -18.8089316
          ],
          [
            -44.4062544,
            -18.808904
          ],
          [
            -44.406286,
            -18.8088845
          ],
          [
            -44.4063174,
            -18.8088667
          ],
          [
            -44.4063554,
            -18.8088467
          ],
          [
            -44.4064352,
            -18.808804
          ],
          [
            -44.4064787,
            -18.8087861
          ],
          [
            -44.4065195,
            -18.8087508
          ],
          [
            -44.406547,
            -18.8087219
          ],
          [
            -44.4065581,
            -18.8087067
          ],
          [
            -44.4065798,
            -18.8086742
          ],
          [
            -44.4066634,
            -18.8085453
          ],
          [
            -44.4082655,
            -18.8060111
          ],
          [
            -44.4083787,
            -18.8059085
          ],
          [
            -44.4085026,
            -18.8058663
          ],
          [
            -44.4086441,
            -18.8058689
          ],
          [
            -44.4089806,
            -18.8059236
          ],
          [
            -44.4091401,
            -18.8059197
          ],
          [
            -44.4093068,
            -18.8058622
          ],
          [
            -44.4095126,
            -18.8057472
          ],
          [
            -44.40967,
            -18.8055899
          ],
          [
            -44.4097531,
            -18.8054259
          ],
          [
            -44.4098167,
            -18.8052352
          ],
          [
            -44.4097984,
            -18.8050072
          ],
          [
            -44.4097118,
            -18.804786
          ],
          [
            -44.4091732,
            -18.8036187
          ],
          [
            -44.4090688,
            -18.8033925
          ],
          [
            -44.4090238,
            -18.8032589
          ],
          [
            -44.4090131,
            -18.8031109
          ],
          [
            -44.4090413,
            -18.8030064
          ],
          [
            -44.4090956,
            -18.8028862
          ],
          [
            -44.4092062,
            -18.8027447
          ],
          [
            -44.4093808,
            -18.802611
          ],
          [
            -44.409488,
            -18.802484
          ],
          [
            -44.4095354,
            -18.8023436
          ],
          [
            -44.4094882,
            -18.80027
          ],
          [
            -44.4095427,
            -18.8001238
          ],
          [
            -44.4096176,
            -18.8000422
          ],
          [
            -44.409754,
            -18.7999255
          ],
          [
            -44.4098695,
            -18.7998737
          ],
          [
            -44.410032,
            -18.7998603
          ],
          [
            -44.4108851,
            -18.7998734
          ],
          [
            -44.4110344,
            -18.7999084
          ],
          [
            -44.4111069,
            -18.7999838
          ],
          [
            -44.411166,
            -18.8001195
          ],
          [
            -44.4111834,
            -18.8005066
          ],
          [
            -44.4111514,
            -18.8006349
          ],
          [
            -44.4110557,
            -18.8007832
          ],
          [
            -44.4103353,
            -18.8014193
          ],
          [
            -44.4102412,
            -18.8015211
          ],
          [
            -44.4101941,
            -18.8016625
          ],
          [
            -44.4102037,
            -18.8017771
          ],
          [
            -44.4104758,
            -18.8034855
          ]
        ]
      }
    }
  ]
}
