{
  "type": "FeatureCollection",
  "bbox": [
    -44.4116641,
    -18.8110049,
    -44.4042222,
    -18.7998603
  ],
  "metadata": {
    "schemaVersion": 1,
    "trackId": "br-circuito-dos-cristais-oval-reference",
    "layoutId": "circuito-dos-cristais-full",
    "license": "ODbL-1.0",
    "attribution": "© OpenStreetMap contributors",
    "closed": true,
    "geometryStatus": "draft",
    "timingStatus": "missing",
    "timingMode": "shared",
    "lengthM": 4411.3,
    "reviewedAt": null,
    "notes": [
      "Draft configuration: Full circuit retains the northern upper lobe and central return kink, excluding the shorter eastern connector. Branch identity was checked against catalogue layout facts and circuit identification references. Independent source distance 4411.3 m; no coordinates are changed to match a diagram or distance. Travel direction and historical alignment remain provisional."
    ]
  },
  "features": [
    {
      "type": "Feature",
      "id": "trace",
      "properties": {
        "role": "trace",
        "sourceIds": [
          "osm-selection-cristais-2020-583743501"
        ]
      },
      "geometry": {
        "type": "LineString",
        "coordinates": [
          [
            -44.411166,
            -18.8001195
          ],
          [
            -44.4111069,
            -18.7999838
          ],
          [
            -44.4110344,
            -18.7999084
          ],
          [
            -44.4108851,
            -18.7998734
          ],
          [
            -44.410032,
            -18.7998603
          ],
          [
            -44.4098695,
            -18.7998737
          ],
          [
            -44.409754,
            -18.7999255
          ],
          [
            -44.4096176,
            -18.8000422
          ],
          [
            -44.4095427,
            -18.8001238
          ],
          [
            -44.4094882,
            -18.80027
          ],
          [
            -44.4095354,
            -18.8023436
          ],
          [
            -44.409488,
            -18.802484
          ],
          [
            -44.4093808,
            -18.802611
          ],
          [
            -44.4092062,
            -18.8027447
          ],
          [
            -44.4090956,
            -18.8028862
          ],
          [
            -44.4090413,
            -18.8030064
          ],
          [
            -44.4090131,
            -18.8031109
          ],
          [
            -44.4090238,
            -18.8032589
          ],
          [
            -44.4090688,
            -18.8033925
          ],
          [
            -44.4091732,
            -18.8036187
          ],
          [
            -44.4097118,
            -18.804786
          ],
          [
            -44.4097984,
            -18.8050072
          ],
          [
            -44.4098167,
            -18.8052352
          ],
          [
            -44.4097531,
            -18.8054259
          ],
          [
            -44.40967,
            -18.8055899
          ],
          [
            -44.4095126,
            -18.8057472
          ],
          [
            -44.4093068,
            -18.8058622
          ],
          [
            -44.4091401,
            -18.8059197
          ],
          [
            -44.4089806,
            -18.8059236
          ],
          [
            -44.4086441,
            -18.8058689
          ],
          [
            -44.4085026,
            -18.8058663
          ],
          [
            -44.4083787,
            -18.8059085
          ],
          [
            -44.4082655,
            -18.8060111
          ],
          [
            -44.4066634,
            -18.8085453
          ],
          [
            -44.406563,
            -18.8086296
          ],
          [
            -44.4064663,
            -18.8086802
          ],
          [
            -44.4063452,
            -18.8086908
          ],
          [
            -44.4062465,
            -18.808675
          ],
          [
            -44.4061531,
            -18.8086217
          ],
          [
            -44.4060775,
            -18.8085234
          ],
          [
            -44.4060374,
            -18.808405
          ],
          [
            -44.4060482,
            -18.8082873
          ],
          [
            -44.4061113,
            -18.8081306
          ],
          [
            -44.4067178,
            -18.8069669
          ],
          [
            -44.4067796,
            -18.8068058
          ],
          [
            -44.4067786,
            -18.8067185
          ],
          [
            -44.4067493,
            -18.8066178
          ],
          [
            -44.405762,
            -18.8050393
          ],
          [
            -44.4056323,
            -18.804898
          ],
          [
            -44.4054523,
            -18.8048291
          ],
          [
            -44.4052581,
            -18.8048373
          ],
          [
            -44.4044247,
            -18.8052699
          ],
          [
            -44.404292,
            -18.8053903
          ],
          [
            -44.4042412,
            -18.8054934
          ],
          [
            -44.4042222,
            -18.8055747
          ],
          [
            -44.4042293,
            -18.8056795
          ],
          [
            -44.4042462,
            -18.8057788
          ],
          [
            -44.4043501,
            -18.8058952
          ],
          [
            -44.4044481,
            -18.8059634
          ],
          [
            -44.4045603,
            -18.8060048
          ],
          [
            -44.4049805,
            -18.8060124
          ],
          [
            -44.4051312,
            -18.8060591
          ],
          [
            -44.4052323,
            -18.8061326
          ],
          [
            -44.4053284,
            -18.8062595
          ],
          [
            -44.4053437,
            -18.8063927
          ],
          [
            -44.4052386,
            -18.8082938
          ],
          [
            -44.4051264,
            -18.8100508
          ],
          [
            -44.4051174,
            -18.8102559
          ],
          [
            -44.4051341,
            -18.8104187
          ],
          [
            -44.4051862,
            -18.8105681
          ],
          [
            -44.4052557,
            -18.8106779
          ],
          [
            -44.4053989,
            -18.8107979
          ],
          [
            -44.4055096,
            -18.8108673
          ],
          [
            -44.4057668,
            -18.8109572
          ],
          [
            -44.4060135,
            -18.8110049
          ],
          [
            -44.4062996,
            -18.811002
          ],
          [
            -44.4064307,
            -18.8109577
          ],
          [
            -44.4065143,
            -18.8108715
          ],
          [
            -44.4065491,
            -18.8107673
          ],
          [
            -44.4065344,
            -18.8106765
          ],
          [
            -44.4063026,
            -18.8103095
          ],
          [
            -44.4062631,
            -18.8101856
          ],
          [
            -44.4062732,
            -18.8100616
          ],
          [
            -44.4063499,
            -18.8099477
          ],
          [
            -44.4070663,
            -18.8092322
          ],
          [
            -44.4071176,
            -18.8091809
          ],
          [
            -44.4075966,
            -18.8089136
          ],
          [
            -44.4078585,
            -18.8086624
          ],
          [
            -44.4098919,
            -18.8066439
          ],
          [
            -44.4109164,
            -18.8056271
          ],
          [
            -44.4113949,
            -18.8049079
          ],
          [
            -44.4116069,
            -18.8046962
          ],
          [
            -44.4116641,
            -18.8045752
          ],
          [
            -44.4116384,
            -18.8044387
          ],
          [
            -44.411556,
            -18.8043692
          ],
          [
            -44.4113997,
            -18.8043135
          ],
          [
            -44.4108238,
            -18.8042804
          ],
          [
            -44.410696,
            -18.8042532
          ],
          [
            -44.4106144,
            -18.8041759
          ],
          [
            -44.4105682,
            -18.8040652
          ],
          [
            -44.4104758,
            -18.8034855
          ],
          [
            -44.4102037,
            -18.8017771
          ],
          [
            -44.4101941,
            -18.8016625
          ],
          [
            -44.4102412,
            -18.8015211
          ],
          [
            -44.4103353,
            -18.8014193
          ],
          [
            -44.4110557,
            -18.8007832
          ],
          [
            -44.4111514,
            -18.8006349
          ],
          [
            -44.4111834,
            -18.8005066
          ],
          [
            -44.411166,
            -18.8001195
          ]
        ]
      }
    }
  ]
}
