{
  "type": "FeatureCollection",
  "bbox": [
    146.7168975,
    -36.0694981,
    146.7198272,
    -36.0641185
  ],
  "metadata": {
    "schemaVersion": 1,
    "trackId": "au-wodonga-tafe-reference",
    "layoutId": "main",
    "license": "ODbL-1.0",
    "attribution": "© OpenStreetMap contributors",
    "closed": true,
    "geometryStatus": "draft",
    "timingStatus": "missing",
    "timingMode": "shared",
    "lengthM": 1602.6,
    "reviewedAt": null,
    "notes": [
      "Single reference course at a unique connected OSM source cycle, with private timing proximity. Draft geometry; course identity and operating status require review. Timing coordinates remain private.",
      "Travel direction is provisional."
    ]
  },
  "features": [
    {
      "type": "Feature",
      "id": "trace",
      "properties": {
        "role": "trace",
        "sourceIds": [
          "osm-snapshot"
        ]
      },
      "geometry": {
        "type": "LineString",
        "coordinates": [
          [
            146.7197084,
            -36.0668444
          ],
          [
            146.7177177,
            -36.0642083
          ],
          [
            146.7176698,
            -36.0641644
          ],
          [
            146.7176104,
            -36.0641303
          ],
          [
            146.7175397,
            -36.0641185
          ],
          [
            146.7174709,
            -36.0641216
          ],
          [
            146.7174273,
            -36.064134
          ],
          [
            146.7173851,
            -36.0641563
          ],
          [
            146.7173487,
            -36.0641996
          ],
          [
            146.7173266,
            -36.0642426
          ],
          [
            146.7172456,
            -36.0646333
          ],
          [
            146.7172374,
            -36.0646716
          ],
          [
            146.7172408,
            -36.0647196
          ],
          [
            146.7172561,
            -36.0647504
          ],
          [
            146.7172813,
            -36.0647797
          ],
          [
            146.7173481,
            -36.0648324
          ],
          [
            146.7177343,
            -36.0651619
          ],
          [
            146.7177654,
            -36.0652142
          ],
          [
            146.717788,
            -36.065266
          ],
          [
            146.717788,
            -36.0653961
          ],
          [
            146.7177767,
            -36.0654649
          ],
          [
            146.7177558,
            -36.0655175
          ],
          [
            146.7177212,
            -36.0655843
          ],
          [
            146.7176807,
            -36.0656389
          ],
          [
            146.7176165,
            -36.0656906
          ],
          [
            146.7175519,
            -36.0657256
          ],
          [
            146.7171872,
            -36.0658991
          ],
          [
            146.7171217,
            -36.0659377
          ],
          [
            146.717074,
            -36.0659776
          ],
          [
            146.71704,
            -36.066036
          ],
          [
            146.7170155,
            -36.0660986
          ],
          [
            146.7168975,
            -36.0668791
          ],
          [
            146.7169036,
            -36.0669451
          ],
          [
            146.7169238,
            -36.0670096
          ],
          [
            146.7169619,
            -36.0670847
          ],
          [
            146.7170155,
            -36.0671479
          ],
          [
            146.7170915,
            -36.0671957
          ],
          [
            146.7171813,
            -36.0672264
          ],
          [
            146.7173803,
            -36.0672346
          ],
          [
            146.7180884,
            -36.067226
          ],
          [
            146.7181751,
            -36.0672469
          ],
          [
            146.7182493,
            -36.067278
          ],
          [
            146.7183294,
            -36.06733
          ],
          [
            146.7183995,
            -36.0673907
          ],
          [
            146.718447,
            -36.067458
          ],
          [
            146.7184794,
            -36.0675299
          ],
          [
            146.7184822,
            -36.0675963
          ],
          [
            146.7184746,
            -36.0676596
          ],
          [
            146.7184626,
            -36.0677225
          ],
          [
            146.7184424,
            -36.067781
          ],
          [
            146.7183847,
            -36.0678469
          ],
          [
            146.7183185,
            -36.0678942
          ],
          [
            146.7174447,
            -36.0683967
          ],
          [
            146.7172993,
            -36.0685273
          ],
          [
            146.717234,
            -36.0686097
          ],
          [
            146.7171813,
            -36.068692
          ],
          [
            146.7171589,
            -36.0687866
          ],
          [
            146.7171598,
            -36.0688741
          ],
          [
            146.7171764,
            -36.0690211
          ],
          [
            146.7172623,
            -36.0691859
          ],
          [
            146.7174232,
            -36.0693507
          ],
          [
            146.7175841,
            -36.0694634
          ],
          [
            146.7176983,
            -36.0694912
          ],
          [
            146.7178202,
            -36.0694981
          ],
          [
            146.7180562,
            -36.0694981
          ],
          [
            146.7181701,
            -36.0694837
          ],
          [
            146.7182863,
            -36.0694378
          ],
          [
            146.7184639,
            -36.0693247
          ],
          [
            146.7185867,
            -36.0692037
          ],
          [
            146.7186511,
            -36.0690216
          ],
          [
            146.7188595,
            -36.0684503
          ],
          [
            146.7191887,
            -36.067598
          ],
          [
            146.7192611,
            -36.0674896
          ],
          [
            146.7193222,
            -36.0674496
          ],
          [
            146.7194227,
            -36.0674141
          ],
          [
            146.7196468,
            -36.0673446
          ],
          [
            146.7197282,
            -36.0672864
          ],
          [
            146.7197864,
            -36.0672096
          ],
          [
            146.7198272,
            -36.0671321
          ],
          [
            146.7198249,
            -36.0670396
          ],
          [
            146.7197084,
            -36.0668444
          ]
        ]
      }
    }
  ]
}
