{
  "type": "FeatureCollection",
  "bbox": [
    -1.9697384,
    51.0303294,
    -1.9656569,
    51.0370863
  ],
  "metadata": {
    "schemaVersion": 1,
    "trackId": "gb-gurston-down-hillclimb-ade02267",
    "layoutId": "gurston-down-hillclimb",
    "license": "ODbL-1.0",
    "attribution": "© OpenStreetMap contributors",
    "closed": false,
    "geometryStatus": "draft",
    "timingStatus": "missing",
    "timingMode": "separate",
    "lengthM": 961.5,
    "reviewedAt": null,
    "notes": [
      "Draft open course. Official event results identify the 967 metre hillclimb. The single independently named source path measures approximately 961.5 metres; the supplied 1029 metre scalar differs. Approximate planar OSM trace distance 961.5 m. Both private timing positions agree with existing source endpoints. No artificial closure or missing connector is invented; one-way source tags remain unchanged and event direction remains provisional."
    ]
  },
  "features": [
    {
      "type": "Feature",
      "id": "trace",
      "properties": {
        "role": "trace",
        "sourceIds": [
          "osm-open-network-581020630"
        ]
      },
      "geometry": {
        "type": "LineString",
        "coordinates": [
          [
            -1.9656569,
            51.0303294
          ],
          [
            -1.9668162,
            51.0321424
          ],
          [
            -1.9670463,
            51.0325223
          ],
          [
            -1.9671525,
            51.0327474
          ],
          [
            -1.9674374,
            51.0330899
          ],
          [
            -1.967723,
            51.0333287
          ],
          [
            -1.9680518,
            51.0335148
          ],
          [
            -1.9685222,
            51.0337096
          ],
          [
            -1.968936,
            51.0338227
          ],
          [
            -1.9694112,
            51.0339525
          ],
          [
            -1.969497,
            51.0340023
          ],
          [
            -1.9695422,
            51.0340764
          ],
          [
            -1.9696111,
            51.034192
          ],
          [
            -1.9696395,
            51.0342543
          ],
          [
            -1.9696196,
            51.0342898
          ],
          [
            -1.9695721,
            51.0343101
          ],
          [
            -1.9694611,
            51.034309
          ],
          [
            -1.9685849,
            51.034273
          ],
          [
            -1.968495,
            51.0342877
          ],
          [
            -1.9684236,
            51.0343324
          ],
          [
            -1.9683968,
            51.0344213
          ],
          [
            -1.9683552,
            51.0348567
          ],
          [
            -1.9683906,
            51.0351236
          ],
          [
            -1.9686193,
            51.0356957
          ],
          [
            -1.9687639,
            51.0360572
          ],
          [
            -1.9689076,
            51.036301
          ],
          [
            -1.9691103,
            51.0365682
          ],
          [
            -1.9694631,
            51.0368826
          ],
          [
            -1.9696319,
            51.0369946
          ],
          [
            -1.9697384,
            51.0370863
          ]
        ]
      }
    }
  ]
}
