{
  "type": "FeatureCollection",
  "bbox": [
    -59.4691792,
    13.1362617,
    -59.4650097,
    13.1401095
  ],
  "metadata": {
    "schemaVersion": 1,
    "trackId": "bb-bushy-park-61129708",
    "layoutId": "bushy-park-international",
    "license": "ODbL-1.0",
    "attribution": "© OpenStreetMap contributors",
    "closed": true,
    "geometryStatus": "draft",
    "timingStatus": "missing",
    "timingMode": "shared",
    "lengthM": 2015.2,
    "reviewedAt": null,
    "notes": [
      "Draft configuration: Full course with southwestern rounded return and northeastern long hairpin; excludes the extra western diagonal connector. Branch identity was checked against catalogue layout facts and circuit identification references. Independent source distance 2015.2 m; no coordinates are changed to match a diagram or distance. Travel direction and historical alignment remain provisional."
    ]
  },
  "features": [
    {
      "type": "Feature",
      "id": "trace",
      "properties": {
        "role": "trace",
        "sourceIds": [
          "osm-selection-26542634"
        ]
      },
      "geometry": {
        "type": "LineString",
        "coordinates": [
          [
            -59.4665419,
            13.1390891
          ],
          [
            -59.4663414,
            13.139227
          ],
          [
            -59.4661953,
            13.1392805
          ],
          [
            -59.4661175,
            13.139291
          ],
          [
            -59.4660021,
            13.1392844
          ],
          [
            -59.4659109,
            13.1392688
          ],
          [
            -59.4658318,
            13.1392335
          ],
          [
            -59.4657842,
            13.1391813
          ],
          [
            -59.4657601,
            13.1391271
          ],
          [
            -59.4657567,
            13.1390879
          ],
          [
            -59.4657809,
            13.1390187
          ],
          [
            -59.465986,
            13.138796
          ],
          [
            -59.4669096,
            13.1378305
          ],
          [
            -59.4672344,
            13.137491
          ],
          [
            -59.4674277,
            13.1372889
          ],
          [
            -59.4679803,
            13.1366881
          ],
          [
            -59.4680212,
            13.1365954
          ],
          [
            -59.4680272,
            13.1365209
          ],
          [
            -59.4680151,
            13.1364478
          ],
          [
            -59.467985,
            13.1363851
          ],
          [
            -59.4679353,
            13.136327
          ],
          [
            -59.4678763,
            13.1362826
          ],
          [
            -59.4677811,
            13.1362617
          ],
          [
            -59.4676825,
            13.1362689
          ],
          [
            -59.4675873,
            13.136297
          ],
          [
            -59.4675028,
            13.1363355
          ],
          [
            -59.46736,
            13.136455
          ],
          [
            -59.4670401,
            13.1368706
          ],
          [
            -59.4658211,
            13.1384538
          ],
          [
            -59.465742,
            13.1385466
          ],
          [
            -59.4656789,
            13.1385962
          ],
          [
            -59.4656159,
            13.1386236
          ],
          [
            -59.4654898,
            13.1386236
          ],
          [
            -59.4653651,
            13.1386288
          ],
          [
            -59.465282,
            13.1386667
          ],
          [
            -59.4652015,
            13.1387425
          ],
          [
            -59.4650191,
            13.1390337
          ],
          [
            -59.4650097,
            13.1391147
          ],
          [
            -59.4650204,
            13.139176
          ],
          [
            -59.4650459,
            13.1392348
          ],
          [
            -59.4650915,
            13.1393053
          ],
          [
            -59.4658677,
            13.1399237
          ],
          [
            -59.466044,
            13.1400642
          ],
          [
            -59.4660826,
            13.140091
          ],
          [
            -59.4661495,
            13.1401045
          ],
          [
            -59.4662136,
            13.1401095
          ],
          [
            -59.4662719,
            13.1400985
          ],
          [
            -59.4663243,
            13.1400734
          ],
          [
            -59.4663592,
            13.1400401
          ],
          [
            -59.4666252,
            13.1396305
          ],
          [
            -59.4667571,
            13.1394747
          ],
          [
            -59.4668158,
            13.1394129
          ],
          [
            -59.4669307,
            13.1393315
          ],
          [
            -59.4674588,
            13.1391114
          ],
          [
            -59.4683933,
            13.1385857
          ],
          [
            -59.4690333,
            13.1382234
          ],
          [
            -59.4691191,
            13.1381148
          ],
          [
            -59.469155,
            13.1380523
          ],
          [
            -59.4691792,
            13.1379727
          ],
          [
            -59.4691722,
            13.137857
          ],
          [
            -59.4691535,
            13.137747
          ],
          [
            -59.4688484,
            13.137332
          ],
          [
            -59.4687669,
            13.1372719
          ],
          [
            -59.4687055,
            13.1372607
          ],
          [
            -59.4686441,
            13.1372694
          ],
          [
            -59.4685983,
            13.1373024
          ],
          [
            -59.4685611,
            13.1373581
          ],
          [
            -59.4685328,
            13.1374469
          ],
          [
            -59.4684822,
            13.1377205
          ],
          [
            -59.4684482,
            13.1378199
          ],
          [
            -59.468417,
            13.1378795
          ],
          [
            -59.4683789,
            13.1379272
          ],
          [
            -59.4683249,
            13.1379625
          ],
          [
            -59.4682651,
            13.1379778
          ],
          [
            -59.4681854,
            13.1379754
          ],
          [
            -59.468153,
            13.1379683
          ],
          [
            -59.468097,
            13.137956
          ],
          [
            -59.4678318,
            13.1378928
          ],
          [
            -59.4677618,
            13.1378895
          ],
          [
            -59.4676859,
            13.1378906
          ],
          [
            -59.467613,
            13.1379259
          ],
          [
            -59.4673982,
            13.1381273
          ],
          [
            -59.4670737,
            13.1384682
          ],
          [
            -59.466839,
            13.1387568
          ],
          [
            -59.4665419,
            13.1390891
          ]
        ]
      }
    }
  ]
}
