{
  "type": "FeatureCollection",
  "bbox": [
    -60.2619639,
    -36.8658349,
    -60.2488361,
    -36.852122
  ],
  "metadata": {
    "schemaVersion": 1,
    "trackId": "ar-autodromo-hermanos-emiliozzi-123976830",
    "layoutId": "main",
    "license": "ODbL-1.0",
    "attribution": "© OpenStreetMap contributors",
    "closed": true,
    "geometryStatus": "draft",
    "timingStatus": "missing",
    "timingMode": "shared",
    "lengthM": 5416.4,
    "reviewedAt": null,
    "notes": [
      "Connected OSM course candidate. The selected loop is the longest simple source-node cycle after explicit exclusions; its association with a named circuit configuration requires review.",
      "Source way order and shared node IDs are retained. No nearby endpoints are joined and no reference boundaries are read."
    ]
  },
  "features": [
    {
      "type": "Feature",
      "id": "trace",
      "properties": {
        "role": "trace",
        "sourceIds": [
          "osm-snapshot"
        ]
      },
      "geometry": {
        "type": "LineString",
        "coordinates": [
          [
            -60.2593988,
            -36.8609589
          ],
          [
            -60.256287,
            -36.8585405
          ],
          [
            -60.2560946,
            -36.8585173
          ],
          [
            -60.2559869,
            -36.85854
          ],
          [
            -60.2558875,
            -36.8586074
          ],
          [
            -60.2552858,
            -36.8591595
          ],
          [
            -60.2552065,
            -36.8592053
          ],
          [
            -60.2550999,
            -36.859251
          ],
          [
            -60.2549671,
            -36.8592864
          ],
          [
            -60.2549157,
            -36.8593115
          ],
          [
            -60.254871,
            -36.8593491
          ],
          [
            -60.2548195,
            -36.8594136
          ],
          [
            -60.2548018,
            -36.8594928
          ],
          [
            -60.2546693,
            -36.8591612
          ],
          [
            -60.2543844,
            -36.8582579
          ],
          [
            -60.254379,
            -36.8581542
          ],
          [
            -60.2543973,
            -36.8580906
          ],
          [
            -60.2544559,
            -36.8580019
          ],
          [
            -60.2549649,
            -36.857542
          ],
          [
            -60.2551102,
            -36.857384
          ],
          [
            -60.255203,
            -36.8572349
          ],
          [
            -60.2552572,
            -36.8571021
          ],
          [
            -60.2553002,
            -36.8569433
          ],
          [
            -60.2553593,
            -36.8564669
          ],
          [
            -60.2554054,
            -36.8556377
          ],
          [
            -60.2555027,
            -36.854642
          ],
          [
            -60.2556215,
            -36.8530411
          ],
          [
            -60.2556451,
            -36.852462
          ],
          [
            -60.2556497,
            -36.852359
          ],
          [
            -60.2556221,
            -36.852256
          ],
          [
            -60.2555035,
            -36.8521611
          ],
          [
            -60.2553646,
            -36.8521272
          ],
          [
            -60.2552204,
            -36.852122
          ],
          [
            -60.2550856,
            -36.8521616
          ],
          [
            -60.2549184,
            -36.8522694
          ],
          [
            -60.2546667,
            -36.8524788
          ],
          [
            -60.2544236,
            -36.8527897
          ],
          [
            -60.25302,
            -36.854602
          ],
          [
            -60.2523042,
            -36.8555475
          ],
          [
            -60.2513948,
            -36.8567623
          ],
          [
            -60.2513028,
            -36.8568696
          ],
          [
            -60.2511465,
            -36.8569746
          ],
          [
            -60.2509433,
            -36.8570359
          ],
          [
            -60.2507561,
            -36.8570415
          ],
          [
            -60.2500852,
            -36.8569102
          ],
          [
            -60.2498258,
            -36.8569036
          ],
          [
            -60.2495511,
            -36.8569572
          ],
          [
            -60.2493567,
            -36.8570425
          ],
          [
            -60.2492217,
            -36.8571274
          ],
          [
            -60.2490778,
            -36.8572525
          ],
          [
            -60.2489834,
            -36.8573669
          ],
          [
            -60.2488593,
            -36.8576257
          ],
          [
            -60.2488361,
            -36.8579005
          ],
          [
            -60.2488737,
            -36.8580807
          ],
          [
            -60.2489319,
            -36.8582608
          ],
          [
            -60.2490008,
            -36.858355
          ],
          [
            -60.2491097,
            -36.8585142
          ],
          [
            -60.2528201,
            -36.861451
          ],
          [
            -60.2546887,
            -36.8629436
          ],
          [
            -60.2579282,
            -36.8655097
          ],
          [
            -60.2581548,
            -36.8656419
          ],
          [
            -60.2583472,
            -36.8657248
          ],
          [
            -60.2586762,
            -36.865802
          ],
          [
            -60.2590432,
            -36.8658349
          ],
          [
            -60.2593837,
            -36.8658174
          ],
          [
            -60.2596258,
            -36.8657703
          ],
          [
            -60.2598063,
            -36.8656904
          ],
          [
            -60.2599642,
            -36.865589
          ],
          [
            -60.2600947,
            -36.8654876
          ],
          [
            -60.2617262,
            -36.8641465
          ],
          [
            -60.2618658,
            -36.8639671
          ],
          [
            -60.2619404,
            -36.8637711
          ],
          [
            -60.2619639,
            -36.8635712
          ],
          [
            -60.2619348,
            -36.8633173
          ],
          [
            -60.2618642,
            -36.8631231
          ],
          [
            -60.2617524,
            -36.8629789
          ],
          [
            -60.2615276,
            -36.8627827
          ],
          [
            -60.2612869,
            -36.8626861
          ],
          [
            -60.2610828,
            -36.8626264
          ],
          [
            -60.260834,
            -36.8625998
          ],
          [
            -60.2605851,
            -36.8626088
          ],
          [
            -60.2603683,
            -36.8626494
          ],
          [
            -60.2601926,
            -36.8627119
          ],
          [
            -60.2600529,
            -36.862802
          ],
          [
            -60.2597156,
            -36.8630945
          ],
          [
            -60.2594658,
            -36.8632412
          ],
          [
            -60.2592211,
            -36.8633172
          ],
          [
            -60.2589695,
            -36.8633385
          ],
          [
            -60.2586923,
            -36.8633299
          ],
          [
            -60.2584716,
            -36.8632957
          ],
          [
            -60.2582572,
            -36.8632272
          ],
          [
            -60.2581112,
            -36.8631422
          ],
          [
            -60.2561107,
            -36.8615492
          ],
          [
            -60.2555423,
            -36.8610737
          ],
          [
            -60.2553964,
            -36.8609456
          ],
          [
            -60.2553088,
            -36.8608421
          ],
          [
            -60.2552411,
            -36.8607375
          ],
          [
            -60.2553138,
            -36.8607487
          ],
          [
            -60.2553883,
            -36.8607444
          ],
          [
            -60.255459,
            -36.8607251
          ],
          [
            -60.2555212,
            -36.8606921
          ],
          [
            -60.2556108,
            -36.8605569
          ],
          [
            -60.2556993,
            -36.8604842
          ],
          [
            -60.2558152,
            -36.8604114
          ],
          [
            -60.2560185,
            -36.8603594
          ],
          [
            -60.2561724,
            -36.8603492
          ],
          [
            -60.2563398,
            -36.8603711
          ],
          [
            -60.2564627,
            -36.8604093
          ],
          [
            -60.2565917,
            -36.8604827
          ],
          [
            -60.2582554,
            -36.8618053
          ],
          [
            -60.2584704,
            -36.8619351
          ],
          [
            -60.2586578,
            -36.8619904
          ],
          [
            -60.258902,
            -36.8620037
          ],
          [
            -60.2591146,
            -36.8619614
          ],
          [
            -60.2593371,
            -36.8618267
          ],
          [
            -60.2594733,
            -36.8616867
          ],
          [
            -60.2595436,
            -36.8615459
          ],
          [
            -60.2595807,
            -36.861407
          ],
          [
            -60.2595753,
            -36.8612898
          ],
          [
            -60.2595179,
            -36.8611572
          ],
          [
            -60.2593988,
            -36.8609589
          ]
        ]
      }
    }
  ]
}
