{
  "type": "FeatureCollection",
  "bbox": [
    12.1452066,
    45.0410372,
    12.1500465,
    45.0467124
  ],
  "metadata": {
    "schemaVersion": 1,
    "trackId": "it-adria-international-raceway-1092277630",
    "layoutId": "main",
    "license": "ODbL-1.0",
    "attribution": "© OpenStreetMap contributors",
    "closed": true,
    "geometryStatus": "draft",
    "timingStatus": "missing",
    "timingMode": "shared",
    "lengthM": 2655.4,
    "reviewedAt": null,
    "notes": [
      "Closed named OSM raceway retained as a course candidate. Named-layout association requires review.",
      "Source way order and shared node IDs are retained. No nearby endpoints are joined and no Racelogic boundaries are read."
    ]
  },
  "features": [
    {
      "type": "Feature",
      "id": "trace",
      "properties": {
        "role": "trace",
        "sourceIds": [
          "osm-snapshot"
        ]
      },
      "geometry": {
        "type": "LineString",
        "coordinates": [
          [
            12.1470311,
            45.0465026
          ],
          [
            12.1468134,
            45.0462272
          ],
          [
            12.1467274,
            45.0460773
          ],
          [
            12.1466221,
            45.0458282
          ],
          [
            12.1457636,
            45.0434268
          ],
          [
            12.1456117,
            45.0431319
          ],
          [
            12.1454651,
            45.0429028
          ],
          [
            12.1452066,
            45.0425728
          ],
          [
            12.1452302,
            45.0424364
          ],
          [
            12.1453375,
            45.0423719
          ],
          [
            12.1455467,
            45.0423719
          ],
          [
            12.1457918,
            45.0424317
          ],
          [
            12.1459919,
            45.0425614
          ],
          [
            12.1460992,
            45.0427585
          ],
          [
            12.1461368,
            45.043039
          ],
          [
            12.14614,
            45.0433285
          ],
          [
            12.1462696,
            45.0436934
          ],
          [
            12.1463567,
            45.0439541
          ],
          [
            12.1469286,
            45.045484
          ],
          [
            12.1469558,
            45.0455208
          ],
          [
            12.147002,
            45.0455487
          ],
          [
            12.1470601,
            45.0455643
          ],
          [
            12.1471246,
            45.0455681
          ],
          [
            12.1471923,
            45.0455561
          ],
          [
            12.1472294,
            45.045539
          ],
          [
            12.147271,
            45.0455097
          ],
          [
            12.1472872,
            45.0454909
          ],
          [
            12.1473122,
            45.045429
          ],
          [
            12.1473359,
            45.0452678
          ],
          [
            12.1471397,
            45.0438627
          ],
          [
            12.1470702,
            45.043365
          ],
          [
            12.1469951,
            45.0429177
          ],
          [
            12.146877,
            45.0423606
          ],
          [
            12.1467644,
            45.0422506
          ],
          [
            12.1466517,
            45.042243
          ],
          [
            12.1465445,
            45.0422241
          ],
          [
            12.1463728,
            45.0421786
          ],
          [
            12.1462923,
            45.0420611
          ],
          [
            12.1462601,
            45.0419247
          ],
          [
            12.1462923,
            45.0418261
          ],
          [
            12.1463774,
            45.0417349
          ],
          [
            12.1472847,
            45.0411257
          ],
          [
            12.1474031,
            45.0410659
          ],
          [
            12.1475351,
            45.0410372
          ],
          [
            12.1476773,
            45.0410396
          ],
          [
            12.1477856,
            45.0410659
          ],
          [
            12.1478939,
            45.0411281
          ],
          [
            12.1490954,
            45.0419699
          ],
          [
            12.1492376,
            45.0420416
          ],
          [
            12.1494136,
            45.0421086
          ],
          [
            12.1496099,
            45.0421564
          ],
          [
            12.1497994,
            45.0421995
          ],
          [
            12.1499314,
            45.0422449
          ],
          [
            12.1500093,
            45.0423142
          ],
          [
            12.1500465,
            45.0424075
          ],
          [
            12.1500093,
            45.0425103
          ],
          [
            12.1499179,
            45.0426012
          ],
          [
            12.1497791,
            45.042673
          ],
          [
            12.1496573,
            45.0427184
          ],
          [
            12.1495287,
            45.0427256
          ],
          [
            12.1493899,
            45.0427136
          ],
          [
            12.149268,
            45.0426634
          ],
          [
            12.1491394,
            45.0425438
          ],
          [
            12.1480936,
            45.0415992
          ],
          [
            12.1479751,
            45.0415346
          ],
          [
            12.1478465,
            45.0415274
          ],
          [
            12.1476773,
            45.0415466
          ],
          [
            12.1475656,
            45.0415944
          ],
          [
            12.1474911,
            45.0416781
          ],
          [
            12.1474776,
            45.0417738
          ],
          [
            12.1475013,
            45.0418886
          ],
          [
            12.1477551,
            45.0427615
          ],
          [
            12.1477679,
            45.0433563
          ],
          [
            12.1477944,
            45.0445906
          ],
          [
            12.1477966,
            45.044692
          ],
          [
            12.1477965,
            45.0447466
          ],
          [
            12.1477961,
            45.0449945
          ],
          [
            12.1477857,
            45.0461029
          ],
          [
            12.1478177,
            45.0464036
          ],
          [
            12.1478046,
            45.0465384
          ],
          [
            12.1477522,
            45.046623
          ],
          [
            12.147657,
            45.046679
          ],
          [
            12.1475301,
            45.0467124
          ],
          [
            12.1474442,
            45.0467116
          ],
          [
            12.1473582,
            45.0467021
          ],
          [
            12.147305,
            45.0466915
          ],
          [
            12.1472469,
            45.0466752
          ],
          [
            12.1471751,
            45.046641
          ],
          [
            12.1470979,
            45.046569
          ],
          [
            12.1470769,
            45.0465509
          ],
          [
            12.1470311,
            45.0465026
          ]
        ]
      }
    }
  ]
}
