{
  "type": "FeatureCollection",
  "bbox": [
    -84.2451597,
    42.0610983,
    -84.236355,
    42.0726506
  ],
  "metadata": {
    "schemaVersion": 1,
    "trackId": "us-michigan-international-speedway-205025102",
    "layoutId": "michigan-int-speedway-oval",
    "license": "ODbL-1.0",
    "attribution": "© OpenStreetMap contributors",
    "closed": true,
    "geometryStatus": "draft",
    "timingStatus": "missing",
    "timingMode": "shared",
    "lengthM": 3236.2,
    "reviewedAt": null,
    "notes": [
      "Draft route hypothesis: the source cycle is the unique closest nominal-distance match within conservative timing and distance checks. Approximate OSM trace length 3236.2 m. Difference from the supplied layout distance 8.8 m. Course configuration still requires visual review."
    ]
  },
  "features": [
    {
      "type": "Feature",
      "id": "trace",
      "properties": {
        "role": "trace",
        "sourceIds": [
          "osm-network-205025102"
        ]
      },
      "geometry": {
        "type": "LineString",
        "coordinates": [
          [
            -84.2450517,
            42.0638385
          ],
          [
            -84.2449829,
            42.0634777
          ],
          [
            -84.2449422,
            42.0632981
          ],
          [
            -84.2448482,
            42.0629404
          ],
          [
            -84.244805,
            42.0628072
          ],
          [
            -84.244795,
            42.0627625
          ],
          [
            -84.2446586,
            42.062515
          ],
          [
            -84.2445375,
            42.0623304
          ],
          [
            -84.2443952,
            42.0621543
          ],
          [
            -84.2442329,
            42.0619881
          ],
          [
            -84.2440516,
            42.061833
          ],
          [
            -84.2438528,
            42.0616903
          ],
          [
            -84.2436381,
            42.0615609
          ],
          [
            -84.243409,
            42.0614459
          ],
          [
            -84.2431672,
            42.0613461
          ],
          [
            -84.2429147,
            42.0612624
          ],
          [
            -84.2426533,
            42.0611953
          ],
          [
            -84.2423851,
            42.0611453
          ],
          [
            -84.242112,
            42.0611129
          ],
          [
            -84.2418361,
            42.0610983
          ],
          [
            -84.2415596,
            42.0611015
          ],
          [
            -84.2412845,
            42.0611227
          ],
          [
            -84.2410129,
            42.0611615
          ],
          [
            -84.2407996,
            42.0612051
          ],
          [
            -84.2405395,
            42.061275
          ],
          [
            -84.240338,
            42.0613428
          ],
          [
            -84.2400958,
            42.061442
          ],
          [
            -84.2399199,
            42.0615359
          ],
          [
            -84.2397016,
            42.061663
          ],
          [
            -84.2395133,
            42.061806
          ],
          [
            -84.239325,
            42.0619649
          ],
          [
            -84.2391709,
            42.0621174
          ],
          [
            -84.2390339,
            42.06227
          ],
          [
            -84.238867,
            42.0625146
          ],
          [
            -84.2387086,
            42.0627657
          ],
          [
            -84.2385417,
            42.0630834
          ],
          [
            -84.2383348,
            42.0635917
          ],
          [
            -84.2379559,
            42.0647139
          ],
          [
            -84.2376822,
            42.0655531
          ],
          [
            -84.2366641,
            42.0686569
          ],
          [
            -84.2365826,
            42.0689265
          ],
          [
            -84.2365014,
            42.0692045
          ],
          [
            -84.2364218,
            42.0695051
          ],
          [
            -84.236355,
            42.0699471
          ],
          [
            -84.2363553,
            42.0701871
          ],
          [
            -84.2363559,
            42.070349
          ],
          [
            -84.2363679,
            42.0705133
          ],
          [
            -84.2364046,
            42.0707171
          ],
          [
            -84.2364511,
            42.0708779
          ],
          [
            -84.2365302,
            42.071075
          ],
          [
            -84.23661,
            42.0712285
          ],
          [
            -84.2367297,
            42.0714139
          ],
          [
            -84.2368408,
            42.0715563
          ],
          [
            -84.236998,
            42.0717255
          ],
          [
            -84.2371378,
            42.0718532
          ],
          [
            -84.2373287,
            42.0720022
          ],
          [
            -84.2374936,
            42.0721121
          ],
          [
            -84.2377136,
            42.072237
          ],
          [
            -84.2378996,
            42.0723265
          ],
          [
            -84.2381432,
            42.0724244
          ],
          [
            -84.2383974,
            42.0725061
          ],
          [
            -84.2386602,
            42.0725712
          ],
          [
            -84.2388753,
            42.0726108
          ],
          [
            -84.2391485,
            42.0726445
          ],
          [
            -84.2394234,
            42.0726506
          ],
          [
            -84.2397016,
            42.0726411
          ],
          [
            -84.2399413,
            42.0726188
          ],
          [
            -84.2401981,
            42.0725807
          ],
          [
            -84.2404635,
            42.0725235
          ],
          [
            -84.2406647,
            42.0724663
          ],
          [
            -84.2408829,
            42.0723869
          ],
          [
            -84.2411269,
            42.0722916
          ],
          [
            -84.2413538,
            42.0721836
          ],
          [
            -84.2415464,
            42.0720724
          ],
          [
            -84.2417304,
            42.071958
          ],
          [
            -84.2419059,
            42.0718277
          ],
          [
            -84.2420857,
            42.0716784
          ],
          [
            -84.2422276,
            42.0715528
          ],
          [
            -84.2423753,
            42.0714073
          ],
          [
            -84.2426603,
            42.0711107
          ],
          [
            -84.2429313,
            42.0708069
          ],
          [
            -84.2430268,
            42.0706914
          ],
          [
            -84.2431881,
            42.0704963
          ],
          [
            -84.243311,
            42.0703386
          ],
          [
            -84.2435457,
            42.0700186
          ],
          [
            -84.2436575,
            42.0698564
          ],
          [
            -84.2438696,
            42.0695278
          ],
          [
            -84.2439698,
            42.0693615
          ],
          [
            -84.2441587,
            42.0690252
          ],
          [
            -84.2442472,
            42.0688553
          ],
          [
            -84.2444123,
            42.0685121
          ],
          [
            -84.2444889,
            42.068339
          ],
          [
            -84.2446299,
            42.06799
          ],
          [
            -84.2446942,
            42.0678142
          ],
          [
            -84.2447582,
            42.0676373
          ],
          [
            -84.2448106,
            42.0674602
          ],
          [
            -84.2448626,
            42.0672821
          ],
          [
            -84.2449542,
            42.0669241
          ],
          [
            -84.245029,
            42.066564
          ],
          [
            -84.245087,
            42.0662021
          ],
          [
            -84.2451097,
            42.0660207
          ],
          [
            -84.2451424,
            42.0656571
          ],
          [
            -84.2451524,
            42.0654751
          ],
          [
            -84.2451597,
            42.0651107
          ],
          [
            -84.245157,
            42.0649285
          ],
          [
            -84.2451388,
            42.0645644
          ],
          [
            -84.2451233,
            42.0643825
          ],
          [
            -84.2450755,
            42.0639687
          ],
          [
            -84.2450517,
            42.0638385
          ]
        ]
      }
    }
  ]
}
