{
  "type": "FeatureCollection",
  "bbox": [
    -84.2451597,
    42.0635433,
    -84.2396824,
    42.0710023
  ],
  "metadata": {
    "schemaVersion": 1,
    "trackId": "us-michigan-international-speedway-205025102",
    "layoutId": "michigan-int-speedway-infield-short",
    "license": "ODbL-1.0",
    "attribution": "© OpenStreetMap contributors",
    "closed": true,
    "geometryStatus": "draft",
    "timingStatus": "missing",
    "timingMode": "shared",
    "lengthM": 2225.6,
    "reviewedAt": null,
    "notes": [
      "Draft route hypothesis: the source cycle is the unique closest nominal-distance match within conservative timing and distance checks. Approximate OSM trace length 2225.6 m. Difference from the supplied layout distance 11.4 m. Course configuration still requires visual review."
    ]
  },
  "features": [
    {
      "type": "Feature",
      "id": "trace",
      "properties": {
        "role": "trace",
        "sourceIds": [
          "osm-network-205025102"
        ]
      },
      "geometry": {
        "type": "LineString",
        "coordinates": [
          [
            -84.2440111,
            42.0636304
          ],
          [
            -84.243931,
            42.063713
          ],
          [
            -84.2433804,
            42.0642353
          ],
          [
            -84.2433273,
            42.0642698
          ],
          [
            -84.2432602,
            42.064303
          ],
          [
            -84.2431686,
            42.0643343
          ],
          [
            -84.2430611,
            42.0643545
          ],
          [
            -84.2429505,
            42.0643591
          ],
          [
            -84.2428407,
            42.064348
          ],
          [
            -84.2427542,
            42.0643275
          ],
          [
            -84.2426819,
            42.064301
          ],
          [
            -84.2426312,
            42.0642764
          ],
          [
            -84.2425843,
            42.064248
          ],
          [
            -84.2423538,
            42.0641335
          ],
          [
            -84.2422776,
            42.0641038
          ],
          [
            -84.2421972,
            42.0640811
          ],
          [
            -84.2420772,
            42.0640616
          ],
          [
            -84.2419668,
            42.0640574
          ],
          [
            -84.2418568,
            42.0640659
          ],
          [
            -84.2417384,
            42.0640901
          ],
          [
            -84.2416488,
            42.0641202
          ],
          [
            -84.2415656,
            42.0641591
          ],
          [
            -84.2412746,
            42.064391
          ],
          [
            -84.2411798,
            42.0645048
          ],
          [
            -84.2406925,
            42.0650901
          ],
          [
            -84.2405053,
            42.0652402
          ],
          [
            -84.2403274,
            42.0653381
          ],
          [
            -84.240163,
            42.0654091
          ],
          [
            -84.2399674,
            42.0654834
          ],
          [
            -84.2397478,
            42.0655596
          ],
          [
            -84.2396824,
            42.0656652
          ],
          [
            -84.2396824,
            42.0657733
          ],
          [
            -84.2397252,
            42.0659035
          ],
          [
            -84.2398578,
            42.0661069
          ],
          [
            -84.2399777,
            42.0662499
          ],
          [
            -84.2401703,
            42.0664024
          ],
          [
            -84.2403672,
            42.0665454
          ],
          [
            -84.2404999,
            42.0666598
          ],
          [
            -84.2405555,
            42.0668123
          ],
          [
            -84.2405684,
            42.0669712
          ],
          [
            -84.2405555,
            42.06713
          ],
          [
            -84.2398621,
            42.0688713
          ],
          [
            -84.2398073,
            42.0690478
          ],
          [
            -84.2397851,
            42.0691191
          ],
          [
            -84.2397423,
            42.0693606
          ],
          [
            -84.2397252,
            42.0695639
          ],
          [
            -84.2397166,
            42.06978
          ],
          [
            -84.2397337,
            42.0701613
          ],
          [
            -84.2397551,
            42.0703201
          ],
          [
            -84.2398964,
            42.0703932
          ],
          [
            -84.2410508,
            42.070887
          ],
          [
            -84.2411668,
            42.0709256
          ],
          [
            -84.2413112,
            42.070962
          ],
          [
            -84.24146,
            42.0709871
          ],
          [
            -84.2416115,
            42.0710006
          ],
          [
            -84.241764,
            42.0710023
          ],
          [
            -84.2418907,
            42.0709948
          ],
          [
            -84.2420161,
            42.0709792
          ],
          [
            -84.2421392,
            42.0709556
          ],
          [
            -84.2430268,
            42.0706914
          ],
          [
            -84.2431881,
            42.0704963
          ],
          [
            -84.243311,
            42.0703386
          ],
          [
            -84.2435457,
            42.0700186
          ],
          [
            -84.2436575,
            42.0698564
          ],
          [
            -84.2438696,
            42.0695278
          ],
          [
            -84.2439698,
            42.0693615
          ],
          [
            -84.2441587,
            42.0690252
          ],
          [
            -84.2442472,
            42.0688553
          ],
          [
            -84.2444123,
            42.0685121
          ],
          [
            -84.2444889,
            42.068339
          ],
          [
            -84.2446299,
            42.06799
          ],
          [
            -84.2446942,
            42.0678142
          ],
          [
            -84.2447582,
            42.0676373
          ],
          [
            -84.2448106,
            42.0674602
          ],
          [
            -84.2448626,
            42.0672821
          ],
          [
            -84.2449542,
            42.0669241
          ],
          [
            -84.245029,
            42.066564
          ],
          [
            -84.245087,
            42.0662021
          ],
          [
            -84.2451097,
            42.0660207
          ],
          [
            -84.2451424,
            42.0656571
          ],
          [
            -84.2451524,
            42.0654751
          ],
          [
            -84.2451597,
            42.0651107
          ],
          [
            -84.245157,
            42.0649285
          ],
          [
            -84.2451388,
            42.0645644
          ],
          [
            -84.2451233,
            42.0643825
          ],
          [
            -84.2450755,
            42.0639687
          ],
          [
            -84.2450517,
            42.0638385
          ],
          [
            -84.2450085,
            42.0637826
          ],
          [
            -84.2449565,
            42.063731
          ],
          [
            -84.2448965,
            42.0636844
          ],
          [
            -84.2448393,
            42.063649
          ],
          [
            -84.2447668,
            42.0636136
          ],
          [
            -84.244689,
            42.0635849
          ],
          [
            -84.2446072,
            42.0635634
          ],
          [
            -84.2445347,
            42.0635509
          ],
          [
            -84.2444484,
            42.0635435
          ],
          [
            -84.244374,
            42.0635433
          ],
          [
            -84.2442877,
            42.0635504
          ],
          [
            -84.2442032,
            42.0635651
          ],
          [
            -84.2441331,
            42.0635837
          ],
          [
            -84.2440551,
            42.0636121
          ],
          [
            -84.2440111,
            42.0636304
          ]
        ]
      }
    }
  ]
}
