{
  "type": "FeatureCollection",
  "bbox": [
    -84.2451597,
    42.0635433,
    -84.2354728,
    42.0726506
  ],
  "metadata": {
    "schemaVersion": 1,
    "trackId": "us-michigan-international-speedway-205025102",
    "layoutId": "michigan-int-speedway-infield-long",
    "license": "ODbL-1.0",
    "attribution": "© OpenStreetMap contributors",
    "closed": true,
    "geometryStatus": "draft",
    "timingStatus": "missing",
    "timingMode": "shared",
    "lengthM": 3088.3,
    "reviewedAt": null,
    "notes": [
      "Draft route hypothesis: the source cycle is the unique closest nominal-distance match within conservative timing and distance checks. Approximate OSM trace length 3088.3 m. Difference from the supplied layout distance 1.7 m. Course configuration still requires visual review."
    ]
  },
  "features": [
    {
      "type": "Feature",
      "id": "trace",
      "properties": {
        "role": "trace",
        "sourceIds": [
          "osm-network-205025102"
        ]
      },
      "geometry": {
        "type": "LineString",
        "coordinates": [
          [
            -84.2440111,
            42.0636304
          ],
          [
            -84.243931,
            42.063713
          ],
          [
            -84.2433804,
            42.0642353
          ],
          [
            -84.2433273,
            42.0642698
          ],
          [
            -84.2432602,
            42.064303
          ],
          [
            -84.2431686,
            42.0643343
          ],
          [
            -84.2430611,
            42.0643545
          ],
          [
            -84.2429505,
            42.0643591
          ],
          [
            -84.2428407,
            42.064348
          ],
          [
            -84.2427542,
            42.0643275
          ],
          [
            -84.2426819,
            42.064301
          ],
          [
            -84.2426312,
            42.0642764
          ],
          [
            -84.2425843,
            42.064248
          ],
          [
            -84.2423538,
            42.0641335
          ],
          [
            -84.2422776,
            42.0641038
          ],
          [
            -84.2421972,
            42.0640811
          ],
          [
            -84.2420772,
            42.0640616
          ],
          [
            -84.2419668,
            42.0640574
          ],
          [
            -84.2418568,
            42.0640659
          ],
          [
            -84.2417384,
            42.0640901
          ],
          [
            -84.2416488,
            42.0641202
          ],
          [
            -84.2415656,
            42.0641591
          ],
          [
            -84.2412746,
            42.064391
          ],
          [
            -84.2411798,
            42.0645048
          ],
          [
            -84.2406925,
            42.0650901
          ],
          [
            -84.2405053,
            42.0652402
          ],
          [
            -84.2403274,
            42.0653381
          ],
          [
            -84.240163,
            42.0654091
          ],
          [
            -84.2399674,
            42.0654834
          ],
          [
            -84.2397478,
            42.0655596
          ],
          [
            -84.2396076,
            42.0655989
          ],
          [
            -84.239465,
            42.0656345
          ],
          [
            -84.2392564,
            42.0656631
          ],
          [
            -84.2390453,
            42.0656783
          ],
          [
            -84.2388332,
            42.0656801
          ],
          [
            -84.2386217,
            42.0656684
          ],
          [
            -84.2384539,
            42.0656493
          ],
          [
            -84.2376822,
            42.0655531
          ],
          [
            -84.2366092,
            42.065419
          ],
          [
            -84.2367825,
            42.0655143
          ],
          [
            -84.2368788,
            42.0655937
          ],
          [
            -84.2369623,
            42.0657192
          ],
          [
            -84.2370308,
            42.0658813
          ],
          [
            -84.2370351,
            42.0660608
          ],
          [
            -84.2364123,
            42.0680165
          ],
          [
            -84.2363652,
            42.068115
          ],
          [
            -84.2362903,
            42.0681897
          ],
          [
            -84.2360549,
            42.0683422
          ],
          [
            -84.2358623,
            42.0684137
          ],
          [
            -84.2357503,
            42.0684375
          ],
          [
            -84.2356502,
            42.0684433
          ],
          [
            -84.2355561,
            42.0684378
          ],
          [
            -84.2354728,
            42.0684201
          ],
          [
            -84.2365826,
            42.0689265
          ],
          [
            -84.2365014,
            42.0692045
          ],
          [
            -84.2364218,
            42.0695051
          ],
          [
            -84.236355,
            42.0699471
          ],
          [
            -84.2363553,
            42.0701871
          ],
          [
            -84.2363559,
            42.070349
          ],
          [
            -84.2363679,
            42.0705133
          ],
          [
            -84.2364046,
            42.0707171
          ],
          [
            -84.2364511,
            42.0708779
          ],
          [
            -84.2365302,
            42.071075
          ],
          [
            -84.23661,
            42.0712285
          ],
          [
            -84.2367297,
            42.0714139
          ],
          [
            -84.2368408,
            42.0715563
          ],
          [
            -84.236998,
            42.0717255
          ],
          [
            -84.2371378,
            42.0718532
          ],
          [
            -84.2373287,
            42.0720022
          ],
          [
            -84.2374936,
            42.0721121
          ],
          [
            -84.2377136,
            42.072237
          ],
          [
            -84.2378996,
            42.0723265
          ],
          [
            -84.2381432,
            42.0724244
          ],
          [
            -84.2383974,
            42.0725061
          ],
          [
            -84.2386602,
            42.0725712
          ],
          [
            -84.2388753,
            42.0726108
          ],
          [
            -84.2391485,
            42.0726445
          ],
          [
            -84.2394234,
            42.0726506
          ],
          [
            -84.2397016,
            42.0726411
          ],
          [
            -84.2399413,
            42.0726188
          ],
          [
            -84.2401981,
            42.0725807
          ],
          [
            -84.2404635,
            42.0725235
          ],
          [
            -84.2406647,
            42.0724663
          ],
          [
            -84.2408829,
            42.0723869
          ],
          [
            -84.2411269,
            42.0722916
          ],
          [
            -84.2413538,
            42.0721836
          ],
          [
            -84.2415464,
            42.0720724
          ],
          [
            -84.2417304,
            42.071958
          ],
          [
            -84.2419059,
            42.0718277
          ],
          [
            -84.2420857,
            42.0716784
          ],
          [
            -84.2422276,
            42.0715528
          ],
          [
            -84.2423753,
            42.0714073
          ],
          [
            -84.2426603,
            42.0711107
          ],
          [
            -84.2429313,
            42.0708069
          ],
          [
            -84.2430268,
            42.0706914
          ],
          [
            -84.2431881,
            42.0704963
          ],
          [
            -84.243311,
            42.0703386
          ],
          [
            -84.2435457,
            42.0700186
          ],
          [
            -84.2436575,
            42.0698564
          ],
          [
            -84.2438696,
            42.0695278
          ],
          [
            -84.2439698,
            42.0693615
          ],
          [
            -84.2441587,
            42.0690252
          ],
          [
            -84.2442472,
            42.0688553
          ],
          [
            -84.2444123,
            42.0685121
          ],
          [
            -84.2444889,
            42.068339
          ],
          [
            -84.2446299,
            42.06799
          ],
          [
            -84.2446942,
            42.0678142
          ],
          [
            -84.2447582,
            42.0676373
          ],
          [
            -84.2448106,
            42.0674602
          ],
          [
            -84.2448626,
            42.0672821
          ],
          [
            -84.2449542,
            42.0669241
          ],
          [
            -84.245029,
            42.066564
          ],
          [
            -84.245087,
            42.0662021
          ],
          [
            -84.2451097,
            42.0660207
          ],
          [
            -84.2451424,
            42.0656571
          ],
          [
            -84.2451524,
            42.0654751
          ],
          [
            -84.2451597,
            42.0651107
          ],
          [
            -84.245157,
            42.0649285
          ],
          [
            -84.2451388,
            42.0645644
          ],
          [
            -84.2451233,
            42.0643825
          ],
          [
            -84.2450755,
            42.0639687
          ],
          [
            -84.2450517,
            42.0638385
          ],
          [
            -84.2450085,
            42.0637826
          ],
          [
            -84.2449565,
            42.063731
          ],
          [
            -84.2448965,
            42.0636844
          ],
          [
            -84.2448393,
            42.063649
          ],
          [
            -84.2447668,
            42.0636136
          ],
          [
            -84.244689,
            42.0635849
          ],
          [
            -84.2446072,
            42.0635634
          ],
          [
            -84.2445347,
            42.0635509
          ],
          [
            -84.2444484,
            42.0635435
          ],
          [
            -84.244374,
            42.0635433
          ],
          [
            -84.2442877,
            42.0635504
          ],
          [
            -84.2442032,
            42.0635651
          ],
          [
            -84.2441331,
            42.0635837
          ],
          [
            -84.2440551,
            42.0636121
          ],
          [
            -84.2440111,
            42.0636304
          ]
        ]
      }
    }
  ]
}
