{
  "type": "FeatureCollection",
  "bbox": [
    15.2796271,
    58.3682854,
    15.2871015,
    58.3703382
  ],
  "metadata": {
    "schemaVersion": 1,
    "trackId": "se-mantorp-park-42957116",
    "layoutId": "main",
    "license": "ODbL-1.0",
    "attribution": "© OpenStreetMap contributors",
    "closed": true,
    "geometryStatus": "draft",
    "timingStatus": "missing",
    "timingMode": "shared",
    "lengthM": 1366.4,
    "reviewedAt": null,
    "notes": [
      "Connected OSM course candidate. The selected loop is the longest simple source-node cycle after explicit exclusions; its association with a named circuit configuration requires review.",
      "Source way order and shared node IDs are retained. No nearby endpoints are joined and no reference boundaries are read.",
      "Some source ways lack one-way direction tags. Travel direction is provisional."
    ]
  },
  "features": [
    {
      "type": "Feature",
      "id": "trace",
      "properties": {
        "role": "trace",
        "sourceIds": [
          "osm-snapshot"
        ]
      },
      "geometry": {
        "type": "LineString",
        "coordinates": [
          [
            15.2796271,
            58.3703382
          ],
          [
            15.2798859,
            58.3702524
          ],
          [
            15.2800503,
            58.370174
          ],
          [
            15.2802126,
            58.3700588
          ],
          [
            15.2802812,
            58.3699998
          ],
          [
            15.280335,
            58.3698558
          ],
          [
            15.2803312,
            58.369577
          ],
          [
            15.2802622,
            58.3692386
          ],
          [
            15.2801552,
            58.3688971
          ],
          [
            15.2800448,
            58.3686378
          ],
          [
            15.2800557,
            58.3684677
          ],
          [
            15.2801199,
            58.3683933
          ],
          [
            15.2802411,
            58.3683223
          ],
          [
            15.280474,
            58.3682854
          ],
          [
            15.280766,
            58.3683568
          ],
          [
            15.2865898,
            58.3697927
          ],
          [
            15.2866124,
            58.3697983
          ],
          [
            15.2868727,
            58.369889
          ],
          [
            15.2871015,
            58.3699952
          ],
          [
            15.2865436,
            58.3698519
          ],
          [
            15.2855723,
            58.3696073
          ],
          [
            15.2852846,
            58.3695606
          ],
          [
            15.2850435,
            58.3695159
          ],
          [
            15.284283,
            58.3693345
          ],
          [
            15.2813345,
            58.3686021
          ],
          [
            15.2809475,
            58.3685034
          ],
          [
            15.2807633,
            58.3684901
          ],
          [
            15.2806014,
            58.3685066
          ],
          [
            15.280444,
            58.3685404
          ],
          [
            15.28035,
            58.3685958
          ],
          [
            15.2802794,
            58.3686832
          ],
          [
            15.2806405,
            58.3701523
          ],
          [
            15.2806223,
            58.3701897
          ],
          [
            15.2805572,
            58.3702146
          ],
          [
            15.2804989,
            58.3702213
          ],
          [
            15.2800688,
            58.3702742
          ],
          [
            15.2796271,
            58.3703382
          ]
        ]
      }
    }
  ]
}
