{
  "type": "FeatureCollection",
  "bbox": [
    -46.8375193,
    -23.6060956,
    -46.8360003,
    -23.6040791
  ],
  "metadata": {
    "schemaVersion": 1,
    "trackId": "br-kartodromo-granja-viana-a8cd9fca",
    "layoutId": "kartodromo-granja-viana",
    "license": "ODbL-1.0",
    "attribution": "© OpenStreetMap contributors",
    "closed": true,
    "geometryStatus": "draft",
    "timingStatus": "missing",
    "timingMode": "shared",
    "lengthM": 1086,
    "reviewedAt": null,
    "notes": [
      "Draft configuration: The independently mapped full kart route retains the outer northern return, long eastern straight and complete inner S-shaped sequence, excluding central shortcuts and the separate southern chicane. These branch choices match the supplied historical configuration; the current operator identifies the Granja Viana outdoor venue but advertises a different contemporary distance. The exact 1086.0 m source centerline remains unscaled against the catalogue 1016 m scalar. The coarse northern source vertices and historical corner alignment remain provisional. Branch identity was checked against catalogue layout facts and circuit identification references. Independent source distance 1086.0 m; no coordinates are changed to match a diagram or distance. Travel direction and historical alignment remain provisional."
    ]
  },
  "features": [
    {
      "type": "Feature",
      "id": "trace",
      "properties": {
        "role": "trace",
        "sourceIds": [
          "osm-selection-262416827"
        ]
      },
      "geometry": {
        "type": "LineString",
        "coordinates": [
          [
            -46.8369125,
            -23.6040791
          ],
          [
            -46.8368128,
            -23.6041387
          ],
          [
            -46.83673,
            -23.6041456
          ],
          [
            -46.8366547,
            -23.6041714
          ],
          [
            -46.8366039,
            -23.6042077
          ],
          [
            -46.83657,
            -23.6042559
          ],
          [
            -46.8360658,
            -23.6055829
          ],
          [
            -46.8360214,
            -23.6056997
          ],
          [
            -46.8360003,
            -23.6057622
          ],
          [
            -46.8360329,
            -23.6057907
          ],
          [
            -46.8360515,
            -23.605831
          ],
          [
            -46.8360954,
            -23.6058615
          ],
          [
            -46.8361646,
            -23.6058837
          ],
          [
            -46.8365464,
            -23.6060061
          ],
          [
            -46.8366808,
            -23.6060492
          ],
          [
            -46.836814,
            -23.6060919
          ],
          [
            -46.8368606,
            -23.6060956
          ],
          [
            -46.8369045,
            -23.6060846
          ],
          [
            -46.8369338,
            -23.6060529
          ],
          [
            -46.8369808,
            -23.605933
          ],
          [
            -46.8370792,
            -23.6056819
          ],
          [
            -46.8371031,
            -23.6056208
          ],
          [
            -46.8371666,
            -23.605459
          ],
          [
            -46.8371967,
            -23.605382
          ],
          [
            -46.8372115,
            -23.6053561
          ],
          [
            -46.8372436,
            -23.6052149
          ],
          [
            -46.8372337,
            -23.6051469
          ],
          [
            -46.8370531,
            -23.6048572
          ],
          [
            -46.8369734,
            -23.6047554
          ],
          [
            -46.8369001,
            -23.6047454
          ],
          [
            -46.8368348,
            -23.6047727
          ],
          [
            -46.8367802,
            -23.6048244
          ],
          [
            -46.8367633,
            -23.6048882
          ],
          [
            -46.8367858,
            -23.6049503
          ],
          [
            -46.8368442,
            -23.6049986
          ],
          [
            -46.8369307,
            -23.60504
          ],
          [
            -46.8369552,
            -23.6050762
          ],
          [
            -46.8369552,
            -23.6051141
          ],
          [
            -46.836927,
            -23.6051503
          ],
          [
            -46.8365642,
            -23.6052888
          ],
          [
            -46.8365215,
            -23.6053548
          ],
          [
            -46.8365123,
            -23.6054281
          ],
          [
            -46.8365295,
            -23.6054781
          ],
          [
            -46.836583,
            -23.6055171
          ],
          [
            -46.8368337,
            -23.6055928
          ],
          [
            -46.8368892,
            -23.6056096
          ],
          [
            -46.8369018,
            -23.6056616
          ],
          [
            -46.8368952,
            -23.6057165
          ],
          [
            -46.8368672,
            -23.6057482
          ],
          [
            -46.8368193,
            -23.6057665
          ],
          [
            -46.8367554,
            -23.6057726
          ],
          [
            -46.8366796,
            -23.6057592
          ],
          [
            -46.8363482,
            -23.6056799
          ],
          [
            -46.8363016,
            -23.6056703
          ],
          [
            -46.8362547,
            -23.6056508
          ],
          [
            -46.8362481,
            -23.6055762
          ],
          [
            -46.8365396,
            -23.6047793
          ],
          [
            -46.8365949,
            -23.6047035
          ],
          [
            -46.8366879,
            -23.6046277
          ],
          [
            -46.8367807,
            -23.60458
          ],
          [
            -46.8368573,
            -23.6045611
          ],
          [
            -46.8369338,
            -23.6045617
          ],
          [
            -46.837007,
            -23.6045861
          ],
          [
            -46.8370516,
            -23.6046235
          ],
          [
            -46.8372052,
            -23.604752
          ],
          [
            -46.8372665,
            -23.6047764
          ],
          [
            -46.8373277,
            -23.6047776
          ],
          [
            -46.837342,
            -23.6047605
          ],
          [
            -46.8373793,
            -23.6047031
          ],
          [
            -46.8375153,
            -23.6044617
          ],
          [
            -46.8375193,
            -23.6043996
          ],
          [
            -46.837502,
            -23.6043544
          ],
          [
            -46.837474,
            -23.6043276
          ],
          [
            -46.8374421,
            -23.6043166
          ],
          [
            -46.8374062,
            -23.6043215
          ],
          [
            -46.8373263,
            -23.6043727
          ],
          [
            -46.8372585,
            -23.604402
          ],
          [
            -46.8371826,
            -23.604413
          ],
          [
            -46.8370748,
            -23.6043983
          ],
          [
            -46.8369338,
            -23.6043579
          ],
          [
            -46.8368859,
            -23.6043298
          ],
          [
            -46.836862,
            -23.6042908
          ],
          [
            -46.836862,
            -23.6042469
          ],
          [
            -46.8368832,
            -23.604203
          ],
          [
            -46.8369069,
            -23.6041589
          ],
          [
            -46.8369125,
            -23.6040791
          ]
        ]
      }
    }
  ]
}
