{
  "type": "FeatureCollection",
  "bbox": [
    -122.703139,
    45.5931518,
    -122.687278,
    45.599972
  ],
  "metadata": {
    "schemaVersion": 1,
    "trackId": "us-portland-international-raceway-5510199",
    "layoutId": "main",
    "license": "ODbL-1.0",
    "attribution": "© OpenStreetMap contributors",
    "closed": true,
    "geometryStatus": "draft",
    "timingStatus": "missing",
    "timingMode": "shared",
    "lengthM": 3292.2,
    "reviewedAt": null,
    "notes": [
      "Connected OSM course candidate. The selected loop is the longest simple source-node cycle after explicit exclusions; its association with a named circuit configuration requires review.",
      "Source way order and shared node IDs are retained. No nearby endpoints are joined and no Racelogic boundaries are read."
    ]
  },
  "features": [
    {
      "type": "Feature",
      "id": "trace",
      "properties": {
        "role": "trace",
        "sourceIds": [
          "osm-snapshot"
        ]
      },
      "geometry": {
        "type": "LineString",
        "coordinates": [
          [
            -122.6901043,
            45.5938297
          ],
          [
            -122.6904851,
            45.5939359
          ],
          [
            -122.6930642,
            45.5946322
          ],
          [
            -122.6945231,
            45.5950254
          ],
          [
            -122.6946062,
            45.5950478
          ],
          [
            -122.695984,
            45.595408
          ],
          [
            -122.696934,
            45.595647
          ],
          [
            -122.6972912,
            45.5957439
          ],
          [
            -122.6981651,
            45.5959808
          ],
          [
            -122.6982798,
            45.5960912
          ],
          [
            -122.6983058,
            45.5961303
          ],
          [
            -122.6983203,
            45.5961684
          ],
          [
            -122.698308,
            45.5962091
          ],
          [
            -122.698164,
            45.5964613
          ],
          [
            -122.6981404,
            45.596514
          ],
          [
            -122.6981261,
            45.5965493
          ],
          [
            -122.6981362,
            45.5965927
          ],
          [
            -122.6981658,
            45.5966273
          ],
          [
            -122.6982204,
            45.5966571
          ],
          [
            -122.6982753,
            45.5966692
          ],
          [
            -122.6983455,
            45.5966649
          ],
          [
            -122.6984654,
            45.5966527
          ],
          [
            -122.6997098,
            45.5964498
          ],
          [
            -122.6998466,
            45.5964368
          ],
          [
            -122.702012,
            45.597024
          ],
          [
            -122.702403,
            45.597136
          ],
          [
            -122.702665,
            45.597229
          ],
          [
            -122.70278,
            45.597285
          ],
          [
            -122.702905,
            45.597374
          ],
          [
            -122.70297,
            45.597441
          ],
          [
            -122.70306,
            45.597589
          ],
          [
            -122.70313,
            45.597815
          ],
          [
            -122.703139,
            45.597922
          ],
          [
            -122.703082,
            45.598131
          ],
          [
            -122.702983,
            45.598266
          ],
          [
            -122.702869,
            45.598363
          ],
          [
            -122.702614,
            45.598526
          ],
          [
            -122.70242,
            45.598627
          ],
          [
            -122.702102,
            45.598737
          ],
          [
            -122.701914,
            45.598752
          ],
          [
            -122.701762,
            45.59874
          ],
          [
            -122.7016351,
            45.5987124
          ],
          [
            -122.701519,
            45.598668
          ],
          [
            -122.701339,
            45.598568
          ],
          [
            -122.700867,
            45.598133
          ],
          [
            -122.700729,
            45.598041
          ],
          [
            -122.700495,
            45.597952
          ],
          [
            -122.700308,
            45.597927
          ],
          [
            -122.700145,
            45.597936
          ],
          [
            -122.69999,
            45.597974
          ],
          [
            -122.699814,
            45.59806
          ],
          [
            -122.69967,
            45.598196
          ],
          [
            -122.699592,
            45.598319
          ],
          [
            -122.699478,
            45.598647
          ],
          [
            -122.699471,
            45.599077
          ],
          [
            -122.699523,
            45.599604
          ],
          [
            -122.699509,
            45.599719
          ],
          [
            -122.699442,
            45.599853
          ],
          [
            -122.699363,
            45.599921
          ],
          [
            -122.699289,
            45.599953
          ],
          [
            -122.699153,
            45.599972
          ],
          [
            -122.699012,
            45.599961
          ],
          [
            -122.698771,
            45.599904
          ],
          [
            -122.697785,
            45.599608
          ],
          [
            -122.697604,
            45.599566
          ],
          [
            -122.697265,
            45.599523
          ],
          [
            -122.6968111,
            45.5995071
          ],
          [
            -122.696225,
            45.599479
          ],
          [
            -122.6960986,
            45.5994647
          ],
          [
            -122.696013,
            45.599455
          ],
          [
            -122.695169,
            45.599303
          ],
          [
            -122.694868,
            45.599225
          ],
          [
            -122.694602,
            45.599137
          ],
          [
            -122.694179,
            45.598969
          ],
          [
            -122.693653,
            45.598698
          ],
          [
            -122.69336,
            45.598513
          ],
          [
            -122.692667,
            45.598027
          ],
          [
            -122.692265,
            45.597727
          ],
          [
            -122.691807,
            45.597354
          ],
          [
            -122.690223,
            45.595905
          ],
          [
            -122.689771,
            45.595515
          ],
          [
            -122.689644,
            45.595427
          ],
          [
            -122.689479,
            45.595342
          ],
          [
            -122.689343,
            45.595292
          ],
          [
            -122.688743,
            45.595138
          ],
          [
            -122.688503,
            45.595036
          ],
          [
            -122.688382,
            45.594956
          ],
          [
            -122.688174,
            45.594731
          ],
          [
            -122.6880327,
            45.5945209
          ],
          [
            -122.68777,
            45.594403
          ],
          [
            -122.6875857,
            45.5943319
          ],
          [
            -122.687491,
            45.5942668
          ],
          [
            -122.6874389,
            45.5941726
          ],
          [
            -122.687305,
            45.593826
          ],
          [
            -122.687285,
            45.5937686
          ],
          [
            -122.6872782,
            45.5937157
          ],
          [
            -122.687278,
            45.593623
          ],
          [
            -122.68728,
            45.59355
          ],
          [
            -122.6872925,
            45.593499
          ],
          [
            -122.687312,
            45.593471
          ],
          [
            -122.687353,
            45.593419
          ],
          [
            -122.687403,
            45.59337
          ],
          [
            -122.68743,
            45.593331
          ],
          [
            -122.687488,
            45.593209
          ],
          [
            -122.687517,
            45.593173
          ],
          [
            -122.687539,
            45.593162
          ],
          [
            -122.6875675,
            45.593153
          ],
          [
            -122.6876069,
            45.5931518
          ],
          [
            -122.687655,
            45.593158
          ],
          [
            -122.6890052,
            45.5935281
          ],
          [
            -122.6901043,
            45.5938297
          ]
        ]
      }
    }
  ]
}
