{
  "type": "FeatureCollection",
  "bbox": [
    -0.7833133,
    51.257923,
    -0.7771604,
    51.2615868
  ],
  "metadata": {
    "schemaVersion": 1,
    "trackId": "gb-rushmore-arena-886deba1",
    "layoutId": "rushmore-arena",
    "license": "ODbL-1.0",
    "attribution": "© OpenStreetMap contributors",
    "closed": true,
    "geometryStatus": "draft",
    "timingStatus": "missing",
    "timingMode": "shared",
    "lengthM": 1305.3,
    "reviewedAt": null,
    "notes": [
      "Draft configuration: The club identifies Rushmoor Arena as its sprint venue. The supplied historical configuration identifies the simple northern-straight, eastern diagonal and western Arena Lane triangle, rather than the club’s 2026 figure-eight sprint. Exact public OSM road nodes from Arena Lane 69713123 and eastern service road 371693606 form the independently mapped 1,305.3 m closed triangle. Pinned Environment Agency 2020 one-metre LiDAR intensity imagery confirms all three connected paved sides. The current figure-eight, southern Castle Road approach, Claycart Road, start spur, paddock and field-edge paths are excluded. The 23.7 m difference from the supplied 1,329 m remains explicit; private diagram coordinates are not used. Historical travel direction, temporary course markers and exact racing-line placement remain draft. Branch identity was checked against catalogue layout facts and circuit identification references. Independent source distance 1305.3 m; no coordinates are changed to match a diagram or distance. Travel direction and historical alignment remain provisional."
    ]
  },
  "features": [
    {
      "type": "Feature",
      "id": "trace",
      "properties": {
        "role": "trace",
        "sourceIds": [
          "osm-selection-rushmore-arena-independent-roads-69713123"
        ]
      },
      "geometry": {
        "type": "LineString",
        "coordinates": [
          [
            -0.7808213,
            51.257923
          ],
          [
            -0.7812612,
            51.2580372
          ],
          [
            -0.7820376,
            51.2582596
          ],
          [
            -0.7821403,
            51.2582918
          ],
          [
            -0.7822407,
            51.2583488
          ],
          [
            -0.7827614,
            51.2587769
          ],
          [
            -0.7829861,
            51.2594786
          ],
          [
            -0.7830129,
            51.2596532
          ],
          [
            -0.7830317,
            51.2597807
          ],
          [
            -0.7831068,
            51.2599553
          ],
          [
            -0.7831631,
            51.2600762
          ],
          [
            -0.7832517,
            51.2601853
          ],
          [
            -0.7833026,
            51.2602792
          ],
          [
            -0.7833133,
            51.2603766
          ],
          [
            -0.7832677,
            51.2604874
          ],
          [
            -0.7831846,
            51.2605881
          ],
          [
            -0.7830585,
            51.2607089
          ],
          [
            -0.7829566,
            51.260766
          ],
          [
            -0.782675,
            51.2608214
          ],
          [
            -0.7804058,
            51.2611487
          ],
          [
            -0.7792743,
            51.2613203
          ],
          [
            -0.7788126,
            51.2613904
          ],
          [
            -0.7774795,
            51.2615666
          ],
          [
            -0.7771604,
            51.2615868
          ],
          [
            -0.7771854,
            51.2615123
          ],
          [
            -0.7773816,
            51.2613209
          ],
          [
            -0.7782032,
            51.2605927
          ],
          [
            -0.7787219,
            51.2601329
          ],
          [
            -0.7787894,
            51.2600733
          ],
          [
            -0.7788616,
            51.2600096
          ],
          [
            -0.7794107,
            51.2596346
          ],
          [
            -0.779796,
            51.2594038
          ],
          [
            -0.7800084,
            51.2592533
          ],
          [
            -0.7800247,
            51.2592281
          ],
          [
            -0.7802559,
            51.2588704
          ],
          [
            -0.7805192,
            51.2583627
          ],
          [
            -0.7806272,
            51.2581544
          ],
          [
            -0.7806637,
            51.258086
          ],
          [
            -0.7807229,
            51.2579747
          ],
          [
            -0.7808213,
            51.257923
          ]
        ]
      }
    }
  ]
}
