{
  "type": "FeatureCollection",
  "bbox": [
    -8.4511144,
    41.5834836,
    -8.4394313,
    41.5893871
  ],
  "metadata": {
    "schemaVersion": 1,
    "trackId": "pt-circuito-vasco-sameiro-104661118",
    "layoutId": "main",
    "license": "ODbL-1.0",
    "attribution": "© OpenStreetMap contributors",
    "closed": true,
    "geometryStatus": "draft",
    "timingStatus": "missing",
    "timingMode": "shared",
    "lengthM": 2871,
    "reviewedAt": null,
    "notes": [
      "Closed named OSM raceway retained as a course candidate. Named-layout association requires review.",
      "Source way order and shared node IDs are retained. No nearby endpoints are joined and no Racelogic boundaries are read.",
      "Some source ways lack one-way direction tags. Travel direction is provisional."
    ]
  },
  "features": [
    {
      "type": "Feature",
      "id": "trace",
      "properties": {
        "role": "trace",
        "sourceIds": [
          "osm-snapshot"
        ]
      },
      "geometry": {
        "type": "LineString",
        "coordinates": [
          [
            -8.4497513,
            41.585581
          ],
          [
            -8.4498581,
            41.5855984
          ],
          [
            -8.4500388,
            41.5857486
          ],
          [
            -8.4503271,
            41.5858036
          ],
          [
            -8.4507369,
            41.5857567
          ],
          [
            -8.4510133,
            41.585602
          ],
          [
            -8.4511144,
            41.5853613
          ],
          [
            -8.4510388,
            41.5850353
          ],
          [
            -8.4508627,
            41.5847799
          ],
          [
            -8.4505667,
            41.584618
          ],
          [
            -8.4502064,
            41.5845854
          ],
          [
            -8.4499506,
            41.5846408
          ],
          [
            -8.4494282,
            41.5849453
          ],
          [
            -8.4477146,
            41.5856211
          ],
          [
            -8.4474997,
            41.5856418
          ],
          [
            -8.4473214,
            41.5855507
          ],
          [
            -8.4472152,
            41.5853079
          ],
          [
            -8.447176,
            41.5847331
          ],
          [
            -8.4472315,
            41.5842727
          ],
          [
            -8.4473726,
            41.5837432
          ],
          [
            -8.4473253,
            41.5836048
          ],
          [
            -8.4471775,
            41.5835069
          ],
          [
            -8.4469485,
            41.5834836
          ],
          [
            -8.4467246,
            41.5835418
          ],
          [
            -8.4465197,
            41.5836968
          ],
          [
            -8.4463863,
            41.5840416
          ],
          [
            -8.4463496,
            41.5843016
          ],
          [
            -8.4463895,
            41.5845279
          ],
          [
            -8.4466769,
            41.5851482
          ],
          [
            -8.4466886,
            41.5853476
          ],
          [
            -8.4465517,
            41.5855535
          ],
          [
            -8.4462814,
            41.5856693
          ],
          [
            -8.4455784,
            41.5857945
          ],
          [
            -8.4434318,
            41.5861769
          ],
          [
            -8.4428602,
            41.5862695
          ],
          [
            -8.442422,
            41.5863547
          ],
          [
            -8.4415092,
            41.586519
          ],
          [
            -8.4409759,
            41.5866259
          ],
          [
            -8.4407187,
            41.5867365
          ],
          [
            -8.4404758,
            41.5869301
          ],
          [
            -8.4403725,
            41.5871323
          ],
          [
            -8.4404008,
            41.5873257
          ],
          [
            -8.4405723,
            41.5876208
          ],
          [
            -8.4405769,
            41.587851
          ],
          [
            -8.4403,
            41.5883378
          ],
          [
            -8.4401481,
            41.5884184
          ],
          [
            -8.4396311,
            41.5884393
          ],
          [
            -8.4394725,
            41.5885421
          ],
          [
            -8.4394313,
            41.5886945
          ],
          [
            -8.4394609,
            41.5888965
          ],
          [
            -8.4397471,
            41.5892903
          ],
          [
            -8.4399989,
            41.5893871
          ],
          [
            -8.4402607,
            41.5893553
          ],
          [
            -8.4412644,
            41.5889647
          ],
          [
            -8.4454744,
            41.5872862
          ],
          [
            -8.4464935,
            41.5868799
          ],
          [
            -8.4497513,
            41.585581
          ]
        ]
      }
    }
  ]
}
