{
  "type": "FeatureCollection",
  "bbox": [
    49.830922,
    40.3625402,
    49.8551752,
    40.3761243
  ],
  "metadata": {
    "schemaVersion": 1,
    "trackId": "az-baku-5c505b5d",
    "layoutId": "baku",
    "license": "ODbL-1.0",
    "attribution": "© OpenStreetMap contributors",
    "closed": true,
    "geometryStatus": "draft",
    "timingStatus": "missing",
    "timingMode": "shared",
    "lengthM": 5968.5,
    "reviewedAt": null,
    "notes": [
      "Draft course from an independently named OSM circuit relation. Timing variants retain separate catalogue entries; private start/finish GPS is displayed locally."
    ]
  },
  "features": [
    {
      "type": "Feature",
      "id": "trace",
      "properties": {
        "role": "trace",
        "sourceIds": [
          "osm-relation-11266687"
        ]
      },
      "geometry": {
        "type": "LineString",
        "coordinates": [
          [
            49.8486029,
            40.3711852
          ],
          [
            49.8486724,
            40.3712074
          ],
          [
            49.8487342,
            40.3712272
          ],
          [
            49.850091,
            40.371668
          ],
          [
            49.8505044,
            40.3717988
          ],
          [
            49.8505682,
            40.3718192
          ],
          [
            49.8506578,
            40.3718508
          ],
          [
            49.851408,
            40.3720939
          ],
          [
            49.8517072,
            40.3721915
          ],
          [
            49.8529141,
            40.3725853
          ],
          [
            49.855042,
            40.3732719
          ],
          [
            49.8551314,
            40.3733214
          ],
          [
            49.8551752,
            40.3733815
          ],
          [
            49.8551723,
            40.3734536
          ],
          [
            49.8551466,
            40.3735104
          ],
          [
            49.8550024,
            40.3737941
          ],
          [
            49.8549323,
            40.3738985
          ],
          [
            49.8547871,
            40.3741607
          ],
          [
            49.854708,
            40.3742936
          ],
          [
            49.8546521,
            40.3743876
          ],
          [
            49.8546391,
            40.3744093
          ],
          [
            49.8541224,
            40.375224
          ],
          [
            49.8540464,
            40.3753526
          ],
          [
            49.8540339,
            40.3753742
          ],
          [
            49.8539725,
            40.3754718
          ],
          [
            49.8539269,
            40.3755461
          ],
          [
            49.8538434,
            40.3756973
          ],
          [
            49.8536511,
            40.3760471
          ],
          [
            49.8535966,
            40.3760966
          ],
          [
            49.8535457,
            40.376118
          ],
          [
            49.8534739,
            40.3761243
          ],
          [
            49.8533885,
            40.3761149
          ],
          [
            49.8528955,
            40.3759653
          ],
          [
            49.851801,
            40.3756525
          ],
          [
            49.8516237,
            40.375597
          ],
          [
            49.8515706,
            40.3755792
          ],
          [
            49.8515529,
            40.3755748
          ],
          [
            49.851492,
            40.3755552
          ],
          [
            49.8501887,
            40.3751491
          ],
          [
            49.849819,
            40.3750372
          ],
          [
            49.8497366,
            40.3750116
          ],
          [
            49.8496235,
            40.3749734
          ],
          [
            49.8470069,
            40.3740687
          ],
          [
            49.8469013,
            40.3740327
          ],
          [
            49.8467878,
            40.3739938
          ],
          [
            49.8467214,
            40.3739722
          ],
          [
            49.8443221,
            40.3731325
          ],
          [
            49.8442488,
            40.3730938
          ],
          [
            49.8442104,
            40.3730501
          ],
          [
            49.8441879,
            40.3729909
          ],
          [
            49.844189,
            40.3729238
          ],
          [
            49.8444355,
            40.3724068
          ],
          [
            49.84446,
            40.3723548
          ],
          [
            49.8444728,
            40.3723298
          ],
          [
            49.8444923,
            40.3722918
          ],
          [
            49.8445259,
            40.3722258
          ],
          [
            49.8450242,
            40.3713463
          ],
          [
            49.8450521,
            40.3712441
          ],
          [
            49.845042,
            40.371164
          ],
          [
            49.8449914,
            40.3710997
          ],
          [
            49.8449001,
            40.3710394
          ],
          [
            49.8445875,
            40.3709294
          ],
          [
            49.8444834,
            40.3708947
          ],
          [
            49.8440058,
            40.3707378
          ],
          [
            49.8438871,
            40.3706977
          ],
          [
            49.8434279,
            40.3705503
          ],
          [
            49.843349,
            40.370525
          ],
          [
            49.843251,
            40.3704894
          ],
          [
            49.8422111,
            40.370009
          ],
          [
            49.8421159,
            40.3699619
          ],
          [
            49.8419767,
            40.3698928
          ],
          [
            49.8418728,
            40.3698249
          ],
          [
            49.8417939,
            40.369766
          ],
          [
            49.8417461,
            40.3697165
          ],
          [
            49.841723,
            40.3696813
          ],
          [
            49.8417121,
            40.3696427
          ],
          [
            49.8417091,
            40.3696134
          ],
          [
            49.8417158,
            40.3695704
          ],
          [
            49.8417261,
            40.3695421
          ],
          [
            49.8418425,
            40.369249
          ],
          [
            49.841846,
            40.3692132
          ],
          [
            49.8418349,
            40.3691692
          ],
          [
            49.8418184,
            40.3691346
          ],
          [
            49.8417939,
            40.3691043
          ],
          [
            49.8417595,
            40.3690778
          ],
          [
            49.8411486,
            40.3687248
          ],
          [
            49.8400474,
            40.368056
          ],
          [
            49.8389888,
            40.3674542
          ],
          [
            49.8388073,
            40.3673493
          ],
          [
            49.8385545,
            40.3672033
          ],
          [
            49.8384898,
            40.3671631
          ],
          [
            49.8384273,
            40.3671182
          ],
          [
            49.8383778,
            40.3670897
          ],
          [
            49.8383323,
            40.3670746
          ],
          [
            49.8382789,
            40.3670668
          ],
          [
            49.8381335,
            40.3670739
          ],
          [
            49.8381011,
            40.3670828
          ],
          [
            49.8380764,
            40.3671043
          ],
          [
            49.8373731,
            40.3686922
          ],
          [
            49.8373566,
            40.3687167
          ],
          [
            49.837335,
            40.3687328
          ],
          [
            49.8372983,
            40.3687477
          ],
          [
            49.8372618,
            40.3687495
          ],
          [
            49.8372188,
            40.3687449
          ],
          [
            49.8371798,
            40.3687345
          ],
          [
            49.8371176,
            40.3687237
          ],
          [
            49.8370883,
            40.3687218
          ],
          [
            49.8370633,
            40.3687253
          ],
          [
            49.8368233,
            40.3688301
          ],
          [
            49.8367898,
            40.3688448
          ],
          [
            49.8367585,
            40.3688529
          ],
          [
            49.8367279,
            40.3688575
          ],
          [
            49.8366886,
            40.3688589
          ],
          [
            49.8366421,
            40.3688578
          ],
          [
            49.8364627,
            40.3688478
          ],
          [
            49.8364141,
            40.3688463
          ],
          [
            49.8363592,
            40.3688452
          ],
          [
            49.8362533,
            40.3688464
          ],
          [
            49.836206,
            40.368847
          ],
          [
            49.8361905,
            40.3688501
          ],
          [
            49.8361482,
            40.3688634
          ],
          [
            49.8361268,
            40.3688746
          ],
          [
            49.8361098,
            40.3688911
          ],
          [
            49.8360944,
            40.368918
          ],
          [
            49.8359233,
            40.3693398
          ],
          [
            49.8359114,
            40.3693624
          ],
          [
            49.8358914,
            40.3693812
          ],
          [
            49.8358683,
            40.369396
          ],
          [
            49.8358329,
            40.3694064
          ],
          [
            49.8357828,
            40.3694172
          ],
          [
            49.8357131,
            40.3694162
          ],
          [
            49.8356299,
            40.3693998
          ],
          [
            49.8348172,
            40.3691866
          ],
          [
            49.8346874,
            40.3691477
          ],
          [
            49.834665,
            40.3691393
          ],
          [
            49.8345428,
            40.3690979
          ],
          [
            49.8339129,
            40.3688823
          ],
          [
            49.8332933,
            40.3686536
          ],
          [
            49.8330439,
            40.3685626
          ],
          [
            49.8323905,
            40.3682624
          ],
          [
            49.8319016,
            40.3680368
          ],
          [
            49.8318279,
            40.3679949
          ],
          [
            49.8317555,
            40.3679468
          ],
          [
            49.8317327,
            40.3679282
          ],
          [
            49.8317105,
            40.3679101
          ],
          [
            49.8316892,
            40.3678889
          ],
          [
            49.8316408,
            40.3678426
          ],
          [
            49.8316014,
            40.3677881
          ],
          [
            49.8315717,
            40.3677415
          ],
          [
            49.8315478,
            40.3676905
          ],
          [
            49.8314116,
            40.3673438
          ],
          [
            49.8313437,
            40.367165
          ],
          [
            49.8311006,
            40.3665488
          ],
          [
            49.8309939,
            40.3662844
          ],
          [
            49.8309723,
            40.3662292
          ],
          [
            49.8309535,
            40.3661771
          ],
          [
            49.8309367,
            40.3661235
          ],
          [
            49.830924,
            40.3660381
          ],
          [
            49.830922,
            40.3659582
          ],
          [
            49.8309253,
            40.3658756
          ],
          [
            49.8309343,
            40.3657592
          ],
          [
            49.8309831,
            40.3652557
          ],
          [
            49.8310547,
            40.364511
          ],
          [
            49.8310604,
            40.3643296
          ],
          [
            49.8310606,
            40.3640383
          ],
          [
            49.8310623,
            40.3640075
          ],
          [
            49.8310727,
            40.3639696
          ],
          [
            49.8310815,
            40.3639474
          ],
          [
            49.8310884,
            40.3639339
          ],
          [
            49.8310986,
            40.3639219
          ],
          [
            49.8311157,
            40.3639098
          ],
          [
            49.8311728,
            40.3638921
          ],
          [
            49.8319515,
            40.3635846
          ],
          [
            49.8331686,
            40.3631032
          ],
          [
            49.8332358,
            40.3630761
          ],
          [
            49.8337331,
            40.3628808
          ],
          [
            49.8343061,
            40.3626559
          ],
          [
            49.8345063,
            40.3625813
          ],
          [
            49.8346189,
            40.3625482
          ],
          [
            49.834737,
            40.3625402
          ],
          [
            49.8348298,
            40.3625604
          ],
          [
            49.8348803,
            40.362596
          ],
          [
            49.8349273,
            40.3626483
          ],
          [
            49.8354224,
            40.3633451
          ],
          [
            49.8359273,
            40.3640753
          ],
          [
            49.8359745,
            40.3641341
          ],
          [
            49.8360381,
            40.3641913
          ],
          [
            49.8373795,
            40.3651313
          ],
          [
            49.8376596,
            40.3653635
          ],
          [
            49.8378079,
            40.3654987
          ],
          [
            49.8378847,
            40.3655889
          ],
          [
            49.8379377,
            40.3656792
          ],
          [
            49.8380168,
            40.3658289
          ],
          [
            49.8380801,
            40.3659946
          ],
          [
            49.8382611,
            40.366656
          ],
          [
            49.8383244,
            40.3668179
          ],
          [
            49.8383824,
            40.3669062
          ],
          [
            49.8384684,
            40.3670032
          ],
          [
            49.8384878,
            40.3670221
          ],
          [
            49.8385131,
            40.367042
          ],
          [
            49.838571,
            40.3670819
          ],
          [
            49.838618,
            40.3671107
          ],
          [
            49.8390734,
            40.3673716
          ],
          [
            49.839361,
            40.3675418
          ],
          [
            49.8395003,
            40.3676243
          ],
          [
            49.8408379,
            40.3684158
          ],
          [
            49.8413111,
            40.3686959
          ],
          [
            49.8415426,
            40.3688201
          ],
          [
            49.8415609,
            40.3688299
          ],
          [
            49.8417306,
            40.3689114
          ],
          [
            49.8418955,
            40.3689768
          ],
          [
            49.8429139,
            40.36933
          ],
          [
            49.8453502,
            40.3701204
          ],
          [
            49.8455804,
            40.3701953
          ],
          [
            49.8456502,
            40.370218
          ],
          [
            49.8475002,
            40.3708293
          ],
          [
            49.8482649,
            40.3710761
          ],
          [
            49.8486029,
            40.3711852
          ]
        ]
      }
    }
  ]
}
