{
  "type": "FeatureCollection",
  "bbox": [
    -1.1499904,
    52.4826551,
    -1.1113533,
    52.499113
  ],
  "metadata": {
    "schemaVersion": 1,
    "trackId": "gb-bruntingthorpe-b2f151a7",
    "layoutId": "bruntingthorpe-full",
    "license": "ODbL-1.0",
    "attribution": "© OpenStreetMap contributors",
    "closed": true,
    "geometryStatus": "draft",
    "timingStatus": "missing",
    "timingMode": "shared",
    "lengthM": 6691.8,
    "reviewedAt": null,
    "notes": [
      "Draft configuration: The full airfield circuit follows the long northern runway leg and southern perimeter with the central projecting return. Independently mapped runway and taxiway centrelines form an exact source cycle of 6691.8 m. The local council describes the proving-ground circuit as 6.5 km, while the supplied historical catalogue declares 7069 m. This draft retains the independently mapped course, documents that discrepancy and excludes the intermediate runway shortcut; historical alignment remains provisional. Branch identity was checked against catalogue layout facts and circuit identification references. Independent source distance 6691.8 m; no coordinates are changed to match a diagram or distance. Travel direction and historical alignment remain provisional."
    ]
  },
  "features": [
    {
      "type": "Feature",
      "id": "trace",
      "properties": {
        "role": "trace",
        "sourceIds": [
          "osm-selection-bruntingthorpe-independent-roads-4727841"
        ]
      },
      "geometry": {
        "type": "LineString",
        "coordinates": [
          [
            -1.1201691,
            52.4941284
          ],
          [
            -1.1146275,
            52.4964217
          ],
          [
            -1.1136392,
            52.4968307
          ],
          [
            -1.1133902,
            52.4969338
          ],
          [
            -1.1120922,
            52.4974709
          ],
          [
            -1.1115031,
            52.4977147
          ],
          [
            -1.1113533,
            52.497887
          ],
          [
            -1.1113533,
            52.4981707
          ],
          [
            -1.1114532,
            52.4983936
          ],
          [
            -1.1128679,
            52.4991028
          ],
          [
            -1.1131675,
            52.499113
          ],
          [
            -1.113654,
            52.498933
          ],
          [
            -1.1153882,
            52.4982156
          ],
          [
            -1.1300733,
            52.4921398
          ],
          [
            -1.1321558,
            52.4912781
          ],
          [
            -1.1499904,
            52.483898
          ],
          [
            -1.1491012,
            52.4830606
          ],
          [
            -1.1488016,
            52.4828072
          ],
          [
            -1.1483689,
            52.4827058
          ],
          [
            -1.147803,
            52.4826551
          ],
          [
            -1.1473203,
            52.4828173
          ],
          [
            -1.131409,
            52.4894356
          ],
          [
            -1.1293614,
            52.4892961
          ],
          [
            -1.1273084,
            52.4891562
          ],
          [
            -1.1242688,
            52.4889492
          ],
          [
            -1.1238194,
            52.4889694
          ],
          [
            -1.1234366,
            52.4891316
          ],
          [
            -1.123215,
            52.489321
          ],
          [
            -1.123137,
            52.4895066
          ],
          [
            -1.1225212,
            52.4928103
          ],
          [
            -1.1223714,
            52.4931143
          ],
          [
            -1.1220552,
            52.4933271
          ],
          [
            -1.121689,
            52.4934994
          ],
          [
            -1.1201691,
            52.4941284
          ]
        ]
      }
    }
  ]
}
