{
  "type": "FeatureCollection",
  "bbox": [
    130.8732223,
    32.8965916,
    130.8793127,
    32.8990851
  ],
  "metadata": {
    "schemaVersion": 1,
    "trackId": "jp-hsr-134862680",
    "layoutId": "main",
    "license": "ODbL-1.0",
    "attribution": "© OpenStreetMap contributors",
    "closed": true,
    "geometryStatus": "draft",
    "timingStatus": "missing",
    "timingMode": "shared",
    "lengthM": 2369.6,
    "reviewedAt": null,
    "notes": [
      "Connected OSM course candidate. The selected loop is the longest simple source-node cycle after explicit exclusions; its association with a named circuit configuration requires review.",
      "Source way order and shared node IDs are retained. No nearby endpoints are joined and no Racelogic boundaries are read."
    ]
  },
  "features": [
    {
      "type": "Feature",
      "id": "trace",
      "properties": {
        "role": "trace",
        "sourceIds": [
          "osm-snapshot"
        ]
      },
      "geometry": {
        "type": "LineString",
        "coordinates": [
          [
            130.877361,
            32.896916
          ],
          [
            130.8775158,
            32.8969376
          ],
          [
            130.8776536,
            32.8969696
          ],
          [
            130.8782757,
            32.8972147
          ],
          [
            130.878863,
            32.8974548
          ],
          [
            130.8789511,
            32.8975091
          ],
          [
            130.8790291,
            32.8975703
          ],
          [
            130.8790921,
            32.897622
          ],
          [
            130.8791307,
            32.8976636
          ],
          [
            130.8791882,
            32.8977418
          ],
          [
            130.8792399,
            32.8978216
          ],
          [
            130.8792639,
            32.8978716
          ],
          [
            130.8792818,
            32.8979266
          ],
          [
            130.8792957,
            32.8979843
          ],
          [
            130.8793054,
            32.8980453
          ],
          [
            130.8793127,
            32.8981239
          ],
          [
            130.8793048,
            32.8982144
          ],
          [
            130.8792902,
            32.8982792
          ],
          [
            130.8792705,
            32.8983423
          ],
          [
            130.8792384,
            32.8984161
          ],
          [
            130.8792177,
            32.898455
          ],
          [
            130.8791929,
            32.8984939
          ],
          [
            130.8791439,
            32.8985593
          ],
          [
            130.8790806,
            32.8986265
          ],
          [
            130.8790442,
            32.8986603
          ],
          [
            130.8789976,
            32.898694
          ],
          [
            130.8789003,
            32.8987572
          ],
          [
            130.8787846,
            32.8988106
          ],
          [
            130.8787054,
            32.8988389
          ],
          [
            130.878612,
            32.8988622
          ],
          [
            130.8784549,
            32.8988794
          ],
          [
            130.8780254,
            32.8989009
          ],
          [
            130.8748992,
            32.8990415
          ],
          [
            130.8740522,
            32.8990805
          ],
          [
            130.8739177,
            32.8990851
          ],
          [
            130.8738619,
            32.8990819
          ],
          [
            130.8737999,
            32.8990711
          ],
          [
            130.8737458,
            32.8990516
          ],
          [
            130.8736936,
            32.8990271
          ],
          [
            130.8736556,
            32.8990037
          ],
          [
            130.8736217,
            32.898977
          ],
          [
            130.8734276,
            32.8987821
          ],
          [
            130.8732518,
            32.8986
          ],
          [
            130.8732335,
            32.898565
          ],
          [
            130.8732245,
            32.8985282
          ],
          [
            130.8732223,
            32.8984994
          ],
          [
            130.8732262,
            32.8984637
          ],
          [
            130.8732497,
            32.8984124
          ],
          [
            130.8732834,
            32.8983799
          ],
          [
            130.8733308,
            32.8983494
          ],
          [
            130.8733884,
            32.8983343
          ],
          [
            130.8734385,
            32.8983265
          ],
          [
            130.8734773,
            32.8983285
          ],
          [
            130.873508,
            32.8983357
          ],
          [
            130.8735854,
            32.8983712
          ],
          [
            130.8739234,
            32.8985239
          ],
          [
            130.8739692,
            32.8985396
          ],
          [
            130.8740242,
            32.8985493
          ],
          [
            130.8740698,
            32.8985541
          ],
          [
            130.8741176,
            32.898552
          ],
          [
            130.8741934,
            32.8985411
          ],
          [
            130.8742551,
            32.89852
          ],
          [
            130.8743573,
            32.8984695
          ],
          [
            130.8744087,
            32.8984462
          ],
          [
            130.8744697,
            32.8984278
          ],
          [
            130.8745474,
            32.8984169
          ],
          [
            130.8746175,
            32.8984139
          ],
          [
            130.8746904,
            32.8984251
          ],
          [
            130.8748578,
            32.8984934
          ],
          [
            130.8750098,
            32.8985552
          ],
          [
            130.8751855,
            32.8986276
          ],
          [
            130.8752702,
            32.8986575
          ],
          [
            130.8753709,
            32.8986844
          ],
          [
            130.875469,
            32.8987106
          ],
          [
            130.8755759,
            32.8987249
          ],
          [
            130.8756613,
            32.8987326
          ],
          [
            130.8757529,
            32.898735
          ],
          [
            130.8764089,
            32.898705
          ],
          [
            130.8769712,
            32.8986809
          ],
          [
            130.877543,
            32.8986564
          ],
          [
            130.8780171,
            32.8986302
          ],
          [
            130.8783988,
            32.8986137
          ],
          [
            130.8784725,
            32.8986036
          ],
          [
            130.878539,
            32.8985832
          ],
          [
            130.8785845,
            32.8985643
          ],
          [
            130.8786193,
            32.898538
          ],
          [
            130.8786481,
            32.8985123
          ],
          [
            130.8786697,
            32.8984867
          ],
          [
            130.8787002,
            32.8984219
          ],
          [
            130.8787237,
            32.8983586
          ],
          [
            130.8787472,
            32.898296
          ],
          [
            130.8787618,
            32.8982416
          ],
          [
            130.8787659,
            32.8982095
          ],
          [
            130.8787665,
            32.8981811
          ],
          [
            130.8787571,
            32.8981317
          ],
          [
            130.8787448,
            32.8980942
          ],
          [
            130.878729,
            32.8980561
          ],
          [
            130.8786919,
            32.8980088
          ],
          [
            130.8786467,
            32.8979615
          ],
          [
            130.878588,
            32.8979194
          ],
          [
            130.878519,
            32.897888
          ],
          [
            130.8749366,
            32.8974485
          ],
          [
            130.8748892,
            32.8974482
          ],
          [
            130.8748418,
            32.897453
          ],
          [
            130.874789,
            32.897462
          ],
          [
            130.8747434,
            32.8974798
          ],
          [
            130.8746787,
            32.8975191
          ],
          [
            130.8746194,
            32.8975617
          ],
          [
            130.8745733,
            32.8975927
          ],
          [
            130.8745303,
            32.8976056
          ],
          [
            130.8744836,
            32.8976157
          ],
          [
            130.87444,
            32.8976193
          ],
          [
            130.8743892,
            32.8976143
          ],
          [
            130.8743491,
            32.897606
          ],
          [
            130.8743069,
            32.8975894
          ],
          [
            130.8742678,
            32.8975708
          ],
          [
            130.8742284,
            32.8975465
          ],
          [
            130.8741921,
            32.8975202
          ],
          [
            130.8741623,
            32.8974868
          ],
          [
            130.8741402,
            32.8974528
          ],
          [
            130.8741251,
            32.8974154
          ],
          [
            130.8741177,
            32.8973663
          ],
          [
            130.8741164,
            32.8968056
          ],
          [
            130.8741197,
            32.8967538
          ],
          [
            130.8741284,
            32.8967139
          ],
          [
            130.8741501,
            32.8966742
          ],
          [
            130.8741826,
            32.8966384
          ],
          [
            130.8742255,
            32.896612
          ],
          [
            130.8742828,
            32.8965945
          ],
          [
            130.8743306,
            32.8965916
          ],
          [
            130.8743851,
            32.896599
          ],
          [
            130.8744396,
            32.8966222
          ],
          [
            130.8744915,
            32.8966629
          ],
          [
            130.8745463,
            32.8967243
          ],
          [
            130.8745996,
            32.8967767
          ],
          [
            130.8746376,
            32.8968145
          ],
          [
            130.8746849,
            32.8968497
          ],
          [
            130.8747321,
            32.896883
          ],
          [
            130.8747825,
            32.8969137
          ],
          [
            130.8748707,
            32.8969594
          ],
          [
            130.874996,
            32.8970103
          ],
          [
            130.8750919,
            32.8970399
          ],
          [
            130.8751894,
            32.8970668
          ],
          [
            130.8753034,
            32.8970926
          ],
          [
            130.8754251,
            32.8971106
          ],
          [
            130.8756032,
            32.8971254
          ],
          [
            130.8756766,
            32.8971273
          ],
          [
            130.875796,
            32.8971292
          ],
          [
            130.8759532,
            32.8971191
          ],
          [
            130.8761266,
            32.8970936
          ],
          [
            130.8763382,
            32.8970532
          ],
          [
            130.8765295,
            32.8970009
          ],
          [
            130.8767124,
            32.8969537
          ],
          [
            130.8767692,
            32.8969564
          ],
          [
            130.8768131,
            32.8969729
          ],
          [
            130.8768438,
            32.896994
          ],
          [
            130.8768757,
            32.8970442
          ],
          [
            130.876903,
            32.8970992
          ],
          [
            130.8769269,
            32.8971256
          ],
          [
            130.8769507,
            32.897139
          ],
          [
            130.8769746,
            32.8971475
          ],
          [
            130.8769999,
            32.8971558
          ],
          [
            130.8770275,
            32.8971592
          ],
          [
            130.8770688,
            32.8971563
          ],
          [
            130.877113,
            32.8971416
          ],
          [
            130.8771433,
            32.8971236
          ],
          [
            130.8771625,
            32.8971037
          ],
          [
            130.8771942,
            32.89705
          ],
          [
            130.8772199,
            32.8970089
          ],
          [
            130.8772424,
            32.8969771
          ],
          [
            130.8772618,
            32.8969556
          ],
          [
            130.8772812,
            32.8969405
          ],
          [
            130.8773052,
            32.8969306
          ],
          [
            130.8773331,
            32.8969207
          ],
          [
            130.877361,
            32.896916
          ]
        ]
      }
    }
  ]
}
