{
  "type": "FeatureCollection",
  "bbox": [
    -0.6970858,
    53.4537721,
    -0.6884211,
    53.4613127
  ],
  "metadata": {
    "schemaVersion": 1,
    "trackId": "gb-blyton-park-driving-centre-129241665",
    "layoutId": "main",
    "license": "ODbL-1.0",
    "attribution": "© OpenStreetMap contributors",
    "closed": true,
    "geometryStatus": "draft",
    "timingStatus": "missing",
    "timingMode": "shared",
    "lengthM": 2383.8,
    "reviewedAt": null,
    "notes": [
      "Connected OSM course candidate. The selected loop is the longest simple source-node cycle after explicit exclusions; its association with a named circuit configuration requires review.",
      "Source way order and shared node IDs are retained. No nearby endpoints are joined and no Racelogic boundaries are read.",
      "Some source ways lack one-way direction tags. Travel direction is provisional."
    ]
  },
  "features": [
    {
      "type": "Feature",
      "id": "trace",
      "properties": {
        "role": "trace",
        "sourceIds": [
          "osm-snapshot"
        ]
      },
      "geometry": {
        "type": "LineString",
        "coordinates": [
          [
            -0.6886975,
            53.4613127
          ],
          [
            -0.6885668,
            53.4612257
          ],
          [
            -0.6884885,
            53.4611258
          ],
          [
            -0.6884415,
            53.4610539
          ],
          [
            -0.6884211,
            53.4609654
          ],
          [
            -0.6884321,
            53.4608383
          ],
          [
            -0.6885079,
            53.4605467
          ],
          [
            -0.6889759,
            53.4588595
          ],
          [
            -0.6890141,
            53.4587947
          ],
          [
            -0.6890856,
            53.4587408
          ],
          [
            -0.6891721,
            53.458711
          ],
          [
            -0.6893042,
            53.4586984
          ],
          [
            -0.6898354,
            53.4587183
          ],
          [
            -0.6905702,
            53.4587506
          ],
          [
            -0.6906721,
            53.4587354
          ],
          [
            -0.6907498,
            53.4587018
          ],
          [
            -0.6907954,
            53.4586635
          ],
          [
            -0.6914878,
            53.4576733
          ],
          [
            -0.6921942,
            53.45666
          ],
          [
            -0.6923189,
            53.4565339
          ],
          [
            -0.6925,
            53.4564039
          ],
          [
            -0.6926803,
            53.4562938
          ],
          [
            -0.6929082,
            53.4561901
          ],
          [
            -0.6931045,
            53.4560698
          ],
          [
            -0.693213,
            53.4559708
          ],
          [
            -0.6934799,
            53.4555806
          ],
          [
            -0.6936776,
            53.4552936
          ],
          [
            -0.693785,
            53.4550872
          ],
          [
            -0.6938613,
            53.4548229
          ],
          [
            -0.6939029,
            53.4545174
          ],
          [
            -0.6939445,
            53.4542965
          ],
          [
            -0.6939688,
            53.4541499
          ],
          [
            -0.6940798,
            53.4540425
          ],
          [
            -0.69426,
            53.4539352
          ],
          [
            -0.6944805,
            53.4538483
          ],
          [
            -0.6947766,
            53.4537762
          ],
          [
            -0.6949916,
            53.4537721
          ],
          [
            -0.6952447,
            53.4538195
          ],
          [
            -0.6956504,
            53.4540425
          ],
          [
            -0.6960387,
            53.454249
          ],
          [
            -0.6963611,
            53.4544678
          ],
          [
            -0.6965241,
            53.4545876
          ],
          [
            -0.6967252,
            53.4547259
          ],
          [
            -0.6970303,
            53.4549963
          ],
          [
            -0.6970858,
            53.4551016
          ],
          [
            -0.6970823,
            53.455211
          ],
          [
            -0.697006,
            53.4553267
          ],
          [
            -0.6968153,
            53.4555703
          ],
          [
            -0.6964894,
            53.4559439
          ],
          [
            -0.6959901,
            53.4565509
          ],
          [
            -0.6955741,
            53.4570463
          ],
          [
            -0.6950887,
            53.4576389
          ],
          [
            -0.6950196,
            53.4577065
          ],
          [
            -0.6949368,
            53.4577707
          ],
          [
            -0.6948497,
            53.4578257
          ],
          [
            -0.6944508,
            53.4580633
          ],
          [
            -0.6944047,
            53.4581206
          ],
          [
            -0.6944007,
            53.4581754
          ],
          [
            -0.6944617,
            53.4582599
          ],
          [
            -0.6944789,
            53.4583199
          ],
          [
            -0.6944626,
            53.458374
          ],
          [
            -0.6942486,
            53.4586353
          ],
          [
            -0.6942791,
            53.4584525
          ],
          [
            -0.6942448,
            53.4583026
          ],
          [
            -0.6941423,
            53.4581355
          ],
          [
            -0.6939895,
            53.4580021
          ],
          [
            -0.6937679,
            53.4578914
          ],
          [
            -0.6935206,
            53.4578267
          ],
          [
            -0.6931778,
            53.4578019
          ],
          [
            -0.6928468,
            53.4578312
          ],
          [
            -0.6925684,
            53.4578953
          ],
          [
            -0.6922484,
            53.4580047
          ],
          [
            -0.6918313,
            53.4581916
          ],
          [
            -0.6915626,
            53.4583696
          ],
          [
            -0.6914172,
            53.4586027
          ],
          [
            -0.691345,
            53.4586769
          ],
          [
            -0.6911755,
            53.4589468
          ],
          [
            -0.6909987,
            53.459111
          ],
          [
            -0.6904811,
            53.4593354
          ],
          [
            -0.6903577,
            53.4594024
          ],
          [
            -0.6902343,
            53.4595126
          ],
          [
            -0.6897194,
            53.4601351
          ],
          [
            -0.6896882,
            53.4601948
          ],
          [
            -0.6896818,
            53.4602772
          ],
          [
            -0.6897662,
            53.4603571
          ],
          [
            -0.6898776,
            53.4604238
          ],
          [
            -0.6899378,
            53.4605279
          ],
          [
            -0.6899244,
            53.4606413
          ],
          [
            -0.6896884,
            53.4610023
          ],
          [
            -0.6895879,
            53.4610882
          ],
          [
            -0.6893665,
            53.4611412
          ],
          [
            -0.6890406,
            53.4612322
          ],
          [
            -0.6886975,
            53.4613127
          ]
        ]
      }
    }
  ]
}
