{
  "type": "FeatureCollection",
  "bbox": [
    -115.1731517,
    36.1079473,
    -115.1601122,
    36.1255587
  ],
  "metadata": {
    "schemaVersion": 1,
    "trackId": "us-las-vegas-ea6b36a5",
    "layoutId": "las-vegas-gp",
    "license": "ODbL-1.0",
    "attribution": "© OpenStreetMap contributors",
    "closed": true,
    "geometryStatus": "draft",
    "timingStatus": "missing",
    "timingMode": "shared",
    "lengthM": 6210,
    "reviewedAt": null,
    "notes": [
      "Draft configuration: Main named circuit relation follows the Strip, Sands and Harmon course. Alternative relation members and pit lanes are excluded; ordinary-road direction tags do not define race-day direction. Branch identity was checked against catalogue layout facts and circuit identification references. Independent source distance 6210.0 m; no coordinates are changed to match a diagram or distance. Travel direction and historical alignment remain provisional."
    ]
  },
  "features": [
    {
      "type": "Feature",
      "id": "trace",
      "properties": {
        "role": "trace",
        "sourceIds": [
          "osm-selection-16696508"
        ]
      },
      "geometry": {
        "type": "LineString",
        "coordinates": [
          [
            -115.1691519,
            36.1255324
          ],
          [
            -115.1692652,
            36.1255456
          ],
          [
            -115.1693784,
            36.1255587
          ],
          [
            -115.1694739,
            36.1254108
          ],
          [
            -115.1696134,
            36.1251778
          ],
          [
            -115.1696691,
            36.1250904
          ],
          [
            -115.1701752,
            36.124296
          ],
          [
            -115.170427,
            36.123913
          ],
          [
            -115.1706376,
            36.123593
          ],
          [
            -115.170758,
            36.12341
          ],
          [
            -115.170827,
            36.1233035
          ],
          [
            -115.1709547,
            36.123125
          ],
          [
            -115.1712722,
            36.1226804
          ],
          [
            -115.171321,
            36.1226113
          ],
          [
            -115.1714903,
            36.122373
          ],
          [
            -115.1715734,
            36.1222558
          ],
          [
            -115.1715999,
            36.1222157
          ],
          [
            -115.171638,
            36.1221555
          ],
          [
            -115.172014,
            36.1214556
          ],
          [
            -115.1722903,
            36.1207385
          ],
          [
            -115.1723277,
            36.1206341
          ],
          [
            -115.1724872,
            36.1201947
          ],
          [
            -115.172521,
            36.1201017
          ],
          [
            -115.1725947,
            36.119876
          ],
          [
            -115.172601,
            36.1198499
          ],
          [
            -115.1726338,
            36.1197458
          ],
          [
            -115.1726712,
            36.119614
          ],
          [
            -115.1726996,
            36.1194996
          ],
          [
            -115.1727632,
            36.1192581
          ],
          [
            -115.1728294,
            36.1189207
          ],
          [
            -115.1729085,
            36.1183621
          ],
          [
            -115.1729379,
            36.1181543
          ],
          [
            -115.172944,
            36.1180652
          ],
          [
            -115.172981,
            36.117511
          ],
          [
            -115.1729839,
            36.1174745
          ],
          [
            -115.1729847,
            36.117413
          ],
          [
            -115.1729892,
            36.1173174
          ],
          [
            -115.17299,
            36.1172671
          ],
          [
            -115.1729874,
            36.1169699
          ],
          [
            -115.1729916,
            36.115944
          ],
          [
            -115.1729841,
            36.1149132
          ],
          [
            -115.1729831,
            36.11477
          ],
          [
            -115.1729939,
            36.1145996
          ],
          [
            -115.1730301,
            36.114029
          ],
          [
            -115.1730485,
            36.1130171
          ],
          [
            -115.1730662,
            36.1125952
          ],
          [
            -115.1730844,
            36.1121837
          ],
          [
            -115.1730951,
            36.1119352
          ],
          [
            -115.1731008,
            36.1117604
          ],
          [
            -115.1731117,
            36.1115157
          ],
          [
            -115.1731204,
            36.1112997
          ],
          [
            -115.173124,
            36.111214
          ],
          [
            -115.1731307,
            36.1110604
          ],
          [
            -115.173134,
            36.1109576
          ],
          [
            -115.1731358,
            36.1108004
          ],
          [
            -115.1731398,
            36.1104429
          ],
          [
            -115.1731403,
            36.110362
          ],
          [
            -115.1731416,
            36.1103222
          ],
          [
            -115.1731452,
            36.1098834
          ],
          [
            -115.1731439,
            36.1094381
          ],
          [
            -115.1731416,
            36.1091467
          ],
          [
            -115.1731444,
            36.1090018
          ],
          [
            -115.1731517,
            36.1088112
          ],
          [
            -115.1729806,
            36.108676
          ],
          [
            -115.1728055,
            36.1085274
          ],
          [
            -115.1725615,
            36.1083292
          ],
          [
            -115.1723422,
            36.1081655
          ],
          [
            -115.1722746,
            36.1081206
          ],
          [
            -115.1721925,
            36.1080654
          ],
          [
            -115.1721079,
            36.1080252
          ],
          [
            -115.1720264,
            36.1080024
          ],
          [
            -115.1719151,
            36.1079856
          ],
          [
            -115.1717973,
            36.1079798
          ],
          [
            -115.1712832,
            36.1079671
          ],
          [
            -115.1709059,
            36.1079698
          ],
          [
            -115.1701953,
            36.1079651
          ],
          [
            -115.1701034,
            36.1079629
          ],
          [
            -115.1699644,
            36.1079617
          ],
          [
            -115.169857,
            36.1079609
          ],
          [
            -115.1687066,
            36.1079497
          ],
          [
            -115.1686009,
            36.1079508
          ],
          [
            -115.1684604,
            36.1079522
          ],
          [
            -115.1678538,
            36.1079535
          ],
          [
            -115.1677684,
            36.1079537
          ],
          [
            -115.1677215,
            36.1079538
          ],
          [
            -115.1675992,
            36.107954
          ],
          [
            -115.166236,
            36.1079523
          ],
          [
            -115.165763,
            36.1079537
          ],
          [
            -115.1652369,
            36.1079473
          ],
          [
            -115.1647319,
            36.1079514
          ],
          [
            -115.1641459,
            36.107952
          ],
          [
            -115.1641079,
            36.107952
          ],
          [
            -115.1640271,
            36.1079521
          ],
          [
            -115.1639015,
            36.1079696
          ],
          [
            -115.1636513,
            36.1080479
          ],
          [
            -115.1635088,
            36.1080898
          ],
          [
            -115.1633356,
            36.1081544
          ],
          [
            -115.163145,
            36.1082226
          ],
          [
            -115.1629815,
            36.1083062
          ],
          [
            -115.1628372,
            36.1084118
          ],
          [
            -115.1626928,
            36.1085439
          ],
          [
            -115.1625601,
            36.1086649
          ],
          [
            -115.1618816,
            36.1092838
          ],
          [
            -115.1604566,
            36.1105837
          ],
          [
            -115.160364,
            36.1107004
          ],
          [
            -115.1603395,
            36.110795
          ],
          [
            -115.1603463,
            36.1108742
          ],
          [
            -115.1604157,
            36.1109842
          ],
          [
            -115.1605274,
            36.1110678
          ],
          [
            -115.1606445,
            36.1111163
          ],
          [
            -115.1607862,
            36.1111515
          ],
          [
            -115.1609986,
            36.1111757
          ],
          [
            -115.1612056,
            36.1111669
          ],
          [
            -115.1613881,
            36.1111251
          ],
          [
            -115.1615733,
            36.111048
          ],
          [
            -115.1618403,
            36.1109028
          ],
          [
            -115.1622526,
            36.1105837
          ],
          [
            -115.1623878,
            36.1105089
          ],
          [
            -115.1625512,
            36.1104649
          ],
          [
            -115.1627527,
            36.1104407
          ],
          [
            -115.1629216,
            36.1104429
          ],
          [
            -115.1631041,
            36.1104891
          ],
          [
            -115.1632648,
            36.1105397
          ],
          [
            -115.163431,
            36.1106145
          ],
          [
            -115.1636107,
            36.11074
          ],
          [
            -115.1637578,
            36.1108918
          ],
          [
            -115.1639284,
            36.1111544
          ],
          [
            -115.1639338,
            36.1115256
          ],
          [
            -115.1639411,
            36.1117715
          ],
          [
            -115.1639408,
            36.1126502
          ],
          [
            -115.163947,
            36.1127628
          ],
          [
            -115.1639551,
            36.1133774
          ],
          [
            -115.1639578,
            36.1135874
          ],
          [
            -115.1639591,
            36.1136851
          ],
          [
            -115.1639614,
            36.1138594
          ],
          [
            -115.1639626,
            36.1139494
          ],
          [
            -115.1639658,
            36.1141937
          ],
          [
            -115.1639685,
            36.1143116
          ],
          [
            -115.1639691,
            36.1143382
          ],
          [
            -115.1639683,
            36.1144397
          ],
          [
            -115.16397,
            36.1145884
          ],
          [
            -115.1639713,
            36.1146818
          ],
          [
            -115.1639637,
            36.1153643
          ],
          [
            -115.1639633,
            36.1155905
          ],
          [
            -115.1639635,
            36.1157291
          ],
          [
            -115.1639649,
            36.115895
          ],
          [
            -115.16397,
            36.1162599
          ],
          [
            -115.1639758,
            36.1168073
          ],
          [
            -115.1639758,
            36.1168687
          ],
          [
            -115.1639797,
            36.1171757
          ],
          [
            -115.16398,
            36.1172027
          ],
          [
            -115.1639816,
            36.117303
          ],
          [
            -115.163989,
            36.1180848
          ],
          [
            -115.163988,
            36.1182312
          ],
          [
            -115.1639955,
            36.1190399
          ],
          [
            -115.1639952,
            36.1192075
          ],
          [
            -115.1639282,
            36.1192073
          ],
          [
            -115.1630677,
            36.1192049
          ],
          [
            -115.1629772,
            36.1192046
          ],
          [
            -115.1619476,
            36.1191844
          ],
          [
            -115.1611853,
            36.1191725
          ],
          [
            -115.1610652,
            36.1192393
          ],
          [
            -115.1609534,
            36.1193016
          ],
          [
            -115.1609218,
            36.1193192
          ],
          [
            -115.1605614,
            36.1196028
          ],
          [
            -115.1604001,
            36.1197837
          ],
          [
            -115.1603002,
            36.1199581
          ],
          [
            -115.1602819,
            36.1199921
          ],
          [
            -115.1601987,
            36.1201468
          ],
          [
            -115.1601417,
            36.1203662
          ],
          [
            -115.1601122,
            36.1206152
          ],
          [
            -115.1601131,
            36.1207408
          ],
          [
            -115.1602507,
            36.1207656
          ],
          [
            -115.1603927,
            36.1207924
          ],
          [
            -115.1604773,
            36.1208123
          ],
          [
            -115.1605177,
            36.1208295
          ],
          [
            -115.1605654,
            36.1208579
          ],
          [
            -115.1606121,
            36.1208892
          ],
          [
            -115.160671,
            36.1209393
          ],
          [
            -115.1607007,
            36.1209824
          ],
          [
            -115.1607216,
            36.1210281
          ],
          [
            -115.1607394,
            36.121078
          ],
          [
            -115.1607443,
            36.121124
          ],
          [
            -115.1607461,
            36.1211994
          ],
          [
            -115.160735,
            36.1212621
          ],
          [
            -115.1607151,
            36.1213259
          ],
          [
            -115.1606927,
            36.1213767
          ],
          [
            -115.1606187,
            36.1215084
          ],
          [
            -115.1604448,
            36.121783
          ],
          [
            -115.1604279,
            36.1218206
          ],
          [
            -115.1604184,
            36.1218616
          ],
          [
            -115.1604095,
            36.1221363
          ],
          [
            -115.1604071,
            36.1221723
          ],
          [
            -115.1604062,
            36.1222364
          ],
          [
            -115.1607641,
            36.1222416
          ],
          [
            -115.1616209,
            36.1222552
          ],
          [
            -115.1621823,
            36.1222704
          ],
          [
            -115.1627863,
            36.1222864
          ],
          [
            -115.1630379,
            36.122292
          ],
          [
            -115.1636656,
            36.122291
          ],
          [
            -115.1636873,
            36.1222909
          ],
          [
            -115.1639532,
            36.1222901
          ],
          [
            -115.1640396,
            36.1222899
          ],
          [
            -115.1641615,
            36.122469
          ],
          [
            -115.1642735,
            36.1224736
          ],
          [
            -115.1647887,
            36.1224945
          ],
          [
            -115.1652328,
            36.1225776
          ],
          [
            -115.1654862,
            36.1226808
          ],
          [
            -115.1657711,
            36.1228819
          ],
          [
            -115.1659988,
            36.1230733
          ],
          [
            -115.166099,
            36.1231973
          ],
          [
            -115.166263,
            36.1234745
          ],
          [
            -115.1665776,
            36.1241561
          ],
          [
            -115.1665792,
            36.1241594
          ],
          [
            -115.1666627,
            36.124339
          ],
          [
            -115.1667193,
            36.1244624
          ],
          [
            -115.1668003,
            36.1245943
          ],
          [
            -115.1668161,
            36.1246163
          ],
          [
            -115.1668882,
            36.124717
          ],
          [
            -115.166993,
            36.1248066
          ],
          [
            -115.1671943,
            36.124955
          ],
          [
            -115.1674034,
            36.1251091
          ],
          [
            -115.1676067,
            36.125224
          ],
          [
            -115.1678766,
            36.1253047
          ],
          [
            -115.1679779,
            36.1253346
          ],
          [
            -115.1683482,
            36.1254094
          ],
          [
            -115.168732,
            36.1254672
          ],
          [
            -115.1690052,
            36.1255088
          ],
          [
            -115.1691519,
            36.1255324
          ]
        ]
      }
    }
  ]
}
