{
  "type": "FeatureCollection",
  "bbox": [
    169.1680502,
    -45.0629821,
    169.1710184,
    -45.0572354
  ],
  "metadata": {
    "schemaVersion": 1,
    "trackId": "nz-highlands-motorsports-park-c-b1a21bf0",
    "layoutId": "highlands-motorsports-park-c",
    "license": "ODbL-1.0",
    "attribution": "© OpenStreetMap contributors",
    "closed": true,
    "geometryStatus": "draft",
    "timingStatus": "missing",
    "timingMode": "shared",
    "lengthM": 1495.4,
    "reviewedAt": null,
    "notes": [
      "Draft route hypothesis: the source cycle is the unique closest nominal-distance match within conservative timing and distance checks. Approximate OSM trace length 1495.4 m. Difference from the supplied layout distance 8.4 m. Course configuration still requires visual review."
    ]
  },
  "features": [
    {
      "type": "Feature",
      "id": "trace",
      "properties": {
        "role": "trace",
        "sourceIds": [
          "osm-network-234778728"
        ]
      },
      "geometry": {
        "type": "LineString",
        "coordinates": [
          [
            169.1698738,
            -45.0573435
          ],
          [
            169.1699718,
            -45.0574788
          ],
          [
            169.1700295,
            -45.057574
          ],
          [
            169.1704555,
            -45.0583859
          ],
          [
            169.1704991,
            -45.0584535
          ],
          [
            169.1705893,
            -45.0585142
          ],
          [
            169.1707585,
            -45.0585834
          ],
          [
            169.1709092,
            -45.0586313
          ],
          [
            169.1709939,
            -45.0586906
          ],
          [
            169.1710184,
            -45.0587474
          ],
          [
            169.1709939,
            -45.0588128
          ],
          [
            169.1708371,
            -45.0591496
          ],
          [
            169.1698846,
            -45.0611958
          ],
          [
            169.1691038,
            -45.0628731
          ],
          [
            169.1690796,
            -45.0629189
          ],
          [
            169.1690173,
            -45.0629647
          ],
          [
            169.168987,
            -45.0629811
          ],
          [
            169.1688968,
            -45.0629821
          ],
          [
            169.1688081,
            -45.0629618
          ],
          [
            169.1686921,
            -45.0629031
          ],
          [
            169.1685785,
            -45.0627697
          ],
          [
            169.1683303,
            -45.0623563
          ],
          [
            169.1681284,
            -45.0617635
          ],
          [
            169.1680721,
            -45.0615728
          ],
          [
            169.1680502,
            -45.0614716
          ],
          [
            169.1680555,
            -45.0613452
          ],
          [
            169.1681009,
            -45.0612213
          ],
          [
            169.1681804,
            -45.0609944
          ],
          [
            169.168318,
            -45.0607547
          ],
          [
            169.1684893,
            -45.0605559
          ],
          [
            169.169783,
            -45.0594217
          ],
          [
            169.1699175,
            -45.059277
          ],
          [
            169.1700135,
            -45.059111
          ],
          [
            169.1700454,
            -45.0589257
          ],
          [
            169.1700178,
            -45.0587909
          ],
          [
            169.1696533,
            -45.0579933
          ],
          [
            169.1695866,
            -45.0579271
          ],
          [
            169.1694661,
            -45.0578643
          ],
          [
            169.1691014,
            -45.0577706
          ],
          [
            169.1690179,
            -45.0577244
          ],
          [
            169.1689498,
            -45.0576346
          ],
          [
            169.1689389,
            -45.0575335
          ],
          [
            169.1689495,
            -45.0574688
          ],
          [
            169.168997,
            -45.0573736
          ],
          [
            169.1690916,
            -45.0572916
          ],
          [
            169.1691988,
            -45.0572505
          ],
          [
            169.169263,
            -45.0572354
          ],
          [
            169.1694251,
            -45.0572397
          ],
          [
            169.1698738,
            -45.0573435
          ]
        ]
      }
    }
  ]
}
