{
  "type": "FeatureCollection",
  "bbox": [
    6.9363467,
    50.32921,
    6.9499883,
    50.337717
  ],
  "metadata": {
    "schemaVersion": 1,
    "trackId": "de-nurburgring",
    "layoutId": "sprintstrecke",
    "license": "ODbL-1.0",
    "attribution": "© OpenStreetMap contributors",
    "closed": true,
    "geometryStatus": "draft",
    "timingStatus": "missing",
    "timingMode": "shared",
    "lengthM": 3611.9,
    "reviewedAt": null,
    "notes": [
      "Draft route follows connected, pinned OSM raceway nodes. Racelogic supplies the expected layout name and private timing reference only."
    ]
  },
  "features": [
    {
      "type": "Feature",
      "id": "trace",
      "properties": {
        "role": "trace",
        "sourceIds": [
          "osm-snapshot"
        ]
      },
      "geometry": {
        "type": "LineString",
        "coordinates": [
          [
            6.9409641,
            50.3318422
          ],
          [
            6.9409558,
            50.3318798
          ],
          [
            6.9409587,
            50.3319165
          ],
          [
            6.9410334,
            50.3321213
          ],
          [
            6.941089,
            50.3322309
          ],
          [
            6.941152,
            50.3323337
          ],
          [
            6.9412204,
            50.3324331
          ],
          [
            6.9414114,
            50.3326511
          ],
          [
            6.94152,
            50.3327658
          ],
          [
            6.9415856,
            50.332851
          ],
          [
            6.9416326,
            50.3329165
          ],
          [
            6.9416549,
            50.3329605
          ],
          [
            6.9416674,
            50.3330083
          ],
          [
            6.9416715,
            50.3330898
          ],
          [
            6.9416648,
            50.3331594
          ],
          [
            6.9416324,
            50.3332462
          ],
          [
            6.9415913,
            50.3333205
          ],
          [
            6.941533,
            50.3333862
          ],
          [
            6.9414688,
            50.3334436
          ],
          [
            6.941373,
            50.3335027
          ],
          [
            6.9412786,
            50.3335467
          ],
          [
            6.9411674,
            50.3335858
          ],
          [
            6.9410678,
            50.3336042
          ],
          [
            6.9409505,
            50.3336181
          ],
          [
            6.9408202,
            50.3336233
          ],
          [
            6.9406617,
            50.3336179
          ],
          [
            6.9402453,
            50.333582
          ],
          [
            6.9398384,
            50.3335351
          ],
          [
            6.9395291,
            50.3334846
          ],
          [
            6.9393042,
            50.3334393
          ],
          [
            6.939132,
            50.3333991
          ],
          [
            6.9389901,
            50.3333577
          ],
          [
            6.9388895,
            50.3333195
          ],
          [
            6.9388321,
            50.3332899
          ],
          [
            6.9387699,
            50.3332508
          ],
          [
            6.9387098,
            50.3332084
          ],
          [
            6.9386664,
            50.333168
          ],
          [
            6.9386342,
            50.3331276
          ],
          [
            6.9386119,
            50.3330917
          ],
          [
            6.9385992,
            50.3330643
          ],
          [
            6.9385891,
            50.3330329
          ],
          [
            6.9385856,
            50.3330131
          ],
          [
            6.9385869,
            50.3329935
          ],
          [
            6.9385932,
            50.3329741
          ],
          [
            6.9386066,
            50.3329446
          ],
          [
            6.9386292,
            50.3329038
          ],
          [
            6.9386559,
            50.3328628
          ],
          [
            6.9386779,
            50.33284
          ],
          [
            6.9387236,
            50.3328072
          ],
          [
            6.9387966,
            50.3327693
          ],
          [
            6.9388848,
            50.3327351
          ],
          [
            6.9389408,
            50.332718
          ],
          [
            6.9389864,
            50.3327079
          ],
          [
            6.9390302,
            50.332702
          ],
          [
            6.9390827,
            50.3327027
          ],
          [
            6.9394621,
            50.3327145
          ],
          [
            6.9395602,
            50.3327148
          ],
          [
            6.9396579,
            50.3327096
          ],
          [
            6.9397492,
            50.3327005
          ],
          [
            6.9398004,
            50.3326913
          ],
          [
            6.9398435,
            50.3326782
          ],
          [
            6.9398814,
            50.3326623
          ],
          [
            6.9399226,
            50.3326395
          ],
          [
            6.9399436,
            50.3326236
          ],
          [
            6.9399607,
            50.3326029
          ],
          [
            6.939977,
            50.3325743
          ],
          [
            6.939989,
            50.3325381
          ],
          [
            6.9400024,
            50.3324763
          ],
          [
            6.9400114,
            50.3324011
          ],
          [
            6.9400116,
            50.3323423
          ],
          [
            6.9399165,
            50.3318421
          ],
          [
            6.9398732,
            50.3316037
          ],
          [
            6.9397097,
            50.3310198
          ],
          [
            6.9396779,
            50.3308941
          ],
          [
            6.939583,
            50.3305641
          ],
          [
            6.9395699,
            50.3305247
          ],
          [
            6.9395275,
            50.3304134
          ],
          [
            6.9394003,
            50.330159
          ],
          [
            6.9393006,
            50.3299594
          ],
          [
            6.9391152,
            50.3295889
          ],
          [
            6.9390522,
            50.3294552
          ],
          [
            6.9390097,
            50.3293919
          ],
          [
            6.9389615,
            50.3293439
          ],
          [
            6.9389105,
            50.3293041
          ],
          [
            6.9388313,
            50.3292702
          ],
          [
            6.9387205,
            50.3292362
          ],
          [
            6.9385986,
            50.3292136
          ],
          [
            6.9385433,
            50.32921
          ],
          [
            6.9384846,
            50.3292108
          ],
          [
            6.9384458,
            50.3292137
          ],
          [
            6.9383732,
            50.3292244
          ],
          [
            6.9382656,
            50.3292473
          ],
          [
            6.9381875,
            50.3292742
          ],
          [
            6.9381342,
            50.3293004
          ],
          [
            6.9380883,
            50.3293348
          ],
          [
            6.9380537,
            50.3293641
          ],
          [
            6.9380301,
            50.3293991
          ],
          [
            6.9380029,
            50.3294455
          ],
          [
            6.9379876,
            50.3294995
          ],
          [
            6.9379782,
            50.329544
          ],
          [
            6.9380068,
            50.3296878
          ],
          [
            6.9381464,
            50.3299764
          ],
          [
            6.938241,
            50.3301899
          ],
          [
            6.938308,
            50.3303438
          ],
          [
            6.9383217,
            50.330375
          ],
          [
            6.9385106,
            50.3307543
          ],
          [
            6.9385824,
            50.3308986
          ],
          [
            6.9386844,
            50.3311087
          ],
          [
            6.9387536,
            50.3312513
          ],
          [
            6.9387735,
            50.3313107
          ],
          [
            6.9387825,
            50.3313429
          ],
          [
            6.9387859,
            50.331369
          ],
          [
            6.9387841,
            50.3313997
          ],
          [
            6.9387799,
            50.3314259
          ],
          [
            6.9387721,
            50.3314495
          ],
          [
            6.9387612,
            50.3314726
          ],
          [
            6.9387416,
            50.3315038
          ],
          [
            6.9387124,
            50.3315409
          ],
          [
            6.9386758,
            50.3315722
          ],
          [
            6.9386374,
            50.3316028
          ],
          [
            6.9385991,
            50.331629
          ],
          [
            6.9385543,
            50.3316501
          ],
          [
            6.9384986,
            50.3316719
          ],
          [
            6.9384517,
            50.3316874
          ],
          [
            6.9382325,
            50.3317488
          ],
          [
            6.9369239,
            50.3321151
          ],
          [
            6.9367643,
            50.3321598
          ],
          [
            6.9366948,
            50.3321859
          ],
          [
            6.9366272,
            50.3322174
          ],
          [
            6.9365781,
            50.3322456
          ],
          [
            6.9365355,
            50.3322732
          ],
          [
            6.9364973,
            50.3323039
          ],
          [
            6.9364604,
            50.3323464
          ],
          [
            6.9364262,
            50.3323901
          ],
          [
            6.9364046,
            50.3324252
          ],
          [
            6.9363822,
            50.3324795
          ],
          [
            6.9363604,
            50.3325424
          ],
          [
            6.9363511,
            50.3326149
          ],
          [
            6.9363467,
            50.3326903
          ],
          [
            6.9363507,
            50.332746
          ],
          [
            6.9363595,
            50.3327971
          ],
          [
            6.9363762,
            50.3328396
          ],
          [
            6.9364006,
            50.3328765
          ],
          [
            6.9364313,
            50.3329156
          ],
          [
            6.9364805,
            50.3329659
          ],
          [
            6.9365422,
            50.3330228
          ],
          [
            6.9365848,
            50.3330557
          ],
          [
            6.9367467,
            50.3331809
          ],
          [
            6.937173,
            50.3335104
          ],
          [
            6.9381464,
            50.3342522
          ],
          [
            6.9391078,
            50.3350031
          ],
          [
            6.9393393,
            50.335184
          ],
          [
            6.9394441,
            50.3352658
          ],
          [
            6.9395482,
            50.3353467
          ],
          [
            6.9396809,
            50.3354368
          ],
          [
            6.9398181,
            50.3355165
          ],
          [
            6.9398921,
            50.3355569
          ],
          [
            6.9399709,
            50.33559
          ],
          [
            6.9400713,
            50.3356274
          ],
          [
            6.940205,
            50.3356726
          ],
          [
            6.9403527,
            50.3357127
          ],
          [
            6.9404538,
            50.3357367
          ],
          [
            6.9405571,
            50.3357577
          ],
          [
            6.9406825,
            50.3357789
          ],
          [
            6.9409706,
            50.3358275
          ],
          [
            6.9433147,
            50.3362233
          ],
          [
            6.9437135,
            50.3362906
          ],
          [
            6.9458674,
            50.3366542
          ],
          [
            6.9459547,
            50.3366689
          ],
          [
            6.94603,
            50.3366838
          ],
          [
            6.9460607,
            50.3366937
          ],
          [
            6.9460765,
            50.3367029
          ],
          [
            6.9460854,
            50.3367121
          ],
          [
            6.9460915,
            50.3367265
          ],
          [
            6.9460922,
            50.3367391
          ],
          [
            6.946088,
            50.3367552
          ],
          [
            6.9460214,
            50.3369502
          ],
          [
            6.9460195,
            50.336966
          ],
          [
            6.9460226,
            50.3369817
          ],
          [
            6.9460285,
            50.3369962
          ],
          [
            6.9460362,
            50.3370102
          ],
          [
            6.9460498,
            50.3370296
          ],
          [
            6.9460685,
            50.3370502
          ],
          [
            6.9460912,
            50.3370693
          ],
          [
            6.9461375,
            50.3370966
          ],
          [
            6.9461761,
            50.3371165
          ],
          [
            6.9462151,
            50.337134
          ],
          [
            6.9462653,
            50.3371494
          ],
          [
            6.9467433,
            50.3372867
          ],
          [
            6.9471467,
            50.3373887
          ],
          [
            6.9471986,
            50.3373994
          ],
          [
            6.9473295,
            50.3374259
          ],
          [
            6.9477886,
            50.3375019
          ],
          [
            6.9482106,
            50.3375624
          ],
          [
            6.9490472,
            50.3376864
          ],
          [
            6.9491896,
            50.3377052
          ],
          [
            6.9492983,
            50.3377163
          ],
          [
            6.9493802,
            50.337717
          ],
          [
            6.9494464,
            50.3377083
          ],
          [
            6.9495276,
            50.3376932
          ],
          [
            6.9495995,
            50.3376726
          ],
          [
            6.9496711,
            50.337651
          ],
          [
            6.9497397,
            50.3376235
          ],
          [
            6.9498094,
            50.3375769
          ],
          [
            6.9498884,
            50.3375191
          ],
          [
            6.9499344,
            50.3374733
          ],
          [
            6.9499733,
            50.3374006
          ],
          [
            6.9499869,
            50.3373287
          ],
          [
            6.9499883,
            50.3372752
          ],
          [
            6.9499862,
            50.3372192
          ],
          [
            6.9499828,
            50.3371972
          ],
          [
            6.9499735,
            50.3371493
          ],
          [
            6.9499448,
            50.3370906
          ],
          [
            6.9499273,
            50.3370597
          ],
          [
            6.9498866,
            50.3370153
          ],
          [
            6.9498398,
            50.3369725
          ],
          [
            6.9498191,
            50.3369535
          ],
          [
            6.9497367,
            50.3368937
          ],
          [
            6.9494711,
            50.3367165
          ],
          [
            6.9477084,
            50.3355593
          ],
          [
            6.9472398,
            50.3352572
          ],
          [
            6.9452952,
            50.3339987
          ],
          [
            6.9448713,
            50.3337244
          ],
          [
            6.9436319,
            50.3329135
          ],
          [
            6.9434482,
            50.3327933
          ],
          [
            6.9431258,
            50.3325997
          ],
          [
            6.9427476,
            50.3323892
          ],
          [
            6.9422143,
            50.3321253
          ],
          [
            6.9417345,
            50.3319219
          ],
          [
            6.9413258,
            50.3317559
          ],
          [
            6.941237,
            50.3317278
          ],
          [
            6.941196,
            50.3317192
          ],
          [
            6.941162,
            50.331715
          ],
          [
            6.9411229,
            50.3317187
          ],
          [
            6.9410877,
            50.3317272
          ],
          [
            6.9410552,
            50.3317419
          ],
          [
            6.9410277,
            50.3317613
          ],
          [
            6.941,
            50.3317867
          ],
          [
            6.9409826,
            50.3318085
          ],
          [
            6.9409641,
            50.3318422
          ]
        ]
      }
    }
  ]
}
