{
  "type": "FeatureCollection",
  "bbox": [
    -104.6791959,
    38.5890779,
    -104.673662,
    38.5940958
  ],
  "metadata": {
    "schemaVersion": 1,
    "trackId": "us-pikes-peak-international-raceway-1134026181",
    "layoutId": "main",
    "license": "ODbL-1.0",
    "attribution": "© OpenStreetMap contributors",
    "closed": true,
    "geometryStatus": "draft",
    "timingStatus": "missing",
    "timingMode": "shared",
    "lengthM": 2429.3,
    "reviewedAt": null,
    "notes": [
      "Connected OSM course candidate. The selected loop is the longest simple source-node cycle after explicit exclusions; its association with a named circuit configuration requires review.",
      "Source way order and shared node IDs are retained. No nearby endpoints are joined and no reference boundaries are read.",
      "Some source ways lack one-way direction tags. Travel direction is provisional."
    ]
  },
  "features": [
    {
      "type": "Feature",
      "id": "trace",
      "properties": {
        "role": "trace",
        "sourceIds": [
          "osm-snapshot"
        ]
      },
      "geometry": {
        "type": "LineString",
        "coordinates": [
          [
            -104.6791754,
            38.5932377
          ],
          [
            -104.679191,
            38.593079
          ],
          [
            -104.6791959,
            38.5930287
          ],
          [
            -104.6791836,
            38.5928229
          ],
          [
            -104.6791527,
            38.5926187
          ],
          [
            -104.6791054,
            38.5924225
          ],
          [
            -104.6790396,
            38.5922167
          ],
          [
            -104.6789655,
            38.5920221
          ],
          [
            -104.6788812,
            38.591826
          ],
          [
            -104.6787886,
            38.591625
          ],
          [
            -104.6786878,
            38.5914385
          ],
          [
            -104.6785726,
            38.5912487
          ],
          [
            -104.6783792,
            38.5909496
          ],
          [
            -104.678157,
            38.5906602
          ],
          [
            -104.6778752,
            38.5903338
          ],
          [
            -104.6775522,
            38.5900186
          ],
          [
            -104.6773753,
            38.589861
          ],
          [
            -104.6771963,
            38.5897131
          ],
          [
            -104.6769968,
            38.58957
          ],
          [
            -104.6768013,
            38.589443
          ],
          [
            -104.6765894,
            38.5893208
          ],
          [
            -104.6764397,
            38.5892556
          ],
          [
            -104.6763529,
            38.5892178
          ],
          [
            -104.6761204,
            38.5891455
          ],
          [
            -104.6758715,
            38.5890988
          ],
          [
            -104.6756164,
            38.5890779
          ],
          [
            -104.6753613,
            38.5890844
          ],
          [
            -104.6750939,
            38.5891198
          ],
          [
            -104.6748408,
            38.5891809
          ],
          [
            -104.6746125,
            38.5892741
          ],
          [
            -104.6743944,
            38.5893867
          ],
          [
            -104.6741969,
            38.5895234
          ],
          [
            -104.6740262,
            38.5896777
          ],
          [
            -104.6738904,
            38.5898498
          ],
          [
            -104.6737875,
            38.5900299
          ],
          [
            -104.6737093,
            38.5902212
          ],
          [
            -104.6736661,
            38.590427
          ],
          [
            -104.673662,
            38.5906296
          ],
          [
            -104.6736888,
            38.590829
          ],
          [
            -104.6737587,
            38.5910284
          ],
          [
            -104.6738451,
            38.5912182
          ],
          [
            -104.6739603,
            38.5914047
          ],
          [
            -104.6740961,
            38.5915944
          ],
          [
            -104.6744973,
            38.5921501
          ],
          [
            -104.6751724,
            38.5930842
          ],
          [
            -104.6766272,
            38.5940205
          ],
          [
            -104.6767194,
            38.5940668
          ],
          [
            -104.6767893,
            38.5940869
          ],
          [
            -104.6768973,
            38.5940958
          ],
          [
            -104.6769878,
            38.5940829
          ],
          [
            -104.6770835,
            38.5940371
          ],
          [
            -104.6771534,
            38.5939728
          ],
          [
            -104.6771935,
            38.5939109
          ],
          [
            -104.677209,
            38.5938417
          ],
          [
            -104.6772069,
            38.5937525
          ],
          [
            -104.6771822,
            38.5936801
          ],
          [
            -104.6771442,
            38.5935989
          ],
          [
            -104.6770958,
            38.5935218
          ],
          [
            -104.6770528,
            38.5934709
          ],
          [
            -104.6770197,
            38.5934317
          ],
          [
            -104.6769325,
            38.5933561
          ],
          [
            -104.6764687,
            38.5934186
          ],
          [
            -104.6764212,
            38.5934207
          ],
          [
            -104.6763601,
            38.5934122
          ],
          [
            -104.6762909,
            38.5933899
          ],
          [
            -104.6758457,
            38.5931173
          ],
          [
            -104.6757955,
            38.593077
          ],
          [
            -104.6757494,
            38.5930059
          ],
          [
            -104.6754793,
            38.5925848
          ],
          [
            -104.6754766,
            38.592554
          ],
          [
            -104.6754901,
            38.5925073
          ],
          [
            -104.6756231,
            38.5923652
          ],
          [
            -104.6754146,
            38.592208
          ],
          [
            -104.6753652,
            38.592147
          ],
          [
            -104.6753404,
            38.5920814
          ],
          [
            -104.6753274,
            38.5920159
          ],
          [
            -104.6753369,
            38.591929
          ],
          [
            -104.6753629,
            38.5918607
          ],
          [
            -104.6754113,
            38.5917822
          ],
          [
            -104.6754727,
            38.5917231
          ],
          [
            -104.6755342,
            38.5916852
          ],
          [
            -104.6756051,
            38.5916557
          ],
          [
            -104.6756878,
            38.5916317
          ],
          [
            -104.6757776,
            38.5916261
          ],
          [
            -104.6758745,
            38.5916317
          ],
          [
            -104.6759643,
            38.5916538
          ],
          [
            -104.676737,
            38.5920657
          ],
          [
            -104.6767973,
            38.5921054
          ],
          [
            -104.6768611,
            38.5921729
          ],
          [
            -104.6769024,
            38.5922366
          ],
          [
            -104.6769269,
            38.592299
          ],
          [
            -104.6769411,
            38.5923682
          ],
          [
            -104.6769659,
            38.5924504
          ],
          [
            -104.6770061,
            38.5925151
          ],
          [
            -104.6770628,
            38.5925705
          ],
          [
            -104.6771313,
            38.5926139
          ],
          [
            -104.6772211,
            38.5926434
          ],
          [
            -104.6773298,
            38.5926554
          ],
          [
            -104.6774444,
            38.5926471
          ],
          [
            -104.6775484,
            38.5926296
          ],
          [
            -104.6776465,
            38.5926333
          ],
          [
            -104.6777327,
            38.5926517
          ],
          [
            -104.6778225,
            38.5926878
          ],
          [
            -104.6778887,
            38.5927321
          ],
          [
            -104.6779407,
            38.5927792
          ],
          [
            -104.6779844,
            38.5928374
          ],
          [
            -104.6780092,
            38.5928983
          ],
          [
            -104.6780222,
            38.5929842
          ],
          [
            -104.6780059,
            38.5931695
          ],
          [
            -104.6777776,
            38.5931674
          ],
          [
            -104.6776717,
            38.5931547
          ],
          [
            -104.6776052,
            38.5931335
          ],
          [
            -104.6775523,
            38.5930974
          ],
          [
            -104.6774912,
            38.5930422
          ],
          [
            -104.6774179,
            38.5929977
          ],
          [
            -104.6773392,
            38.5929733
          ],
          [
            -104.6772727,
            38.592968
          ],
          [
            -104.6772076,
            38.5929881
          ],
          [
            -104.6771682,
            38.5930253
          ],
          [
            -104.6771519,
            38.5930688
          ],
          [
            -104.6771533,
            38.5931176
          ],
          [
            -104.6771818,
            38.5931632
          ],
          [
            -104.677251,
            38.5932215
          ],
          [
            -104.6773148,
            38.5932841
          ],
          [
            -104.6773351,
            38.593334
          ],
          [
            -104.6773297,
            38.5934305
          ],
          [
            -104.6773151,
            38.5935197
          ],
          [
            -104.6773587,
            38.5935223
          ],
          [
            -104.6774632,
            38.5935074
          ],
          [
            -104.6779928,
            38.5933193
          ],
          [
            -104.6779868,
            38.5933878
          ],
          [
            -104.6779974,
            38.5934478
          ],
          [
            -104.6780293,
            38.5935189
          ],
          [
            -104.6780836,
            38.5935817
          ],
          [
            -104.6781675,
            38.593639
          ],
          [
            -104.6782632,
            38.5936778
          ],
          [
            -104.6783743,
            38.5936907
          ],
          [
            -104.6784984,
            38.5936778
          ],
          [
            -104.6786484,
            38.5936325
          ],
          [
            -104.6787988,
            38.5935468
          ],
          [
            -104.6789205,
            38.5934574
          ],
          [
            -104.6791754,
            38.5932377
          ]
        ]
      }
    }
  ]
}
