{
  "type": "FeatureCollection",
  "bbox": [
    -0.662261,
    53.0374727,
    -0.6599367,
    53.0400585
  ],
  "metadata": {
    "schemaVersion": 1,
    "trackId": "gb-pfi-80957d6a",
    "layoutId": "pfi",
    "license": "ODbL-1.0",
    "attribution": "© OpenStreetMap contributors",
    "closed": true,
    "geometryStatus": "draft",
    "timingStatus": "missing",
    "timingMode": "shared",
    "lengthM": 1039.1,
    "reviewedAt": null,
    "notes": [
      "Draft route hypothesis: the source cycle is the unique closest nominal-distance match within conservative timing and distance checks. Approximate OSM trace length 1039.1 m. Difference from the supplied layout distance 7.9 m. Course configuration still requires visual review."
    ]
  },
  "features": [
    {
      "type": "Feature",
      "id": "trace",
      "properties": {
        "role": "trace",
        "sourceIds": [
          "osm-network-240643724"
        ]
      },
      "geometry": {
        "type": "LineString",
        "coordinates": [
          [
            -0.662261,
            53.0377775
          ],
          [
            -0.6620654,
            53.0380794
          ],
          [
            -0.6619033,
            53.0383177
          ],
          [
            -0.6615803,
            53.0387927
          ],
          [
            -0.6615647,
            53.0388118
          ],
          [
            -0.6615415,
            53.0388308
          ],
          [
            -0.6615141,
            53.0388442
          ],
          [
            -0.6614825,
            53.0388526
          ],
          [
            -0.6614266,
            53.0388582
          ],
          [
            -0.6613785,
            53.0388523
          ],
          [
            -0.6613431,
            53.0388403
          ],
          [
            -0.661317,
            53.0388227
          ],
          [
            -0.6612988,
            53.0388055
          ],
          [
            -0.6612872,
            53.0387867
          ],
          [
            -0.6612801,
            53.0387649
          ],
          [
            -0.6612859,
            53.0387449
          ],
          [
            -0.6612958,
            53.0387273
          ],
          [
            -0.6618945,
            53.0378539
          ],
          [
            -0.6619099,
            53.0378178
          ],
          [
            -0.6619073,
            53.037779
          ],
          [
            -0.6618841,
            53.0377474
          ],
          [
            -0.6618306,
            53.0377208
          ],
          [
            -0.6617673,
            53.0377168
          ],
          [
            -0.66171,
            53.0377254
          ],
          [
            -0.6616662,
            53.0377444
          ],
          [
            -0.661626,
            53.0377827
          ],
          [
            -0.6609513,
            53.03876
          ],
          [
            -0.6609371,
            53.038787
          ],
          [
            -0.6609334,
            53.0388165
          ],
          [
            -0.6609351,
            53.0388411
          ],
          [
            -0.660946,
            53.0388659
          ],
          [
            -0.6609829,
            53.0389006
          ],
          [
            -0.6610136,
            53.0389221
          ],
          [
            -0.661055,
            53.0389373
          ],
          [
            -0.6611899,
            53.038973
          ],
          [
            -0.6612435,
            53.0389926
          ],
          [
            -0.661295,
            53.0390143
          ],
          [
            -0.6613264,
            53.0390368
          ],
          [
            -0.6613437,
            53.0390604
          ],
          [
            -0.6613504,
            53.0390885
          ],
          [
            -0.661344,
            53.0391201
          ],
          [
            -0.6613361,
            53.0391501
          ],
          [
            -0.6610504,
            53.0395692
          ],
          [
            -0.6607527,
            53.0400058
          ],
          [
            -0.6607265,
            53.0400246
          ],
          [
            -0.6606978,
            53.04004
          ],
          [
            -0.6606541,
            53.0400526
          ],
          [
            -0.6606107,
            53.0400585
          ],
          [
            -0.6605538,
            53.0400549
          ],
          [
            -0.6601272,
            53.0399508
          ],
          [
            -0.660044,
            53.0399185
          ],
          [
            -0.6599919,
            53.0398909
          ],
          [
            -0.6599493,
            53.0398386
          ],
          [
            -0.6599367,
            53.0397976
          ],
          [
            -0.6599373,
            53.0397594
          ],
          [
            -0.659967,
            53.0397152
          ],
          [
            -0.6600088,
            53.0396805
          ],
          [
            -0.6600566,
            53.0396535
          ],
          [
            -0.6601176,
            53.0396354
          ],
          [
            -0.6601887,
            53.0396338
          ],
          [
            -0.6603379,
            53.0396467
          ],
          [
            -0.6604557,
            53.0396505
          ],
          [
            -0.6605595,
            53.0396459
          ],
          [
            -0.6606582,
            53.0396235
          ],
          [
            -0.660744,
            53.0395904
          ],
          [
            -0.6608095,
            53.0395498
          ],
          [
            -0.6608273,
            53.0395227
          ],
          [
            -0.6608548,
            53.0394783
          ],
          [
            -0.6608641,
            53.0394269
          ],
          [
            -0.6608595,
            53.0393744
          ],
          [
            -0.6608293,
            53.0393205
          ],
          [
            -0.6607967,
            53.0392831
          ],
          [
            -0.6607502,
            53.039247
          ],
          [
            -0.660649,
            53.0392062
          ],
          [
            -0.6605133,
            53.039169
          ],
          [
            -0.6604666,
            53.0391502
          ],
          [
            -0.6604387,
            53.0391313
          ],
          [
            -0.6604212,
            53.0391096
          ],
          [
            -0.6604143,
            53.0390852
          ],
          [
            -0.6604213,
            53.0390656
          ],
          [
            -0.6605522,
            53.0388668
          ],
          [
            -0.6608159,
            53.0384913
          ],
          [
            -0.6610704,
            53.0381066
          ],
          [
            -0.6614005,
            53.0376358
          ],
          [
            -0.6614205,
            53.0376104
          ],
          [
            -0.6614569,
            53.0375858
          ],
          [
            -0.6615041,
            53.0375503
          ],
          [
            -0.6615679,
            53.0375214
          ],
          [
            -0.6616482,
            53.0374962
          ],
          [
            -0.6617358,
            53.0374818
          ],
          [
            -0.6618894,
            53.0374727
          ],
          [
            -0.6619972,
            53.0375019
          ],
          [
            -0.6621324,
            53.0375572
          ],
          [
            -0.6621916,
            53.0376028
          ],
          [
            -0.6622283,
            53.0376496
          ],
          [
            -0.6622531,
            53.0377073
          ],
          [
            -0.662261,
            53.0377775
          ]
        ]
      }
    }
  ]
}
