{
  "type": "FeatureCollection",
  "bbox": [
    22.6577575,
    60.9731616,
    22.6725348,
    60.9793088
  ],
  "metadata": {
    "schemaVersion": 1,
    "trackId": "fi-alastaro-circuit-350221251",
    "layoutId": "main",
    "license": "ODbL-1.0",
    "attribution": "© OpenStreetMap contributors",
    "closed": true,
    "geometryStatus": "draft",
    "timingStatus": "missing",
    "timingMode": "shared",
    "lengthM": 4327.1,
    "reviewedAt": null,
    "notes": [
      "Connected OSM course candidate. The selected loop is the longest simple source-node cycle after explicit exclusions; its association with a named circuit configuration requires review.",
      "Source way order and shared node IDs are retained. No nearby endpoints are joined and no reference boundaries are read.",
      "Some source ways lack one-way direction tags. Travel direction is provisional."
    ]
  },
  "features": [
    {
      "type": "Feature",
      "id": "trace",
      "properties": {
        "role": "trace",
        "sourceIds": [
          "osm-snapshot"
        ]
      },
      "geometry": {
        "type": "LineString",
        "coordinates": [
          [
            22.6584778,
            60.9749777
          ],
          [
            22.6577589,
            60.9786288
          ],
          [
            22.6577575,
            60.9787624
          ],
          [
            22.6578053,
            60.9788721
          ],
          [
            22.6580082,
            60.9790088
          ],
          [
            22.6582234,
            60.9790917
          ],
          [
            22.6585374,
            60.9791632
          ],
          [
            22.6590029,
            60.9792146
          ],
          [
            22.6602834,
            60.9793003
          ],
          [
            22.6606264,
            60.9793088
          ],
          [
            22.6608375,
            60.9792864
          ],
          [
            22.6609394,
            60.9792581
          ],
          [
            22.6610413,
            60.9792192
          ],
          [
            22.6611148,
            60.9791808
          ],
          [
            22.661161,
            60.9791318
          ],
          [
            22.6611664,
            60.9790759
          ],
          [
            22.66115,
            60.97902
          ],
          [
            22.6604205,
            60.9780337
          ],
          [
            22.6604002,
            60.9779318
          ],
          [
            22.6604291,
            60.9778717
          ],
          [
            22.6605162,
            60.9777954
          ],
          [
            22.6606773,
            60.977743
          ],
          [
            22.6609084,
            60.9777098
          ],
          [
            22.6612678,
            60.9777472
          ],
          [
            22.6632946,
            60.9780584
          ],
          [
            22.66554,
            60.9784031
          ],
          [
            22.6660005,
            60.9784738
          ],
          [
            22.666166,
            60.9784768
          ],
          [
            22.6663685,
            60.9784738
          ],
          [
            22.6666465,
            60.9784261
          ],
          [
            22.6668135,
            60.9783783
          ],
          [
            22.6687858,
            60.9774421
          ],
          [
            22.6691231,
            60.977282
          ],
          [
            22.6693612,
            60.977169
          ],
          [
            22.6707673,
            60.9765016
          ],
          [
            22.6708827,
            60.9764362
          ],
          [
            22.6710602,
            60.9763373
          ],
          [
            22.6711268,
            60.9762981
          ],
          [
            22.6711563,
            60.976256
          ],
          [
            22.6711777,
            60.9762113
          ],
          [
            22.6711757,
            60.9761709
          ],
          [
            22.6711686,
            60.9761318
          ],
          [
            22.6711531,
            60.9760978
          ],
          [
            22.6711191,
            60.9760621
          ],
          [
            22.6710718,
            60.9760296
          ],
          [
            22.6710071,
            60.9760041
          ],
          [
            22.6709251,
            60.9759806
          ],
          [
            22.6708385,
            60.9759633
          ],
          [
            22.6707624,
            60.9759564
          ],
          [
            22.6706837,
            60.9759521
          ],
          [
            22.6705961,
            60.9759592
          ],
          [
            22.6705192,
            60.9759742
          ],
          [
            22.6702695,
            60.9760593
          ],
          [
            22.6700952,
            60.9761188
          ],
          [
            22.6697683,
            60.9765865
          ],
          [
            22.6684246,
            60.9766882
          ],
          [
            22.6682267,
            60.9767556
          ],
          [
            22.6678148,
            60.976896
          ],
          [
            22.6658806,
            60.9775479
          ],
          [
            22.6655737,
            60.9776027
          ],
          [
            22.6653778,
            60.9776097
          ],
          [
            22.6651275,
            60.9775936
          ],
          [
            22.6633578,
            60.9772729
          ],
          [
            22.6600868,
            60.9766801
          ],
          [
            22.6599271,
            60.9766155
          ],
          [
            22.6598044,
            60.9765389
          ],
          [
            22.6597872,
            60.9763936
          ],
          [
            22.6598521,
            60.9762841
          ],
          [
            22.6599786,
            60.9761746
          ],
          [
            22.660198,
            60.9760946
          ],
          [
            22.6605232,
            60.9760407
          ],
          [
            22.6606355,
            60.9760279
          ],
          [
            22.6625686,
            60.9758081
          ],
          [
            22.6628801,
            60.9757796
          ],
          [
            22.6632554,
            60.9757691
          ],
          [
            22.6637504,
            60.9757559
          ],
          [
            22.6639819,
            60.9757583
          ],
          [
            22.6645027,
            60.9757639
          ],
          [
            22.6649905,
            60.9757691
          ],
          [
            22.6655888,
            60.9757664
          ],
          [
            22.6660022,
            60.975748
          ],
          [
            22.6664047,
            60.9757031
          ],
          [
            22.6668562,
            60.975616
          ],
          [
            22.6672369,
            60.9755131
          ],
          [
            22.6677102,
            60.9753943
          ],
          [
            22.6682215,
            60.9752835
          ],
          [
            22.6686022,
            60.9752017
          ],
          [
            22.6688796,
            60.9751568
          ],
          [
            22.6691135,
            60.9751357
          ],
          [
            22.6693637,
            60.9751278
          ],
          [
            22.6696194,
            60.9751357
          ],
          [
            22.6699892,
            60.9751753
          ],
          [
            22.6710118,
            60.9752835
          ],
          [
            22.6713599,
            60.9753046
          ],
          [
            22.6716101,
            60.975294
          ],
          [
            22.6718767,
            60.9752518
          ],
          [
            22.6720997,
            60.9751832
          ],
          [
            22.6722683,
            60.9750935
          ],
          [
            22.6723934,
            60.9750064
          ],
          [
            22.6724696,
            60.9749166
          ],
          [
            22.6725185,
            60.974819
          ],
          [
            22.6725348,
            60.9747108
          ],
          [
            22.6725076,
            60.9745815
          ],
          [
            22.6724369,
            60.9744495
          ],
          [
            22.6722901,
            60.9743519
          ],
          [
            22.6721051,
            60.9742621
          ],
          [
            22.671844,
            60.9741803
          ],
          [
            22.6714959,
            60.9741196
          ],
          [
            22.6711206,
            60.9740774
          ],
          [
            22.6668616,
            60.9735971
          ],
          [
            22.6653876,
            60.973444
          ],
          [
            22.6644031,
            60.9733437
          ],
          [
            22.6628202,
            60.9731985
          ],
          [
            22.6624776,
            60.9731695
          ],
          [
            22.6623089,
            60.9731616
          ],
          [
            22.6620859,
            60.9731721
          ],
          [
            22.661901,
            60.9731906
          ],
          [
            22.661765,
            60.9732249
          ],
          [
            22.6616671,
            60.9732724
          ],
          [
            22.6615746,
            60.9733569
          ],
          [
            22.6615202,
            60.9734466
          ],
          [
            22.6614985,
            60.9735654
          ],
          [
            22.6615583,
            60.9737
          ],
          [
            22.6616997,
            60.9738003
          ],
          [
            22.6619173,
            60.9738979
          ],
          [
            22.6622545,
            60.973985
          ],
          [
            22.6624349,
            60.9740125
          ],
          [
            22.6625754,
            60.9740339
          ],
          [
            22.6629127,
            60.9740748
          ],
          [
            22.6633424,
            60.9741619
          ],
          [
            22.6636035,
            60.9742542
          ],
          [
            22.6637721,
            60.9743835
          ],
          [
            22.66387,
            60.9745261
          ],
          [
            22.6639081,
            60.9746765
          ],
          [
            22.6638755,
            60.9748454
          ],
          [
            22.6637232,
            60.9749641
          ],
          [
            22.6635895,
            60.9750069
          ],
          [
            22.6634675,
            60.975046
          ],
          [
            22.6631357,
            60.9750908
          ],
          [
            22.6628366,
            60.9750987
          ],
          [
            22.6625374,
            60.9750803
          ],
          [
            22.6623307,
            60.9750565
          ],
          [
            22.6622219,
            60.9750512
          ],
          [
            22.6620979,
            60.9750649
          ],
          [
            22.661884,
            60.9750275
          ],
          [
            22.6602953,
            60.9750087
          ],
          [
            22.6600719,
            60.974997
          ],
          [
            22.6598629,
            60.9749412
          ],
          [
            22.6597444,
            60.974879
          ],
          [
            22.6596166,
            60.9747088
          ],
          [
            22.6595242,
            60.9744606
          ],
          [
            22.6594503,
            60.9742992
          ],
          [
            22.6594071,
            60.9742364
          ],
          [
            22.6593455,
            60.9741945
          ],
          [
            22.6592407,
            60.9741766
          ],
          [
            22.6591113,
            60.9741766
          ],
          [
            22.6590251,
            60.9741856
          ],
          [
            22.6589203,
            60.9742155
          ],
          [
            22.6587878,
            60.9742783
          ],
          [
            22.6586892,
            60.97435
          ],
          [
            22.6586414,
            60.9744024
          ],
          [
            22.658606,
            60.9744547
          ],
          [
            22.6585536,
            60.9745772
          ],
          [
            22.6584778,
            60.9749777
          ]
        ]
      }
    }
  ]
}
