{
  "type": "FeatureCollection",
  "bbox": [
    -65.1448697,
    -31.9494298,
    -65.1424244,
    -31.9429921
  ],
  "metadata": {
    "schemaVersion": 1,
    "trackId": "ar-autodromo-municipal-hernesto-mario-soto-503897581",
    "layoutId": "main",
    "license": "ODbL-1.0",
    "attribution": "© OpenStreetMap contributors",
    "closed": true,
    "geometryStatus": "draft",
    "timingStatus": "missing",
    "timingMode": "shared",
    "lengthM": 1749.2,
    "reviewedAt": null,
    "notes": [
      "Connected OSM course candidate. The selected loop is the longest simple source-node cycle after explicit exclusions; its association with a named circuit configuration requires review.",
      "Source way order and shared node IDs are retained. No nearby endpoints are joined and no Racelogic boundaries are read.",
      "Some source ways lack one-way direction tags. Travel direction is provisional."
    ]
  },
  "features": [
    {
      "type": "Feature",
      "id": "trace",
      "properties": {
        "role": "trace",
        "sourceIds": [
          "osm-snapshot"
        ]
      },
      "geometry": {
        "type": "LineString",
        "coordinates": [
          [
            -65.1443131,
            -31.9457531
          ],
          [
            -65.1443552,
            -31.9486608
          ],
          [
            -65.1443478,
            -31.9488951
          ],
          [
            -65.1443234,
            -31.9490641
          ],
          [
            -65.1442665,
            -31.949209
          ],
          [
            -65.1441893,
            -31.949309
          ],
          [
            -65.1440917,
            -31.9493815
          ],
          [
            -65.1439819,
            -31.9494125
          ],
          [
            -65.14386,
            -31.9494298
          ],
          [
            -65.1437421,
            -31.9494056
          ],
          [
            -65.1436364,
            -31.9493504
          ],
          [
            -65.1435429,
            -31.9492745
          ],
          [
            -65.1434697,
            -31.949171
          ],
          [
            -65.1434128,
            -31.9490331
          ],
          [
            -65.1433681,
            -31.9489089
          ],
          [
            -65.1433274,
            -31.9487295
          ],
          [
            -65.1431404,
            -31.9478498
          ],
          [
            -65.1431241,
            -31.9477222
          ],
          [
            -65.1431241,
            -31.9476084
          ],
          [
            -65.1431404,
            -31.947498
          ],
          [
            -65.1431851,
            -31.9473807
          ],
          [
            -65.1432502,
            -31.9472634
          ],
          [
            -65.1433355,
            -31.9471564
          ],
          [
            -65.1434616,
            -31.9470323
          ],
          [
            -65.1435782,
            -31.9469385
          ],
          [
            -65.1436454,
            -31.9468695
          ],
          [
            -65.143702,
            -31.9467734
          ],
          [
            -65.1437374,
            -31.9466713
          ],
          [
            -65.1437622,
            -31.9465601
          ],
          [
            -65.1437693,
            -31.946437
          ],
          [
            -65.1437622,
            -31.9463169
          ],
          [
            -65.1437374,
            -31.9461938
          ],
          [
            -65.1436879,
            -31.9460586
          ],
          [
            -65.1436206,
            -31.9459475
          ],
          [
            -65.1435251,
            -31.9458394
          ],
          [
            -65.1434331,
            -31.9457493
          ],
          [
            -65.1433163,
            -31.9456772
          ],
          [
            -65.1430154,
            -31.945491
          ],
          [
            -65.1428951,
            -31.9454069
          ],
          [
            -65.1428137,
            -31.9453288
          ],
          [
            -65.1427394,
            -31.9452478
          ],
          [
            -65.1426828,
            -31.9451697
          ],
          [
            -65.1426297,
            -31.9450616
          ],
          [
            -65.1425766,
            -31.9449414
          ],
          [
            -65.1424598,
            -31.944557
          ],
          [
            -65.1424386,
            -31.9444399
          ],
          [
            -65.1424244,
            -31.9443288
          ],
          [
            -65.1424244,
            -31.9442237
          ],
          [
            -65.1424386,
            -31.9441276
          ],
          [
            -65.1424669,
            -31.9440375
          ],
          [
            -65.14252,
            -31.9439804
          ],
          [
            -65.1425943,
            -31.9439384
          ],
          [
            -65.1426651,
            -31.9439233
          ],
          [
            -65.1427535,
            -31.9439173
          ],
          [
            -65.142842,
            -31.9439263
          ],
          [
            -65.1429659,
            -31.9439474
          ],
          [
            -65.1432308,
            -31.9440072
          ],
          [
            -65.1433006,
            -31.9440186
          ],
          [
            -65.1433891,
            -31.9440186
          ],
          [
            -65.1434696,
            -31.9440072
          ],
          [
            -65.1435366,
            -31.9439822
          ],
          [
            -65.1435876,
            -31.9439389
          ],
          [
            -65.1436278,
            -31.9438843
          ],
          [
            -65.1440462,
            -31.9431674
          ],
          [
            -65.1441026,
            -31.9430923
          ],
          [
            -65.1441669,
            -31.9430422
          ],
          [
            -65.1442206,
            -31.9430149
          ],
          [
            -65.1442957,
            -31.9429967
          ],
          [
            -65.1443815,
            -31.9429921
          ],
          [
            -65.144462,
            -31.943008
          ],
          [
            -65.1445371,
            -31.9430354
          ],
          [
            -65.1446015,
            -31.9430786
          ],
          [
            -65.1446605,
            -31.943131
          ],
          [
            -65.1447221,
            -31.9432061
          ],
          [
            -65.1447758,
            -31.9432789
          ],
          [
            -65.144816,
            -31.943354
          ],
          [
            -65.1448428,
            -31.9434223
          ],
          [
            -65.1448643,
            -31.9435088
          ],
          [
            -65.1448697,
            -31.9436044
          ],
          [
            -65.1448567,
            -31.9436886
          ],
          [
            -65.1448284,
            -31.9437848
          ],
          [
            -65.1447731,
            -31.9439025
          ],
          [
            -65.1447221,
            -31.9439776
          ],
          [
            -65.144647,
            -31.9440596
          ],
          [
            -65.1445666,
            -31.944121
          ],
          [
            -65.1444673,
            -31.9441779
          ],
          [
            -65.1440516,
            -31.9443714
          ],
          [
            -65.1439738,
            -31.9444169
          ],
          [
            -65.1439094,
            -31.9444852
          ],
          [
            -65.1438773,
            -31.9445671
          ],
          [
            -65.1438746,
            -31.94464
          ],
          [
            -65.1438826,
            -31.9447287
          ],
          [
            -65.1439148,
            -31.9448038
          ],
          [
            -65.1441428,
            -31.9451316
          ],
          [
            -65.144183,
            -31.945209
          ],
          [
            -65.1442313,
            -31.9453182
          ],
          [
            -65.1442662,
            -31.9454252
          ],
          [
            -65.1442903,
            -31.9455276
          ],
          [
            -65.1443064,
            -31.9456414
          ],
          [
            -65.1443131,
            -31.9457531
          ]
        ]
      }
    }
  ]
}
