{
  "type": "FeatureCollection",
  "bbox": [
    -0.5410236,
    52.0407139,
    -0.5260443,
    52.0499299
  ],
  "metadata": {
    "schemaVersion": 1,
    "trackId": "gb-millbrook-high-speed-circuit-cefbea72",
    "layoutId": "millbrook-high-speed-circuit",
    "license": "ODbL-1.0",
    "attribution": "© OpenStreetMap contributors",
    "closed": true,
    "geometryStatus": "draft",
    "timingStatus": "missing",
    "timingMode": "shared",
    "lengthM": 3215.6,
    "reviewedAt": null,
    "notes": [
      "Draft configuration: The independently named High Speed Bowl is the single full circular source cycle. Facility access and adjacent test roads are excluded. Source distance 3215.6 m versus the catalogue distance of 3223 m. Branch identity was checked against catalogue layout facts and circuit identification references. Independent source distance 3215.6 m; no coordinates are changed to match a diagram or distance. Travel direction and historical alignment remain provisional."
    ]
  },
  "features": [
    {
      "type": "Feature",
      "id": "trace",
      "properties": {
        "role": "trace",
        "sourceIds": [
          "osm-selection-millbrook-handling-circuit-independent-roads-88566330"
        ]
      },
      "geometry": {
        "type": "LineString",
        "coordinates": [
          [
            -0.5395949,
            52.0426069
          ],
          [
            -0.5386242,
            52.0419359
          ],
          [
            -0.5374604,
            52.0413934
          ],
          [
            -0.5361477,
            52.0409999
          ],
          [
            -0.5347358,
            52.0407706
          ],
          [
            -0.5332784,
            52.0407139
          ],
          [
            -0.5318309,
            52.0408322
          ],
          [
            -0.5304481,
            52.0411209
          ],
          [
            -0.5291826,
            52.041569
          ],
          [
            -0.5280823,
            52.0421596
          ],
          [
            -0.5271891,
            52.0428702
          ],
          [
            -0.5265369,
            52.0436738
          ],
          [
            -0.5261504,
            52.0445399
          ],
          [
            -0.5260443,
            52.0454356
          ],
          [
            -0.5262226,
            52.046327
          ],
          [
            -0.5266786,
            52.0471802
          ],
          [
            -0.527395,
            52.0479628
          ],
          [
            -0.5283444,
            52.0486451
          ],
          [
            -0.529491,
            52.0492012
          ],
          [
            -0.5307912,
            52.04961
          ],
          [
            -0.5321956,
            52.0498561
          ],
          [
            -0.5336509,
            52.0499299
          ],
          [
            -0.5351019,
            52.0498289
          ],
          [
            -0.5364935,
            52.0495567
          ],
          [
            -0.5377729,
            52.0491237
          ],
          [
            -0.5388914,
            52.0485464
          ],
          [
            -0.5398067,
            52.0478466
          ],
          [
            -0.540484,
            52.047051
          ],
          [
            -0.5408975,
            52.0461897
          ],
          [
            -0.5410236,
            52.0455359
          ],
          [
            -0.540997,
            52.0448777
          ],
          [
            -0.5408182,
            52.0442286
          ],
          [
            -0.5403356,
            52.0433809
          ],
          [
            -0.5397561,
            52.0427753
          ],
          [
            -0.5395949,
            52.0426069
          ]
        ]
      }
    }
  ]
}
