{
  "type": "FeatureCollection",
  "bbox": [
    0.1494977,
    45.6464729,
    0.1549516,
    45.6490629
  ],
  "metadata": {
    "schemaVersion": 1,
    "trackId": "fr-circuit-des-remparts-1c159f88",
    "layoutId": "circuit-des-remparts",
    "license": "ODbL-1.0",
    "attribution": "© OpenStreetMap contributors",
    "closed": true,
    "geometryStatus": "draft",
    "timingStatus": "missing",
    "timingMode": "shared",
    "lengthM": 1303.4,
    "reviewedAt": null,
    "notes": [
      "Draft configuration: Reviewed the organizer’s 2024 historic-course plan: Rempart Desaix and Avenue des Maréchaux lead through the Théâtre/Carnot turn, Rue Louis Desbrandes, Rue Waldeck Rousseau, the full Marronnier return on Rue du Colonel Driant, Rue de Verdun and the Cathédrale turn. Retains the pinned unnamed street connection at the southern Carnot turn and the short Avenue du Président Wilson connection at the cathedral; excludes the internal Driant shortcut and the unrelated Rempart du Midi. All vertices and joins use exact independent road-map nodes. The 1303.4 m public-road centerline differs from the 1271 m timing distance; temporary race barriers, hairpin placement and the mapped underpass junction remain provisional. Branch identity was checked against catalogue layout facts and circuit identification references. Independent source distance 1303.4 m; no coordinates are changed to match a diagram or distance. Travel direction and historical alignment remain provisional."
    ]
  },
  "features": [
    {
      "type": "Feature",
      "id": "trace",
      "properties": {
        "role": "trace",
        "sourceIds": [
          "osm-selection-circuit-des-remparts-independent-roads-24832436"
        ]
      },
      "geometry": {
        "type": "LineString",
        "coordinates": [
          [
            0.1530685,
            45.6475064
          ],
          [
            0.1532134,
            45.6474212
          ],
          [
            0.1532724,
            45.6474055
          ],
          [
            0.1533676,
            45.6473865
          ],
          [
            0.1533902,
            45.6473845
          ],
          [
            0.1534666,
            45.647387
          ],
          [
            0.1535489,
            45.6474016
          ],
          [
            0.1540889,
            45.647515
          ],
          [
            0.1541228,
            45.6475232
          ],
          [
            0.1545117,
            45.647606
          ],
          [
            0.1545332,
            45.6475533
          ],
          [
            0.1547498,
            45.6470221
          ],
          [
            0.1549081,
            45.6466722
          ],
          [
            0.1549243,
            45.6466354
          ],
          [
            0.1549373,
            45.6466022
          ],
          [
            0.1549516,
            45.6465029
          ],
          [
            0.1548376,
            45.6464867
          ],
          [
            0.1547029,
            45.6464747
          ],
          [
            0.1545849,
            45.6464729
          ],
          [
            0.1543473,
            45.6465042
          ],
          [
            0.1541836,
            45.646542
          ],
          [
            0.1540117,
            45.6466108
          ],
          [
            0.1539218,
            45.6466485
          ],
          [
            0.1535816,
            45.6467926
          ],
          [
            0.1530601,
            45.6470284
          ],
          [
            0.1527593,
            45.6471177
          ],
          [
            0.1525915,
            45.6473061
          ],
          [
            0.1523484,
            45.6475689
          ],
          [
            0.1518021,
            45.6479193
          ],
          [
            0.1511044,
            45.6482715
          ],
          [
            0.1506257,
            45.6484831
          ],
          [
            0.150426,
            45.6485195
          ],
          [
            0.1503368,
            45.6485463
          ],
          [
            0.149736,
            45.6487248
          ],
          [
            0.1496094,
            45.6487806
          ],
          [
            0.1494977,
            45.6488526
          ],
          [
            0.1496226,
            45.6488633
          ],
          [
            0.1499296,
            45.6488428
          ],
          [
            0.1501681,
            45.6488079
          ],
          [
            0.1504391,
            45.6487484
          ],
          [
            0.1507741,
            45.6486445
          ],
          [
            0.1511979,
            45.6484751
          ],
          [
            0.1511416,
            45.6485324
          ],
          [
            0.1510681,
            45.6486072
          ],
          [
            0.1508219,
            45.648744
          ],
          [
            0.1504165,
            45.6489085
          ],
          [
            0.1502433,
            45.6489768
          ],
          [
            0.150195,
            45.6489986
          ],
          [
            0.1501835,
            45.6490186
          ],
          [
            0.1501867,
            45.6490629
          ],
          [
            0.1502825,
            45.6490534
          ],
          [
            0.1505781,
            45.6490424
          ],
          [
            0.1506812,
            45.6490349
          ],
          [
            0.1508431,
            45.6490074
          ],
          [
            0.1509057,
            45.6489888
          ],
          [
            0.1510491,
            45.6489336
          ],
          [
            0.151323,
            45.6488022
          ],
          [
            0.151583,
            45.6486765
          ],
          [
            0.1518043,
            45.648502
          ],
          [
            0.1522625,
            45.6481473
          ],
          [
            0.1525435,
            45.6479326
          ],
          [
            0.1528901,
            45.6476447
          ],
          [
            0.1529764,
            45.6475757
          ],
          [
            0.1530685,
            45.6475064
          ]
        ]
      }
    }
  ]
}
