{
  "type": "FeatureCollection",
  "bbox": [
    116.242539,
    -33.434904,
    116.245885,
    -33.4287916
  ],
  "metadata": {
    "schemaVersion": 1,
    "trackId": "au-collie-race-track-89374807",
    "layoutId": "main",
    "license": "ODbL-1.0",
    "attribution": "© OpenStreetMap contributors",
    "closed": true,
    "geometryStatus": "draft",
    "timingStatus": "missing",
    "timingMode": "shared",
    "lengthM": 1626.9,
    "reviewedAt": null,
    "notes": [
      "Closed named OSM raceway retained as a course candidate. Named-layout association requires review.",
      "Source way order and shared node IDs are retained. No nearby endpoints are joined and no Racelogic boundaries are read.",
      "Some source ways lack one-way direction tags. Travel direction is provisional."
    ]
  },
  "features": [
    {
      "type": "Feature",
      "id": "trace",
      "properties": {
        "role": "trace",
        "sourceIds": [
          "osm-snapshot"
        ]
      },
      "geometry": {
        "type": "LineString",
        "coordinates": [
          [
            116.245524,
            -33.429973
          ],
          [
            116.244832,
            -33.428898
          ],
          [
            116.244797,
            -33.4288439
          ],
          [
            116.244755,
            -33.428813
          ],
          [
            116.244691,
            -33.428795
          ],
          [
            116.2446189,
            -33.4287916
          ],
          [
            116.2445415,
            -33.4288107
          ],
          [
            116.2444595,
            -33.4288628
          ],
          [
            116.244343,
            -33.428989
          ],
          [
            116.2439453,
            -33.4294137
          ],
          [
            116.2434825,
            -33.4299079
          ],
          [
            116.242663,
            -33.430783
          ],
          [
            116.242599,
            -33.430869
          ],
          [
            116.242549,
            -33.430959
          ],
          [
            116.242539,
            -33.431042
          ],
          [
            116.242545,
            -33.43113
          ],
          [
            116.242577,
            -33.431238
          ],
          [
            116.242655,
            -33.431401
          ],
          [
            116.242855,
            -33.431672
          ],
          [
            116.242979,
            -33.431837
          ],
          [
            116.243072,
            -33.431978
          ],
          [
            116.24313,
            -33.432104
          ],
          [
            116.243136,
            -33.432197
          ],
          [
            116.243128,
            -33.432335
          ],
          [
            116.243085,
            -33.432445
          ],
          [
            116.242988,
            -33.432657
          ],
          [
            116.242949,
            -33.432788
          ],
          [
            116.242926,
            -33.432934
          ],
          [
            116.242904,
            -33.433157
          ],
          [
            116.242883,
            -33.433513
          ],
          [
            116.242868,
            -33.433882
          ],
          [
            116.24287,
            -33.433992
          ],
          [
            116.242901,
            -33.434071
          ],
          [
            116.242948,
            -33.434145
          ],
          [
            116.243026,
            -33.434208
          ],
          [
            116.243105,
            -33.43425
          ],
          [
            116.2446186,
            -33.4348495
          ],
          [
            116.24476,
            -33.434895
          ],
          [
            116.244834,
            -33.434904
          ],
          [
            116.244907,
            -33.434893
          ],
          [
            116.244957,
            -33.434865
          ],
          [
            116.245006,
            -33.43483
          ],
          [
            116.245048,
            -33.434759
          ],
          [
            116.245522,
            -33.433862
          ],
          [
            116.245585,
            -33.433708
          ],
          [
            116.245623,
            -33.433603
          ],
          [
            116.24564,
            -33.433505
          ],
          [
            116.245651,
            -33.433351
          ],
          [
            116.2455759,
            -33.4310301
          ],
          [
            116.245599,
            -33.430946
          ],
          [
            116.245627,
            -33.430904
          ],
          [
            116.245688,
            -33.430838
          ],
          [
            116.245746,
            -33.430781
          ],
          [
            116.245798,
            -33.430741
          ],
          [
            116.245852,
            -33.430689
          ],
          [
            116.245885,
            -33.430612
          ],
          [
            116.2458847,
            -33.4305383
          ],
          [
            116.245852,
            -33.430468
          ],
          [
            116.245546,
            -33.430013
          ],
          [
            116.245524,
            -33.429973
          ]
        ]
      }
    }
  ]
}
