{
  "type": "FeatureCollection",
  "bbox": [
    -105.952165,
    28.8217079,
    -105.9484576,
    28.8242548
  ],
  "metadata": {
    "schemaVersion": 1,
    "trackId": "mx-dorado-speedway-reference",
    "layoutId": "main",
    "license": "ODbL-1.0",
    "attribution": "© OpenStreetMap contributors",
    "closed": true,
    "geometryStatus": "draft",
    "timingStatus": "missing",
    "timingMode": "shared",
    "lengthM": 995.9,
    "reviewedAt": null,
    "notes": [
      "Single reference course at a unique connected OSM source cycle, with private timing proximity. Draft geometry; course identity and operating status require review. Timing coordinates remain private.",
      "Travel direction is provisional."
    ]
  },
  "features": [
    {
      "type": "Feature",
      "id": "trace",
      "properties": {
        "role": "trace",
        "sourceIds": [
          "osm-snapshot"
        ]
      },
      "geometry": {
        "type": "LineString",
        "coordinates": [
          [
            -105.9521001,
            28.8228265
          ],
          [
            -105.9519236,
            28.823155
          ],
          [
            -105.9516768,
            28.8234746
          ],
          [
            -105.951333,
            28.8237571
          ],
          [
            -105.9510116,
            28.823954
          ],
          [
            -105.9505396,
            28.8241561
          ],
          [
            -105.9501045,
            28.8242506
          ],
          [
            -105.9496491,
            28.8242548
          ],
          [
            -105.9492998,
            28.8241801
          ],
          [
            -105.9488927,
            28.8240339
          ],
          [
            -105.9486727,
            28.8238412
          ],
          [
            -105.9485945,
            28.8237154
          ],
          [
            -105.9485327,
            28.8236161
          ],
          [
            -105.9484576,
            28.8232871
          ],
          [
            -105.9485118,
            28.8230046
          ],
          [
            -105.9486937,
            28.8227889
          ],
          [
            -105.9490316,
            28.8225633
          ],
          [
            -105.9495198,
            28.8223048
          ],
          [
            -105.9499597,
            28.8221168
          ],
          [
            -105.9505015,
            28.8219147
          ],
          [
            -105.9509199,
            28.821769
          ],
          [
            -105.9512847,
            28.8217079
          ],
          [
            -105.9515583,
            28.8217643
          ],
          [
            -105.9518479,
            28.82191
          ],
          [
            -105.9520572,
            28.822145
          ],
          [
            -105.9521591,
            28.8224129
          ],
          [
            -105.952165,
            28.8226662
          ],
          [
            -105.9521001,
            28.8228265
          ]
        ]
      }
    }
  ]
}
