{
  "type": "FeatureCollection",
  "bbox": [
    -4.5034842,
    53.1876121,
    -4.4925486,
    53.1914099
  ],
  "metadata": {
    "schemaVersion": 1,
    "trackId": "gb-anglesey-circuit-108374689",
    "layoutId": "anglesey-coastal",
    "license": "ODbL-1.0",
    "attribution": "© OpenStreetMap contributors",
    "closed": true,
    "geometryStatus": "draft",
    "timingStatus": "missing",
    "timingMode": "shared",
    "lengthM": 2468.9,
    "reviewedAt": null,
    "notes": [
      "Draft route hypothesis: the source cycle is the unique closest nominal-distance match within conservative timing and distance checks. Approximate OSM trace length 2468.9 m. Difference from the supplied layout distance 12.9 m. Course configuration still requires visual review."
    ]
  },
  "features": [
    {
      "type": "Feature",
      "id": "trace",
      "properties": {
        "role": "trace",
        "sourceIds": [
          "osm-network-108374689"
        ]
      },
      "geometry": {
        "type": "LineString",
        "coordinates": [
          [
            -4.5026193,
            53.1889789
          ],
          [
            -4.5027293,
            53.1888512
          ],
          [
            -4.5028627,
            53.1887721
          ],
          [
            -4.5029898,
            53.1887438
          ],
          [
            -4.503154,
            53.1887464
          ],
          [
            -4.5032572,
            53.1887632
          ],
          [
            -4.503349,
            53.1887995
          ],
          [
            -4.5034397,
            53.1888614
          ],
          [
            -4.5034842,
            53.1889445
          ],
          [
            -4.5034777,
            53.1890425
          ],
          [
            -4.5034453,
            53.1891457
          ],
          [
            -4.5030623,
            53.1902636
          ],
          [
            -4.5030261,
            53.1903759
          ],
          [
            -4.5029916,
            53.190448
          ],
          [
            -4.5029397,
            53.1905016
          ],
          [
            -4.5028808,
            53.1905402
          ],
          [
            -4.5028018,
            53.1905731
          ],
          [
            -4.5026662,
            53.1906124
          ],
          [
            -4.5025535,
            53.1906244
          ],
          [
            -4.5024528,
            53.1906247
          ],
          [
            -4.5023276,
            53.1906106
          ],
          [
            -4.5022165,
            53.1905921
          ],
          [
            -4.502069,
            53.1905542
          ],
          [
            -4.5019339,
            53.1905012
          ],
          [
            -4.5018095,
            53.1904418
          ],
          [
            -4.5017226,
            53.1903852
          ],
          [
            -4.5016437,
            53.1903177
          ],
          [
            -4.5008705,
            53.1896053
          ],
          [
            -4.5006824,
            53.1894506
          ],
          [
            -4.5003594,
            53.1892215
          ],
          [
            -4.500204,
            53.1891294
          ],
          [
            -4.5000127,
            53.1890634
          ],
          [
            -4.4998252,
            53.1890438
          ],
          [
            -4.4996573,
            53.1890634
          ],
          [
            -4.4994818,
            53.1891155
          ],
          [
            -4.4993622,
            53.1891542
          ],
          [
            -4.4991706,
            53.1892116
          ],
          [
            -4.4989421,
            53.1892506
          ],
          [
            -4.4988461,
            53.1892503
          ],
          [
            -4.4987502,
            53.1892215
          ],
          [
            -4.4986734,
            53.1891723
          ],
          [
            -4.4986259,
            53.1891144
          ],
          [
            -4.498573,
            53.1889476
          ],
          [
            -4.498543,
            53.1888113
          ],
          [
            -4.4985061,
            53.188703
          ],
          [
            -4.4984754,
            53.1886035
          ],
          [
            -4.4984729,
            53.188573
          ],
          [
            -4.4984802,
            53.1885533
          ],
          [
            -4.4984645,
            53.1885147
          ],
          [
            -4.4984463,
            53.1884591
          ],
          [
            -4.4983621,
            53.1883743
          ],
          [
            -4.4982879,
            53.1883148
          ],
          [
            -4.4981909,
            53.188269
          ],
          [
            -4.4980663,
            53.1882352
          ],
          [
            -4.4979604,
            53.1882239
          ],
          [
            -4.4978327,
            53.1882204
          ],
          [
            -4.4977463,
            53.1882308
          ],
          [
            -4.4976586,
            53.1882414
          ],
          [
            -4.4964048,
            53.188408
          ],
          [
            -4.4959153,
            53.1884707
          ],
          [
            -4.4953275,
            53.1885485
          ],
          [
            -4.4950298,
            53.1885866
          ],
          [
            -4.4947858,
            53.1886336
          ],
          [
            -4.4946005,
            53.1887015
          ],
          [
            -4.4944549,
            53.1887692
          ],
          [
            -4.4944199,
            53.1887946
          ],
          [
            -4.4943206,
            53.1888668
          ],
          [
            -4.4942565,
            53.1889134
          ],
          [
            -4.4941516,
            53.1890442
          ],
          [
            -4.4940825,
            53.1892078
          ],
          [
            -4.4940698,
            53.1893283
          ],
          [
            -4.4940923,
            53.1894506
          ],
          [
            -4.4941875,
            53.1896638
          ],
          [
            -4.4942952,
            53.189905
          ],
          [
            -4.4944625,
            53.190269
          ],
          [
            -4.4947703,
            53.1909687
          ],
          [
            -4.4947989,
            53.1910689
          ],
          [
            -4.4947815,
            53.1911735
          ],
          [
            -4.4947182,
            53.1912571
          ],
          [
            -4.4946437,
            53.1913174
          ],
          [
            -4.4945503,
            53.1913629
          ],
          [
            -4.4942865,
            53.1914099
          ],
          [
            -4.4941513,
            53.1913982
          ],
          [
            -4.4940417,
            53.1913804
          ],
          [
            -4.4939071,
            53.191325
          ],
          [
            -4.4938198,
            53.191244
          ],
          [
            -4.493729,
            53.1911153
          ],
          [
            -4.4933824,
            53.1905237
          ],
          [
            -4.4925794,
            53.1891205
          ],
          [
            -4.4925486,
            53.1889458
          ],
          [
            -4.492572,
            53.1887629
          ],
          [
            -4.4927775,
            53.1884415
          ],
          [
            -4.4929525,
            53.1883109
          ],
          [
            -4.4931501,
            53.1882159
          ],
          [
            -4.4933379,
            53.1881397
          ],
          [
            -4.4935516,
            53.1880809
          ],
          [
            -4.4939232,
            53.1879978
          ],
          [
            -4.4945669,
            53.1878821
          ],
          [
            -4.4948752,
            53.1878287
          ],
          [
            -4.4954378,
            53.187749
          ],
          [
            -4.495938,
            53.1876999
          ],
          [
            -4.4964256,
            53.1876575
          ],
          [
            -4.4969237,
            53.1876233
          ],
          [
            -4.4971294,
            53.1876151
          ],
          [
            -4.4973262,
            53.1876131
          ],
          [
            -4.4977856,
            53.1876121
          ],
          [
            -4.4980982,
            53.1876353
          ],
          [
            -4.4985184,
            53.1876991
          ],
          [
            -4.4993734,
            53.1878949
          ],
          [
            -4.5002811,
            53.1881514
          ],
          [
            -4.5003921,
            53.1881893
          ],
          [
            -4.5006115,
            53.1882694
          ],
          [
            -4.5008021,
            53.1883722
          ],
          [
            -4.5011265,
            53.1886024
          ],
          [
            -4.5014584,
            53.1888505
          ],
          [
            -4.5017617,
            53.1890559
          ],
          [
            -4.502065,
            53.1892613
          ],
          [
            -4.5021301,
            53.1893069
          ],
          [
            -4.5022214,
            53.1893336
          ],
          [
            -4.5023077,
            53.1893308
          ],
          [
            -4.5023917,
            53.189315
          ],
          [
            -4.5024619,
            53.1892632
          ],
          [
            -4.5025204,
            53.1891588
          ],
          [
            -4.5026193,
            53.1889789
          ]
        ]
      }
    }
  ]
}
