{
  "type": "FeatureCollection",
  "bbox": [
    -93.0158598,
    41.6724471,
    -93.0104847,
    41.6768893
  ],
  "metadata": {
    "schemaVersion": 1,
    "trackId": "us-iowa-speedway-119238784",
    "layoutId": "main",
    "license": "ODbL-1.0",
    "attribution": "© OpenStreetMap contributors",
    "closed": true,
    "geometryStatus": "draft",
    "timingStatus": "missing",
    "timingMode": "shared",
    "lengthM": 1430.7,
    "reviewedAt": null,
    "notes": [
      "Closed named OSM raceway retained as a course candidate. Named-layout association requires review.",
      "Source way order and shared node IDs are retained. No nearby endpoints are joined and no reference boundaries are read."
    ]
  },
  "features": [
    {
      "type": "Feature",
      "id": "trace",
      "properties": {
        "role": "trace",
        "sourceIds": [
          "osm-snapshot"
        ]
      },
      "geometry": {
        "type": "LineString",
        "coordinates": [
          [
            -93.0147762,
            41.6737734
          ],
          [
            -93.0144329,
            41.6734849
          ],
          [
            -93.0139662,
            41.6731163
          ],
          [
            -93.0136014,
            41.6729039
          ],
          [
            -93.0129523,
            41.6726034
          ],
          [
            -93.0125178,
            41.6724712
          ],
          [
            -93.0122603,
            41.6724471
          ],
          [
            -93.0119277,
            41.6724631
          ],
          [
            -93.0116112,
            41.6725152
          ],
          [
            -93.0113459,
            41.672598
          ],
          [
            -93.0111606,
            41.6726955
          ],
          [
            -93.0109568,
            41.6728198
          ],
          [
            -93.0108119,
            41.67294
          ],
          [
            -93.0106671,
            41.6731003
          ],
          [
            -93.0105812,
            41.6732485
          ],
          [
            -93.0105198,
            41.6733914
          ],
          [
            -93.0104876,
            41.6735396
          ],
          [
            -93.0104847,
            41.6737133
          ],
          [
            -93.0104876,
            41.6738321
          ],
          [
            -93.0105359,
            41.6739884
          ],
          [
            -93.0107207,
            41.6743103
          ],
          [
            -93.0108846,
            41.6745173
          ],
          [
            -93.0113718,
            41.6749861
          ],
          [
            -93.0121506,
            41.6757354
          ],
          [
            -93.0126241,
            41.6761878
          ],
          [
            -93.0128021,
            41.6763578
          ],
          [
            -93.0130894,
            41.6765568
          ],
          [
            -93.0133791,
            41.676709
          ],
          [
            -93.0136634,
            41.6768212
          ],
          [
            -93.013934,
            41.6768667
          ],
          [
            -93.0141247,
            41.6768893
          ],
          [
            -93.0143393,
            41.6768893
          ],
          [
            -93.0146582,
            41.6768507
          ],
          [
            -93.0148918,
            41.6768052
          ],
          [
            -93.0150766,
            41.6767385
          ],
          [
            -93.0152727,
            41.6766329
          ],
          [
            -93.0154575,
            41.676482
          ],
          [
            -93.0156238,
            41.6762977
          ],
          [
            -93.0157364,
            41.6761334
          ],
          [
            -93.0158276,
            41.6759411
          ],
          [
            -93.0158491,
            41.6757969
          ],
          [
            -93.0158598,
            41.6756126
          ],
          [
            -93.0158437,
            41.6754082
          ],
          [
            -93.0158008,
            41.6752479
          ],
          [
            -93.0156935,
            41.6750075
          ],
          [
            -93.0156433,
            41.6749132
          ],
          [
            -93.0155757,
            41.6747862
          ],
          [
            -93.0155058,
            41.6746549
          ],
          [
            -93.0151464,
            41.6741701
          ],
          [
            -93.0149103,
            41.6739016
          ],
          [
            -93.0147762,
            41.6737734
          ]
        ]
      }
    }
  ]
}
