{
  "type": "FeatureCollection",
  "bbox": [
    -2.1663641,
    42.5592821,
    -2.1609235,
    42.5630355
  ],
  "metadata": {
    "schemaVersion": 1,
    "trackId": "es-navarra-c-65c5ebaa",
    "layoutId": "navarra-c",
    "license": "ODbL-1.0",
    "attribution": "© OpenStreetMap contributors",
    "closed": true,
    "geometryStatus": "draft",
    "timingStatus": "missing",
    "timingMode": "shared",
    "lengthM": 1324,
    "reviewedAt": null,
    "notes": [
      "Draft route hypothesis: the source cycle is the unique closest nominal-distance match within conservative timing and distance checks. Approximate OSM trace length 1324 m. Difference from the supplied layout distance 13.0 m. Course configuration still requires visual review."
    ]
  },
  "features": [
    {
      "type": "Feature",
      "id": "trace",
      "properties": {
        "role": "trace",
        "sourceIds": [
          "osm-network-103746067"
        ]
      },
      "geometry": {
        "type": "LineString",
        "coordinates": [
          [
            -2.1663574,
            42.5620072
          ],
          [
            -2.1663052,
            42.5621066
          ],
          [
            -2.1657333,
            42.5629551
          ],
          [
            -2.1657039,
            42.5629811
          ],
          [
            -2.1656567,
            42.5630048
          ],
          [
            -2.1656078,
            42.5630287
          ],
          [
            -2.1655404,
            42.5630355
          ],
          [
            -2.1654835,
            42.5630333
          ],
          [
            -2.1654136,
            42.5630243
          ],
          [
            -2.1653576,
            42.5630016
          ],
          [
            -2.160971,
            42.5597149
          ],
          [
            -2.1609513,
            42.5596916
          ],
          [
            -2.160931,
            42.5596514
          ],
          [
            -2.1609235,
            42.5596122
          ],
          [
            -2.1609294,
            42.5595829
          ],
          [
            -2.1609464,
            42.5595405
          ],
          [
            -2.1609699,
            42.5594985
          ],
          [
            -2.1610297,
            42.5594577
          ],
          [
            -2.1611012,
            42.5594228
          ],
          [
            -2.1611779,
            42.5593961
          ],
          [
            -2.1612391,
            42.5593805
          ],
          [
            -2.1614166,
            42.559338
          ],
          [
            -2.1615644,
            42.5593138
          ],
          [
            -2.1617236,
            42.5592926
          ],
          [
            -2.1618666,
            42.559284
          ],
          [
            -2.1619779,
            42.5592821
          ],
          [
            -2.1621625,
            42.5592843
          ],
          [
            -2.1623793,
            42.5592981
          ],
          [
            -2.162501,
            42.5593219
          ],
          [
            -2.1625765,
            42.5593394
          ],
          [
            -2.1626508,
            42.5593721
          ],
          [
            -2.1627246,
            42.559411
          ],
          [
            -2.1627979,
            42.5594507
          ],
          [
            -2.1628587,
            42.5594956
          ],
          [
            -2.1629309,
            42.5595481
          ],
          [
            -2.1634584,
            42.5601441
          ],
          [
            -2.1636336,
            42.5603574
          ],
          [
            -2.1637844,
            42.5605287
          ],
          [
            -2.1643224,
            42.5608824
          ],
          [
            -2.1647228,
            42.5613346
          ],
          [
            -2.1649204,
            42.5617989
          ],
          [
            -2.1649782,
            42.5618357
          ],
          [
            -2.1650593,
            42.5618616
          ],
          [
            -2.1651285,
            42.5618713
          ],
          [
            -2.1652142,
            42.5618668
          ],
          [
            -2.1652885,
            42.5618555
          ],
          [
            -2.1653573,
            42.561829
          ],
          [
            -2.1654173,
            42.5617947
          ],
          [
            -2.1654828,
            42.5617469
          ],
          [
            -2.1655441,
            42.5616962
          ],
          [
            -2.1656233,
            42.5616533
          ],
          [
            -2.1657344,
            42.5616181
          ],
          [
            -2.1658435,
            42.5616097
          ],
          [
            -2.16595,
            42.5616193
          ],
          [
            -2.1660284,
            42.5616348
          ],
          [
            -2.1661109,
            42.5616571
          ],
          [
            -2.1662007,
            42.5616993
          ],
          [
            -2.1662614,
            42.5617421
          ],
          [
            -2.166317,
            42.5618106
          ],
          [
            -2.1663536,
            42.5618872
          ],
          [
            -2.1663641,
            42.5619349
          ],
          [
            -2.1663574,
            42.5620072
          ]
        ]
      }
    }
  ]
}
