{
  "type": "FeatureCollection",
  "bbox": [
    140.3691803,
    37.6421016,
    140.3752658,
    37.6455691
  ],
  "metadata": {
    "schemaVersion": 1,
    "trackId": "jp-ebisu-circuit-119769710",
    "layoutId": "main",
    "license": "ODbL-1.0",
    "attribution": "© OpenStreetMap contributors",
    "closed": true,
    "geometryStatus": "draft",
    "timingStatus": "missing",
    "timingMode": "shared",
    "lengthM": 2029,
    "reviewedAt": null,
    "notes": [
      "Closed named OSM raceway retained as a course candidate. Named-layout association requires review.",
      "Source way order and shared node IDs are retained. No nearby endpoints are joined and no reference boundaries are read.",
      "Draft association of the supplied venue-level entry to the existing independently mapped full course at Ebisu Circuit. This venue has one supplied entry and one retained independent course, with a timing point on that course. Source trace distance 2029 m; supplied distance 2040 m. The association preserves the independent source geometry and remains provisional where corner configurations or historical distances differ."
    ]
  },
  "features": [
    {
      "type": "Feature",
      "id": "trace",
      "properties": {
        "role": "trace",
        "sourceIds": [
          "osm-snapshot"
        ]
      },
      "geometry": {
        "type": "LineString",
        "coordinates": [
          [
            140.3750465,
            37.6421784
          ],
          [
            140.3749506,
            37.6421366
          ],
          [
            140.3747765,
            37.6421146
          ],
          [
            140.3746305,
            37.6421016
          ],
          [
            140.3745565,
            37.6421146
          ],
          [
            140.3742415,
            37.6422606
          ],
          [
            140.3740685,
            37.6423726
          ],
          [
            140.3738855,
            37.6425566
          ],
          [
            140.3737645,
            37.6427066
          ],
          [
            140.3736805,
            37.6428446
          ],
          [
            140.3736175,
            37.6429196
          ],
          [
            140.3734675,
            37.643017
          ],
          [
            140.3729562,
            37.6433487
          ],
          [
            140.3724885,
            37.6435956
          ],
          [
            140.372312,
            37.643681
          ],
          [
            140.3698756,
            37.644659
          ],
          [
            140.3695235,
            37.6447964
          ],
          [
            140.3693036,
            37.6449221
          ],
          [
            140.3692586,
            37.6449776
          ],
          [
            140.369207,
            37.6450411
          ],
          [
            140.3691803,
            37.6451459
          ],
          [
            140.3691953,
            37.6452542
          ],
          [
            140.3692613,
            37.6453658
          ],
          [
            140.3693893,
            37.6454489
          ],
          [
            140.3695926,
            37.645472
          ],
          [
            140.369825,
            37.64543
          ],
          [
            140.3704727,
            37.6452104
          ],
          [
            140.3706172,
            37.6451726
          ],
          [
            140.3709525,
            37.6451398
          ],
          [
            140.371317,
            37.645156
          ],
          [
            140.371437,
            37.645197
          ],
          [
            140.3715697,
            37.6453115
          ],
          [
            140.3716513,
            37.6454083
          ],
          [
            140.3717926,
            37.6454837
          ],
          [
            140.3719692,
            37.6455333
          ],
          [
            140.3721792,
            37.6455691
          ],
          [
            140.3724903,
            37.6455633
          ],
          [
            140.3727063,
            37.6455173
          ],
          [
            140.372992,
            37.6454142
          ],
          [
            140.3733936,
            37.6452333
          ],
          [
            140.374502,
            37.6446968
          ],
          [
            140.3745743,
            37.6446203
          ],
          [
            140.3746006,
            37.6445471
          ],
          [
            140.3745959,
            37.6444455
          ],
          [
            140.3745583,
            37.6443687
          ],
          [
            140.3744889,
            37.6443055
          ],
          [
            140.3744063,
            37.6442783
          ],
          [
            140.3742483,
            37.6442733
          ],
          [
            140.3740873,
            37.6442989
          ],
          [
            140.3737949,
            37.6443881
          ],
          [
            140.3732107,
            37.6446237
          ],
          [
            140.3729893,
            37.6446903
          ],
          [
            140.3725129,
            37.6447863
          ],
          [
            140.3719561,
            37.6448347
          ],
          [
            140.3716367,
            37.6448451
          ],
          [
            140.3715111,
            37.6448246
          ],
          [
            140.3714312,
            37.6447903
          ],
          [
            140.3713628,
            37.6447413
          ],
          [
            140.3713435,
            37.6446653
          ],
          [
            140.3713395,
            37.6445905
          ],
          [
            140.3714019,
            37.6445239
          ],
          [
            140.3714792,
            37.6444784
          ],
          [
            140.371798,
            37.6444345
          ],
          [
            140.3720168,
            37.6444081
          ],
          [
            140.3723478,
            37.6443661
          ],
          [
            140.3727998,
            37.6442831
          ],
          [
            140.3729378,
            37.6442343
          ],
          [
            140.3732503,
            37.6441249
          ],
          [
            140.3736786,
            37.6439627
          ],
          [
            140.3744366,
            37.6436727
          ],
          [
            140.3746008,
            37.6436016
          ],
          [
            140.3747298,
            37.6435231
          ],
          [
            140.3749088,
            37.6433731
          ],
          [
            140.3749971,
            37.6432156
          ],
          [
            140.3750868,
            37.64297
          ],
          [
            140.3752268,
            37.6425949
          ],
          [
            140.3752658,
            37.6424381
          ],
          [
            140.3752398,
            37.6423261
          ],
          [
            140.3751868,
            37.6422541
          ],
          [
            140.3750465,
            37.6421784
          ]
        ]
      }
    }
  ]
}
