{
  "type": "FeatureCollection",
  "bbox": [
    0.906288,
    50.9335477,
    0.9078165,
    50.9368125
  ],
  "metadata": {
    "schemaVersion": 1,
    "trackId": "gb-lydd-karting-circuit-6376d69a",
    "layoutId": "lydd-karting-circuit",
    "license": "ODbL-1.0",
    "attribution": "© OpenStreetMap contributors",
    "closed": true,
    "geometryStatus": "draft",
    "timingStatus": "missing",
    "timingMode": "shared",
    "lengthM": 900.9,
    "reviewedAt": null,
    "notes": [
      "Draft configuration: Full kart course includes the northern and central hairpins and direct southern return, excluding the additional southern spur. Branch identity was checked against catalogue layout facts and circuit identification references. Independent source distance 900.9 m; no coordinates are changed to match a diagram or distance. Travel direction and historical alignment remain provisional."
    ]
  },
  "features": [
    {
      "type": "Feature",
      "id": "trace",
      "properties": {
        "role": "trace",
        "sourceIds": [
          "osm-selection-95707358"
        ]
      },
      "geometry": {
        "type": "LineString",
        "coordinates": [
          [
            0.9078165,
            50.9337169
          ],
          [
            0.9078114,
            50.9338113
          ],
          [
            0.907781,
            50.9340117
          ],
          [
            0.9077818,
            50.9340632
          ],
          [
            0.9077764,
            50.934257
          ],
          [
            0.9077679,
            50.9345184
          ],
          [
            0.9077702,
            50.9348332
          ],
          [
            0.907764,
            50.9351033
          ],
          [
            0.9077618,
            50.9351924
          ],
          [
            0.9077496,
            50.9352146
          ],
          [
            0.9077275,
            50.9352325
          ],
          [
            0.9076986,
            50.9352461
          ],
          [
            0.9076511,
            50.93526
          ],
          [
            0.907487,
            50.9352917
          ],
          [
            0.9074018,
            50.9353124
          ],
          [
            0.9073491,
            50.9353315
          ],
          [
            0.9073059,
            50.9353539
          ],
          [
            0.9072704,
            50.9353817
          ],
          [
            0.9072333,
            50.9354197
          ],
          [
            0.9072028,
            50.935462
          ],
          [
            0.9071857,
            50.9355181
          ],
          [
            0.9071875,
            50.9355679
          ],
          [
            0.9072081,
            50.9356185
          ],
          [
            0.9072421,
            50.9356632
          ],
          [
            0.9072922,
            50.9357078
          ],
          [
            0.9073546,
            50.9357442
          ],
          [
            0.9074143,
            50.9357671
          ],
          [
            0.9074815,
            50.9357801
          ],
          [
            0.9075487,
            50.9357905
          ],
          [
            0.9076071,
            50.9358059
          ],
          [
            0.9076444,
            50.9358256
          ],
          [
            0.9076749,
            50.9358567
          ],
          [
            0.9076888,
            50.9358951
          ],
          [
            0.907684,
            50.9359369
          ],
          [
            0.9076652,
            50.9359859
          ],
          [
            0.9076277,
            50.936051
          ],
          [
            0.9075949,
            50.9360955
          ],
          [
            0.9075513,
            50.9361349
          ],
          [
            0.9074887,
            50.936172
          ],
          [
            0.9074101,
            50.9362092
          ],
          [
            0.9071894,
            50.9363018
          ],
          [
            0.9071392,
            50.9363253
          ],
          [
            0.9070864,
            50.9363573
          ],
          [
            0.90703,
            50.9364113
          ],
          [
            0.9069133,
            50.9365464
          ],
          [
            0.9068044,
            50.9366599
          ],
          [
            0.9067067,
            50.9367527
          ],
          [
            0.9066566,
            50.9367843
          ],
          [
            0.9065984,
            50.9368058
          ],
          [
            0.9065385,
            50.9368125
          ],
          [
            0.9064739,
            50.9368081
          ],
          [
            0.9064121,
            50.9367969
          ],
          [
            0.9063572,
            50.9367671
          ],
          [
            0.9063196,
            50.936733
          ],
          [
            0.9062928,
            50.9366914
          ],
          [
            0.906288,
            50.9366463
          ],
          [
            0.9064313,
            50.936332
          ],
          [
            0.9064646,
            50.9362797
          ],
          [
            0.9065027,
            50.9362436
          ],
          [
            0.9065538,
            50.9362099
          ],
          [
            0.9066155,
            50.9361846
          ],
          [
            0.9067732,
            50.9361415
          ],
          [
            0.906912,
            50.9361153
          ],
          [
            0.9069663,
            50.9360974
          ],
          [
            0.9069947,
            50.936073
          ],
          [
            0.9070205,
            50.9360367
          ],
          [
            0.9070302,
            50.9359893
          ],
          [
            0.9070146,
            50.9359499
          ],
          [
            0.9069781,
            50.9359205
          ],
          [
            0.906917,
            50.9359045
          ],
          [
            0.9068385,
            50.9358943
          ],
          [
            0.906783,
            50.9358777
          ],
          [
            0.9067275,
            50.935851
          ],
          [
            0.9066993,
            50.935821
          ],
          [
            0.9066791,
            50.9357842
          ],
          [
            0.906672,
            50.9357498
          ],
          [
            0.9066783,
            50.9357153
          ],
          [
            0.9069439,
            50.9350438
          ],
          [
            0.9069889,
            50.9350042
          ],
          [
            0.9071529,
            50.9348947
          ],
          [
            0.9073304,
            50.9347716
          ],
          [
            0.9073573,
            50.9347496
          ],
          [
            0.9073707,
            50.9347293
          ],
          [
            0.9073761,
            50.9347073
          ],
          [
            0.907372,
            50.934687
          ],
          [
            0.9073627,
            50.9346684
          ],
          [
            0.9073466,
            50.9346498
          ],
          [
            0.9073211,
            50.9346321
          ],
          [
            0.9072896,
            50.9346152
          ],
          [
            0.9072358,
            50.9345978
          ],
          [
            0.9071895,
            50.934587
          ],
          [
            0.9071427,
            50.9345692
          ],
          [
            0.9070863,
            50.9345343
          ],
          [
            0.9070637,
            50.9345044
          ],
          [
            0.9070522,
            50.9344633
          ],
          [
            0.9070758,
            50.9341523
          ],
          [
            0.9071558,
            50.9337191
          ],
          [
            0.9071798,
            50.9336607
          ],
          [
            0.9072074,
            50.9336192
          ],
          [
            0.907241,
            50.933588
          ],
          [
            0.9072897,
            50.9335631
          ],
          [
            0.9073527,
            50.933548
          ],
          [
            0.9074257,
            50.9335477
          ],
          [
            0.9076973,
            50.9336025
          ],
          [
            0.9077649,
            50.9336264
          ],
          [
            0.9077992,
            50.9336518
          ],
          [
            0.9078129,
            50.9336807
          ],
          [
            0.9078165,
            50.9337169
          ]
        ]
      }
    }
  ]
}
