{
  "type": "FeatureCollection",
  "bbox": [
    13.1529949,
    47.8206479,
    13.1770807,
    47.8243104
  ],
  "metadata": {
    "schemaVersion": 1,
    "trackId": "at-salzburgring",
    "layoutId": "grand-prix",
    "license": "ODbL-1.0",
    "attribution": "© OpenStreetMap contributors",
    "closed": true,
    "geometryStatus": "draft",
    "timingStatus": "missing",
    "timingMode": "shared",
    "lengthM": 4213.4,
    "reviewedAt": null,
    "notes": [
      "Draft route assembled from the connected main raceway ways. OSM one-way directions are retained.",
      "The pit lane, training loop, and mapped area are excluded. Visual review is still required."
    ]
  },
  "features": [
    {
      "type": "Feature",
      "id": "trace",
      "properties": {
        "role": "trace",
        "sourceIds": [
          "osm-snapshot"
        ]
      },
      "geometry": {
        "type": "LineString",
        "coordinates": [
          [
            13.1719266,
            47.8234795
          ],
          [
            13.1714944,
            47.8234461
          ],
          [
            13.1691635,
            47.8230866
          ],
          [
            13.1690354,
            47.823061
          ],
          [
            13.1652205,
            47.8224466
          ],
          [
            13.1609758,
            47.821744
          ],
          [
            13.1601463,
            47.8215817
          ],
          [
            13.1600546,
            47.8215693
          ],
          [
            13.1599586,
            47.8216116
          ],
          [
            13.1599265,
            47.8217337
          ],
          [
            13.1598785,
            47.8217866
          ],
          [
            13.1597312,
            47.8217898
          ],
          [
            13.1589163,
            47.8216859
          ],
          [
            13.1586274,
            47.821689
          ],
          [
            13.1582651,
            47.82172
          ],
          [
            13.1572478,
            47.821933
          ],
          [
            13.1554649,
            47.8223137
          ],
          [
            13.1549897,
            47.8223885
          ],
          [
            13.1545298,
            47.8224273
          ],
          [
            13.1538034,
            47.8224385
          ],
          [
            13.1535669,
            47.8224696
          ],
          [
            13.1533496,
            47.8225243
          ],
          [
            13.1531614,
            47.8226376
          ],
          [
            13.1530377,
            47.8227736
          ],
          [
            13.1529949,
            47.8229076
          ],
          [
            13.1530253,
            47.823042
          ],
          [
            13.1531158,
            47.8231612
          ],
          [
            13.1532562,
            47.8232641
          ],
          [
            13.1534302,
            47.8233389
          ],
          [
            13.1536671,
            47.8233803
          ],
          [
            13.1540056,
            47.8233985
          ],
          [
            13.1543246,
            47.8233819
          ],
          [
            13.154615,
            47.8233262
          ],
          [
            13.1571416,
            47.8225849
          ],
          [
            13.1577667,
            47.8224321
          ],
          [
            13.1584339,
            47.822318
          ],
          [
            13.1590942,
            47.8222509
          ],
          [
            13.159544,
            47.8222307
          ],
          [
            13.1601181,
            47.8222237
          ],
          [
            13.1606252,
            47.8222472
          ],
          [
            13.1612163,
            47.8222948
          ],
          [
            13.1635934,
            47.8226443
          ],
          [
            13.1643971,
            47.8227983
          ],
          [
            13.165104,
            47.8229661
          ],
          [
            13.1670505,
            47.8234898
          ],
          [
            13.1673903,
            47.8235674
          ],
          [
            13.1677035,
            47.8236311
          ],
          [
            13.1683706,
            47.8237429
          ],
          [
            13.1689168,
            47.8237981
          ],
          [
            13.1694388,
            47.8238261
          ],
          [
            13.1710252,
            47.8238649
          ],
          [
            13.1716557,
            47.8239453
          ],
          [
            13.1721292,
            47.8240222
          ],
          [
            13.172906,
            47.824189
          ],
          [
            13.1734407,
            47.8242847
          ],
          [
            13.1739092,
            47.8243104
          ],
          [
            13.1742483,
            47.8243063
          ],
          [
            13.1746677,
            47.8242664
          ],
          [
            13.1750173,
            47.824197
          ],
          [
            13.1753142,
            47.8241166
          ],
          [
            13.1756221,
            47.824
          ],
          [
            13.17589,
            47.8238539
          ],
          [
            13.1761599,
            47.8236574
          ],
          [
            13.1763745,
            47.8234448
          ],
          [
            13.1765642,
            47.8232061
          ],
          [
            13.1767349,
            47.8229205
          ],
          [
            13.176878,
            47.8225883
          ],
          [
            13.1770011,
            47.8221899
          ],
          [
            13.1770573,
            47.8218189
          ],
          [
            13.1770807,
            47.8215156
          ],
          [
            13.1770626,
            47.8212997
          ],
          [
            13.1770137,
            47.821116
          ],
          [
            13.1769148,
            47.8209458
          ],
          [
            13.1767485,
            47.8208065
          ],
          [
            13.1765937,
            47.8207253
          ],
          [
            13.176393,
            47.820667
          ],
          [
            13.1761687,
            47.8206479
          ],
          [
            13.1759563,
            47.8206665
          ],
          [
            13.1757874,
            47.8207075
          ],
          [
            13.1755831,
            47.8208073
          ],
          [
            13.1754224,
            47.8209326
          ],
          [
            13.1752984,
            47.8210888
          ],
          [
            13.1752044,
            47.8212541
          ],
          [
            13.1751006,
            47.82167
          ],
          [
            13.1750273,
            47.8219308
          ],
          [
            13.1749418,
            47.8221266
          ],
          [
            13.1748913,
            47.8222288
          ],
          [
            13.1748156,
            47.8223152
          ],
          [
            13.1747067,
            47.8223989
          ],
          [
            13.17453,
            47.8224509
          ],
          [
            13.174013,
            47.8225094
          ],
          [
            13.1737805,
            47.8225614
          ],
          [
            13.1736042,
            47.8226369
          ],
          [
            13.1734454,
            47.8227541
          ],
          [
            13.1731257,
            47.8231675
          ],
          [
            13.1729633,
            47.8232844
          ],
          [
            13.1728097,
            47.8233688
          ],
          [
            13.1725431,
            47.8234447
          ],
          [
            13.1722867,
            47.8234764
          ],
          [
            13.1719266,
            47.8234795
          ]
        ]
      }
    }
  ]
}
