{
  "type": "FeatureCollection",
  "bbox": [
    5.7781159,
    43.2547991,
    5.7869868,
    43.2586468
  ],
  "metadata": {
    "schemaVersion": 1,
    "trackId": "fr-paul-ricard",
    "layoutId": "paul-ricard-piste-gt",
    "license": "ODbL-1.0",
    "attribution": "© OpenStreetMap contributors",
    "closed": true,
    "geometryStatus": "draft",
    "timingStatus": "missing",
    "timingMode": "shared",
    "lengthM": 1804.2,
    "reviewedAt": null,
    "notes": [
      "Draft western school-course association. The circuit operator identifies a separate 1.8 km school configuration. The pinned 1804.2 m connected route uses the Hôtel and Sainte-Baume corners and the short connection between the Mistral and western return section. The supplied course distance is 1786 m. Contemporary driving-school offers also call a longer 2.0 km configuration Piste GT, so the historical name and exact configuration remain provisional. All geometry is unchanged independent OSM data."
    ]
  },
  "features": [
    {
      "type": "Feature",
      "id": "trace",
      "properties": {
        "role": "trace",
        "sourceIds": [
          "osm-snapshot"
        ]
      },
      "geometry": {
        "type": "LineString",
        "coordinates": [
          [
            5.7811529,
            43.2570181
          ],
          [
            5.7838132,
            43.2562906
          ],
          [
            5.7843548,
            43.2561437
          ],
          [
            5.7869349,
            43.255444
          ],
          [
            5.7869597,
            43.2554302
          ],
          [
            5.7869786,
            43.2554125
          ],
          [
            5.7869866,
            43.255391
          ],
          [
            5.7869868,
            43.2553696
          ],
          [
            5.7869786,
            43.2553441
          ],
          [
            5.7869653,
            43.2553169
          ],
          [
            5.7869412,
            43.2552798
          ],
          [
            5.7868929,
            43.2552231
          ],
          [
            5.7868471,
            43.2551781
          ],
          [
            5.7867694,
            43.2551156
          ],
          [
            5.7866782,
            43.2550609
          ],
          [
            5.7865467,
            43.2549964
          ],
          [
            5.7864047,
            43.2549379
          ],
          [
            5.7863055,
            43.2549012
          ],
          [
            5.7862223,
            43.2548795
          ],
          [
            5.7861322,
            43.2548636
          ],
          [
            5.785995,
            43.2548479
          ],
          [
            5.7857986,
            43.2548337
          ],
          [
            5.7853505,
            43.2548167
          ],
          [
            5.7851118,
            43.2548089
          ],
          [
            5.7849911,
            43.254803
          ],
          [
            5.7849213,
            43.2548011
          ],
          [
            5.7848462,
            43.2547991
          ],
          [
            5.7847872,
            43.2547991
          ],
          [
            5.7847148,
            43.2548011
          ],
          [
            5.7846129,
            43.254805
          ],
          [
            5.7845217,
            43.2548108
          ],
          [
            5.7844063,
            43.2548226
          ],
          [
            5.7843044,
            43.2548343
          ],
          [
            5.7842053,
            43.254848
          ],
          [
            5.7841032,
            43.2548655
          ],
          [
            5.7840316,
            43.2548775
          ],
          [
            5.7839646,
            43.2548921
          ],
          [
            5.7838907,
            43.2549092
          ],
          [
            5.7838208,
            43.254933
          ],
          [
            5.7837557,
            43.2549594
          ],
          [
            5.7836787,
            43.2549965
          ],
          [
            5.7834745,
            43.2551102
          ],
          [
            5.7829275,
            43.2554154
          ],
          [
            5.7828079,
            43.255479
          ],
          [
            5.7826884,
            43.2555393
          ],
          [
            5.7826327,
            43.2555675
          ],
          [
            5.782578,
            43.2555952
          ],
          [
            5.7824747,
            43.2556434
          ],
          [
            5.7823836,
            43.2556839
          ],
          [
            5.7823064,
            43.2557165
          ],
          [
            5.7822237,
            43.2557499
          ],
          [
            5.7821408,
            43.2557835
          ],
          [
            5.7820528,
            43.2558189
          ],
          [
            5.7819658,
            43.2558493
          ],
          [
            5.7818773,
            43.2558784
          ],
          [
            5.7817759,
            43.2559059
          ],
          [
            5.781641,
            43.255943
          ],
          [
            5.7814812,
            43.2559871
          ],
          [
            5.7812948,
            43.2560415
          ],
          [
            5.7810878,
            43.25611
          ],
          [
            5.7808614,
            43.2561958
          ],
          [
            5.780638,
            43.2562844
          ],
          [
            5.7804518,
            43.2563629
          ],
          [
            5.7803328,
            43.2564153
          ],
          [
            5.7802329,
            43.2564589
          ],
          [
            5.7801219,
            43.2565065
          ],
          [
            5.7800195,
            43.2565536
          ],
          [
            5.7799247,
            43.2565983
          ],
          [
            5.7798516,
            43.2566381
          ],
          [
            5.779825,
            43.2566535
          ],
          [
            5.7797979,
            43.2566724
          ],
          [
            5.7797753,
            43.2566922
          ],
          [
            5.7797499,
            43.2567174
          ],
          [
            5.7797263,
            43.2567472
          ],
          [
            5.7797103,
            43.2567767
          ],
          [
            5.779697,
            43.2568081
          ],
          [
            5.7796903,
            43.2568378
          ],
          [
            5.7796857,
            43.2568731
          ],
          [
            5.7796857,
            43.2569018
          ],
          [
            5.7796874,
            43.2569296
          ],
          [
            5.7796974,
            43.2569829
          ],
          [
            5.7797354,
            43.2571725
          ],
          [
            5.7797407,
            43.2572097
          ],
          [
            5.7797411,
            43.2572504
          ],
          [
            5.7797372,
            43.2572905
          ],
          [
            5.7797237,
            43.2573302
          ],
          [
            5.7797053,
            43.2573716
          ],
          [
            5.7796762,
            43.2574153
          ],
          [
            5.7796435,
            43.257453
          ],
          [
            5.7796092,
            43.257483
          ],
          [
            5.7795775,
            43.2575078
          ],
          [
            5.779533,
            43.2575341
          ],
          [
            5.7794904,
            43.2575556
          ],
          [
            5.7794429,
            43.2575797
          ],
          [
            5.7793979,
            43.2575962
          ],
          [
            5.779353,
            43.2576086
          ],
          [
            5.7793121,
            43.2576202
          ],
          [
            5.7792677,
            43.2576268
          ],
          [
            5.7792161,
            43.257632
          ],
          [
            5.7791714,
            43.2576355
          ],
          [
            5.7791256,
            43.2576388
          ],
          [
            5.7790761,
            43.2576386
          ],
          [
            5.7790259,
            43.2576352
          ],
          [
            5.7783794,
            43.2575825
          ],
          [
            5.7783272,
            43.2575784
          ],
          [
            5.778282,
            43.2575787
          ],
          [
            5.7782402,
            43.2575835
          ],
          [
            5.7782072,
            43.2575903
          ],
          [
            5.7781834,
            43.257599
          ],
          [
            5.778162,
            43.2576093
          ],
          [
            5.7781473,
            43.2576212
          ],
          [
            5.7781313,
            43.2576385
          ],
          [
            5.7781236,
            43.2576539
          ],
          [
            5.778117,
            43.2576735
          ],
          [
            5.7781159,
            43.2576851
          ],
          [
            5.7781197,
            43.2577036
          ],
          [
            5.7781288,
            43.2577281
          ],
          [
            5.778143,
            43.2577566
          ],
          [
            5.7781553,
            43.2577799
          ],
          [
            5.7781724,
            43.2578116
          ],
          [
            5.7783066,
            43.2580978
          ],
          [
            5.7784301,
            43.2583528
          ],
          [
            5.7784534,
            43.258398
          ],
          [
            5.77847,
            43.2584296
          ],
          [
            5.7784891,
            43.2584556
          ],
          [
            5.778521,
            43.258489
          ],
          [
            5.7785491,
            43.2585149
          ],
          [
            5.7785975,
            43.2585466
          ],
          [
            5.778637,
            43.2585661
          ],
          [
            5.7787116,
            43.2585998
          ],
          [
            5.778776,
            43.2586171
          ],
          [
            5.7788448,
            43.2586329
          ],
          [
            5.7789277,
            43.2586431
          ],
          [
            5.7790106,
            43.2586468
          ],
          [
            5.7790652,
            43.2586438
          ],
          [
            5.7791105,
            43.2586384
          ],
          [
            5.7791607,
            43.2586293
          ],
          [
            5.779217,
            43.258614
          ],
          [
            5.7792809,
            43.2585931
          ],
          [
            5.7793678,
            43.2585628
          ],
          [
            5.779457,
            43.2585252
          ],
          [
            5.7795731,
            43.2584703
          ],
          [
            5.7796929,
            43.2584064
          ],
          [
            5.7797988,
            43.2583394
          ],
          [
            5.7799156,
            43.2582559
          ],
          [
            5.7800252,
            43.2581656
          ],
          [
            5.7801128,
            43.2580769
          ],
          [
            5.7802196,
            43.2579491
          ],
          [
            5.7803217,
            43.2578066
          ],
          [
            5.7803971,
            43.2576768
          ],
          [
            5.7804722,
            43.2575439
          ],
          [
            5.7805487,
            43.2574115
          ],
          [
            5.7805793,
            43.2573617
          ],
          [
            5.7806053,
            43.2573225
          ],
          [
            5.7806374,
            43.2572827
          ],
          [
            5.7806641,
            43.2572475
          ],
          [
            5.7806954,
            43.2572156
          ],
          [
            5.780745,
            43.2571769
          ],
          [
            5.7807939,
            43.2571483
          ],
          [
            5.7808533,
            43.2571194
          ],
          [
            5.7809378,
            43.2570842
          ],
          [
            5.78104,
            43.2570498
          ],
          [
            5.7811529,
            43.2570181
          ]
        ]
      }
    }
  ]
}
