{
  "type": "FeatureCollection",
  "bbox": [
    36.2518364,
    55.9968491,
    36.2582197,
    55.9998945
  ],
  "metadata": {
    "schemaVersion": 1,
    "trackId": "ru-moscow-raceway-168247376",
    "layoutId": "moscow-supersprint",
    "license": "ODbL-1.0",
    "attribution": "© OpenStreetMap contributors",
    "closed": true,
    "geometryStatus": "draft",
    "timingStatus": "missing",
    "timingMode": "shared",
    "lengthM": 1345.2,
    "reviewedAt": null,
    "notes": [
      "The operator Supersprint highlighted configuration identifies the western circuit closed by the short Supersprint return, retaining the full western bend. The pinned independent source route measures 1345.2 m; the operator states 1357 m. Parallel pit and service routes are excluded. Exact source coordinates are unchanged; historical alignment and direction remain provisional."
    ]
  },
  "features": [
    {
      "type": "Feature",
      "id": "trace",
      "properties": {
        "role": "trace",
        "sourceIds": [
          "osm-components-168247376"
        ]
      },
      "geometry": {
        "type": "LineString",
        "coordinates": [
          [
            36.257358,
            55.9977553
          ],
          [
            36.2557948,
            55.9982708
          ],
          [
            36.2557487,
            55.998277
          ],
          [
            36.2556964,
            55.998277
          ],
          [
            36.255601,
            55.9982743
          ],
          [
            36.2555125,
            55.9982693
          ],
          [
            36.2554161,
            55.998257
          ],
          [
            36.2553246,
            55.9982349
          ],
          [
            36.2552462,
            55.9982057
          ],
          [
            36.2551239,
            55.9981211
          ],
          [
            36.2550492,
            55.9980157
          ],
          [
            36.2550224,
            55.9978803
          ],
          [
            36.255351,
            55.9972439
          ],
          [
            36.2553833,
            55.9971552
          ],
          [
            36.2553572,
            55.9970421
          ],
          [
            36.2552438,
            55.9969549
          ],
          [
            36.2551093,
            55.9968995
          ],
          [
            36.2549605,
            55.9968582
          ],
          [
            36.254794,
            55.9968491
          ],
          [
            36.2520484,
            55.9971617
          ],
          [
            36.251935,
            55.9972053
          ],
          [
            36.2518682,
            55.9972658
          ],
          [
            36.2518364,
            55.9973508
          ],
          [
            36.2518631,
            55.9974307
          ],
          [
            36.2519377,
            55.9975031
          ],
          [
            36.2520519,
            55.9975473
          ],
          [
            36.253366,
            55.9978861
          ],
          [
            36.2535681,
            55.997977
          ],
          [
            36.2537164,
            55.9980821
          ],
          [
            36.2537672,
            55.9981853
          ],
          [
            36.2537726,
            55.9982807
          ],
          [
            36.2537464,
            55.9983389
          ],
          [
            36.253686,
            55.9984729
          ],
          [
            36.2532037,
            55.9991691
          ],
          [
            36.2532004,
            55.999254
          ],
          [
            36.2532399,
            55.9993192
          ],
          [
            36.2533402,
            55.9993915
          ],
          [
            36.2534858,
            55.9994526
          ],
          [
            36.2543173,
            55.9996441
          ],
          [
            36.2553698,
            55.9998864
          ],
          [
            36.2554457,
            55.9998945
          ],
          [
            36.2555183,
            55.9998945
          ],
          [
            36.2555838,
            55.9998886
          ],
          [
            36.2556621,
            55.9998703
          ],
          [
            36.2557896,
            55.9998159
          ],
          [
            36.2558892,
            55.9997492
          ],
          [
            36.2559512,
            55.9996588
          ],
          [
            36.2560707,
            55.9991831
          ],
          [
            36.2560856,
            55.9991516
          ],
          [
            36.2560972,
            55.9991398
          ],
          [
            36.2561141,
            55.9991302
          ],
          [
            36.2561371,
            55.9991202
          ],
          [
            36.2561656,
            55.9991117
          ],
          [
            36.2562264,
            55.9990976
          ],
          [
            36.2562834,
            55.9990861
          ],
          [
            36.2563119,
            55.9990813
          ],
          [
            36.2563431,
            55.9990783
          ],
          [
            36.2571335,
            55.9990643
          ],
          [
            36.2571712,
            55.9990636
          ],
          [
            36.2572215,
            55.9990578
          ],
          [
            36.2573185,
            55.9990218
          ],
          [
            36.2577431,
            55.9988134
          ],
          [
            36.2582197,
            55.9983115
          ],
          [
            36.2582064,
            55.9981856
          ],
          [
            36.2580205,
            55.9979957
          ],
          [
            36.2579354,
            55.9979269
          ],
          [
            36.2578326,
            55.9978435
          ],
          [
            36.2577713,
            55.9978032
          ],
          [
            36.2577019,
            55.9977823
          ],
          [
            36.257358,
            55.9977553
          ]
        ]
      }
    }
  ]
}
