{
  "type": "FeatureCollection",
  "bbox": [
    -55.1808247,
    -27.495774,
    -55.1741063,
    -27.490869
  ],
  "metadata": {
    "schemaVersion": 1,
    "trackId": "ar-autodromo-de-obera-47075845",
    "layoutId": "autodromo-ciudad-de-obera-no-1",
    "license": "ODbL-1.0",
    "attribution": "© OpenStreetMap contributors",
    "closed": true,
    "geometryStatus": "draft",
    "timingStatus": "missing",
    "timingMode": "shared",
    "lengthM": 2698.8,
    "reviewedAt": null,
    "notes": [
      "Draft configuration: Short configuration retains the tight southern double-back and inner kink. Branch identity was checked against catalogue layout facts and circuit identification references. Independent source distance 2698.8 m; no coordinates are changed to match a diagram or distance. Travel direction and historical alignment remain provisional."
    ]
  },
  "features": [
    {
      "type": "Feature",
      "id": "trace",
      "properties": {
        "role": "trace",
        "sourceIds": [
          "osm-selection-47075845"
        ]
      },
      "geometry": {
        "type": "LineString",
        "coordinates": [
          [
            -55.1808247,
            -27.4919591
          ],
          [
            -55.1808177,
            -27.4918191
          ],
          [
            -55.1807707,
            -27.4917082
          ],
          [
            -55.1807238,
            -27.4916289
          ],
          [
            -55.1806214,
            -27.4915386
          ],
          [
            -55.17937,
            -27.4910465
          ],
          [
            -55.1790345,
            -27.4909211
          ],
          [
            -55.1788266,
            -27.490869
          ],
          [
            -55.1786434,
            -27.490877
          ],
          [
            -55.1784852,
            -27.4909432
          ],
          [
            -55.1783516,
            -27.4910476
          ],
          [
            -55.1775553,
            -27.4917801
          ],
          [
            -55.1773867,
            -27.4919205
          ],
          [
            -55.1772276,
            -27.4919983
          ],
          [
            -55.1770864,
            -27.4920318
          ],
          [
            -55.1769514,
            -27.4920379
          ],
          [
            -55.1766157,
            -27.4920044
          ],
          [
            -55.1749891,
            -27.4917146
          ],
          [
            -55.1748104,
            -27.4917017
          ],
          [
            -55.1746272,
            -27.4917516
          ],
          [
            -55.1745056,
            -27.4918236
          ],
          [
            -55.1743657,
            -27.4919422
          ],
          [
            -55.1742792,
            -27.4920445
          ],
          [
            -55.1741353,
            -27.492332
          ],
          [
            -55.1741063,
            -27.4924838
          ],
          [
            -55.1741258,
            -27.4925788
          ],
          [
            -55.1741638,
            -27.4926573
          ],
          [
            -55.1742512,
            -27.4927181
          ],
          [
            -55.1744354,
            -27.4927848
          ],
          [
            -55.1746936,
            -27.4928094
          ],
          [
            -55.1749783,
            -27.4928188
          ],
          [
            -55.1763688,
            -27.4928074
          ],
          [
            -55.1764672,
            -27.4928101
          ],
          [
            -55.1765883,
            -27.4928505
          ],
          [
            -55.1766788,
            -27.4929068
          ],
          [
            -55.1767864,
            -27.4929763
          ],
          [
            -55.176931,
            -27.4930076
          ],
          [
            -55.1770414,
            -27.4930044
          ],
          [
            -55.177205,
            -27.4929525
          ],
          [
            -55.1777437,
            -27.4926399
          ],
          [
            -55.1778845,
            -27.4925829
          ],
          [
            -55.1779794,
            -27.4925869
          ],
          [
            -55.1780496,
            -27.4926238
          ],
          [
            -55.178115,
            -27.4926976
          ],
          [
            -55.1781651,
            -27.4928096
          ],
          [
            -55.1781438,
            -27.4929149
          ],
          [
            -55.1780732,
            -27.4930201
          ],
          [
            -55.1780027,
            -27.4931023
          ],
          [
            -55.1778771,
            -27.4932087
          ],
          [
            -55.176532,
            -27.4940679
          ],
          [
            -55.1763359,
            -27.4941476
          ],
          [
            -55.1761511,
            -27.4941785
          ],
          [
            -55.175985,
            -27.4941728
          ],
          [
            -55.1758137,
            -27.4941311
          ],
          [
            -55.1756484,
            -27.4940621
          ],
          [
            -55.1751072,
            -27.4937146
          ],
          [
            -55.1749763,
            -27.4936801
          ],
          [
            -55.1748316,
            -27.4936759
          ],
          [
            -55.1747046,
            -27.4937281
          ],
          [
            -55.174577,
            -27.4938236
          ],
          [
            -55.1745071,
            -27.4939375
          ],
          [
            -55.1744656,
            -27.4940334
          ],
          [
            -55.174461,
            -27.4941292
          ],
          [
            -55.1744988,
            -27.4942136
          ],
          [
            -55.1745556,
            -27.494281
          ],
          [
            -55.1746692,
            -27.4943249
          ],
          [
            -55.1751666,
            -27.4944295
          ],
          [
            -55.1753136,
            -27.4945188
          ],
          [
            -55.1753784,
            -27.494617
          ],
          [
            -55.1753997,
            -27.4947667
          ],
          [
            -55.1753564,
            -27.4948727
          ],
          [
            -55.1751824,
            -27.4950878
          ],
          [
            -55.1750651,
            -27.4952356
          ],
          [
            -55.1750048,
            -27.4953505
          ],
          [
            -55.1749893,
            -27.4954385
          ],
          [
            -55.174986,
            -27.495457
          ],
          [
            -55.1750158,
            -27.4955556
          ],
          [
            -55.1750768,
            -27.4956361
          ],
          [
            -55.1751562,
            -27.4956947
          ],
          [
            -55.1752865,
            -27.4957575
          ],
          [
            -55.1754384,
            -27.495774
          ],
          [
            -55.1756026,
            -27.4957131
          ],
          [
            -55.1760263,
            -27.4954252
          ],
          [
            -55.1771846,
            -27.4946102
          ],
          [
            -55.1775869,
            -27.4941701
          ],
          [
            -55.1776824,
            -27.4940936
          ],
          [
            -55.1778088,
            -27.4940253
          ],
          [
            -55.1779967,
            -27.4939187
          ],
          [
            -55.1798792,
            -27.4925549
          ],
          [
            -55.1803651,
            -27.4923721
          ],
          [
            -55.1806152,
            -27.4921962
          ],
          [
            -55.1807498,
            -27.4920871
          ],
          [
            -55.1808247,
            -27.4919591
          ]
        ]
      }
    }
  ]
}
