{
  "type": "FeatureCollection",
  "bbox": [
    13.5904103,
    50.5158138,
    13.6133261,
    50.5217839
  ],
  "metadata": {
    "schemaVersion": 1,
    "trackId": "cz-autodrom-most-60905520",
    "layoutId": "main",
    "license": "ODbL-1.0",
    "attribution": "© OpenStreetMap contributors",
    "closed": true,
    "geometryStatus": "draft",
    "timingStatus": "missing",
    "timingMode": "shared",
    "lengthM": 4208.2,
    "reviewedAt": null,
    "notes": [
      "Closed named OSM raceway retained as a course candidate. Named-layout association requires review.",
      "Source way order and shared node IDs are retained. No nearby endpoints are joined and no Racelogic boundaries are read."
    ]
  },
  "features": [
    {
      "type": "Feature",
      "id": "trace",
      "properties": {
        "role": "trace",
        "sourceIds": [
          "osm-snapshot"
        ]
      },
      "geometry": {
        "type": "LineString",
        "coordinates": [
          [
            13.607791,
            50.5194437
          ],
          [
            13.6019798,
            50.5200683
          ],
          [
            13.601258,
            50.5201559
          ],
          [
            13.6008968,
            50.5201923
          ],
          [
            13.6007489,
            50.5202452
          ],
          [
            13.6007092,
            50.5203381
          ],
          [
            13.6007317,
            50.5204825
          ],
          [
            13.6007904,
            50.5207103
          ],
          [
            13.6007679,
            50.5207877
          ],
          [
            13.6006942,
            50.5208328
          ],
          [
            13.600588,
            50.5208451
          ],
          [
            13.6003866,
            50.5208234
          ],
          [
            13.5998184,
            50.5206897
          ],
          [
            13.5990891,
            50.5205331
          ],
          [
            13.5986154,
            50.5204518
          ],
          [
            13.5981359,
            50.5204147
          ],
          [
            13.5976462,
            50.5203642
          ],
          [
            13.5972498,
            50.5202834
          ],
          [
            13.5969146,
            50.5201958
          ],
          [
            13.5965878,
            50.5200895
          ],
          [
            13.5960683,
            50.5198677
          ],
          [
            13.5955663,
            50.5195738
          ],
          [
            13.5953326,
            50.5193965
          ],
          [
            13.5951314,
            50.519213
          ],
          [
            13.5947935,
            50.5188208
          ],
          [
            13.5944939,
            50.5184956
          ],
          [
            13.5942993,
            50.518296
          ],
          [
            13.5940672,
            50.5181053
          ],
          [
            13.5936282,
            50.5178529
          ],
          [
            13.5934258,
            50.517738
          ],
          [
            13.5933124,
            50.5175799
          ],
          [
            13.5933138,
            50.5174542
          ],
          [
            13.5933685,
            50.5173286
          ],
          [
            13.5934708,
            50.5172016
          ],
          [
            13.5935322,
            50.5171139
          ],
          [
            13.5935515,
            50.5170243
          ],
          [
            13.5935213,
            50.516903
          ],
          [
            13.593449,
            50.5168197
          ],
          [
            13.5933534,
            50.5167408
          ],
          [
            13.5929595,
            50.5164573
          ],
          [
            13.5928361,
            50.5163727
          ],
          [
            13.592761,
            50.5163406
          ],
          [
            13.5926777,
            50.5163225
          ],
          [
            13.5925112,
            50.5163016
          ],
          [
            13.5923205,
            50.51629
          ],
          [
            13.5921088,
            50.5162771
          ],
          [
            13.5918902,
            50.5162486
          ],
          [
            13.5917191,
            50.5161867
          ],
          [
            13.5915326,
            50.5160985
          ],
          [
            13.5913418,
            50.5159798
          ],
          [
            13.5910093,
            50.5158278
          ],
          [
            13.5908678,
            50.5158138
          ],
          [
            13.5907013,
            50.5158242
          ],
          [
            13.5906032,
            50.5158634
          ],
          [
            13.5905075,
            50.5159171
          ],
          [
            13.5904406,
            50.5159935
          ],
          [
            13.5904103,
            50.5160729
          ],
          [
            13.5904365,
            50.5162191
          ],
          [
            13.5905388,
            50.5163503
          ],
          [
            13.5910651,
            50.5170986
          ],
          [
            13.5912063,
            50.517245
          ],
          [
            13.5913578,
            50.5173717
          ],
          [
            13.5915263,
            50.517486
          ],
          [
            13.5925889,
            50.5180973
          ],
          [
            13.5928498,
            50.51825
          ],
          [
            13.5928701,
            50.5182697
          ],
          [
            13.5929676,
            50.5183643
          ],
          [
            13.5930736,
            50.5185095
          ],
          [
            13.5932685,
            50.5188521
          ],
          [
            13.5935448,
            50.5193625
          ],
          [
            13.5938538,
            50.5199277
          ],
          [
            13.5940523,
            50.5202635
          ],
          [
            13.5941164,
            50.5203355
          ],
          [
            13.5942054,
            50.5203963
          ],
          [
            13.5943908,
            50.520457
          ],
          [
            13.5946526,
            50.5205059
          ],
          [
            13.5956113,
            50.520646
          ],
          [
            13.596678,
            50.5208104
          ],
          [
            13.597421,
            50.5209239
          ],
          [
            13.5976558,
            50.5209739
          ],
          [
            13.5979534,
            50.5210506
          ],
          [
            13.5985626,
            50.5212625
          ],
          [
            13.5993203,
            50.5215164
          ],
          [
            13.5996622,
            50.5216317
          ],
          [
            13.5999577,
            50.5217313
          ],
          [
            13.6000923,
            50.5217675
          ],
          [
            13.6002451,
            50.5217839
          ],
          [
            13.600465,
            50.5217825
          ],
          [
            13.6006533,
            50.521751
          ],
          [
            13.6008383,
            50.521692
          ],
          [
            13.6009931,
            50.5215965
          ],
          [
            13.6011161,
            50.5214877
          ],
          [
            13.6014074,
            50.5211452
          ],
          [
            13.6015323,
            50.5210445
          ],
          [
            13.6016783,
            50.5209604
          ],
          [
            13.6018478,
            50.5209
          ],
          [
            13.6020537,
            50.5208562
          ],
          [
            13.6022284,
            50.5208267
          ],
          [
            13.6023987,
            50.5208244
          ],
          [
            13.6025642,
            50.5208423
          ],
          [
            13.6027758,
            50.5208762
          ],
          [
            13.6029634,
            50.520943
          ],
          [
            13.6036324,
            50.5211955
          ],
          [
            13.6038132,
            50.5212381
          ],
          [
            13.6040384,
            50.5212468
          ],
          [
            13.6042492,
            50.5212016
          ],
          [
            13.6047606,
            50.5209912
          ],
          [
            13.605372,
            50.5207312
          ],
          [
            13.6057391,
            50.5205768
          ],
          [
            13.6061325,
            50.5204313
          ],
          [
            13.6063438,
            50.5203859
          ],
          [
            13.6065895,
            50.5203477
          ],
          [
            13.6068299,
            50.5203322
          ],
          [
            13.6076491,
            50.5203477
          ],
          [
            13.6082522,
            50.5203582
          ],
          [
            13.6090495,
            50.5203869
          ],
          [
            13.6094668,
            50.5204457
          ],
          [
            13.60987,
            50.5205252
          ],
          [
            13.6106975,
            50.5206825
          ],
          [
            13.6116206,
            50.5208496
          ],
          [
            13.6122282,
            50.5209604
          ],
          [
            13.6124384,
            50.5209834
          ],
          [
            13.6126308,
            50.520976
          ],
          [
            13.6128315,
            50.5209352
          ],
          [
            13.6129297,
            50.5208988
          ],
          [
            13.6130087,
            50.5208695
          ],
          [
            13.6131523,
            50.5207755
          ],
          [
            13.6132492,
            50.5206705
          ],
          [
            13.6133015,
            50.5205522
          ],
          [
            13.6133194,
            50.5203617
          ],
          [
            13.6133221,
            50.5200165
          ],
          [
            13.6133261,
            50.5196434
          ],
          [
            13.6132765,
            50.5194911
          ],
          [
            13.6131906,
            50.5193452
          ],
          [
            13.6130676,
            50.5192342
          ],
          [
            13.6129253,
            50.5191338
          ],
          [
            13.6127428,
            50.5190502
          ],
          [
            13.6125493,
            50.5189939
          ],
          [
            13.6122568,
            50.5189521
          ],
          [
            13.6119703,
            50.5189683
          ],
          [
            13.6110569,
            50.519072
          ],
          [
            13.607791,
            50.5194437
          ]
        ]
      }
    }
  ]
}
