{
  "type": "FeatureCollection",
  "bbox": [
    2.5194119,
    48.9777999,
    2.5234182,
    48.982557
  ],
  "metadata": {
    "schemaVersion": 1,
    "trackId": "fr-circuit-carole-32693132",
    "layoutId": "carole",
    "license": "ODbL-1.0",
    "attribution": "© OpenStreetMap contributors",
    "closed": true,
    "geometryStatus": "draft",
    "timingStatus": "missing",
    "timingMode": "shared",
    "lengthM": 2073.7,
    "reviewedAt": null,
    "notes": [
      "Draft route hypothesis: the source cycle is the unique closest nominal-distance match within conservative timing and distance checks. Approximate OSM trace length 2073.7 m. Difference from the supplied layout distance 3.7 m. Course configuration still requires visual review."
    ]
  },
  "features": [
    {
      "type": "Feature",
      "id": "trace",
      "properties": {
        "role": "trace",
        "sourceIds": [
          "osm-network-32693132"
        ]
      },
      "geometry": {
        "type": "LineString",
        "coordinates": [
          [
            2.5233437,
            48.9780569
          ],
          [
            2.5232905,
            48.9780315
          ],
          [
            2.5232489,
            48.9780229
          ],
          [
            2.5231755,
            48.9780171
          ],
          [
            2.5230921,
            48.9780225
          ],
          [
            2.5230326,
            48.9780353
          ],
          [
            2.5229825,
            48.9780511
          ],
          [
            2.5229356,
            48.9780798
          ],
          [
            2.5229167,
            48.9780997
          ],
          [
            2.522898,
            48.9781248
          ],
          [
            2.522891,
            48.978153
          ],
          [
            2.5228723,
            48.9782921
          ],
          [
            2.522815,
            48.9787468
          ],
          [
            2.522764,
            48.9790525
          ],
          [
            2.5226786,
            48.9794343
          ],
          [
            2.5225983,
            48.9797357
          ],
          [
            2.5224858,
            48.980106
          ],
          [
            2.5224004,
            48.9803696
          ],
          [
            2.52232,
            48.9805991
          ],
          [
            2.52214,
            48.9810064
          ],
          [
            2.5220908,
            48.9810651
          ],
          [
            2.5220594,
            48.9810907
          ],
          [
            2.522008,
            48.9811206
          ],
          [
            2.521944,
            48.9811454
          ],
          [
            2.5218577,
            48.98116
          ],
          [
            2.5217943,
            48.9811612
          ],
          [
            2.5217135,
            48.9811587
          ],
          [
            2.5216713,
            48.9811504
          ],
          [
            2.5216375,
            48.9811376
          ],
          [
            2.5215791,
            48.9811026
          ],
          [
            2.5215475,
            48.9810784
          ],
          [
            2.5215208,
            48.9810497
          ],
          [
            2.5214727,
            48.980987
          ],
          [
            2.5211354,
            48.9804517
          ],
          [
            2.5210958,
            48.9803845
          ],
          [
            2.5210798,
            48.9803303
          ],
          [
            2.5210795,
            48.9802727
          ],
          [
            2.521099,
            48.980228
          ],
          [
            2.521166,
            48.9801642
          ],
          [
            2.5213314,
            48.9800496
          ],
          [
            2.5213676,
            48.9800147
          ],
          [
            2.5213861,
            48.9799824
          ],
          [
            2.5213984,
            48.9799336
          ],
          [
            2.5214123,
            48.9798672
          ],
          [
            2.5215029,
            48.9793487
          ],
          [
            2.52151,
            48.9792638
          ],
          [
            2.521509,
            48.9792074
          ],
          [
            2.5214935,
            48.9791572
          ],
          [
            2.5214699,
            48.9791177
          ],
          [
            2.5214356,
            48.979071
          ],
          [
            2.5213943,
            48.9790326
          ],
          [
            2.5213539,
            48.9790088
          ],
          [
            2.5212968,
            48.9789791
          ],
          [
            2.521245,
            48.9789577
          ],
          [
            2.5211831,
            48.97894
          ],
          [
            2.5211149,
            48.9789257
          ],
          [
            2.5210399,
            48.9789171
          ],
          [
            2.5209588,
            48.9789164
          ],
          [
            2.5208955,
            48.9789223
          ],
          [
            2.5208206,
            48.9789348
          ],
          [
            2.5207533,
            48.9789549
          ],
          [
            2.5207072,
            48.9789743
          ],
          [
            2.5206268,
            48.9790148
          ],
          [
            2.5205508,
            48.9790688
          ],
          [
            2.5205067,
            48.9790902
          ],
          [
            2.5204723,
            48.9791038
          ],
          [
            2.5204169,
            48.9791109
          ],
          [
            2.5203559,
            48.9791083
          ],
          [
            2.520298,
            48.9790975
          ],
          [
            2.5202627,
            48.9790833
          ],
          [
            2.5202362,
            48.9790691
          ],
          [
            2.5202098,
            48.9790469
          ],
          [
            2.52019,
            48.9790248
          ],
          [
            2.5201669,
            48.9789898
          ],
          [
            2.5201506,
            48.9789533
          ],
          [
            2.520103,
            48.9787938
          ],
          [
            2.5201007,
            48.9787651
          ],
          [
            2.5201072,
            48.9787389
          ],
          [
            2.5201155,
            48.9787155
          ],
          [
            2.5201328,
            48.9786905
          ],
          [
            2.5201614,
            48.9786604
          ],
          [
            2.5201938,
            48.9786354
          ],
          [
            2.5204242,
            48.9784756
          ],
          [
            2.5207881,
            48.9782206
          ],
          [
            2.5208552,
            48.9781532
          ],
          [
            2.5208785,
            48.9781058
          ],
          [
            2.5208859,
            48.9780583
          ],
          [
            2.5208777,
            48.9780071
          ],
          [
            2.5208559,
            48.9779603
          ],
          [
            2.5208234,
            48.9779174
          ],
          [
            2.5207728,
            48.977882
          ],
          [
            2.5207184,
            48.9778514
          ],
          [
            2.5206507,
            48.9778268
          ],
          [
            2.5205805,
            48.977813
          ],
          [
            2.5205037,
            48.977805
          ],
          [
            2.5204306,
            48.9777999
          ],
          [
            2.5203508,
            48.9778007
          ],
          [
            2.5202477,
            48.9778098
          ],
          [
            2.5201602,
            48.9778233
          ],
          [
            2.52007,
            48.9778468
          ],
          [
            2.5200032,
            48.9778701
          ],
          [
            2.5199137,
            48.9779056
          ],
          [
            2.5198521,
            48.9779386
          ],
          [
            2.5197766,
            48.9779822
          ],
          [
            2.5197012,
            48.9780347
          ],
          [
            2.5196419,
            48.978084
          ],
          [
            2.5195989,
            48.9781249
          ],
          [
            2.5195367,
            48.9781968
          ],
          [
            2.5194981,
            48.9782595
          ],
          [
            2.5194592,
            48.9783372
          ],
          [
            2.5194387,
            48.9783929
          ],
          [
            2.5194219,
            48.9784489
          ],
          [
            2.5194119,
            48.9785137
          ],
          [
            2.5194122,
            48.9785849
          ],
          [
            2.5194143,
            48.9786426
          ],
          [
            2.5194252,
            48.978709
          ],
          [
            2.5194468,
            48.9788065
          ],
          [
            2.5194639,
            48.97887
          ],
          [
            2.5194906,
            48.9789456
          ],
          [
            2.5195252,
            48.9790242
          ],
          [
            2.5196855,
            48.9793014
          ],
          [
            2.5199681,
            48.9797531
          ],
          [
            2.5202974,
            48.9802792
          ],
          [
            2.5205425,
            48.9806726
          ],
          [
            2.5207844,
            48.9810704
          ],
          [
            2.5208695,
            48.9812115
          ],
          [
            2.5209181,
            48.9812922
          ],
          [
            2.5210312,
            48.9815177
          ],
          [
            2.5213344,
            48.9822127
          ],
          [
            2.5214028,
            48.9823684
          ],
          [
            2.5214471,
            48.9824576
          ],
          [
            2.521473,
            48.9824972
          ],
          [
            2.5214947,
            48.9825162
          ],
          [
            2.5215283,
            48.9825351
          ],
          [
            2.5215788,
            48.9825493
          ],
          [
            2.5216425,
            48.982557
          ],
          [
            2.5217108,
            48.9825497
          ],
          [
            2.5217721,
            48.98253
          ],
          [
            2.5218183,
            48.9825076
          ],
          [
            2.5218551,
            48.9824713
          ],
          [
            2.5219098,
            48.9823889
          ],
          [
            2.5220633,
            48.9821383
          ],
          [
            2.5222473,
            48.9818211
          ],
          [
            2.522356,
            48.9816157
          ],
          [
            2.5224535,
            48.9814203
          ],
          [
            2.5226882,
            48.9809212
          ],
          [
            2.5228506,
            48.9805168
          ],
          [
            2.5230098,
            48.9800412
          ],
          [
            2.5231304,
            48.9796227
          ],
          [
            2.5232309,
            48.9791936
          ],
          [
            2.5234029,
            48.9782911
          ],
          [
            2.5234182,
            48.9782177
          ],
          [
            2.5234176,
            48.9781788
          ],
          [
            2.5234111,
            48.9781493
          ],
          [
            2.5233839,
            48.9780993
          ],
          [
            2.5233437,
            48.9780569
          ]
        ]
      }
    }
  ]
}
